{"type":"FeatureCollection","features":[{"type":"Feature","geometry":{"type":"Polygon","coordinates":[[[3.8753,49.8388],[3.8857,49.8363],[3.8829,49.833],[3.88,49.8336],[3.8733,49.8336],[3.8753,49.8388]]]},"properties":{"id_ffco":"2017-D02-99","nom":"LycéeAgricoleVervins","_dept":"02","numero":"2017-D02-99","commune":"VERVINS","echelle":"1/3000","surface":"0.36 km²","format":"A4","annee":"2017","cartographes":"Thierry CHARLÈS","proprietaire":"0207 - VERVINS ORIENTATION","niveau":"Initiation, Scolaire","specialite":"CO à pied","contacts":"Moulière Camille, 9 rue des Foulons, 02140, Vervins, 0323978699, 0674387121, camille.mouliere@yahoo.fr","latitude":"49.835618828","longitude":"3.87906356927","date_saisie":"02/06/2017","valide":"Non","ppo":"Non","type_carte":"Nouvelle carte","fond":"Cadastre","obsolete":false}},{"type":"Feature","geometry":{"type":"Polygon","coordinates":[[[3.6209,49.9083],[3.6161,49.9051],[3.6183,49.903],[3.6172,49.9012],[3.6219,49.8976],[3.6252,49.8973],[3.6298,49.8972],[3.6309,49.8993],[3.6306,49.9005],[3.6434,49.9036],[3.638,49.9109],[3.6283,49.9066],[3.6209,49.9083]]]},"properties":{"id_ffco":"2017-D02-98","nom":"Familistère de Guise","_dept":"02","numero":"2017-D02-98","commune":"Guise","echelle":"1/5000","surface":"1.63 km²","format":"A3","annee":"2017","cartographes":"Thierry CHARLÈS","proprietaire":"02 - Aisne","niveau":"National, International","specialite":"Sprint (ISSOM)","contacts":"Moulière Camille, 9 rue des Foulons, 02140, Vervins, 0323978699, 0674387121, camille.mouliere@yahoo.fr","latitude":"49.9037602698","longitude":"3.62895841198","date_saisie":"20/06/2017","valide":"Non","ppo":"Non","type_carte":"Nouvelle carte","fond":"Cadastre","obsolete":false}},{"type":"Feature","geometry":{"type":"Polygon","coordinates":[[[3.6175,49.897],[3.6175,49.9073],[3.6313,49.9073],[3.6313,49.897],[3.6175,49.897]]]},"properties":{"id_ffco":"2016-D02-97","nom":"Duc de Guise","_dept":"02","numero":"2016-D02-97","commune":"Guise","echelle":"1/5000","surface":"1.14 km²","format":"A4","annee":"2016","cartographes":"Thierry CHARLÈS","proprietaire":"02 - Aisne","niveau":"National, International","specialite":"CO à pied","contacts":"Moulière Camille, 9 rue des Foulons, 02140, Vervins, 0323978699, 0674387121, camille.mouliere@yahoo.fr","latitude":"49.9021255686","longitude":"3.6243724823","date_saisie":"30/05/2017","valide":"Non","ppo":"Non","type_carte":"Nouvelle carte","fond":"Cadastre","obsolete":false}},{"type":"Feature","geometry":{"type":"Polygon","coordinates":[[[4.1479,49.9135],[4.1479,49.9372],[4.1763,49.9372],[4.1763,49.9135],[4.1479,49.9135]]]},"properties":{"id_ffco":"2016-D02-96","nom":"La Passe au Bois Sec","_dept":"02","numero":"2016-D02-96","commune":"Saint Michel en Thierache","echelle":"1/10000","surface":"5.38 km²","format":"A4","annee":"2016","cartographes":"Marian Cotirta","proprietaire":"02 - Aisne","niveau":"National, International","specialite":"CO à pied","contacts":"Moulière Camille, 9 rue des Foulons, 02140, Vervins, 0323978699, 0674387121, camille.mouliere@yahoo.fr","latitude":"49.9253653515","longitude":"4.16210174561","date_saisie":"10/07/2017","valide":"Non","ppo":"Non","type_carte":"Nouvelle carte","obsolete":false}},{"type":"Feature","geometry":{"type":"Polygon","coordinates":[[[4.1396,49.9196],[4.1758,49.9131],[4.2182,49.9159],[4.2275,49.9445],[4.1973,49.9479],[4.1866,49.9551],[4.175,49.958],[4.1396,49.9196]]]},"properties":{"id_ffco":"2016-D02-95","nom":"ARTOISE","_dept":"02","numero":"2016-D02-95","commune":"Saint Michel en Thierache","echelle":"1/10000","surface":"19.88 km²","format":"A3","annee":"2016","cartographes":"Marian Cotirta","proprietaire":"02 - Aisne","niveau":"National, International","specialite":"CO à pied","contacts":"Moulière Camille, 9 rue des Foulons, 02140, Vervins, 0323978699, 0674387121, camille.mouliere@yahoo.fr","latitude":"49.932100507","longitude":"4.18628737756","date_saisie":"10/07/2017","valide":"Non","ppo":"Non","type_carte":"Nouvelle carte","fond":"Cadastre","obsolete":false}},{"type":"Feature","geometry":{"type":"Polygon","coordinates":[[[4.1535,49.9188],[4.1616,49.9181],[4.17,49.9145],[4.1772,49.9129],[4.183,49.9153],[4.1841,49.9165],[4.1856,49.9169],[4.1925,49.934],[4.1769,49.9367],[4.1674,49.9265],[4.1642,49.9247],[4.1619,49.9226],[4.1533,49.9195],[4.1535,49.9188]]]},"properties":{"id_ffco":"2016-D02-94","nom":"St Michel-Sud","_dept":"02","numero":"2016-D02-94","commune":"Saint Michel (02)","echelle":"1/10000","surface":"3.84 km²","format":"+","annee":"2016","cartographes":"Cotirta Marian","proprietaire":"02 - Aisne","niveau":"National, International","specialite":"CO à pied","contacts":"Moulière Camille, 9 rue des Foulons, 02140, Vervins, 0323978699, 0674387121, camille.mouliere@yahoo.fr","latitude":"49.9243302381","longitude":"4.17657390454","date_saisie":"10/02/2016","valide":"Non","ppo":"Non","type_carte":"Reprise","base":"1984-D02-03 ST MICHEL GRAND RIAUX","fond":"Ortho","obsolete":false}},{"type":"Feature","geometry":{"type":"Polygon","coordinates":[[[4.1495,49.9472],[4.1371,49.9355],[4.1378,49.9277],[4.1478,49.9251],[4.1603,49.9218],[4.168,49.9259],[4.178,49.9419],[4.1625,49.9457],[4.1495,49.9472]]]},"properties":{"id_ffco":"2017-D02-93","nom":"MICORDA","_dept":"02","numero":"2017-D02-93","commune":"Saint Michel en Thierache","echelle":"1/10000","surface":"5.54 km²","format":"A3","annee":"2017","cartographes":"Stéphane SENCE, Claire LABROCHE, Quentin MENSUEL","proprietaire":"02 - Aisne","niveau":"Régional","specialite":"CO à VTT","contacts":"Moulière Camille, 9 rue des Foulons, 02140, Vervins, 0323978699, 0674387121, camille.mouliere@yahoo.fr","latitude":"49.9349788388","longitude":"4.15647924164","date_saisie":"06/09/2017","valide":"Non","ppo":"Non","type_carte":"Nouvelle carte","fond":"Cadastre","obsolete":false}},{"type":"Feature","geometry":{"type":"Polygon","coordinates":[[[4.1528,49.9191],[4.1619,49.9228],[4.1636,49.9244],[4.167,49.9263],[4.177,49.9369],[4.1927,49.934],[4.1975,49.9448],[4.1899,49.9534],[4.1812,49.9493],[4.1753,49.9483],[4.1736,49.9438],[4.166,49.9462],[4.1614,49.9476],[4.1495,49.9489],[4.1273,49.9416],[4.1418,49.9402],[4.1363,49.9359],[4.1375,49.931],[4.1423,49.9286],[4.1466,49.9296],[4.1476,49.9238],[4.1427,49.9208],[4.1528,49.9191]]]},"properties":{"id_ffco":"2015-D02-92","nom":"St Michel-Ouest","_dept":"02","numero":"2015-D02-92","commune":"Saint Michel (02)","echelle":"1/10000","surface":"9.04 km²","format":"A3","annee":"2015","cartographes":"Cotirta Marian","proprietaire":"02 - Aisne","niveau":"National, International","specialite":"CO à pied","contacts":"Moulière Camille, 9 rue des Foulons, 02140, Vervins, 0323978699, 0674387121, camille.mouliere@yahoo.fr","latitude":"49.9377266186","longitude":"4.16334214867","date_saisie":"10/02/2016","valide":"Non","ppo":"Non","type_carte":"Nouvelle carte","fond":"Ortho","obsolete":false}},{"type":"Feature","geometry":{"type":"Polygon","coordinates":[[[4.2133,49.9195],[4.2173,49.9162],[4.2206,49.9273],[4.22,49.9335],[4.2214,49.9355],[4.2218,49.9386],[4.223,49.9406],[4.2165,49.9431],[4.1972,49.9448],[4.1854,49.9167],[4.2133,49.9195]]]},"properties":{"id_ffco":"2014-D02-90","nom":"St Michel Est","_dept":"02","numero":"2014-D02-90","commune":"Saint Michel","echelle":"1/10000","surface":"5.94 km²","format":"A3","annee":"2014","cartographes":"Cotirta Marian, Marchegay Bruno","proprietaire":"02 - Aisne","niveau":"National, International","specialite":"CO à pied","latitude":"49.9303183403","longitude":"4.20533023226","date_saisie":"10/02/2016","valide":"Non","ppo":"Non","type_carte":"Nouvelle carte","fond":"Ortho","obsolete":false}},{"type":"Feature","geometry":null,"properties":{"id_ffco":"2005-D02-61","nom":"LA FONTAINE AMOUREUSE","_dept":"02","numero":"2005-D02-61","commune":"Vervins","echelle":"1/2500","surface":"0.22 km²","annee":"2005","cartographes":"C Moulière","proprietaire":"0207 - VERVINS ORIENTATION","niveau":"Départemental","specialite":"CO à pied","latitude":"49.8337037","longitude":"3.9074245","date_saisie":"21/12/2005","date_depot":"15/02/2006","valide":"Non","ppo":"Non","obsolete":false}},{"type":"Feature","geometry":null,"properties":{"id_ffco":"2002-D02-56","nom":"PREMONTRE","_dept":"02","numero":"2002-D02-56","commune":"Prémontré","echelle":"1/10000","surface":"8.0 km²","annee":"2002","proprietaire":"PI - Picardie","specialite":"CO à pied","latitude":"49.5403369","longitude":"3.4138776","date_saisie":"25/07/2002","date_depot":"26/07/2002","valide":"Non","ppo":"Non","obsolete":false}},{"type":"Feature","geometry":null,"properties":{"id_ffco":"1999-D02-51","nom":"WASSIGNY FORET D'ANDIGNY 2","_dept":"02","numero":"1999-D02-51","commune":"GUISE","echelle":"1/15000","surface":"7.8 km²","annee":"1999","proprietaire":"PI - Picardie","specialite":"CO à pied","latitude":"49.8997284","longitude":"3.6280166","date_saisie":"20/11/2001","date_depot":"06/12/2001","valide":"Non","ppo":"Non","obsolete":false}},{"type":"Feature","geometry":null,"properties":{"id_ffco":"1999-D02-51","nom":"Wassigny  -Forêt d'Andigny 2","_dept":"02","numero":"1999-D02-51","commune":"Wassigny","echelle":"1/15000","surface":"7.8 km²","format":"+","annee":"1999","cartographes":"L Thuillier","proprietaire":"PI - Picardie","niveau":"Interrégional","specialite":"CO à pied","latitude":"50.0120813","longitude":"3.5989186","valide":"Non","ppo":"Non","obsolete":false}},{"type":"Feature","geometry":null,"properties":{"id_ffco":"1999-D02-50","nom":"BOIS-LES-PARGNY","_dept":"02","numero":"1999-D02-50","commune":"BOIS LES PARGNY","echelle":"1/15000","surface":"5.5 km²","annee":"1999","proprietaire":"PI - Picardie","niveau":"Interrégional","specialite":"CO à pied","latitude":"49.7314602","longitude":"3.6475709","date_depot":"02/10/2001","valide":"Non","ppo":"Non","obsolete":false}},{"type":"Feature","geometry":null,"properties":{"id_ffco":"1999-D02-48","nom":"SISONNE (ZONE B)","_dept":"02","numero":"1999-D02-48","commune":"SISONNE","echelle":"1/15000","surface":"5.6 km²","annee":"1999","proprietaire":"PI - Picardie","niveau":"Interrégional","specialite":"CO à pied","latitude":"49.5720765","longitude":"3.8912562","valide":"Non","ppo":"Non","obsolete":false}},{"type":"Feature","geometry":null,"properties":{"id_ffco":"1999-D02-47","nom":"ST NICOLAS AUX BOIS","_dept":"02","numero":"1999-D02-47","commune":"ST NICOLAS AUX BOIX","echelle":"1/20000","surface":"36.0 km²","annee":"1999","proprietaire":"PI - Picardie","niveau":"National, International","specialite":"CO à pied","latitude":"49.5943416","longitude":"3.4316829","valide":"Non","ppo":"Non","obsolete":false}},{"type":"Feature","geometry":null,"properties":{"id_ffco":"1998-D02-45","nom":"LE VAL SAINT PIERRE (la queue de grés)","_dept":"02","numero":"1998-D02-45","commune":"VERVINS","echelle":"1/15000","surface":"2.0 km²","annee":"1998","proprietaire":"PI - Picardie","niveau":"Interrégional","specialite":"CO à pied","latitude":"49.8337037","longitude":"3.9074245","valide":"Non","ppo":"Non","obsolete":false}},{"type":"Feature","geometry":null,"properties":{"id_ffco":"1995-D02-43","nom":"PREMONTRE LES MONTMARTRE","_dept":"02","numero":"1995-D02-43","commune":"PREMONTRE","echelle":"1/15000","surface":"8.2 km²","annee":"1995","proprietaire":"PI - Picardie","niveau":"National, International","specialite":"CO à pied","latitude":"49.5403369","longitude":"3.4138776","valide":"Non","ppo":"Non","obsolete":false}},{"type":"Feature","geometry":null,"properties":{"id_ffco":"1998-D02-42","nom":"PARC  D'ISLE","_dept":"02","numero":"1998-D02-42","commune":"St Quentin","echelle":"1/5000","surface":"0.112 km²","annee":"1998","cartographes":"F Besbot","proprietaire":"PI - Picardie","niveau":"Initiation, Scolaire","specialite":"CO à pied","latitude":"49.8481784","longitude":"3.2882175","valide":"Non","ppo":"Non","obsolete":false}},{"type":"Feature","geometry":null,"properties":{"id_ffco":"1998-D02-41","nom":"BOIS D'HOLNON","_dept":"02","numero":"1998-D02-41","commune":"HOLNON","echelle":"1/10000","surface":"1.0 km²","annee":"1998","proprietaire":"PI - Picardie","specialite":"CO à pied","latitude":"49.8587422","longitude":"3.2127072","valide":"Non","ppo":"Non","obsolete":false}},{"type":"Feature","geometry":null,"properties":{"id_ffco":"1996-D02-40","nom":"GRAND RIAUX 2","_dept":"02","numero":"1996-D02-40","commune":"ST MICHEL","echelle":"1/10000","surface":"4.8 km²","annee":"1996","proprietaire":"PI - Picardie","niveau":"Interrégional","specialite":"CO à pied","latitude":"49.9185901","longitude":"4.134249","valide":"Non","ppo":"Non","obsolete":false}},{"type":"Feature","geometry":null,"properties":{"id_ffco":"1992-D02-36","nom":"BLANGY 2","_dept":"02","numero":"1992-D02-36","commune":"HIRSON","echelle":"1/10000","surface":"4.0 km²","annee":"1992","proprietaire":"PI - Picardie","specialite":"CO à pied","latitude":"49.9244259","longitude":"4.0814576","valide":"Non","ppo":"Non","obsolete":false}},{"type":"Feature","geometry":null,"properties":{"id_ffco":"1984-D02-35","nom":"VAL ST PIERRE - VERGENETTE","_dept":"02","numero":"1984-D02-35","commune":"BRAYE EN THIERACHE","echelle":"1/15000","surface":"3.5 km²","annee":"1984","niveau":"Interrégional","specialite":"CO à pied","latitude":"49.7794987","longitude":"3.956759","valide":"Non","ppo":"Non","obsolete":false}},{"type":"Feature","geometry":null,"properties":{"id_ffco":"1984-D02-35","nom":"PISTE MACQUIGNY","_dept":"02","numero":"1984-D02-35","commune":"SISSONNE","echelle":"1/15000","surface":"6.25 km²","annee":"1984","proprietaire":"PI - Picardie","niveau":"Interrégional","specialite":"CO à pied","latitude":"49.5720765","longitude":"3.8912562","valide":"Non","ppo":"Non","obsolete":false}},{"type":"Feature","geometry":null,"properties":{"id_ffco":"1992-D02-34","nom":"LES PROMENADES","_dept":"02","numero":"1992-D02-34","commune":"CHAUNY","echelle":"1/1500","surface":"1.0 km²","annee":"1992","proprietaire":"PI - Picardie","specialite":"CO à pied","latitude":"49.6129342","longitude":"3.2198927","valide":"Non","ppo":"Non","obsolete":false}},{"type":"Feature","geometry":null,"properties":{"id_ffco":"1992-D02-33","nom":"HOTTEE DU DIABLE","_dept":"02","numero":"1992-D02-33","commune":"LA FERE","echelle":"1/7500","surface":"2.0 km²","annee":"1992","proprietaire":"PI - Picardie","specialite":"CO à pied","latitude":"49.6624541","longitude":"3.3658245","valide":"Non","ppo":"Non","obsolete":false}},{"type":"Feature","geometry":null,"properties":{"id_ffco":"1992-D02-32","nom":"POLYGONE 2","_dept":"02","numero":"1992-D02-32","commune":"LA FERE","echelle":"1/10000","surface":"2.5 km²","annee":"1992","proprietaire":"PI - Picardie","specialite":"CO à pied","latitude":"49.6624541","longitude":"3.3658245","valide":"Non","ppo":"Non","obsolete":false}},{"type":"Feature","geometry":null,"properties":{"id_ffco":"1984-D02-30","nom":"FONTAINE A LA GOUTTE","_dept":"02","numero":"1984-D02-30","commune":"ST GOBAIN","echelle":"1/15000","surface":"10.0 km²","annee":"1984","proprietaire":"PI - Picardie","niveau":"Interrégional","specialite":"CO à pied","latitude":"49.5953861","longitude":"3.3799695","valide":"Non","ppo":"Non","obsolete":false}},{"type":"Feature","geometry":null,"properties":{"id_ffco":"1992-D02-29","nom":"BEAUREGARD","_dept":"02","numero":"1992-D02-29","commune":"SOISSONS","echelle":"1/4000","surface":"1.0 km²","annee":"1992","proprietaire":"PI - Picardie","specialite":"CO à pied","latitude":"49.38232","longitude":"3.3277162","valide":"Non","ppo":"Non","obsolete":false}},{"type":"Feature","geometry":null,"properties":{"id_ffco":"1992-D02-28","nom":"BREUIL - LAON","_dept":"02","numero":"1992-D02-28","commune":"LAON","echelle":"1/2000","surface":"1.0 km²","annee":"1992","proprietaire":"PI - Picardie","specialite":"CO à pied","latitude":"49.5647461","longitude":"3.6242454","valide":"Non","ppo":"Non","obsolete":false}},{"type":"Feature","geometry":null,"properties":{"id_ffco":"1992-D02-27","nom":"FRETTE","_dept":"02","numero":"1992-D02-27","commune":"TERGNIER","echelle":"1/5000","surface":"1.5 km²","annee":"1992","proprietaire":"PI - Picardie","specialite":"CO à pied","latitude":"49.6538927","longitude":"3.2920203","valide":"Non","ppo":"Non","obsolete":false}},{"type":"Feature","geometry":null,"properties":{"id_ffco":"1984-D02-27","nom":"CROIX DES TABLES (la)","_dept":"02","numero":"1984-D02-27","commune":"SEPIVAUX","echelle":"1/15000","surface":"17.2 km²","annee":"1984","proprietaire":"PI - Picardie","niveau":"Interrégional","specialite":"CO à pied","latitude":"49.5701207","longitude":"3.3775693","valide":"Non","ppo":"Non","obsolete":false}},{"type":"Feature","geometry":null,"properties":{"id_ffco":"1992-D02-26","nom":"POMMIERS","_dept":"02","numero":"1992-D02-26","commune":"POMMIERS","echelle":"1/10000","surface":"2.0 km²","annee":"1992","proprietaire":"PI - Picardie","specialite":"CO à pied","latitude":"49.3930081","longitude":"3.2722933","valide":"Non","ppo":"Non","obsolete":false}},{"type":"Feature","geometry":null,"properties":{"id_ffco":"1992-D02-25","nom":"BOIS TRONQUOY","_dept":"02","numero":"1992-D02-25","commune":"PINON","echelle":"1/10000","surface":"0.5 km²","annee":"1992","proprietaire":"PI - Picardie","specialite":"CO à pied","latitude":"49.4885395","longitude":"3.4481936","valide":"Non","ppo":"Non","obsolete":false}},{"type":"Feature","geometry":null,"properties":{"id_ffco":"1992-D02-24","nom":"PARC CARLIER","_dept":"02","numero":"1992-D02-24","commune":"VERVINS","echelle":"1/1000","surface":"0.5 km²","annee":"1992","proprietaire":"PI - Picardie","specialite":"CO à pied","latitude":"49.8337037","longitude":"3.9074245","valide":"Non","ppo":"Non","obsolete":false}},{"type":"Feature","geometry":null,"properties":{"id_ffco":"1992-D02-23","nom":"AILETTE","_dept":"02","numero":"1992-D02-23","commune":"LAON","echelle":"1/10000","surface":"1.0 km²","annee":"1992","proprietaire":"PI - Picardie","specialite":"CO à pied","latitude":"49.5647461","longitude":"3.6242454","valide":"Non","ppo":"Non","obsolete":false}},{"type":"Feature","geometry":null,"properties":{"id_ffco":"1992-D02-22","nom":"GROS GRES","_dept":"02","numero":"1992-D02-22","commune":"ST GOBAIN","echelle":"1/10000","surface":"1.5 km²","annee":"1992","proprietaire":"PI - Picardie","specialite":"CO à pied","latitude":"49.5953861","longitude":"3.3799695","valide":"Non","ppo":"Non","obsolete":false}},{"type":"Feature","geometry":null,"properties":{"id_ffco":"1992-D02-21","nom":"STADE LEVINDREY","_dept":"02","numero":"1992-D02-21","commune":"LAON","echelle":"1/4000","surface":"0.2 km²","annee":"1992","proprietaire":"PI - Picardie","specialite":"CO à pied","latitude":"49.5647461","longitude":"3.6242454","valide":"Non","ppo":"Non","obsolete":false}},{"type":"Feature","geometry":null,"properties":{"id_ffco":"1984-D02-20","nom":"MARFONTAINE","_dept":"02","numero":"1984-D02-20","commune":"VERVINS","echelle":"1/15000","surface":"6.5 km²","annee":"1984","proprietaire":"PI - Picardie","niveau":"Interrégional","specialite":"CO à pied","latitude":"49.8337037","longitude":"3.9074245","valide":"Non","ppo":"Non","obsolete":false}},{"type":"Feature","geometry":null,"properties":{"id_ffco":"1992-D02-18","nom":"BOIS HOLNON","_dept":"02","numero":"1992-D02-18","commune":"ST QUENTIN","echelle":"1/10000","surface":"1.3 km²","annee":"1992","proprietaire":"PI - Picardie","specialite":"CO à pied","latitude":"49.8481784","longitude":"3.2882175","valide":"Non","ppo":"Non","obsolete":false}},{"type":"Feature","geometry":null,"properties":{"id_ffco":"1992-D02-17","nom":"BARBOISE","_dept":"02","numero":"1992-D02-17","commune":"LAON","echelle":"1/10000","surface":"0.8 km²","annee":"1992","proprietaire":"PI - Picardie","specialite":"CO à pied","latitude":"49.5647461","longitude":"3.6242454","valide":"Non","ppo":"Non","obsolete":false}},{"type":"Feature","geometry":null,"properties":{"id_ffco":"1992-D02-16","nom":"MONCELLE","_dept":"02","numero":"1992-D02-16","commune":"LAON","echelle":"1/4000","surface":"0.2 km²","annee":"1992","proprietaire":"PI - Picardie","specialite":"CO à pied","latitude":"49.5647461","longitude":"3.6242454","valide":"Non","ppo":"Non","obsolete":false}},{"type":"Feature","geometry":null,"properties":{"id_ffco":"1992-D02-15","nom":"BOIS PLOMION","_dept":"02","numero":"1992-D02-15","commune":"VERVINS","echelle":"1/10000","surface":"1.5 km²","annee":"1992","proprietaire":"PI - Picardie","specialite":"CO à pied","latitude":"49.8337037","longitude":"3.9074245","valide":"Non","ppo":"Non","obsolete":false}},{"type":"Feature","geometry":null,"properties":{"id_ffco":"1992-D02-14","nom":"PARC MERLIEUX","_dept":"02","numero":"1992-D02-14","commune":"ANIZY CHATEAU","echelle":"1/2500","surface":"0.5 km²","annee":"1992","proprietaire":"PI - Picardie","specialite":"CO à pied","latitude":"49.5046179","longitude":"3.4523326","valide":"Non","ppo":"Non","obsolete":false}},{"type":"Feature","geometry":null,"properties":{"id_ffco":"1992-D02-12","nom":"VAL ST PIERRE","_dept":"02","numero":"1992-D02-12","commune":"VERVINS","echelle":"1/10000","surface":"2.2 km²","annee":"1992","proprietaire":"PI - Picardie","specialite":"CO à pied","latitude":"49.8337037","longitude":"3.9074245","valide":"Non","ppo":"Non","obsolete":false}},{"type":"Feature","geometry":null,"properties":{"id_ffco":"2023-D02-111","nom":"StMichel-Montorieux","_dept":"02","numero":"2023-D02-111","surface":"None km²","annee":"2023","date_saisie":"21/01/2024","valide":"Non","ppo":"Non","obsolete":false}},{"type":"Feature","geometry":{"type":"Polygon","coordinates":[[[4.1615,49.918],[4.1608,49.9169],[4.158,49.9137],[4.1563,49.9124],[4.1639,49.9079],[4.1685,49.9072],[4.1735,49.9031],[4.1771,49.9059],[4.1789,49.9118],[4.176,49.913],[4.1698,49.9143],[4.1615,49.918]]]},"properties":{"id_ffco":"2023-D02-110","nom":"StMichel-Montorieux","_dept":"02","numero":"2023-D02-110","commune":"Saint-Michel","echelle":"1/10000","surface":"1.29 km²","format":"A4","annee":"2023","cartographes":"Bruno Marchegay","proprietaire":"02 - Aisne","niveau":"Interrégional","specialite":"CO à pied","contacts":"Moulière Camille, 9 rue des Foulons, 02140, Vervins, 0323978699, 0674387121, camille.mouliere@yahoo.fr","latitude":"49.910857506","longitude":"4.16842496928","date_saisie":"21/01/2024","valide":"Non","ppo":"Non","type_carte":"Reprise","base":"1984-D02-03 ST MICHEL GRAND RIAUX","fond":"Ortho","obsolete":false}},{"type":"Feature","geometry":{"type":"Polygon","coordinates":[[[3.6097,49.5599],[3.6097,49.5618],[3.6134,49.5618],[3.6134,49.5599],[3.6097,49.5599]]]},"properties":{"id_ffco":"2022-D02-109","nom":"Le Nain-Julie Daubié","_dept":"02","numero":"2022-D02-109","commune":"LAON","echelle":"1/1200","surface":"0.06 km²","format":"A4","annee":"2022","cartographes":"Camille MOULIERE","proprietaire":"02 - Aisne","niveau":"Initiation, Scolaire","specialite":"CO à pied","latitude":"49.5608208808","longitude":"3.61155420542","date_saisie":"05/11/2022","valide":"Non","ppo":"Non","type_carte":"Nouvelle carte","fond":"Cadastre","obsolete":false}},{"type":"Feature","geometry":{"type":"Polygon","coordinates":[[[3.7775,50.0104],[3.7873,50.0066],[3.7867,50.0061],[3.7825,50.0054],[3.7771,50.0054],[3.7773,50.0103],[3.7775,50.0104]]]},"properties":{"id_ffco":"2023-D02-108","nom":"Base de Loisirs de l'Astrée","_dept":"02","numero":"2023-D02-108","commune":"Le Nouvion en Thiérache","echelle":"1/3000","surface":"0.24 km²","format":"A4","annee":"2023","cartographes":"Camille MOULIERE","proprietaire":"02 - Aisne","niveau":"Initiation, Scolaire","specialite":"CO à pied","contacts":"Moulière Camille, 9 rue des Foulons, 02140, Vervins, 0323978699, 0674387121, camille.mouliere@yahoo.fr","latitude":"50.0072580302","longitude":"3.78086972797","date_saisie":"14/08/2024","valide":"Non","ppo":"Non","type_carte":"Nouvelle carte","fond":"Cadastre","obsolete":false}},{"type":"Feature","geometry":{"type":"Polygon","coordinates":[[[3.384,49.579],[3.3931,49.5789],[3.3927,49.5777],[3.4143,49.5755],[3.4154,49.5738],[3.4412,49.5699],[3.4043,49.5541],[3.4038,49.5558],[3.3958,49.5607],[3.3916,49.5642],[3.3799,49.5675],[3.3771,49.5713],[3.3829,49.5722],[3.3866,49.5739],[3.388,49.5772],[3.384,49.579]]]},"properties":{"id_ffco":"2022-D02-107","nom":"Forêt de St Gobain","_dept":"02","numero":"2022-D02-107","commune":"Septvaux","echelle":"1/10000","surface":"6.03 km²","format":"A3","annee":"2022","cartographes":"Manuel ZENEVRE","proprietaire":"02 - Aisne","niveau":"National, International","specialite":"CO à pied","contacts":"CDCO 02, 25 rue de la Justice, 02140, Vervins, 0674387121, camille.mouliere@yahoo.fr","latitude":"49.5678579501","longitude":"3.40636919797","date_saisie":"16/06/2022","date_depot":"20/07/2022","valide":"Oui","ppo":"Non","type_carte":"Nouvelle carte","fond":"Ortho","obsolete":false}},{"type":"Feature","geometry":{"type":"Polygon","coordinates":[[[3.9072,49.8374],[3.916,49.8395],[3.9196,49.8342],[3.9186,49.8286],[3.9082,49.8283],[3.9015,49.8293],[3.9004,49.8332],[3.9072,49.8374]]]},"properties":{"id_ffco":"2020-D02-106","nom":"Vervins 2","_dept":"02","numero":"2020-D02-106","commune":"Vervins","echelle":"1/5300","surface":"1.25 km²","format":"+","annee":"2020","cartographes":"Franz Mareigner, Camille Moulière","proprietaire":"02 - Aisne","niveau":"Régional","specialite":"CO à pied","contacts":"Moulière Camille, 9 rue des Foulons, 02140, Vervins, 0323978699, 0674387121, camille.mouliere@yahoo.fr","latitude":"49.8330753575","longitude":"3.9107936169","date_saisie":"14/10/2020","date_depot":"05/11/2020","valide":"Oui","ppo":"Non","type_carte":"Nouvelle carte","fond":"Cadastre","obsolete":false}},{"type":"Feature","geometry":{"type":"Polygon","coordinates":[[[4.1497,49.9492],[4.1608,49.948],[4.1668,49.9462],[4.1737,49.9573],[4.1891,49.9533],[4.1915,49.9527],[4.1951,49.9556],[4.1965,49.9618],[4.1972,49.9636],[4.1975,49.9673],[4.184,49.9713],[4.1783,49.9722],[4.177,49.9746],[4.1771,49.9761],[4.1749,49.9765],[4.1677,49.9744],[4.1653,49.9723],[4.1497,49.9492]]]},"properties":{"id_ffco":"2019-D02-105","nom":"St Michel-Poste Frontière","_dept":"02","numero":"2019-D02-105","commune":"Macquenoise (Belgique)","echelle":"1/15000","surface":"6.15 km²","format":"+","annee":"2019","cartographes":"Franz Mareigner, Thibaut Derenne","proprietaire":"02 - Aisne","niveau":"National, International","specialite":"CO à pied","latitude":"49.9613218418","longitude":"4.17431791549","date_saisie":"22/09/2020","date_depot":"05/11/2020","valide":"Oui","ppo":"Non","type_carte":"Nouvelle carte","fond":"Ortho","obsolete":false}},{"type":"Feature","geometry":{"type":"Polygon","coordinates":[[[3.6142,49.5482],[3.6445,49.5631],[3.6345,49.5698],[3.6038,49.5705],[3.5993,49.5629],[3.5974,49.5576],[3.6057,49.5526],[3.6118,49.5502],[3.6177,49.5494],[3.6142,49.5482]]]},"properties":{"id_ffco":"2018-D02-100","nom":"Laon-La Montagne Couronnée","_dept":"02","numero":"2018-D02-100","commune":"Laon","echelle":"1/5000","surface":"5.25 km²","format":"+","annee":"2018","cartographes":"Franz Mareigner","proprietaire":"02 - Aisne","niveau":"Régional","specialite":"CO à pied","contacts":"Moulière Camille, 9 rue des Foulons, 02140, Vervins, 0323978699, 0674387121, camille.mouliere@yahoo.fr","latitude":"49.5614139352","longitude":"3.61840136599","date_saisie":"14/10/2020","date_depot":"05/11/2020","valide":"Oui","ppo":"Non","type_carte":"Nouvelle carte","fond":"Cadastre","obsolete":false}},{"type":"Feature","geometry":null,"properties":{"id_ffco":"1992-D02-10","nom":"BOIS FERONS","_dept":"02","numero":"1992-D02-10","commune":"CHAUNY","echelle":"1/10000","surface":"1.7 km²","annee":"1992","proprietaire":"PI - Picardie","specialite":"CO à pied","latitude":"49.6129342","longitude":"3.2198927","valide":"Non","ppo":"Non","obsolete":false}},{"type":"Feature","geometry":null,"properties":{"id_ffco":"1992-D02-09","nom":"GODFRAINS","_dept":"02","numero":"1992-D02-09","commune":"SISSONNE","echelle":"1/15000","surface":"2.1 km²","annee":"1992","proprietaire":"PI - Picardie","specialite":"CO à pied","latitude":"49.5720765","longitude":"3.8912562","valide":"Non","ppo":"Non","obsolete":false}},{"type":"Feature","geometry":null,"properties":{"id_ffco":"1984-D02-08","nom":"GROS CHENE","_dept":"02","numero":"1984-D02-08","commune":"ST GOBAIN","echelle":"1/15000","surface":"5.7 km²","annee":"1984","proprietaire":"PI - Picardie","niveau":"Interrégional","specialite":"CO à pied","latitude":"49.5953861","longitude":"3.3799695","valide":"Non","ppo":"Non","obsolete":false}},{"type":"Feature","geometry":null,"properties":{"id_ffco":"1992-D02-07","nom":"FORET DE RETZ","_dept":"02","numero":"1992-D02-07","commune":"VILLERS COTTERETS","echelle":"1/10000","surface":"3.0 km²","annee":"1992","proprietaire":"PI - Picardie","specialite":"CO à pied","latitude":"49.2543605","longitude":"3.0907012","valide":"Non","ppo":"Non","obsolete":false}},{"type":"Feature","geometry":null,"properties":{"id_ffco":"1992-D02-07","nom":"MONT KENNEDY","_dept":"02","numero":"1992-D02-07","commune":"CREPY LAONNOIS","echelle":"1/10000","surface":"1.4 km²","annee":"1992","proprietaire":"PI - Picardie","specialite":"CO à pied","latitude":"49.5987559","longitude":"3.521364","valide":"Non","ppo":"Non","obsolete":false}},{"type":"Feature","geometry":null,"properties":{"id_ffco":"2006-D02-061","nom":"Les roches de l'ermitage","_dept":"02","numero":"2006-D02-061","commune":"Saint Gobain","echelle":"1/10000","surface":"4.61 km²","annee":"2006","cartographes":"F Besbot, N Avedikian","proprietaire":"PI - Picardie","niveau":"Interrégional","specialite":"CO à pied","latitude":"49.5953861","longitude":"3.3799695","date_saisie":"29/05/2006","date_depot":"10/11/2006","valide":"Non","ppo":"Non","obsolete":false}},{"type":"Feature","geometry":null,"properties":{"id_ffco":"1992-D02-06","nom":"POLYGONE","_dept":"02","numero":"1992-D02-06","commune":"LA FERE","echelle":"1/10000","surface":"1.1 km²","annee":"1992","proprietaire":"PI - Picardie","specialite":"CO à pied","latitude":"49.6624541","longitude":"3.3658245","valide":"Non","ppo":"Non","obsolete":false}},{"type":"Feature","geometry":null,"properties":{"id_ffco":"1992-D02-05","nom":"FORET RETZ","_dept":"02","numero":"1992-D02-05","commune":"VILLERS COTTERETS","echelle":"1/10000","surface":"1.8 km²","annee":"1992","proprietaire":"PI - Picardie","specialite":"CO à pied","latitude":"49.2543605","longitude":"3.0907012","valide":"Non","ppo":"Non","obsolete":false}},{"type":"Feature","geometry":null,"properties":{"id_ffco":"1978-D02-038","nom":"CROIX DES SERGENTS (LA)","_dept":"02","numero":"1978-D02-038","commune":"CESSIERE","echelle":"1/20000","surface":"17.0 km²","annee":"1978","proprietaire":"PI - Picardie","specialite":"CO à pied","latitude":"49.8098361","longitude":"3.3468629","valide":"Non","ppo":"Non","obsolete":false}},{"type":"Feature","geometry":null,"properties":{"id_ffco":"1978-D02-037","nom":"SAINT GOBAIN","_dept":"02","numero":"1978-D02-037","commune":"ST GOBAIN","echelle":"1/20000","surface":"50.9 km²","annee":"1978","proprietaire":"PI - Picardie","specialite":"CO à pied","latitude":"49.5953861","longitude":"3.3799695","valide":"Non","ppo":"Non","obsolete":false}},{"type":"Feature","geometry":null,"properties":{"id_ffco":"1978-D02-031","nom":"ROND DE LA REINE","_dept":"02","numero":"1978-D02-031","commune":"VILLERS COTERETS","echelle":"1/15000","surface":"13.0 km²","annee":"1978","proprietaire":"PI - Picardie","specialite":"CO à pied","latitude":"49.2543605","longitude":"3.0907012","valide":"Non","ppo":"Non","obsolete":false}},{"type":"Feature","geometry":null,"properties":{"id_ffco":"1984-D02-03","nom":"SEPT VALLEES","_dept":"02","numero":"1984-D02-03","commune":"ST GOBAIN","echelle":"1/15000","surface":"10.5 km²","annee":"1984","proprietaire":"PI - Picardie","niveau":"Interrégional","specialite":"CO à pied","latitude":"49.5953861","longitude":"3.3799695","valide":"Non","ppo":"Non","obsolete":false}},{"type":"Feature","geometry":null,"properties":{"id_ffco":"1984-D02-03","nom":"ST MICHEL GRAND RIAUX","_dept":"02","numero":"1984-D02-03","commune":"HIRSON","echelle":"1/15000","surface":"4.0 km²","annee":"1984","proprietaire":"0203 - AVENTURE RAID ORIENTATION","niveau":"Interrégional","specialite":"CO à pied","latitude":"49.9244259","longitude":"4.0814576","valide":"Non","ppo":"Non","obsolete":false}},{"type":"Feature","geometry":null,"properties":{"id_ffco":"1984-D02-02","nom":"CHEVREMONT","_dept":"02","numero":"1984-D02-02","commune":"FOLEMBRAY","echelle":"1/15000","surface":"5.6 km²","annee":"1984","proprietaire":"0206","niveau":"Interrégional","specialite":"CO à pied","latitude":"49.5426069","longitude":"3.2917123","valide":"Non","ppo":"Non","obsolete":false}},{"type":"Feature","geometry":null,"properties":{"id_ffco":"1992-D02-02","nom":"FORET ANDIGNY","_dept":"02","numero":"1992-D02-02","commune":"WASSIGNY","echelle":"1/10000","surface":"3.0 km²","annee":"1992","proprietaire":"ONF","specialite":"CO à pied","latitude":"50.0120813","longitude":"3.5989186","valide":"Non","ppo":"Non","obsolete":false}},{"type":"Feature","geometry":null,"properties":{"id_ffco":"1978-D02-019","nom":"CHENE DU PERE AUGUSTIN","_dept":"02","numero":"1978-D02-019","commune":"FOLEMBRAY","echelle":"1/15000","surface":"8.0 km²","annee":"1978","proprietaire":"PI - Picardie","specialite":"CO à pied","latitude":"49.5426069","longitude":"3.2917123","valide":"Non","ppo":"Non","obsolete":false}},{"type":"Feature","geometry":null,"properties":{"id_ffco":"1978-D02-013","nom":"PISTE BLANCHE","_dept":"02","numero":"1978-D02-013","commune":"SISSONNE","echelle":"1/15000","surface":"13.6 km²","annee":"1978","proprietaire":"PI - Picardie","specialite":"CO à pied","latitude":"49.5720765","longitude":"3.8912562","valide":"Non","ppo":"Non","obsolete":false}},{"type":"Feature","geometry":null,"properties":{"id_ffco":"1992-D02-01","nom":"HIRSON BLANGY","_dept":"02","numero":"1992-D02-01","commune":"HIRSON","echelle":"1/10000","surface":"2.8 km²","annee":"1992","proprietaire":"0203 - AVENTURE RAID ORIENTATION","specialite":"CO à pied","latitude":"49.9244259","longitude":"4.0814576","valide":"Non","ppo":"Non","obsolete":false}},{"type":"Feature","geometry":null,"properties":{"id_ffco":"1978-D02-005","nom":"ROND DE RUMIGNY","_dept":"02","numero":"1978-D02-005","commune":"PREMONTRE","echelle":"1/15000","surface":"10.5 km²","annee":"1978","proprietaire":"PI - Picardie","specialite":"CO à pied","latitude":"49.5403369","longitude":"3.4138776","valide":"Non","ppo":"Non","obsolete":false}},{"type":"Feature","geometry":null,"properties":{"id_ffco":"1992-D02-00","nom":"MANGIN NORD","_dept":"02","numero":"1992-D02-00","commune":"COUVRON","echelle":"1/10000","surface":"1.4 km²","annee":"1992","proprietaire":"PI - Picardie","specialite":"CO à pied","latitude":"49.6443102","longitude":"3.517334","valide":"Non","ppo":"Non","obsolete":false}},{"type":"Feature","geometry":null,"properties":{"id_ffco":"????-D02-","nom":"Centre sportif","_dept":"02","numero":"????-D02-","commune":"Venizel","surface":"None km²","latitude":"49.367385","longitude":"3.3927825","valide":"Non","ppo":"Oui","obsolete":false}},{"type":"Feature","geometry":null,"properties":{"id_ffco":"????-D02-","nom":"Base nautique de Blangy","_dept":"02","numero":"????-D02-","commune":"Hirson","surface":"None km²","latitude":"49.9244259","longitude":"4.0814576","valide":"Non","ppo":"Oui","obsolete":false}},{"type":"Feature","geometry":null,"properties":{"id_ffco":"????-D02-","nom":"Parc Saint Crepin","_dept":"02","numero":"????-D02-","commune":"Soissons","surface":"None km²","latitude":"49.38232","longitude":"3.3277162","valide":"Non","ppo":"Oui","obsolete":false}},{"type":"Feature","geometry":null,"properties":{"id_ffco":"????-D02-","nom":"Complexe sportif","_dept":"02","numero":"????-D02-","commune":"Buire","surface":"None km²","latitude":"49.9033996","longitude":"4.0564388","valide":"Non","ppo":"Oui","obsolete":false}}]}