{"type":"FeatureCollection","features":[{"type":"Feature","geometry":{"type":"Polygon","coordinates":[[[3.0865,46.2445],[3.0922,46.2408],[3.0949,46.2396],[3.0928,46.2386],[3.0919,46.2377],[3.0917,46.2356],[3.0914,46.2343],[3.0906,46.2338],[3.0888,46.2337],[3.0881,46.2341],[3.0894,46.2355],[3.0903,46.2371],[3.0879,46.2382],[3.0865,46.2383],[3.085,46.2376],[3.0846,46.2372],[3.0824,46.2395],[3.0817,46.2408],[3.0865,46.2445]]]},"properties":{"id_ffco":"2018-D03-99","nom":"Bois de Monestier","_dept":"03","numero":"2018-D03-99","commune":"CHANTELLE","echelle":"1/5500","surface":"0.52 km²","format":"A4","annee":"2018","cartographes":"Philippe NOUAILLE","proprietaire":"0308 - CHANTELLE SPORTS NATURE","niveau":"Départemental","specialite":"CO à pied","contacts":"Comité départemental de Course d'Orientation de l'Allier, 03200, LE VERNET, http://www.cdco03.jimdo.com/","latitude":"46.239693115","longitude":"3.08800701657","date_saisie":"22/11/2019","date_depot":"18/02/2020","valide":"Oui","ppo":"Non","type_carte":"Nouvelle carte","fond":"Ortho","obsolete":false}},{"type":"Feature","geometry":{"type":"Polygon","coordinates":[[[2.5294,46.365],[2.5275,46.3667],[2.5313,46.3702],[2.534,46.3699],[2.5369,46.3683],[2.5374,46.3661],[2.5354,46.3645],[2.5334,46.3634],[2.5294,46.365]]]},"properties":{"id_ffco":"2019-D03-98","nom":"DOMERAT BRESSOLES","_dept":"03","numero":"2019-D03-98","commune":"DOMERAT","echelle":"1/3500","surface":"0.36 km²","format":"A4","annee":"2019","cartographes":"Philippe NOUAILLE","proprietaire":"0309 - COMMENTRY AVENTURE PASSION 03","niveau":"Initiation, Scolaire","specialite":"CO à pied","latitude":"46.3669090666","longitude":"2.53276903075","date_saisie":"22/11/2019","date_depot":"18/02/2020","valide":"Oui","ppo":"Non","type_carte":"Nouvelle carte","fond":"Ortho","obsolete":false}},{"type":"Feature","geometry":{"type":"Polygon","coordinates":[[[2.5321,46.364],[2.5315,46.3633],[2.5328,46.3626],[2.5336,46.3621],[2.5349,46.3625],[2.535,46.3627],[2.5321,46.364]]]},"properties":{"id_ffco":"2019-D03-97","nom":"Collège Départemental Louis Aragon","_dept":"03","numero":"2019-D03-97","commune":"DOMERAT","echelle":"1/1000","surface":"0.03 km²","format":"A4","annee":"2019","cartographes":"Philippe NOUAILLE","proprietaire":"03 - Allier","niveau":"Initiation, Scolaire","specialite":"CO à pied","latitude":"46.3630019006","longitude":"2.53318043543","date_saisie":"22/11/2019","date_depot":"18/02/2020","valide":"Oui","ppo":"Non","type_carte":"Nouvelle carte","fond":"Ortho","obsolete":false}},{"type":"Feature","geometry":{"type":"Polygon","coordinates":[[[3.8277,45.9997],[3.8262,46.0007],[3.8259,46.0031],[3.8248,46.0062],[3.8249,46.008],[3.8241,46.0101],[3.8227,46.0112],[3.8228,46.0131],[3.823,46.0139],[3.8221,46.015],[3.8199,46.0172],[3.8196,46.0188],[3.8152,46.0248],[3.8136,46.028],[3.8141,46.032],[3.8136,46.0331],[3.8149,46.035],[3.815,46.0376],[3.814,46.0399],[3.8116,46.0413],[3.8077,46.0463],[3.8087,46.0487],[3.8058,46.0527],[3.8091,46.0543],[3.809,46.0563],[3.8167,46.0596],[3.8144,46.0617],[3.8179,46.0678],[3.8151,46.0714],[3.8173,46.0717],[3.8189,46.0723],[3.822,46.0734],[3.8244,46.0785],[3.8239,46.0803],[3.825,46.0826],[3.8248,46.087],[3.8153,46.0959],[3.7899,46.0973],[3.768,46.0942],[3.7537,46.0808],[3.752,46.0707],[3.7517,46.0681],[3.7539,46.0659],[3.7527,46.0635],[3.7546,46.0614],[3.759,46.0579],[3.7661,46.055],[3.7685,46.0538],[3.7679,46.0518],[3.7699,46.0501],[3.7731,46.0502],[3.771,46.0454],[3.7721,46.0438],[3.775,46.0428],[3.7726,46.0416],[3.7714,46.0398],[3.7688,46.0333],[3.7763,46.0271],[3.7815,46.0228],[3.7868,46.0194],[3.7899,46.0116],[3.791,46.0064],[3.7859,46.0005],[3.7898,45.9899],[3.7931,45.9849],[3.7987,45.9854],[3.8064,45.9838],[3.8132,45.9865],[3.8202,45.9871],[3.8235,45.9933],[3.8314,45.9994],[3.8277,45.9997]]]},"properties":{"id_ffco":"2018-D03-89","nom":"O'BIVWAK 2018","_dept":"03","numero":"2018-D03-89","commune":"LAPRUGNE / SAINT NICOLAS DES BIEFS","echelle":"1/20000","surface":"44.17 km²","format":"+","annee":"2018","cartographes":"jan potstejnsky","proprietaire":"03 - Allier","niveau":"National, International","specialite":"Raid'O","contacts":"Comité départemental de Course d'Orientation de l'Allier, 03200, LE VERNET, http://www.cdco03.jimdo.com/","latitude":"46.0483044689","longitude":"3.79367359325","date_saisie":"08/05/2018","valide":"Non","ppo":"Non","type_carte":"Reprise","base":"2015-D03-74 La grande Borne - la loge des gardes","fond":"Ortho","obsolete":false}},{"type":"Feature","geometry":{"type":"Polygon","coordinates":[[[3.6224,46.5141],[3.6272,46.5142],[3.6284,46.5129],[3.629,46.5121],[3.6316,46.511],[3.6333,46.51],[3.6344,46.5094],[3.6349,46.5076],[3.635,46.5054],[3.6354,46.5047],[3.6352,46.5035],[3.6346,46.5025],[3.6341,46.5017],[3.6338,46.5013],[3.6328,46.501],[3.6316,46.5009],[3.6285,46.5023],[3.6263,46.5031],[3.6241,46.5055],[3.6224,46.5078],[3.6224,46.5143],[3.6224,46.5141]]]},"properties":{"id_ffco":"2018-D03-88","nom":"Le Pal","_dept":"03","numero":"2018-D03-88","commune":"ST POURCAIN SUR BESBRE","echelle":"1/5000","surface":"1.02 km²","format":"A3","annee":"2018","cartographes":"Philippe NOUAILLE","proprietaire":"03 - Allier","niveau":"Départemental","specialite":"CO à pied","contacts":"Comité départemental de Course d'Orientation de l'Allier, 03200, LE VERNET, http://www.cdco03.jimdo.com/","latitude":"46.5075907936","longitude":"3.6286689296","date_saisie":"22/11/2019","date_depot":"18/02/2020","valide":"Oui","ppo":"Non","type_carte":"Nouvelle carte","fond":"Ortho","obsolete":false}},{"type":"Feature","geometry":{"type":"Polygon","coordinates":[[[2.691,46.2034],[2.6935,46.2006],[2.6972,46.1994],[2.6981,46.1989],[2.6982,46.2004],[2.6976,46.203],[2.6961,46.2039],[2.695,46.2042],[2.691,46.2034]]]},"properties":{"id_ffco":"2018-D03-87","nom":"Camping La Chassagne","_dept":"03","numero":"2018-D03-87","commune":"RONNET","echelle":"1/2500","surface":"0.19 km²","format":"A4","annee":"2018","cartographes":"Philippe NOUAILLE","proprietaire":"0309 - COMMENTRY AVENTURE PASSION 03","niveau":"Initiation, Scolaire","specialite":"CO à pied","contacts":"Comité départemental de Course d'Orientation de l'Allier, 03200, LE VERNET, http://www.cdco03.jimdo.com/","latitude":"46.2019132152","longitude":"2.69521557027","date_saisie":"22/11/2019","date_depot":"18/02/2020","valide":"Oui","ppo":"Non","type_carte":"Nouvelle carte","fond":"Ortho","obsolete":false}},{"type":"Feature","geometry":{"type":"Polygon","coordinates":[[[3.3559,46.5612],[3.3586,46.5613],[3.3596,46.5618],[3.3613,46.5619],[3.3626,46.562],[3.3635,46.5621],[3.3639,46.561],[3.3625,46.5606],[3.36,46.56],[3.3576,46.5599],[3.3557,46.56],[3.3559,46.5612]]]},"properties":{"id_ffco":"2017-D03-86","nom":"Les Rives du Danube","_dept":"03","numero":"2017-D03-86","commune":"Yzeure","echelle":"1/2000","surface":"0.1 km²","format":"A4","annee":"2017","cartographes":"Philippe NOUAILLE","proprietaire":"03 - Allier","niveau":"Initiation, Scolaire","specialite":"CO à pied","contacts":"Comité départemental de Course d'Orientation de l'Allier, 03200, LE VERNET, http://www.cdco03.jimdo.com/","latitude":"46.5609397942","longitude":"3.35983686648","date_saisie":"22/11/2019","date_depot":"17/02/2020","valide":"Oui","ppo":"Oui (40 postes)","type_carte":"Nouvelle carte","fond":"Ortho","obsolete":false}},{"type":"Feature","geometry":{"type":"Polygon","coordinates":[[[3.3579,46.5501],[3.3607,46.5518],[3.3674,46.5496],[3.3709,46.5487],[3.3729,46.5485],[3.3756,46.5452],[3.3774,46.5429],[3.3744,46.5418],[3.3688,46.545],[3.3662,46.5456],[3.3578,46.5499],[3.3579,46.5501]]]},"properties":{"id_ffco":"2017-D03-85","nom":"LE PARC DES OZIERES","_dept":"03","numero":"2017-D03-85","commune":"Yzeure","echelle":"1/5000","surface":"0.63 km²","format":"A4","annee":"2017","cartographes":"Philippe NOUAILLE","proprietaire":"03 - Allier","niveau":"Départemental","specialite":"CO à pied","contacts":"Comité départemental de Course d'Orientation de l'Allier, 03200, LE VERNET, http://www.cdco03.jimdo.com/","latitude":"46.5470804809","longitude":"3.36823283647","date_saisie":"22/11/2019","date_depot":"17/02/2020","valide":"Oui","ppo":"Oui (30 postes)","type_carte":"Nouvelle carte","fond":"Ortho","obsolete":false}},{"type":"Feature","geometry":{"type":"Polygon","coordinates":[[[3.3368,46.5448],[3.3387,46.545],[3.3392,46.5433],[3.3373,46.5431],[3.3365,46.5432],[3.3365,46.5447],[3.3368,46.5448]]]},"properties":{"id_ffco":"2017-D03-84","nom":"Collège Emile Guillaumin","_dept":"03","numero":"2017-D03-84","commune":"MOULINS","echelle":"1/1000","surface":"0.04 km²","format":"A4","annee":"2017","cartographes":"Philippe NOUAILLE","proprietaire":"03 - Allier","niveau":"Initiation, Scolaire","specialite":"CO à pied","contacts":"Comité départemental de Course d'Orientation de l'Allier, 03200, LE VERNET, http://www.cdco03.jimdo.com/","latitude":"46.5440046672","longitude":"3.33775001394","date_saisie":"22/11/2019","date_depot":"17/02/2020","valide":"Oui","ppo":"Non","type_carte":"Nouvelle carte","fond":"Ortho","obsolete":false}},{"type":"Feature","geometry":{"type":"Polygon","coordinates":[[[3.3295,46.5562],[3.3312,46.5528],[3.3314,46.5491],[3.3326,46.546],[3.3328,46.5442],[3.3317,46.5409],[3.3302,46.5416],[3.3274,46.5427],[3.3258,46.5443],[3.3245,46.5462],[3.3243,46.5481],[3.327,46.5513],[3.3292,46.5528],[3.3289,46.555],[3.3288,46.5563],[3.3295,46.5562]]]},"properties":{"id_ffco":"2017-D03-79","nom":"LES CHAMPINS","_dept":"03","numero":"2017-D03-79","commune":"MOULINS","echelle":"1/5000","surface":"0.61 km²","format":"A4","annee":"2017","cartographes":"Philippe NOUAILLE","proprietaire":"03 - Allier","niveau":"Départemental","specialite":"CO à pied","contacts":"Comité départemental de Course d'Orientation de l'Allier, 03200, LE VERNET, http://www.cdco03.jimdo.com/","latitude":"46.5474223794","longitude":"3.32895223823","date_saisie":"22/11/2019","date_depot":"17/02/2020","valide":"Oui","ppo":"Non","type_carte":"Nouvelle carte","fond":"Ortho","obsolete":false}},{"type":"Feature","geometry":{"type":"Polygon","coordinates":[[[2.6529,46.2938],[2.6489,46.292],[2.6481,46.2908],[2.6474,46.2864],[2.6502,46.2818],[2.6527,46.2816],[2.656,46.2808],[2.659,46.2815],[2.6616,46.2827],[2.6624,46.287],[2.6579,46.2892],[2.6545,46.2906],[2.6529,46.2938]]]},"properties":{"id_ffco":"2016-D03-78","nom":"NERIS LES BAINS le lac","_dept":"03","numero":"2016-D03-78","commune":"NERIS LES BAINS","echelle":"1/5000","surface":"1.06 km²","format":"A4","annee":"2016","cartographes":"philippe Nouaille","proprietaire":"03 - Allier","niveau":"Régional","specialite":"CO à pied","latitude":"46.2864254121","longitude":"2.65427401144","date_saisie":"12/11/2016","date_depot":"26/01/2018","valide":"Oui","ppo":"Non","type_carte":"Nouvelle carte","fond":"Cadastre","obsolete":false}},{"type":"Feature","geometry":{"type":"Polygon","coordinates":[[[2.6077,46.3245],[2.605,46.3241],[2.6044,46.3235],[2.6038,46.3238],[2.6049,46.3257],[2.6043,46.3264],[2.6032,46.3262],[2.6026,46.325],[2.6016,46.3243],[2.6002,46.3233],[2.5997,46.3222],[2.5997,46.3211],[2.6034,46.3211],[2.6039,46.3228],[2.6055,46.323],[2.6073,46.3228],[2.6077,46.3245]]]},"properties":{"id_ffco":"2015-D03-77","nom":"hippodrome St Jean - Montluçon","_dept":"03","numero":"2015-D03-77","commune":"MONTLUCON","echelle":"1/3500","surface":"0.17 km²","format":"A4","annee":"2015","cartographes":"Philippe Nouaille","niveau":"Initiation, Scolaire","specialite":"CO à pied","contacts":"Ligue Auvergne de Course d'Orientation, 04 73 83 94 48, lauvco@orange.fr","latitude":"46.3233091147","longitude":"2.60311712169","date_saisie":"06/09/2015","date_depot":"26/01/2018","valide":"Oui","ppo":"Non","type_carte":"Reprise","base":"1987-D03-14 ST JEAN","fond":"Cadastre","obsolete":false}},{"type":"Feature","geometry":{"type":"Polygon","coordinates":[[[3.0521,46.2046],[3.0525,46.205],[3.0557,46.2036],[3.0569,46.2006],[3.0528,46.2],[3.0518,46.197],[3.05,46.1972],[3.0463,46.1961],[3.0419,46.1949],[3.0337,46.1901],[3.0293,46.1874],[3.0225,46.1855],[3.0194,46.1926],[3.0175,46.1938],[3.0158,46.1933],[3.0154,46.1934],[3.0162,46.1951],[3.0158,46.1958],[3.0166,46.1978],[3.0151,46.1989],[3.0143,46.2004],[3.0189,46.2029],[3.0196,46.2035],[3.024,46.2117],[3.0206,46.2118],[3.0182,46.2122],[3.0188,46.2177],[3.0189,46.2184],[3.0218,46.2182],[3.0238,46.219],[3.0263,46.2188],[3.03,46.2179],[3.0321,46.2175],[3.036,46.2191],[3.0388,46.2196],[3.0429,46.2201],[3.0456,46.2208],[3.0477,46.2212],[3.0502,46.2206],[3.0515,46.2189],[3.0575,46.2181],[3.0647,46.2184],[3.0675,46.2187],[3.0629,46.2141],[3.0561,46.2104],[3.0501,46.2084],[3.0511,46.2062],[3.0521,46.2046]]]},"properties":{"id_ffco":"2015-D03-75","nom":"FORET DES COLETTES - le vert plateau","_dept":"03","numero":"2015-D03-75","commune":"BELLENAVES","echelle":"1/10000","surface":"8.76 km²","format":"A3","annee":"2015","cartographes":"COTIRTA, MARCHEGAY","proprietaire":"03 - Allier","niveau":"National, International","specialite":"CO à pied","latitude":"46.2056528392","longitude":"3.03658522387","date_saisie":"27/08/2015","valide":"Non","ppo":"Non","type_carte":"Nouvelle carte","fond":"Ortho","obsolete":false}},{"type":"Feature","geometry":{"type":"Polygon","coordinates":[[[3.1456,46.2331],[3.1475,46.2319],[3.1495,46.231],[3.1518,46.2307],[3.1561,46.2297],[3.1578,46.23],[3.157,46.2325],[3.1577,46.2341],[3.1601,46.235],[3.16,46.2361],[3.1578,46.2363],[3.1575,46.2369],[3.1601,46.2376],[3.1611,46.2389],[3.1614,46.2401],[3.1624,46.2404],[3.1622,46.2421],[3.1589,46.2415],[3.1555,46.2406],[3.1538,46.2407],[3.1534,46.2429],[3.1531,46.2433],[3.1514,46.2442],[3.1493,46.2424],[3.1499,46.2406],[3.1488,46.2389],[3.1485,46.2369],[3.1461,46.2368],[3.1438,46.2358],[3.1456,46.2331]]]},"properties":{"id_ffco":"2015-D03-73","nom":"CHANTELLE","_dept":"03","numero":"2015-D03-73","commune":"Chantelle","echelle":"1/4000","surface":"1.19 km²","format":"A4","annee":"2015","cartographes":"olivier SUTTER","niveau":"Régional","specialite":"Sprint (ISSOM)","contacts":"Comité départemental de Course d'Orientation de l'Allier, 03200, LE VERNET, http://www.cdco03.jimdo.com/","latitude":"46.2364277293","longitude":"3.15322634548","date_saisie":"27/08/2015","valide":"Non","ppo":"Non","type_carte":"Nouvelle carte","fond":"Cadastre","obsolete":false}},{"type":"Feature","geometry":{"type":"Polygon","coordinates":[[[3.6239,46.0354],[3.6275,46.035],[3.6278,46.0357],[3.6272,46.0373],[3.6278,46.0379],[3.6295,46.0387],[3.6299,46.0398],[3.6295,46.0416],[3.6291,46.0422],[3.6258,46.0418],[3.6247,46.0424],[3.6221,46.0421],[3.6173,46.0408],[3.6163,46.0418],[3.6141,46.0416],[3.6142,46.0394],[3.6128,46.0385],[3.6127,46.036],[3.6239,46.0354]]]},"properties":{"id_ffco":"2007-D03-71","nom":"Ferrières sur sichon Chateau de Montgilbert","_dept":"03","numero":"2007-D03-71","commune":"FERRIERES SUR SICHON","echelle":"1/5000","surface":"0.82 km²","format":"A4","annee":"2007","niveau":"Régional","specialite":"CO à pied","latitude":"46.0387199675","longitude":"3.62145314758","date_saisie":"07/05/2015","valide":"Non","ppo":"Non","type_carte":"Nouvelle carte","fond":"Ortho","obsolete":false}},{"type":"Feature","geometry":{"type":"Polygon","coordinates":[[[2.5932,46.3205],[2.593,46.3187],[2.5896,46.3163],[2.5923,46.3157],[2.5934,46.3137],[2.5975,46.3137],[2.5951,46.3108],[2.5935,46.3103],[2.5919,46.3079],[2.5913,46.3051],[2.5874,46.3008],[2.5853,46.3005],[2.5836,46.2996],[2.5822,46.2981],[2.5791,46.2982],[2.5723,46.2959],[2.5717,46.2987],[2.5729,46.3011],[2.571,46.3054],[2.5714,46.3101],[2.573,46.3142],[2.5765,46.3151],[2.5832,46.319],[2.5863,46.3189],[2.5898,46.3202],[2.5932,46.3205]]]},"properties":{"id_ffco":"2015-D03-69","nom":"Lavault Ste Anne l'étang de Languistre","_dept":"03","numero":"2015-D03-69","commune":"LAVAULT STE ANNE","echelle":"1/10000","surface":"3.26 km²","format":"A4","annee":"2015","niveau":"Régional","specialite":"CO à pied","latitude":"46.3086146583","longitude":"2.58230991193","date_saisie":"07/05/2015","valide":"Non","ppo":"Non","type_carte":"Nouvelle carte","fond":"Ortho","obsolete":false}},{"type":"Feature","geometry":{"type":"Polygon","coordinates":[[[2.5724,46.296],[2.574,46.2962],[2.5772,46.2981],[2.5786,46.2985],[2.5802,46.2994],[2.582,46.3011],[2.5837,46.3021],[2.5839,46.3029],[2.5855,46.3038],[2.5845,46.3043],[2.5834,46.3036],[2.5823,46.3036],[2.5813,46.3029],[2.5798,46.3037],[2.5801,46.3051],[2.5794,46.3055],[2.5802,46.3061],[2.5777,46.3078],[2.5769,46.3073],[2.5758,46.3079],[2.5751,46.308],[2.5715,46.3067],[2.571,46.3055],[2.5714,46.3044],[2.5717,46.3041],[2.5719,46.3028],[2.5727,46.3021],[2.573,46.3011],[2.5717,46.2992],[2.5717,46.2982],[2.5708,46.2972],[2.5724,46.296]]]},"properties":{"id_ffco":"2015-D03-68","nom":"Lavault Ste Anne le Bois de Languistre","_dept":"03","numero":"2015-D03-68","commune":"LAVAULT STE ANNE","echelle":"1/7500","surface":"0.79 km²","format":"A4","annee":"2015","niveau":"Régional","specialite":"CO à pied","latitude":"46.3023263669","longitude":"2.57634276595","date_saisie":"07/05/2015","valide":"Non","ppo":"Non","type_carte":"Reprise","base":"1994-D03-02 BROSSE LANGUISTRE","fond":"Ortho","obsolete":false}},{"type":"Feature","geometry":{"type":"Polygon","coordinates":[[[2.7565,46.2843],[2.7574,46.2849],[2.7574,46.2868],[2.7566,46.2871],[2.7562,46.2869],[2.7559,46.2871],[2.756,46.2872],[2.7556,46.2873],[2.7546,46.2862],[2.7544,46.2864],[2.7541,46.286],[2.7535,46.2857],[2.7527,46.2856],[2.7534,46.2853],[2.7551,46.2848],[2.7565,46.2843]]]},"properties":{"id_ffco":"2015-D03-67","nom":"Commentry collège","_dept":"03","numero":"2015-D03-67","commune":"COMMENTRY","echelle":"1/2000","surface":"0.07 km²","format":"A4","annee":"2015","niveau":"Initiation, Scolaire","specialite":"CO à pied","latitude":"46.2857534968","longitude":"2.75573451358","date_saisie":"07/05/2015","valide":"Non","ppo":"Non","type_carte":"Nouvelle carte","fond":"Ortho","obsolete":false}},{"type":"Feature","geometry":{"type":"Polygon","coordinates":[[[2.6119,46.5343],[2.6122,46.5341],[2.6125,46.5331],[2.6124,46.532],[2.6123,46.5318],[2.612,46.5314],[2.6102,46.5316],[2.6101,46.5322],[2.6093,46.5331],[2.6086,46.5342],[2.6082,46.5347],[2.608,46.535],[2.6087,46.5355],[2.6099,46.535],[2.6107,46.5348],[2.6115,46.535],[2.6119,46.5343]]]},"properties":{"id_ffco":"2015-D03-66","nom":"Vallon en sully Parc botanique","_dept":"03","numero":"2015-D03-66","commune":"Vallon en sully","echelle":"1/2000","surface":"0.09 km²","format":"A4","annee":"2015","niveau":"Initiation, Scolaire","specialite":"CO à pied","latitude":"46.533472403","longitude":"2.61058072602","date_saisie":"07/05/2015","valide":"Non","ppo":"Non","type_carte":"Nouvelle carte","fond":"Ortho","obsolete":false}},{"type":"Feature","geometry":{"type":"Polygon","coordinates":[[[2.6149,46.5327],[2.6136,46.5326],[2.6128,46.5302],[2.6126,46.5293],[2.613,46.5279],[2.6133,46.5273],[2.6155,46.5279],[2.6157,46.5285],[2.6163,46.5286],[2.616,46.5301],[2.6149,46.5327]]]},"properties":{"id_ffco":"2015-D03-65","nom":"Vallon en sully camping","_dept":"03","numero":"2015-D03-65","commune":"Vallon en sully","echelle":"1/2000","surface":"0.12 km²","format":"A4","annee":"2015","niveau":"Initiation, Scolaire","specialite":"CO à pied","latitude":"46.5298914569","longitude":"2.61433359582","date_saisie":"07/05/2015","valide":"Non","ppo":"Non","type_carte":"Nouvelle carte","fond":"Ortho","obsolete":false}},{"type":"Feature","geometry":{"type":"Polygon","coordinates":[[[3.0518,46.5841],[3.0521,46.5831],[3.0534,46.5829],[3.0535,46.5827],[3.0501,46.5799],[3.0492,46.5796],[3.0471,46.5808],[3.0469,46.5813],[3.047,46.582],[3.0476,46.5824],[3.0485,46.5829],[3.0502,46.5837],[3.0518,46.5841]]]},"properties":{"id_ffco":"2015-D03-61","nom":"Bourbon l'Archambault Parc municipal","_dept":"03","numero":"2015-D03-61","commune":"Bourbon l'Archambault","echelle":"1/2500","surface":"0.14 km²","format":"A4","annee":"2015","niveau":"Initiation, Scolaire","specialite":"CO à pied","latitude":"46.5818840048","longitude":"3.04994976611","date_saisie":"07/05/2015","valide":"Non","ppo":"Non","type_carte":"Nouvelle carte","fond":"Ortho","obsolete":false}},{"type":"Feature","geometry":{"type":"Polygon","coordinates":[[[3.0616,46.5806],[3.0614,46.5809],[3.0612,46.5812],[3.0611,46.5817],[3.0609,46.582],[3.0605,46.5822],[3.0596,46.5824],[3.0584,46.5829],[3.0577,46.5822],[3.0582,46.5822],[3.0583,46.582],[3.0582,46.5817],[3.059,46.5815],[3.0589,46.5812],[3.0598,46.5809],[3.0609,46.5807],[3.0616,46.5806]]]},"properties":{"id_ffco":"2015-D03-60","nom":"Bourbon l'Archambault Collège","_dept":"03","numero":"2015-D03-60","commune":"Bourbon l'Archambault","echelle":"1/1500","surface":"0.04 km²","format":"A4","annee":"2015","niveau":"Initiation, Scolaire","specialite":"CO à pied","latitude":"46.5817047252","longitude":"3.05972767024","date_saisie":"07/05/2015","valide":"Non","ppo":"Non","type_carte":"Nouvelle carte","fond":"Ortho","obsolete":false}},{"type":"Feature","geometry":{"type":"Polygon","coordinates":[[[2.952,46.3029],[2.9485,46.3022],[2.9486,46.2996],[2.9485,46.2971],[2.9614,46.2953],[2.9632,46.3015],[2.9601,46.2997],[2.9581,46.2997],[2.9567,46.3017],[2.9542,46.3013],[2.9515,46.3017],[2.9499,46.3009],[2.9494,46.3016],[2.9484,46.3014],[2.952,46.3029]]]},"properties":{"id_ffco":"2015-D03-59","nom":"Bois de Chateau Charles","_dept":"03","numero":"2015-D03-59","commune":"MONTMARAULT","echelle":"1/5000","surface":"0.57 km²","format":"A4","annee":"2015","niveau":"Départemental","specialite":"CO à pied","contacts":"Comité départemental de Course d'Orientation de l'Allier, 03200, LE VERNET, http://www.cdco03.jimdo.com/","latitude":"46.2987082002","longitude":"2.955320444","date_saisie":"07/05/2015","valide":"Non","ppo":"Non","type_carte":"Nouvelle carte","fond":"IGN","ref_ign":"?","obsolete":false}},{"type":"Feature","geometry":{"type":"Polygon","coordinates":[[[2.7271,46.2853],[2.7264,46.2872],[2.7264,46.2885],[2.7289,46.2888],[2.729,46.2909],[2.7336,46.291],[2.7353,46.2925],[2.735,46.2942],[2.7344,46.2949],[2.7317,46.2968],[2.7316,46.298],[2.7253,46.2997],[2.7225,46.2978],[2.7191,46.296],[2.7187,46.2928],[2.7162,46.2898],[2.7148,46.2883],[2.7166,46.2879],[2.7173,46.2845],[2.7271,46.2853]]]},"properties":{"id_ffco":"2014-D03-58","nom":"BOIS DES FORGES","_dept":"03","numero":"2014-D03-58","commune":"COMMENTRY","surface":"1.51 km²","annee":"2014","niveau":"Régional","specialite":"CO à pied","latitude":"46.2920575954","longitude":"2.72476897595","date_saisie":"04/10/2014","valide":"Non","ppo":"Non","obsolete":false}},{"type":"Feature","geometry":null,"properties":{"id_ffco":"2014-D03-57","nom":"collège jjacques Soulier MONTLUCON","_dept":"03","numero":"2014-D03-57","commune":"MONTLUCON","surface":"None km²","annee":"2014","niveau":"Initiation, Scolaire","specialite":"CO à pied","date_saisie":"04/10/2014","valide":"Non","ppo":"Non","obsolete":false}},{"type":"Feature","geometry":null,"properties":{"id_ffco":"2014-D03-56","nom":"PARC DU CHAMBON CUSSET","_dept":"03","numero":"2014-D03-56","commune":"CUSSET","surface":"None km²","annee":"2014","niveau":"Initiation, Scolaire","specialite":"CO à pied","date_saisie":"04/10/2014","valide":"Non","ppo":"Non","obsolete":false}},{"type":"Feature","geometry":null,"properties":{"id_ffco":"2014-D03-55","nom":"collège Constantin Weyer CUSSET","_dept":"03","numero":"2014-D03-55","commune":"CUSSET","surface":"None km²","annee":"2014","niveau":"Initiation, Scolaire","specialite":"CO à pied","date_saisie":"04/10/2014","valide":"Non","ppo":"Non","obsolete":false}},{"type":"Feature","geometry":{"type":"Polygon","coordinates":[[[3.4668,46.1357],[3.4665,46.1344],[3.4666,46.134],[3.4691,46.1335],[3.4705,46.1333],[3.4704,46.1332],[3.4727,46.1329],[3.4726,46.1333],[3.4732,46.1335],[3.4728,46.1341],[3.4731,46.1342],[3.4729,46.1345],[3.4719,46.1352],[3.4708,46.1355],[3.47,46.1355],[3.4691,46.1356],[3.4683,46.1353],[3.4682,46.1354],[3.4668,46.1357]]]},"properties":{"id_ffco":"2014-D03-54","nom":"stade jean Moulin CUSSET","_dept":"03","numero":"2014-D03-54","commune":"CUSSET","surface":"0.11 km²","annee":"2014","niveau":"Initiation, Scolaire","specialite":"CO à pied","latitude":"46.1343778491","longitude":"3.46988765956","date_saisie":"04/10/2014","valide":"Non","ppo":"Non","obsolete":false}},{"type":"Feature","geometry":null,"properties":{"id_ffco":"2014-D03-53","nom":"stade de Montbéton CUSSET","_dept":"03","numero":"2014-D03-53","commune":"CUSSET","surface":"None km²","annee":"2014","niveau":"Initiation, Scolaire","specialite":"CO à pied","date_saisie":"04/10/2014","valide":"Non","ppo":"Non","obsolete":false}},{"type":"Feature","geometry":null,"properties":{"id_ffco":"2014-D03-52","nom":"plan d'eau de LURCY LEVIS","_dept":"03","numero":"2014-D03-52","commune":"LURCY LEVIS","surface":"None km²","annee":"2014","date_saisie":"04/10/2014","valide":"Non","ppo":"Non","obsolete":false}},{"type":"Feature","geometry":null,"properties":{"id_ffco":"2014-D03-51","nom":"centre de CERILLY","_dept":"03","numero":"2014-D03-51","commune":"CERILLY","surface":"None km²","annee":"2014","niveau":"Initiation, Scolaire","specialite":"CO à pied","date_saisie":"04/10/2014","valide":"Non","ppo":"Non","obsolete":false}},{"type":"Feature","geometry":{"type":"Polygon","coordinates":[[[3.3505,46.5833],[3.3493,46.5826],[3.3472,46.5802],[3.3456,46.5811],[3.3443,46.58],[3.3449,46.5796],[3.3436,46.5777],[3.3423,46.5766],[3.3424,46.5759],[3.3443,46.5764],[3.3459,46.5774],[3.3464,46.5767],[3.3489,46.577],[3.3493,46.5761],[3.351,46.5763],[3.3527,46.5772],[3.3514,46.5801],[3.3505,46.5833]]]},"properties":{"id_ffco":"2014-D03-50","nom":"CENTRE HOSPITALIER YZEURE","_dept":"03","numero":"2014-D03-50","commune":"YZEURE","echelle":"1/6000","surface":"0.32 km²","format":"A4","annee":"2014","cartographes":"CAP ORIENTATION","proprietaire":"03 - Allier","niveau":"Initiation, Scolaire","specialite":"CO à pied","latitude":"46.5788858824","longitude":"3.34816040049","date_saisie":"04/10/2014","valide":"Non","ppo":"Non","type_carte":"Nouvelle carte","fond":"Cadastre","obsolete":false}},{"type":"Feature","geometry":{"type":"Polygon","coordinates":[[[3.3371,46.571],[3.3371,46.5707],[3.3368,46.5707],[3.3367,46.5698],[3.3356,46.5698],[3.3352,46.5702],[3.335,46.5709],[3.3371,46.571]]]},"properties":{"id_ffco":"2014-D03-49","nom":"collège charles Peguy MOULINS","_dept":"03","numero":"2014-D03-49","commune":"MOULINS","echelle":"1/1000","surface":"0.02 km²","format":"A4","annee":"2014","cartographes":"CAP ORIENTATION","niveau":"Initiation, Scolaire","specialite":"CO à pied","latitude":"46.5704422195","longitude":"3.33603607639","date_saisie":"04/10/2014","valide":"Non","ppo":"Non","type_carte":"Nouvelle carte","fond":"Cadastre","obsolete":false}},{"type":"Feature","geometry":{"type":"Polygon","coordinates":[[[3.4627,46.0597],[3.4608,46.0538],[3.4602,46.0527],[3.4608,46.0507],[3.4628,46.048],[3.4668,46.0462],[3.4707,46.0464],[3.4691,46.051],[3.4666,46.0511],[3.465,46.0552],[3.4627,46.0597]]]},"properties":{"id_ffco":"2014-D03-48","nom":"LES BORDS DE L'ALLIER SAINT YORRE","_dept":"03","numero":"2014-D03-48","commune":"SAINT YORRE","echelle":"1/6000","surface":"0.55 km²","format":"A4","annee":"2014","cartographes":"CAP ORIENTATION","niveau":"Initiation, Scolaire","specialite":"CO à pied","latitude":"46.0512907448","longitude":"3.46475019107","date_saisie":"04/10/2014","valide":"Non","ppo":"Non","type_carte":"Nouvelle carte","fond":"Cadastre","obsolete":false}},{"type":"Feature","geometry":{"type":"Polygon","coordinates":[[[3.4018,46.3087],[3.3972,46.3126],[3.399,46.3124],[3.4005,46.3115],[3.4039,46.3106],[3.4049,46.3106],[3.4053,46.3101],[3.4018,46.3087]]]},"properties":{"id_ffco":"2014-D03-47","nom":"COMPLEXE MAUREGARD VARENNES SUR ALLIER","_dept":"03","numero":"2014-D03-47","commune":"VARENNES SUR ALLIER","echelle":"1/2500","surface":"0.09 km²","format":"A4","annee":"2014","cartographes":"CAP ORIENTATION","niveau":"Initiation, Scolaire","specialite":"CO à pied","latitude":"46.3105359991","longitude":"3.4014150276","date_saisie":"04/10/2014","valide":"Non","ppo":"Non","type_carte":"Nouvelle carte","fond":"Cadastre","obsolete":false}},{"type":"Feature","geometry":{"type":"Polygon","coordinates":[[[3.4067,46.3146],[3.4057,46.3136],[3.4058,46.313],[3.4093,46.3124],[3.4117,46.3123],[3.4126,46.3122],[3.4132,46.3148],[3.4131,46.3165],[3.4121,46.3186],[3.4097,46.3176],[3.4104,46.3139],[3.4093,46.3143],[3.4086,46.3138],[3.4067,46.3146]]]},"properties":{"id_ffco":"2014-D03-46","nom":"collège et salle omnisport VARENNES SUR ALLIER","_dept":"03","numero":"2014-D03-46","commune":"VARENNES SUR ALLIER","echelle":"1/2500","surface":"0.2 km²","format":"A4","annee":"2014","cartographes":"CAP ORIENTATION","niveau":"Initiation, Scolaire","specialite":"CO à pied","latitude":"46.3147317545","longitude":"3.41054664441","date_saisie":"04/10/2014","valide":"Non","ppo":"Non","type_carte":"Nouvelle carte","fond":"Cadastre","obsolete":false}},{"type":"Feature","geometry":{"type":"Polygon","coordinates":[[[2.571,46.344],[2.5711,46.3436],[2.5715,46.3431],[2.5722,46.3422],[2.5723,46.3414],[2.5721,46.3404],[2.5711,46.3406],[2.5692,46.3425],[2.5683,46.3431],[2.5692,46.3438],[2.5701,46.3441],[2.571,46.344]]]},"properties":{"id_ffco":"2014-D03-42","nom":"plaine des sports collège Jules Verne Montluçon","_dept":"03","numero":"2014-D03-42","commune":"MONTLUCON","echelle":"1/2000","surface":"0.07 km²","format":"A4","annee":"2014","cartographes":"CAP ORIENTATION","niveau":"Initiation, Scolaire","specialite":"CO à pied","latitude":"46.3424329782","longitude":"2.57063463167","date_saisie":"04/10/2014","valide":"Non","ppo":"Non","type_carte":"Nouvelle carte","fond":"Cadastre","obsolete":false}},{"type":"Feature","geometry":{"type":"Polygon","coordinates":[[[3.7986,46.3518],[3.7969,46.3542],[3.7943,46.3542],[3.7941,46.3531],[3.7954,46.3508],[3.796,46.3508],[3.7967,46.3517],[3.7973,46.3513],[3.7986,46.3518]]]},"properties":{"id_ffco":"2014-D03-41","nom":"PARC DU PLESSIS LE DONJON","_dept":"03","numero":"2014-D03-41","commune":"LE DONJON","echelle":"1/1500","surface":"0.09 km²","format":"A4","annee":"2014","cartographes":"CAP ORIENTATION","niveau":"Initiation, Scolaire","specialite":"CO à pied","latitude":"46.3526749018","longitude":"3.79609508162","date_saisie":"04/10/2014","valide":"Non","ppo":"Non","type_carte":"Nouvelle carte","fond":"Cadastre","obsolete":false}},{"type":"Feature","geometry":{"type":"Polygon","coordinates":[[[3.6684,46.0628],[3.6682,46.0628],[3.6679,46.0625],[3.6678,46.0616],[3.6678,46.061],[3.6678,46.0606],[3.6676,46.06],[3.67,46.0595],[3.6712,46.06],[3.6684,46.0628]]]},"properties":{"id_ffco":"2014-D03-40","nom":"LAC DES MOINES camping","_dept":"03","numero":"2014-D03-40","commune":"LE MAYET DE MONTAGNE","echelle":"1/1500","surface":"0.06 km²","format":"A4","annee":"2014","cartographes":"CAP ORIENTATION","niveau":"Initiation, Scolaire","specialite":"CO à pied","latitude":"46.0608679513","longitude":"3.66907180866","date_saisie":"04/10/2014","valide":"Non","ppo":"Non","type_carte":"Nouvelle carte","fond":"Cadastre","obsolete":false}},{"type":"Feature","geometry":{"type":"Polygon","coordinates":[[[3.672,46.5199],[3.6734,46.5187],[3.6728,46.5183],[3.6714,46.5185],[3.6709,46.5177],[3.6674,46.5186],[3.6674,46.5196],[3.6693,46.5198],[3.672,46.5199]]]},"properties":{"id_ffco":"2014-D03-39","nom":"collège louis Pergaud Dompierre","_dept":"03","numero":"2014-D03-39","commune":"DOMPIERRE SUR BESBRE","echelle":"1/2000","surface":"0.07 km²","format":"A4","annee":"2014","cartographes":"CAP ORIENTATION","niveau":"Initiation, Scolaire","specialite":"CO à pied","latitude":"46.5189478627","longitude":"3.67022441965","date_saisie":"04/10/2014","valide":"Non","ppo":"Non","type_carte":"Nouvelle carte","fond":"Cadastre","obsolete":false}},{"type":"Feature","geometry":{"type":"Polygon","coordinates":[[[2.6319,46.3214],[2.6328,46.3211],[2.6365,46.3211],[2.6368,46.321],[2.637,46.3211],[2.6369,46.3212],[2.6425,46.3233],[2.6417,46.3245],[2.6414,46.3253],[2.6399,46.3257],[2.6394,46.3264],[2.6393,46.327],[2.6393,46.3272],[2.6372,46.3271],[2.6353,46.3268],[2.6339,46.3264],[2.633,46.326],[2.6325,46.3259],[2.6315,46.326],[2.6306,46.3262],[2.6305,46.3255],[2.6312,46.3243],[2.6312,46.3232],[2.6299,46.3224],[2.6305,46.322],[2.6312,46.3217],[2.6319,46.3214]]]},"properties":{"id_ffco":"2014-D03-38","nom":"LES REAUX","_dept":"03","numero":"2014-D03-38","commune":"MONTLUCON","echelle":"1/4000","surface":"0.46 km²","format":"A4","annee":"2014","cartographes":"Isabelle Brunet","proprietaire":"AU - Auvergne","niveau":"Initiation, Scolaire","specialite":"CO à pied","contacts":"Ligue Auvergne de Course d'Orientation, 04 73 83 94 48, lauvco@orange.fr","latitude":"46.3239874965","longitude":"2.63599427922","date_saisie":"04/10/2014","date_depot":"04/12/2014","valide":"Oui","ppo":"Non","type_carte":"Nouvelle carte","fond":"Cadastre","obsolete":false}},{"type":"Feature","geometry":{"type":"Polygon","coordinates":[[[2.8342,46.4244],[2.8355,46.4243],[2.8361,46.4241],[2.8353,46.423],[2.8344,46.4215],[2.8342,46.4213],[2.8322,46.4215],[2.8307,46.4206],[2.8311,46.4198],[2.8307,46.4195],[2.8297,46.4181],[2.8276,46.4199],[2.8274,46.4205],[2.8273,46.4206],[2.8271,46.4207],[2.8273,46.4209],[2.8277,46.421],[2.8284,46.4212],[2.8289,46.4213],[2.8292,46.4215],[2.8313,46.4228],[2.8342,46.4244]]]},"properties":{"id_ffco":"2008-D03-37","nom":"IMP NEUVILLE","_dept":"03","numero":"2008-D03-37","commune":"Villefranche d'Allier","echelle":"1/4000","surface":"0.17 km²","format":"A4","annee":"2008","cartographes":"Vincent Papon","proprietaire":"AU - Auvergne","niveau":"Départemental","specialite":"CO à pied","contacts":"imp // Service des Sports, Vichy","latitude":"46.4215851899","longitude":"2.83153806609","date_saisie":"04/10/2014","date_depot":"04/12/2014","valide":"Oui","ppo":"Non","type_carte":"Nouvelle carte","fond":"Cadastre","obsolete":false}},{"type":"Feature","geometry":null,"properties":{"id_ffco":"2014-D03-36","nom":"CHATEAU DE RANDAN","_dept":"03","numero":"2014-D03-36","commune":"RANDAN","surface":"None km²","annee":"2014","date_saisie":"04/10/2014","valide":"Non","ppo":"Non","obsolete":false}},{"type":"Feature","geometry":{"type":"Polygon","coordinates":[[[3.3814,46.1283],[3.3823,46.1328],[3.3845,46.1403],[3.384,46.1411],[3.3846,46.1418],[3.3838,46.1423],[3.3818,46.1422],[3.3819,46.1418],[3.3768,46.142],[3.3773,46.1433],[3.3776,46.1447],[3.378,46.1467],[3.3794,46.1469],[3.3813,46.147],[3.3823,46.1481],[3.3829,46.1484],[3.3843,46.1489],[3.3838,46.1498],[3.3831,46.1508],[3.3825,46.1519],[3.3818,46.152],[3.3803,46.1514],[3.3784,46.151],[3.3774,46.1511],[3.3765,46.1511],[3.3734,46.1508],[3.3721,46.1514],[3.3716,46.151],[3.3689,46.1513],[3.3679,46.1511],[3.3671,46.1505],[3.3655,46.1502],[3.364,46.1498],[3.3631,46.1493],[3.3642,46.1487],[3.3676,46.1449],[3.3681,46.1441],[3.3686,46.1428],[3.3673,46.1421],[3.3614,46.1391],[3.363,46.1329],[3.3653,46.1319],[3.3676,46.1301],[3.3672,46.1279],[3.3672,46.1273],[3.3694,46.1272],[3.3732,46.1288],[3.3814,46.1283]]]},"properties":{"id_ffco":"2013-D03-35","nom":"CHARMEIL","_dept":"03","numero":"2013-D03-35","commune":"BELLERIVE SUR ALLIER","echelle":"1/10000","surface":"3.32 km²","format":"A3","annee":"2013","cartographes":"Mariam Cotirta","proprietaire":"AU - Auvergne","niveau":"Interrégional","specialite":"CO à pied","contacts":"Ligue Auvergne de Course d'Orientation, 04 73 83 94 48, lauvco@orange.fr","latitude":"46.1393917047","longitude":"3.37341674613","date_saisie":"04/10/2014","date_depot":"04/12/2014","valide":"Oui","ppo":"Non","type_carte":"Nouvelle carte","fond":"Ortho","obsolete":false}},{"type":"Feature","geometry":{"type":"Polygon","coordinates":[[[3.3282,46.0753],[3.3311,46.0734],[3.3326,46.0718],[3.3331,46.0712],[3.3347,46.07],[3.3346,46.0691],[3.3346,46.068],[3.3335,46.0659],[3.3324,46.0659],[3.3332,46.0643],[3.3317,46.0635],[3.3295,46.0628],[3.33,46.0613],[3.3304,46.0598],[3.3312,46.0602],[3.3289,46.0583],[3.3262,46.0576],[3.3251,46.0571],[3.3236,46.057],[3.3213,46.0603],[3.3182,46.062],[3.3089,46.0615],[3.3028,46.0629],[3.2997,46.0627],[3.2966,46.0621],[3.2951,46.0625],[3.2982,46.0645],[3.3008,46.0667],[3.3031,46.0681],[3.306,46.0697],[3.3155,46.0725],[3.3282,46.0753]]]},"properties":{"id_ffco":"2012-D03-33","nom":"MONTPENSIER","_dept":"03","numero":"2012-D03-33","commune":"SERBANNES - BRUGHEAS","echelle":"1/10000","surface":"3.22 km²","format":"+","annee":"2012","cartographes":"Marian Cotirta","proprietaire":"AU - Auvergne","niveau":"Interrégional","specialite":"CO à pied","contacts":"Ligue Auvergne de Course d'Orientation, 04 73 83 94 48, lauvco@orange.fr","latitude":"46.0665535028","longitude":"3.31897202599","date_saisie":"04/10/2014","date_depot":"04/12/2014","valide":"Non","ppo":"Non","type_carte":"Nouvelle carte","fond":"Ortho","obsolete":false}},{"type":"Feature","geometry":{"type":"Polygon","coordinates":[[[3.3671,46.2046],[3.3675,46.2034],[3.3677,46.2028],[3.3686,46.2004],[3.3679,46.2001],[3.368,46.1985],[3.3672,46.1978],[3.3601,46.204],[3.354,46.2095],[3.355,46.2098],[3.3559,46.2106],[3.3569,46.2113],[3.3566,46.2125],[3.3607,46.2132],[3.363,46.2145],[3.3647,46.2141],[3.3643,46.2162],[3.3628,46.2213],[3.361,46.222],[3.3592,46.2227],[3.3559,46.2238],[3.3589,46.2261],[3.36,46.2271],[3.3651,46.2274],[3.367,46.2291],[3.3666,46.2295],[3.3671,46.2302],[3.368,46.2311],[3.3677,46.2323],[3.3732,46.2334],[3.3746,46.2342],[3.3809,46.2342],[3.3869,46.2342],[3.3914,46.2347],[3.3897,46.2331],[3.3912,46.2314],[3.3907,46.2293],[3.3934,46.2291],[3.393,46.2279],[3.3925,46.2271],[3.3917,46.2263],[3.3918,46.2255],[3.392,46.2248],[3.3916,46.2247],[3.391,46.2235],[3.3889,46.2228],[3.3893,46.2223],[3.388,46.2218],[3.3859,46.2207],[3.385,46.2202],[3.3843,46.2187],[3.3843,46.2177],[3.3916,46.2146],[3.3917,46.2142],[3.3909,46.2137],[3.3905,46.213],[3.3892,46.2124],[3.3881,46.2124],[3.388,46.2119],[3.3871,46.2102],[3.3856,46.2098],[3.3852,46.2086],[3.3823,46.207],[3.3829,46.2053],[3.382,46.2043],[3.381,46.2033],[3.378,46.2032],[3.3774,46.2041],[3.3734,46.2046],[3.3735,46.2069],[3.368,46.2064],[3.3671,46.2046]]]},"properties":{"id_ffco":"2012-D03-32","nom":"MARCENAT","_dept":"03","numero":"2012-D03-32","commune":"Marcenat","echelle":"1/10000","surface":"7.0 km²","format":"A3","annee":"2012","cartographes":"Mariam Cotirta","proprietaire":"AU - Auvergne","niveau":"Interrégional","specialite":"CO à pied","contacts":"Ligue Auvergne de Course d'Orientation, 04 73 83 94 48, lauvco@orange.fr","latitude":"46.2185039303","longitude":"3.37450570459","date_saisie":"04/10/2014","date_depot":"04/12/2014","valide":"Non","ppo":"Non","type_carte":"Nouvelle carte","fond":"Ortho","obsolete":false}},{"type":"Feature","geometry":{"type":"Polygon","coordinates":[[[3.3401,46.1058],[3.3422,46.1072],[3.3456,46.1074],[3.3448,46.1057],[3.345,46.1038],[3.3466,46.1042],[3.3488,46.1059],[3.3505,46.1078],[3.354,46.1111],[3.3576,46.1128],[3.3592,46.1137],[3.365,46.1132],[3.3665,46.1146],[3.3739,46.1095],[3.3736,46.1081],[3.3715,46.1072],[3.3713,46.1063],[3.359,46.1004],[3.3526,46.0986],[3.3501,46.0989],[3.3479,46.0983],[3.3465,46.0981],[3.3422,46.0988],[3.3414,46.0989],[3.3401,46.1058]]]},"properties":{"id_ffco":"2025-D03-141","nom":"SERBANNES","_dept":"03","numero":"2025-D03-141","commune":"SERBANNES","echelle":"1/10000","surface":"2.61 km²","format":"A4","annee":"2025","cartographes":"Philippe NOUAILLE","proprietaire":"03 - Allier","niveau":"Régional","specialite":"CO à pied","contacts":"Comité départemental de Course d'Orientation de l'Allier, 03200, LE VERNET, http://www.cdco03.jimdo.com/","latitude":"46.1058719989","longitude":"3.35687000952","date_saisie":"19/01/2026","date_depot":"25/02/2026","valide":"Oui","ppo":"Non","type_carte":"Nouvelle carte","fond":"Ortho","obsolete":false}},{"type":"Feature","geometry":{"type":"Polygon","coordinates":[[[2.6046,46.3318],[2.6078,46.3319],[2.6084,46.3305],[2.6085,46.3302],[2.6086,46.3295],[2.6085,46.3283],[2.6075,46.3285],[2.606,46.3289],[2.6054,46.3295],[2.6051,46.3303],[2.6048,46.3311],[2.6046,46.3318]]]},"properties":{"id_ffco":"2025-D03-140","nom":"Parc des Ilets Espace Boris Vian","_dept":"03","numero":"2025-D03-140","commune":"MONTLUCON","echelle":"1/1500","surface":"0.09 km²","format":"A4","annee":"2025","cartographes":"Philippe NOUAILLE","proprietaire":"Montluçon Communauté Cité administrative 1 rue des Conches 03100 Montluçon","niveau":"Initiation, Scolaire","specialite":"CO à pied","contacts":"Comité départemental de Course d'Orientation de l'Allier, 03200, LE VERNET, http://www.cdco03.jimdo.com/","latitude":"46.3302914385","longitude":"2.60681252207","date_saisie":"19/01/2026","date_depot":"25/02/2026","valide":"Oui","ppo":"Oui (30 postes)","type_carte":"Nouvelle carte","fond":"Ortho","obsolete":false}},{"type":"Feature","geometry":{"type":"Polygon","coordinates":[[[2.6031,46.3423],[2.6073,46.3421],[2.6077,46.3408],[2.6078,46.3398],[2.6073,46.3387],[2.606,46.3381],[2.6049,46.3381],[2.6032,46.3384],[2.6024,46.3387],[2.6017,46.3395],[2.6013,46.3406],[2.6015,46.3411],[2.6031,46.3423]]]},"properties":{"id_ffco":"2025-D03-139","nom":"Montluçon Centre Historique","_dept":"03","numero":"2025-D03-139","commune":"MONTLUCON","echelle":"1/2500","surface":"0.19 km²","format":"A4","annee":"2025","cartographes":"Philippe NOUAILLE","proprietaire":"Montluçon Communauté Cité administrative 1 rue des Conches 03100 Montluçon","niveau":"Départemental","specialite":"CO à pied","contacts":"Comité départemental de Course d'Orientation de l'Allier, 03200, LE VERNET, http://www.cdco03.jimdo.com/","latitude":"46.3402447427","longitude":"2.60468529877","date_saisie":"19/01/2026","date_depot":"25/02/2026","valide":"Oui","ppo":"Non","type_carte":"Nouvelle carte","fond":"Cadastre","obsolete":false}},{"type":"Feature","geometry":{"type":"Polygon","coordinates":[[[2.9605,46.1859],[2.9617,46.1857],[2.9622,46.184],[2.9616,46.1821],[2.9597,46.182],[2.9584,46.1828],[2.9581,46.1835],[2.9573,46.1839],[2.9569,46.1842],[2.9605,46.1859]]]},"properties":{"id_ffco":"2025-D03-138","nom":"Parc Acrobranche ACCRO SIOULE","_dept":"03","numero":"2025-D03-138","commune":"ECHASSIERES","echelle":"1/2000","surface":"0.11 km²","format":"A4","annee":"2025","cartographes":"Philippe NOUAILLE","proprietaire":"ACCRO SIOULE","niveau":"Initiation, Scolaire","specialite":"CO à pied","contacts":"Parc Acrobranche ACCRO SIOULE, Route de Chauvigny, 03450, EBREUIL, contact@accro-canoe-sioule.com","latitude":"46.1839179723","longitude":"2.96006666719","date_saisie":"19/01/2026","date_depot":"25/02/2026","valide":"Oui","ppo":"Non","type_carte":"Nouvelle carte","fond":"Cadastre","obsolete":false}},{"type":"Feature","geometry":{"type":"Polygon","coordinates":[[[2.9296,46.1855],[2.9312,46.1859],[2.9333,46.1849],[2.934,46.1849],[2.935,46.1857],[2.9375,46.1847],[2.9382,46.1838],[2.9353,46.182],[2.9343,46.1812],[2.9331,46.1799],[2.9307,46.1805],[2.9288,46.1818],[2.9298,46.1828],[2.9302,46.1838],[2.9296,46.1855]]]},"properties":{"id_ffco":"2025-D03-137","nom":"ECHASSIERES","_dept":"03","numero":"2025-D03-137","commune":"ECHASSIERES","echelle":"1/2000","surface":"0.28 km²","format":"A4","annee":"2025","cartographes":"Philippe NOUAILLE","proprietaire":"0308 - CHANTELLE SPORTS NATURE","niveau":"Initiation, Scolaire","specialite":"CO à pied","latitude":"46.1831275787","longitude":"2.93307196186","date_saisie":"19/01/2026","date_depot":"25/02/2026","valide":"Oui","ppo":"Non","type_carte":"Nouvelle carte","fond":"Cadastre","obsolete":false}},{"type":"Feature","geometry":{"type":"Polygon","coordinates":[[[3.4582,46.0615],[3.4588,46.0615],[3.4608,46.0604],[3.4613,46.0597],[3.4616,46.0586],[3.4612,46.0575],[3.4598,46.057],[3.4579,46.0563],[3.4563,46.0559],[3.4561,46.0567],[3.456,46.0575],[3.4553,46.0584],[3.4548,46.0589],[3.4547,46.059],[3.4582,46.0615]]]},"properties":{"id_ffco":"2025-D03-136","nom":"Centre Omnisports Les Graviers St Yorre","_dept":"03","numero":"2025-D03-136","commune":"Saint YORRE","echelle":"1/2500","surface":"0.21 km²","format":"A4","annee":"2025","cartographes":"Philippe NOUAILLE","proprietaire":"0307 - LE VERNET SPORTS ET NATURE","niveau":"Initiation, Scolaire","specialite":"CO à pied","contacts":"Comité départemental de Course d'Orientation de l'Allier, 5 rue Fliponnes, 03200, Le VERNET","latitude":"46.0587593971","longitude":"3.45832890426","date_saisie":"19/01/2026","date_depot":"25/02/2026","valide":"Oui","ppo":"Non","type_carte":"Nouvelle carte","fond":"Cadastre","obsolete":false}},{"type":"Feature","geometry":{"type":"Polygon","coordinates":[[[3.1584,46.1872],[3.1601,46.1883],[3.1625,46.1887],[3.1645,46.1884],[3.166,46.1871],[3.1669,46.1841],[3.1658,46.1833],[3.1629,46.1817],[3.1602,46.1807],[3.1587,46.1808],[3.156,46.1838],[3.1555,46.1849],[3.1584,46.1872]]]},"properties":{"id_ffco":"2025-D03-135","nom":"CHARROUX","_dept":"03","numero":"2025-D03-135","commune":"CHARROUX","echelle":"1/4000","surface":"0.52 km²","format":"A4","annee":"2025","cartographes":"Philippe NOUAILLE","proprietaire":"0308 - CHANTELLE SPORTS NATURE","niveau":"Départemental","specialite":"CO à pied","contacts":"Comité départemental de Course d'Orientation de l'Allier, 5 rue Fliponnes, 03200, Le VERNET","latitude":"46.1847963958","longitude":"3.16135621746","date_saisie":"19/01/2026","date_depot":"25/02/2026","valide":"Oui","ppo":"Non","type_carte":"Nouvelle carte","fond":"Cadastre","obsolete":false}},{"type":"Feature","geometry":{"type":"Polygon","coordinates":[[[3.4613,46.0713],[3.4659,46.0714],[3.4674,46.0711],[3.4679,46.0698],[3.467,46.0689],[3.4656,46.068],[3.4655,46.0661],[3.4664,46.0642],[3.4666,46.0633],[3.4651,46.0622],[3.4623,46.061],[3.4614,46.0613],[3.4595,46.0621],[3.4585,46.0614],[3.4594,46.0631],[3.4583,46.0648],[3.4582,46.067],[3.4596,46.0689],[3.4613,46.0713]]]},"properties":{"id_ffco":"2025-D03-134","nom":"Saint YORRE","_dept":"03","numero":"2025-D03-134","commune":"Saint YORRE","echelle":"1/4000","surface":"0.6 km²","format":"A4","annee":"2025","cartographes":"Philippe NOUAILLE","proprietaire":"0307 - LE VERNET SPORTS ET NATURE","niveau":"Départemental","specialite":"CO à pied","contacts":"Comité départemental de Course d'Orientation de l'Allier, 5 rue Fliponnes , 03200, Le VERNET","latitude":"46.0664746977","longitude":"3.46273686561","date_saisie":"19/01/2026","date_depot":"25/02/2026","valide":"Oui","ppo":"Non","type_carte":"Nouvelle carte","fond":"Cadastre","obsolete":false}},{"type":"Feature","geometry":{"type":"Polygon","coordinates":[[[3.1922,46.2423],[3.2259,46.2604],[3.2441,46.2505],[3.2236,46.2284],[3.2298,46.2201],[3.2315,46.2157],[3.2022,46.1931],[3.1859,46.1867],[3.1778,46.1916],[3.1802,46.2129],[3.1821,46.2241],[3.1826,46.2374],[3.1922,46.2423]]]},"properties":{"id_ffco":"2025-D03-133","nom":"Les Crêtes","_dept":"03","numero":"2025-D03-133","commune":"FOURILLES","echelle":"1/15000","surface":"22.91 km²","format":"A3","annee":"2025","cartographes":"DIDIER BOULANGER","proprietaire":"0308 - CHANTELLE SPORTS NATURE","niveau":"Régional","specialite":"CO à VTT","contacts":"Chantelle Sports Nature","latitude":"46.2241987886","longitude":"3.20630612885","date_saisie":"17/06/2025","valide":"Non","ppo":"Non","type_carte":"Nouvelle carte","fond":"Ortho","obsolete":false}},{"type":"Feature","geometry":{"type":"Polygon","coordinates":[[[2.9754,46.238],[2.9778,46.242],[2.9816,46.245],[2.9839,46.2472],[2.9877,46.2467],[2.9933,46.2481],[2.9965,46.2469],[2.997,46.2425],[3.0013,46.2407],[3.0082,46.2377],[3.0085,46.2363],[2.9964,46.2273],[2.9929,46.2326],[2.9901,46.2333],[2.988,46.2362],[2.9818,46.2343],[2.9778,46.2354],[2.9754,46.2372],[2.9754,46.238]]]},"properties":{"id_ffco":"2025-D03-132","nom":"Le BOIS MAL Louroux de Bouble","_dept":"03","numero":"2025-D03-132","commune":"Louroux de Bouble","echelle":"1/10000","surface":"2.96 km²","format":"A4","annee":"2025","cartographes":"Philippe NOUAILLE","proprietaire":"0308 - CHANTELLE SPORTS NATURE","niveau":"Régional","specialite":"CO à pied","contacts":"Comité départemental de Course d'Orientation de l'Allier, 03200, LE VERNET, http://www.cdco03.jimdo.com/","latitude":"46.2387304839","longitude":"2.99170497635","date_saisie":"19/01/2026","date_depot":"25/02/2026","valide":"Oui","ppo":"Non","type_carte":"Nouvelle carte","fond":"Ortho","obsolete":false}},{"type":"Feature","geometry":{"type":"Polygon","coordinates":[[[2.5947,46.226],[2.5947,46.2941],[2.6709,46.2941],[2.6709,46.226],[2.5947,46.226]]]},"properties":{"id_ffco":"2024-D03-131","nom":"VILLEBRET VTT'O","_dept":"03","numero":"2024-D03-131","commune":"VILLEBRET","echelle":"1/20000","surface":"44.42 km²","format":"A3","annee":"2024","cartographes":"NOUAILLE Philippe","proprietaire":"03 - Allier","niveau":"Régional","specialite":"CO à VTT","latitude":"46.2600497297","longitude":"2.63277053833","date_saisie":"25/11/2024","date_depot":"18/03/2025","valide":"Oui","ppo":"Non","type_carte":"Nouvelle carte","fond":"Ortho","obsolete":false}},{"type":"Feature","geometry":{"type":"Polygon","coordinates":[[[3.0072,46.2168],[3.025,46.2159],[3.0471,46.2212],[3.0685,46.2183],[3.0595,46.2058],[3.0611,46.2021],[3.0431,46.1952],[3.0221,46.1857],[3.0028,46.1922],[2.9915,46.1885],[3.0019,46.2092],[3.0064,46.2168],[3.0072,46.2168]]]},"properties":{"id_ffco":"2024-D03-128","nom":"LA FORET DES COLETTES","_dept":"03","numero":"2024-D03-128","commune":"BELLENAVES","echelle":"1/15000","surface":"13.97 km²","format":"A3","annee":"2024","cartographes":"NOUAILLE Philippe","proprietaire":"03 - Allier","niveau":"National, International","specialite":"CO à pied","contacts":"NOUAILLE, 128 Route de la Chapelle, 03310, VILLEBRET, 33470295714, philnou@wanadoo.fr","latitude":"46.2046533163","longitude":"3.02932824312","date_saisie":"25/11/2024","date_depot":"18/03/2025","valide":"Oui","ppo":"Oui (10 postes)","type_carte":"Reprise","base":"1981-D03-12 COLETTES","fond":"Ortho","obsolete":false}},{"type":"Feature","geometry":{"type":"Polygon","coordinates":[[[3.0522,46.2006],[3.0548,46.2035],[3.0572,46.2009],[3.0525,46.2001],[3.0522,46.2006]]]},"properties":{"id_ffco":"2024-D03-127","nom":"CENTRE D'ACCUEIL LE VERT PLATEAU","_dept":"03","numero":"2024-D03-127","commune":"BELLENAVES","echelle":"1/2000","surface":"0.07 km²","format":"A4","annee":"2024","cartographes":"NOUAILLE Philippe","proprietaire":"03 - Allier","niveau":"Initiation, Scolaire","specialite":"CO à pied","latitude":"46.2014726626","longitude":"3.05464853354","date_saisie":"25/11/2024","date_depot":"19/06/2025","valide":"Oui","ppo":"Non","type_carte":"Nouvelle carte","fond":"Ortho","obsolete":false}},{"type":"Feature","geometry":{"type":"Polygon","coordinates":[[[3.1336,46.1802],[3.1336,46.206],[3.1708,46.206],[3.1708,46.1802],[3.1336,46.1802]]]},"properties":{"id_ffco":"2024-D03-126","nom":"TAXAT SENAT LE PEYROU CHARROUX","_dept":"03","numero":"2024-D03-126","commune":"TAXAT SENAT","echelle":"1/10000","surface":"8.22 km²","format":"A3","annee":"2024","cartographes":"NOUAILLE Philippe","proprietaire":"03 - Allier","niveau":"Départemental","specialite":"CO à pied","contacts":"NOUAILLE Philippe, 128 Route de la Chapelle, 03310, VILLEBRET, 0686725210, philnou@wanadoo.fr","latitude":"46.1930948065","longitude":"3.15219640732","date_saisie":"25/11/2024","date_depot":"18/03/2025","valide":"Oui","ppo":"Non","type_carte":"Nouvelle carte","fond":"Ortho","obsolete":false}},{"type":"Feature","geometry":{"type":"Polygon","coordinates":[[[2.6441,46.2744],[2.6441,46.2943],[2.671,46.2943],[2.671,46.2744],[2.6441,46.2744]]]},"properties":{"id_ffco":"2024-D03-125","nom":"GRAND NERIS LES BAINS CHAPELLE ST JOSEPH","_dept":"03","numero":"2024-D03-125","commune":"NERIS LES BAINS","echelle":"1/7500","surface":"4.61 km²","format":"A3","annee":"2024","cartographes":"NOUAILLE Philippe","proprietaire":"0309 - COMMENTRY AVENTURE PASSION 03","niveau":"Régional","specialite":"CO à pied","contacts":"NOUAILLE Philippe, 128 Route de la Chapelle, 03310, VILLEBRET, 0686725210, philnou@wanadoo.fr","latitude":"46.2843694205","longitude":"2.65753269196","date_saisie":"25/11/2024","date_depot":"18/03/2025","valide":"Non","ppo":"Non","type_carte":"Extrait","base":"2018-D03-100 NERIS LES BAINS","obsolete":false}},{"type":"Feature","geometry":{"type":"Polygon","coordinates":[[[3.2877,46.3103],[3.2881,46.312],[3.2923,46.3131],[3.2931,46.3147],[3.296,46.3146],[3.2972,46.3134],[3.2969,46.3099],[3.2957,46.3065],[3.2952,46.3047],[3.2943,46.3037],[3.2929,46.3021],[3.2928,46.3008],[3.2923,46.299],[3.2919,46.2975],[3.2915,46.296],[3.291,46.2946],[3.2884,46.2941],[3.2859,46.2937],[3.283,46.2942],[3.2811,46.2943],[3.2801,46.2943],[3.2802,46.2966],[3.2824,46.2982],[3.2826,46.2994],[3.2835,46.3011],[3.2841,46.3021],[3.2846,46.3033],[3.2856,46.3039],[3.287,46.3045],[3.2867,46.3054],[3.2858,46.3065],[3.2856,46.308],[3.2862,46.3094],[3.2869,46.31],[3.2877,46.3103]]]},"properties":{"id_ffco":"2021-D03-124","nom":"Saint Pourçain Sur Sioule","_dept":"03","numero":"2021-D03-124","commune":"Saint Pourçain Sur Sioule","echelle":"1/6000","surface":"1.62 km²","format":"A3","annee":"2021","cartographes":"Philippe NOUAILLE","proprietaire":"0308 - CHANTELLE SPORTS NATURE","niveau":"Départemental","specialite":"CO à pied","contacts":"Comité départemental de Course d'Orientation de l'Allier, 03200, LE VERNET, http://www.cdco03.jimdo.com/","latitude":"46.3036317267","longitude":"3.28942856965","date_saisie":"01/12/2023","date_depot":"09/07/2024","valide":"Oui","ppo":"Non","type_carte":"Reprise","base":"2021-D03-112 SAINT POURCAIN SUR SIOULE","fond":"Ortho","obsolete":false}},{"type":"Feature","geometry":{"type":"Polygon","coordinates":[[[3.2883,46.5498],[3.2895,46.5485],[3.2908,46.5474],[3.2895,46.5455],[3.288,46.5443],[3.2872,46.5427],[3.285,46.5419],[3.2799,46.5422],[3.2773,46.5427],[3.2766,46.5443],[3.2769,46.5452],[3.2791,46.5476],[3.2839,46.549],[3.2857,46.55],[3.287,46.5497],[3.2883,46.5498]]]},"properties":{"id_ffco":"2023-D03-123","nom":"LYCEE AGRICOLE DU BOURBONNAIS","_dept":"03","numero":"2023-D03-123","commune":"MOULINS","echelle":"1/4000","surface":"0.65 km²","format":"A4","annee":"2023","cartographes":"NOUAILLE Philippe","proprietaire":"03 - Allier","niveau":"Initiation, Scolaire","specialite":"CO à pied","latitude":"46.5456726106","longitude":"3.28372088688","date_saisie":"27/11/2023","date_depot":"04/07/2024","valide":"Oui","ppo":"Non","type_carte":"Nouvelle carte","fond":"Ortho","obsolete":false}},{"type":"Feature","geometry":{"type":"Polygon","coordinates":[[[2.6349,46.2718],[2.6371,46.2726],[2.6392,46.2728],[2.6435,46.2742],[2.6462,46.275],[2.6483,46.275],[2.6487,46.2718],[2.6484,46.2682],[2.6504,46.268],[2.6496,46.266],[2.6458,46.2646],[2.6427,46.263],[2.6411,46.2625],[2.6378,46.2626],[2.6344,46.2662],[2.6325,46.2694],[2.6326,46.2711],[2.6342,46.2715],[2.6349,46.2718]]]},"properties":{"id_ffco":"2023-D03-122","nom":"VILLEBRET","_dept":"03","numero":"2023-D03-122","commune":"VILLEBRET","echelle":"1/4000","surface":"1.27 km²","format":"A3","annee":"2023","cartographes":"NOUAILLE Philippe","proprietaire":"0309 - COMMENTRY AVENTURE PASSION 03","niveau":"Départemental","specialite":"CO à pied","latitude":"46.2686791934","longitude":"2.64157310124","date_saisie":"27/11/2023","date_depot":"09/07/2024","valide":"Oui","ppo":"Non","type_carte":"Nouvelle carte","fond":"Ortho","obsolete":false}},{"type":"Feature","geometry":{"type":"Polygon","coordinates":[[[2.7366,46.2937],[2.7356,46.2903],[2.7287,46.2882],[2.7303,46.2841],[2.7339,46.2816],[2.7387,46.2792],[2.7413,46.2765],[2.7143,46.2628],[2.7114,46.2591],[2.7037,46.2528],[2.7044,46.2488],[2.7076,46.2436],[2.7116,46.2391],[2.715,46.2361],[2.7327,46.2201],[2.7406,46.2171],[2.749,46.213],[2.7507,46.216],[2.7682,46.2119],[2.7759,46.2087],[2.7833,46.2073],[2.7943,46.206],[2.7983,46.2202],[2.7957,46.2297],[2.7847,46.2405],[2.7801,46.2547],[2.7792,46.2645],[2.7734,46.2774],[2.7732,46.2839],[2.7667,46.2927],[2.7366,46.2937]]]},"properties":{"id_ffco":"2023-D03-121","nom":"COMMENTRY VTTO","_dept":"03","numero":"2023-D03-121","commune":"COMMENTRY","echelle":"1/20000","surface":"42.19 km²","format":"A3","annee":"2023","cartographes":"NOUAILLE Philippe","proprietaire":"0309 - COMMENTRY AVENTURE PASSION 03","niveau":"Régional","specialite":"CO à VTT","latitude":"46.2480053377","longitude":"2.75332218359","date_saisie":"27/11/2023","date_depot":"18/03/2025","valide":"Oui","ppo":"Non","type_carte":"Nouvelle carte","fond":"Ortho","obsolete":false}},{"type":"Feature","geometry":{"type":"Polygon","coordinates":[[[3.0134,46.2188],[3.0189,46.2189],[3.0247,46.2194],[3.0306,46.2185],[3.0366,46.2195],[3.0444,46.2209],[3.0475,46.2212],[3.0527,46.2203],[3.0563,46.2192],[3.0586,46.2196],[3.0652,46.2189],[3.0681,46.2185],[3.0708,46.2178],[3.0663,46.2133],[3.0648,46.2109],[3.0621,46.2089],[3.0586,46.2053],[3.0566,46.2029],[3.057,46.2008],[3.0536,46.1995],[3.0521,46.1974],[3.0448,46.195],[3.0391,46.1923],[3.0306,46.1868],[3.0244,46.1851],[3.0209,46.1851],[3.006,46.1903],[3.0024,46.1917],[2.9955,46.1891],[2.9912,46.1879],[2.9901,46.1916],[2.9906,46.1948],[2.9912,46.201],[2.9933,46.2034],[2.9971,46.2043],[2.9999,46.2051],[3.0018,46.2065],[3.0043,46.2083],[3.0048,46.2104],[3.0049,46.2131],[3.0048,46.2148],[3.0047,46.2162],[3.0058,46.2168],[3.0087,46.2178],[3.0097,46.2186],[3.0114,46.219],[3.0134,46.2188]]]},"properties":{"id_ffco":"2021-D03-119","nom":"Le Vert Plateau Forêt des Colettes","_dept":"03","numero":"2021-D03-119","commune":"BELLENAVES","echelle":"1/15000","surface":"15.63 km²","format":"A3","annee":"2021","cartographes":"NOUAILLE PHILIPPE","niveau":"Interrégional","specialite":"CO à VTT","contacts":"CAP03 Commentry Aventure Passion // Comité départemental de Course d'Orientation de l'Allier, 03200, LE VERNET, http://www.cdco03.jimdo.com/","latitude":"46.2043878163","longitude":"3.0278186377","date_saisie":"27/10/2021","date_depot":"08/03/2022","valide":"Oui","ppo":"Non","type_carte":"Reprise","base":"2015-D03-75 FORET DES COLETTES - le vert plateau","fond":"Ortho","obsolete":false}},{"type":"Feature","geometry":{"type":"Polygon","coordinates":[[[3.6336,46.2492],[3.6333,46.2501],[3.6373,46.2507],[3.6402,46.2504],[3.6406,46.2487],[3.6396,46.2475],[3.6396,46.2467],[3.6397,46.2458],[3.6389,46.2457],[3.6376,46.2457],[3.6369,46.2452],[3.6363,46.2447],[3.6358,46.2437],[3.634,46.2437],[3.6333,46.2481],[3.6336,46.2492]]]},"properties":{"id_ffco":"2021-D03-118","nom":"LAPALISSE","_dept":"03","numero":"2021-D03-118","commune":"LAPALISSE","echelle":"1/3000","surface":"0.31 km²","format":"A4","annee":"2021","cartographes":"PHILIPPE NOUAILLE","proprietaire":"03 - Allier","niveau":"Départemental","specialite":"CO à pied","contacts":"Comité départemental de Course d'Orientation de l'Allier, 03200, LE VERNET, http://www.cdco03.jimdo.com/","latitude":"46.2476980165","longitude":"3.63657306523","date_saisie":"12/10/2021","date_depot":"03/03/2022","valide":"Oui","ppo":"Non","type_carte":"Nouvelle carte","fond":"Ortho","obsolete":false}},{"type":"Feature","geometry":{"type":"Polygon","coordinates":[[[3.6258,46.2475],[3.6291,46.2477],[3.6296,46.2471],[3.6299,46.2461],[3.6283,46.2445],[3.6266,46.243],[3.6262,46.2427],[3.6253,46.2434],[3.6251,46.2446],[3.6244,46.2445],[3.6239,46.2449],[3.6236,46.2465],[3.6237,46.2475],[3.6258,46.2475]]]},"properties":{"id_ffco":"2021-D03-117","nom":"PLAINE SCOLAIRE","_dept":"03","numero":"2021-D03-117","commune":"LAPALISSE","echelle":"1/2500","surface":"0.17 km²","format":"A4","annee":"2021","cartographes":"PHILIPPE NOUAILLE","proprietaire":"03 - Allier","niveau":"Initiation, Scolaire","specialite":"CO à pied","contacts":"Comité départemental de Course d'Orientation de l'Allier, 03200, LE VERNET, http://www.cdco03.jimdo.com/","latitude":"46.2457382275","longitude":"3.6265785266","date_saisie":"12/10/2021","date_depot":"03/03/2022","valide":"Oui","ppo":"Oui (40 postes)","type_carte":"Reprise","base":"2015-D03-64 Lapalisse Plaine scolaire","fond":"Ortho","url":"http://lapalisse-tourisme.com/profiter-du-plein-air/course-d-orientation.html","obsolete":false}},{"type":"Feature","geometry":{"type":"Polygon","coordinates":[[[3.6359,46.2471],[3.637,46.2484],[3.6373,46.2485],[3.6376,46.2485],[3.6398,46.2455],[3.6399,46.2454],[3.6396,46.2453],[3.6384,46.2459],[3.6372,46.246],[3.6366,46.2462],[3.6359,46.2471]]]},"properties":{"id_ffco":"2021-D03-116","nom":"PARC FLORAL LAPALISSE","_dept":"03","numero":"2021-D03-116","commune":"LAPALISSE","echelle":"1/2000","surface":"0.05 km²","format":"A4","annee":"2021","cartographes":"PHILIPPE NOUAILLE","proprietaire":"03 - Allier","niveau":"Initiation, Scolaire","specialite":"CO à pied","contacts":"Comité départemental de Course d'Orientation de l'Allier, 03200, LE VERNET, http://www.cdco03.jimdo.com/ // OFFICE DU TOURISME DE LAPALISSE","latitude":"46.2468949862","longitude":"3.63770439659","date_saisie":"12/10/2021","date_depot":"03/03/2022","valide":"Oui","ppo":"Oui (25 postes)","type_carte":"Reprise","base":"2015-D03-63 Lapalisse Parc floral","fond":"Ortho","obsolete":false}},{"type":"Feature","geometry":{"type":"Polygon","coordinates":[[[3.2924,46.3061],[3.2933,46.3065],[3.2949,46.3048],[3.2948,46.3044],[3.2929,46.303],[3.2926,46.303],[3.2919,46.3036],[3.2916,46.3044],[3.2915,46.3049],[3.2917,46.3056],[3.2921,46.3059],[3.2924,46.3061]]]},"properties":{"id_ffco":"2021-D03-115","nom":"L'ILE DE LA RONDE SAINT POURCAIN SUR SIOULE","_dept":"03","numero":"2021-D03-115","commune":"SAINT POURCAIN SUR SIOULE","echelle":"1/2000","surface":"0.07 km²","format":"A4","annee":"2021","cartographes":"PHILIPPE NOUAILLE","proprietaire":"03 - Allier","niveau":"Initiation, Scolaire","specialite":"CO à pied","contacts":"Comité départemental de Course d'Orientation de l'Allier, 03200, LE VERNET, http://www.cdco03.jimdo.com/","latitude":"46.304741883","longitude":"3.29305347572","date_saisie":"12/10/2021","date_depot":"03/03/2022","valide":"Oui","ppo":"Oui (44 postes)","type_carte":"Reprise","base":"2014-D03-45 LA RONDE ET LES CORDELIERS SAINT POURCAIN","fond":"Ortho","obsolete":false}},{"type":"Feature","geometry":{"type":"Polygon","coordinates":[[[3.2941,46.3146],[3.2959,46.3141],[3.2969,46.3129],[3.2969,46.3115],[3.2964,46.31],[3.296,46.3096],[3.295,46.3083],[3.294,46.3082],[3.2929,46.3084],[3.2922,46.3086],[3.2934,46.3099],[3.2932,46.3109],[3.2926,46.3112],[3.2929,46.3123],[3.2953,46.3122],[3.2946,46.3129],[3.2944,46.3138],[3.2939,46.3143],[3.2941,46.3146]]]},"properties":{"id_ffco":"2021-D03-114","nom":"STADE DE LA MOUTTE SAINT POURCAIN SUR SIOULE","_dept":"03","numero":"2021-D03-114","commune":"SAINT POURCAIN SUR SIOULE","echelle":"1/2500","surface":"0.15 km²","format":"A4","annee":"2021","cartographes":"PHILIPPE NOUAILLE","proprietaire":"03 - Allier","niveau":"Initiation, Scolaire","specialite":"CO à pied","contacts":"Comité départemental de Course d'Orientation de l'Allier, 03200, LE VERNET, http://www.cdco03.jimdo.com/","latitude":"46.3111364401","longitude":"3.29482742417","date_saisie":"12/10/2021","date_depot":"08/03/2022","valide":"Oui","ppo":"Non","type_carte":"Nouvelle carte","fond":"Ortho","obsolete":false}},{"type":"Feature","geometry":{"type":"Polygon","coordinates":[[[3.293,46.3068],[3.295,46.3047],[3.2927,46.3026],[3.2919,46.2995],[3.2916,46.2968],[3.291,46.2951],[3.2892,46.2946],[3.2853,46.2942],[3.2814,46.2947],[3.2807,46.2946],[3.2834,46.2972],[3.2835,46.2988],[3.2833,46.2998],[3.2868,46.3028],[3.2865,46.3036],[3.2884,46.3056],[3.2906,46.3059],[3.293,46.3068]]]},"properties":{"id_ffco":"2021-D03-113","nom":"LES CORDELIERS","_dept":"03","numero":"2021-D03-113","commune":"SAINT POURCAIN SUR SIOULE","echelle":"1/4000","surface":"0.78 km²","format":"A3","annee":"2021","cartographes":"PHILIPPE NOUAILLE","proprietaire":"03 - Allier","niveau":"Départemental","specialite":"CO à pied","contacts":"Comité départemental de Course d'Orientation de l'Allier, 03200, LE VERNET, http://www.cdco03.jimdo.com/","latitude":"46.2998738237","longitude":"3.28837741261","date_saisie":"12/10/2021","date_depot":"08/03/2022","valide":"Oui","ppo":"Oui (44 postes)","type_carte":"Reprise","base":"2014-D03-45 LA RONDE ET LES CORDELIERS SAINT POURCAIN","fond":"Ortho","obsolete":false}},{"type":"Feature","geometry":{"type":"Polygon","coordinates":[[[3.2876,46.3134],[3.2916,46.312],[3.2926,46.3155],[3.2965,46.3136],[3.2961,46.3092],[3.2932,46.3065],[3.2949,46.3045],[3.2932,46.3031],[3.2913,46.3019],[3.2878,46.3019],[3.282,46.3042],[3.2844,46.3078],[3.2839,46.3091],[3.287,46.3104],[3.2876,46.3134]]]},"properties":{"id_ffco":"2021-D03-112","nom":"SAINT POURCAIN SUR SIOULE","_dept":"03","numero":"2021-D03-112","commune":"SAINT POURCAIN SUR SIOULE","echelle":"1/4000","surface":"0.99 km²","format":"A3","annee":"2021","cartographes":"PHILIPPE NOUAILLE","proprietaire":"03 - Allier","niveau":"Régional","specialite":"CO à pied","contacts":"Comité départemental de Course d'Orientation de l'Allier, 03200, LE VERNET, http://www.cdco03.jimdo.com/","latitude":"46.307858403","longitude":"3.28996351554","date_saisie":"12/10/2021","date_depot":"08/03/2022","valide":"Oui","ppo":"Oui (15 postes)","type_carte":"Reprise","base":"2014-D03-44 LES ANCIENS REMPARTS centre ville SAINT POURCAIN","fond":"Ortho","obsolete":false}},{"type":"Feature","geometry":{"type":"Polygon","coordinates":[[[3.4265,46.1185],[3.4283,46.1185],[3.4294,46.1184],[3.4301,46.118],[3.43,46.1176],[3.4295,46.1174],[3.4278,46.1175],[3.427,46.1177],[3.4265,46.1181],[3.4264,46.1182],[3.4264,46.1183],[3.4265,46.1185]]]},"properties":{"id_ffco":"2021-D03-111","nom":"PARC DU SOLEIL VICHY","_dept":"03","numero":"2021-D03-111","commune":"VICHY","echelle":"1/1000","surface":"0.03 km²","format":"A4","annee":"2021","cartographes":"PHILIPPE NOUAILLE","proprietaire":"03 - Allier","niveau":"Initiation, Scolaire","specialite":"CO à pied","contacts":"SERVICE DES SPORTS VICHY COMMUNAUTE","latitude":"46.1179730799","longitude":"3.42833328393","date_saisie":"12/10/2021","date_depot":"08/03/2022","valide":"Oui","ppo":"Oui (26 postes)","type_carte":"Nouvelle carte","fond":"Ortho","obsolete":false}},{"type":"Feature","geometry":{"type":"Polygon","coordinates":[[[3.4163,46.1183],[3.4182,46.1176],[3.4298,46.1162],[3.4316,46.116],[3.4331,46.1156],[3.4341,46.1145],[3.4335,46.1135],[3.4278,46.1117],[3.4246,46.1104],[3.4225,46.1088],[3.4196,46.1133],[3.4144,46.1151],[3.413,46.1157],[3.413,46.1161],[3.4163,46.1183]]]},"properties":{"id_ffco":"2021-D03-110","nom":"BELLERIVE SUR ALLIER","_dept":"03","numero":"2021-D03-110","commune":"VICHY","echelle":"1/4000","surface":"0.78 km²","format":"A4","annee":"2021","cartographes":"PHILIPPE NOUAILLE","proprietaire":"03 - Allier","niveau":"Départemental","specialite":"CO à pied","contacts":"SERVICE DES SPORTS VICHY COMMUNAUTE","latitude":"46.1143441548","longitude":"3.42365968323","date_saisie":"12/10/2021","date_depot":"08/03/2022","valide":"Oui","ppo":"Non","type_carte":"Nouvelle carte","fond":"Ortho","obsolete":false}},{"type":"Feature","geometry":{"type":"Polygon","coordinates":[[[3.3987,46.1412],[3.4005,46.1413],[3.4015,46.1417],[3.4017,46.143],[3.4068,46.1433],[3.4093,46.1432],[3.41,46.1421],[3.4105,46.1405],[3.4112,46.1374],[3.4116,46.1363],[3.4114,46.1355],[3.4104,46.1346],[3.4093,46.1338],[3.4083,46.1332],[3.4075,46.1327],[3.4066,46.1323],[3.406,46.1321],[3.4052,46.1322],[3.4046,46.1322],[3.4041,46.132],[3.4032,46.1311],[3.4028,46.1307],[3.4023,46.1306],[3.4018,46.1306],[3.4013,46.1315],[3.3988,46.1367],[3.3977,46.1402],[3.3982,46.1411],[3.3987,46.1412]]]},"properties":{"id_ffco":"2020-D03-109","nom":"Parc Omnisports Pierre Coulon VICHY","_dept":"03","numero":"2020-D03-109","commune":"BELLERIVE/ALLIER","echelle":"1/4000","surface":"1.05 km²","format":"A3","annee":"2020","cartographes":"NOUAILLE PHILIPPE","proprietaire":"03 - Allier","niveau":"Départemental","specialite":"CO à pied","latitude":"46.1376358192","longitude":"3.40478785709","date_saisie":"28/08/2020","date_depot":"17/09/2020","valide":"Oui","ppo":"Oui (42 postes)","type_carte":"Reprise","base":"2008-D03-31 Centre Omnisport et CREPS Vichy","fond":"Ortho","obsolete":false}},{"type":"Feature","geometry":{"type":"Polygon","coordinates":[[[3.4154,46.1325],[3.4199,46.134],[3.4274,46.1334],[3.4324,46.1255],[3.4362,46.1171],[3.4337,46.1163],[3.4277,46.1172],[3.4223,46.1181],[3.418,46.1197],[3.4155,46.1218],[3.4145,46.1246],[3.415,46.1303],[3.4145,46.1322],[3.4154,46.1325]]]},"properties":{"id_ffco":"2020-D03-108","nom":"VICHY","_dept":"03","numero":"2020-D03-108","commune":"vichy","echelle":"1/5000","surface":"2.27 km²","format":"A4","annee":"2020","cartographes":"NOUAILLE PHILIPPE","proprietaire":"03 - Allier","niveau":"Régional","specialite":"CO à pied","contacts":"Comité départemental de Course d'Orientation de l'Allier, 03200, LE VERNET, http://www.cdco03.jimdo.com/","latitude":"46.1250349211","longitude":"3.42427622951","date_saisie":"03/07/2020","date_depot":"02/09/2020","valide":"Oui","ppo":"Non","type_carte":"Nouvelle carte","fond":"IGN","obsolete":false}},{"type":"Feature","geometry":null,"properties":{"id_ffco":"2020-D03-107","nom":"Lycée Madame De Staël","_dept":"03","numero":"2020-D03-107","echelle":"1/1500","surface":"None km²","format":"A5","annee":"2020","cartographes":"NOUAILLE PHILIPE","proprietaire":"0307 - LE VERNET SPORTS ET NATURE","niveau":"Initiation, Scolaire","specialite":"CO à pied","date_saisie":"03/07/2020","date_depot":"02/09/2020","valide":"Non","ppo":"Non","type_carte":"Nouvelle carte","fond":"Cadastre","obsolete":false}},{"type":"Feature","geometry":{"type":"Polygon","coordinates":[[[3.4601,46.0974],[3.4611,46.0962],[3.4599,46.0961],[3.4593,46.0962],[3.4586,46.0973],[3.4583,46.0987],[3.4577,46.0995],[3.4569,46.1],[3.4559,46.1008],[3.4544,46.1017],[3.4528,46.1025],[3.4514,46.1034],[3.4505,46.1045],[3.4501,46.1055],[3.4501,46.1065],[3.4491,46.1084],[3.4474,46.1094],[3.4472,46.1103],[3.4477,46.1111],[3.4479,46.1126],[3.4479,46.1136],[3.4481,46.1146],[3.4491,46.1156],[3.4505,46.1166],[3.4513,46.1166],[3.4526,46.1161],[3.4544,46.1165],[3.4571,46.1166],[3.4593,46.1173],[3.461,46.1173],[3.4626,46.1177],[3.4637,46.1174],[3.4653,46.117],[3.4659,46.1173],[3.4668,46.1173],[3.4676,46.1172],[3.4687,46.1172],[3.4703,46.1157],[3.4718,46.1143],[3.4725,46.1141],[3.474,46.1153],[3.4747,46.1161],[3.4752,46.1163],[3.4766,46.1154],[3.4769,46.1152],[3.4786,46.1143],[3.4797,46.1137],[3.4805,46.1133],[3.4812,46.1126],[3.4817,46.1104],[3.4838,46.1089],[3.4854,46.1093],[3.4868,46.1089],[3.4881,46.1081],[3.4888,46.1078],[3.4904,46.1068],[3.4923,46.1057],[3.4936,46.105],[3.4948,46.1046],[3.4945,46.1038],[3.4953,46.1025],[3.4954,46.1017],[3.4953,46.0995],[3.495,46.0962],[3.4948,46.0956],[3.4923,46.0956],[3.4907,46.0957],[3.4879,46.0967],[3.4846,46.0984],[3.4831,46.0997],[3.4825,46.1008],[3.4802,46.1001],[3.4757,46.0991],[3.4749,46.0989],[3.4743,46.0987],[3.4732,46.0982],[3.4718,46.098],[3.4702,46.0979],[3.469,46.0981],[3.4681,46.0993],[3.4672,46.1011],[3.4666,46.1006],[3.4648,46.1006],[3.4639,46.1007],[3.4628,46.1005],[3.4618,46.1004],[3.4609,46.0998],[3.4606,46.0989],[3.4604,46.098],[3.4601,46.0974]]]},"properties":{"id_ffco":"2020-D03-106","nom":"LE VERNET","_dept":"03","numero":"2020-D03-106","commune":"LE VERNET","echelle":"1/10000","surface":"5.75 km²","format":"A3","annee":"2020","proprietaire":"03 - Allier","niveau":"Interrégional","specialite":"CO à pied","contacts":"Comité départemental de Course d'Orientation de l'Allier, 03200, LE VERNET, http://www.cdco03.jimdo.com/ // Ligue Auvergne de Course d'Orientation, 04 73 83 94 48, lauvco@orange.fr","latitude":"46.1068727429","longitude":"3.47014792196","date_saisie":"27/02/2020","date_depot":"02/09/2020","valide":"Oui","ppo":"Oui (38 postes)","type_carte":"Nouvelle carte","fond":"Ortho","obsolete":false}},{"type":"Feature","geometry":{"type":"Polygon","coordinates":[[[3.1602,46.3027],[3.1714,46.3057],[3.1766,46.3023],[3.1807,46.2996],[3.1786,46.2971],[3.1783,46.2954],[3.1805,46.2942],[3.1818,46.293],[3.1819,46.2906],[3.1687,46.2884],[3.1623,46.2934],[3.1591,46.2968],[3.1602,46.3027]]]},"properties":{"id_ffco":"2019-D03-105","nom":"BOIS DES MOSIERES","_dept":"03","numero":"2019-D03-105","commune":"FLEURIEL","echelle":"1/7500","surface":"2.29 km²","format":"A4","annee":"2019","cartographes":"PHILIPPE NOUAILLE","proprietaire":"0308 - CHANTELLE SPORTS NATURE","niveau":"Régional","specialite":"CO à pied","contacts":"Comité départemental de Course d'Orientation de l'Allier, 03200, LE VERNET, http://www.cdco03.jimdo.com/","latitude":"46.2969061695","longitude":"3.17034553406","date_saisie":"11/12/2019","date_depot":"18/02/2020","valide":"Oui","ppo":"Non","type_carte":"Nouvelle carte","fond":"Ortho","obsolete":false}},{"type":"Feature","geometry":{"type":"Polygon","coordinates":[[[3.1606,46.3027],[3.1711,46.3059],[3.1739,46.3051],[3.1755,46.3036],[3.1763,46.3029],[3.1789,46.3009],[3.1811,46.2997],[3.1803,46.2964],[3.1802,46.2944],[3.1812,46.2935],[3.1816,46.2903],[3.1828,46.2883],[3.187,46.2848],[3.187,46.2836],[3.1811,46.2818],[3.1795,46.281],[3.1753,46.2811],[3.1756,46.2836],[3.1665,46.29],[3.1619,46.2937],[3.1577,46.2982],[3.1584,46.3021],[3.1606,46.3027]]]},"properties":{"id_ffco":"2019-D03-104","nom":"FLEURIEL","_dept":"03","numero":"2019-D03-104","commune":"FLEURIEL","echelle":"1/10000","surface":"3.29 km²","format":"A4","annee":"2019","cartographes":"PHILIPPE NOUAILLE","proprietaire":"0308 - CHANTELLE SPORTS NATURE","niveau":"Régional","specialite":"CO à pied","latitude":"46.2942431115","longitude":"3.17237471978","date_saisie":"11/12/2019","date_depot":"18/02/2020","valide":"Oui","ppo":"Non","type_carte":"Nouvelle carte","fond":"Ortho","obsolete":false}},{"type":"Feature","geometry":{"type":"Polygon","coordinates":[[[2.7257,46.3003],[2.7197,46.2962],[2.7194,46.2922],[2.7161,46.2896],[2.7162,46.2842],[2.7214,46.2828],[2.7307,46.2834],[2.7311,46.285],[2.7281,46.2886],[2.7365,46.2937],[2.7378,46.2952],[2.7307,46.2995],[2.7257,46.3003]]]},"properties":{"id_ffco":"2019-D03-103","nom":"Bois des Forges","_dept":"03","numero":"2019-D03-103","commune":"Ville de Commentry","echelle":"1/7500","surface":"1.98 km²","format":"A4","annee":"2019","cartographes":"Philippe NOUAILLE","proprietaire":"0309 - COMMENTRY AVENTURE PASSION 03","niveau":"Départemental","specialite":"CO à pied","contacts":"Service des sports, PISCINE DE COMMENTRY, 03600, COMMENTRY, cap03.raid@gmail.com","latitude":"46.2913040436","longitude":"2.72561374991","date_saisie":"21/11/2019","date_depot":"18/02/2020","valide":"Oui","ppo":"Oui (30 postes)","type_carte":"Nouvelle carte","fond":"Ortho","obsolete":false}},{"type":"Feature","geometry":{"type":"Polygon","coordinates":[[[2.7169,46.2872],[2.7172,46.2909],[2.72,46.2936],[2.7207,46.2975],[2.7231,46.3003],[2.7291,46.2996],[2.7311,46.299],[2.7321,46.296],[2.7344,46.2948],[2.7368,46.2941],[2.7414,46.2942],[2.7446,46.296],[2.7462,46.2973],[2.7484,46.2984],[2.7491,46.2951],[2.7503,46.291],[2.7522,46.2879],[2.7521,46.2859],[2.7531,46.2844],[2.7489,46.2829],[2.7453,46.2814],[2.7406,46.2818],[2.735,46.2819],[2.7298,46.2838],[2.7239,46.2843],[2.7184,46.2849],[2.7169,46.2872]]]},"properties":{"id_ffco":"2019-D03-102","nom":"COMMENTRY","_dept":"03","numero":"2019-D03-102","commune":"Ville de Commentry","echelle":"1/7500","surface":"3.89 km²","format":"A3","annee":"2019","cartographes":"Philippe NOUAILLE","proprietaire":"0309 - COMMENTRY AVENTURE PASSION 03","niveau":"Régional","specialite":"CO à pied","contacts":"Comité départemental de Course d'Orientation de l'Allier, 03200, LE VERNET, http://www.cdco03.jimdo.com/","latitude":"46.2898368445","longitude":"2.73449569668","date_saisie":"21/11/2019","date_depot":"18/02/2020","valide":"Oui","ppo":"Oui (30 postes)","type_carte":"Nouvelle carte","fond":"Ortho","obsolete":false}},{"type":"Feature","geometry":{"type":"Polygon","coordinates":[[[2.5401,46.3605],[2.5485,46.3589],[2.549,46.3583],[2.5465,46.3549],[2.544,46.3559],[2.543,46.3534],[2.5387,46.3553],[2.5372,46.3576],[2.5402,46.3603],[2.5401,46.3606],[2.5401,46.3605]]]},"properties":{"id_ffco":"2019-D03-101","nom":"DOMERAT LES STADES","_dept":"03","numero":"2019-D03-101","commune":"DOMERAT","echelle":"1/3500","surface":"0.42 km²","format":"A4","annee":"2019","cartographes":"Philippe NOUAILLE","proprietaire":"0309 - COMMENTRY AVENTURE PASSION 03","niveau":"Initiation, Scolaire","specialite":"CO à pied","latitude":"46.3572993538","longitude":"2.54281080854","date_saisie":"22/11/2019","date_depot":"18/02/2020","valide":"Oui","ppo":"Non","type_carte":"Nouvelle carte","fond":"Ortho","obsolete":false}},{"type":"Feature","geometry":null,"properties":{"id_ffco":"2019-D03-10000","nom":"test","_dept":"03","numero":"2019-D03-10000","surface":"None km²","annee":"2019","date_saisie":"06/09/2019","valide":"Non","ppo":"Non","obsolete":false}},{"type":"Feature","geometry":{"type":"Polygon","coordinates":[[[2.6529,46.2941],[2.6522,46.2923],[2.6503,46.2919],[2.6466,46.2914],[2.6466,46.2878],[2.6478,46.2853],[2.6497,46.2821],[2.651,46.2819],[2.656,46.2806],[2.6638,46.282],[2.6662,46.2803],[2.6713,46.2813],[2.6711,46.2822],[2.6672,46.2848],[2.6719,46.2866],[2.6684,46.2902],[2.6584,46.294],[2.657,46.2954],[2.6526,46.2953],[2.6529,46.2941]]]},"properties":{"id_ffco":"2018-D03-100","nom":"NERIS LES BAINS","_dept":"03","numero":"2018-D03-100","commune":"NERIS LES BAINS","echelle":"1/5500","surface":"2.19 km²","format":"A3","annee":"2018","cartographes":"Philippe NOUAILLE","proprietaire":"0309 - COMMENTRY AVENTURE PASSION 03","niveau":"Régional","specialite":"CO à pied","contacts":"Comité départemental de Course d'Orientation de l'Allier, 03200, LE VERNET, http://www.cdco03.jimdo.com/","latitude":"46.2872020017","longitude":"2.65843558075","date_saisie":"22/11/2019","date_depot":"18/02/2020","valide":"Oui","ppo":"Non","type_carte":"Nouvelle carte","fond":"Ortho","obsolete":false}}]}