{"type":"FeatureCollection","features":[{"type":"Feature","geometry":null,"properties":{"id_ffco":"14","nom":"Bois de Peyrolles","_dept":"03","numero":"????-D03-9999","commune":"Ebreuil","surface":"None km²","latitude":"46.1161393","longitude":"3.0881671","valide":"Non","ppo":"Oui","obsolete":true}},{"type":"Feature","geometry":null,"properties":{"id_ffco":"1003","nom":"FORET CHABRIERES","_dept":"03","numero":"1981-D03-9993","commune":"GUERET","echelle":"1/15000","surface":"0.0 km²","annee":"1981","proprietaire":"0301","niveau":"Interrégional","specialite":"CO à pied","latitude":"46.4110586","longitude":"3.257566","valide":"Non","ppo":"Non","obsolete":true}},{"type":"Feature","geometry":null,"properties":{"id_ffco":"1001","nom":"FORET LESPINASSE","_dept":"03","numero":"1981-D03-9991","commune":"MOULIN","echelle":"1/20000","surface":"8.4 km²","annee":"1981","proprietaire":"0301","niveau":"Interrégional","specialite":"CO à pied","latitude":"43.1548404","longitude":"0.0981694","valide":"Non","ppo":"Non","obsolete":true}},{"type":"Feature","geometry":null,"properties":{"id_ffco":"15","nom":"La Loge des Gardes","_dept":"03","numero":"????-D03-9990","commune":"Laprugne","echelle":"1/10000","surface":"None km²","format":"A4","specialite":"CO à pied","latitude":"45.9863276","longitude":"3.7418455","valide":"Non","ppo":"Oui (40 postes)","obsolete":true}},{"type":"Feature","geometry":{"type":"Polygon","coordinates":[[[3.8015,46.0177],[3.8047,46.0178],[3.8058,46.0171],[3.8072,46.0164],[3.8079,46.0154],[3.8088,46.0143],[3.8094,46.0127],[3.8098,46.012],[3.81,46.0108],[3.81,46.008],[3.81,46.0067],[3.8098,46.0042],[3.8095,46.0039],[3.8093,46.003],[3.8095,46.0016],[3.8105,46.001],[3.8109,46.0004],[3.8124,45.9999],[3.8144,45.9993],[3.8149,45.9993],[3.8149,45.9985],[3.8151,45.9978],[3.8148,45.9959],[3.8146,45.9948],[3.8133,45.9937],[3.8129,45.9931],[3.799,45.9926],[3.7986,45.9937],[3.7983,45.9952],[3.7975,45.9964],[3.7964,45.9972],[3.796,45.9979],[3.7952,45.9984],[3.7946,46.0019],[3.794,46.0025],[3.7936,46.0032],[3.7942,46.0048],[3.7951,46.0063],[3.7951,46.0068],[3.7957,46.008],[3.7953,46.0096],[3.7961,46.0106],[3.7973,46.012],[3.7973,46.0126],[3.7967,46.0135],[3.796,46.0146],[3.7964,46.0156],[3.7968,46.0168],[3.797,46.0176],[3.7973,46.0177],[3.8015,46.0177]]]},"properties":{"id_ffco":"7506","nom":"La Loge des Gardes","_dept":"03","numero":"2012-D03-76","commune":"LAPRUGNE","echelle":"1/10000","surface":"3.17 km²","format":"A3","annee":"2012","cartographes":"Isabelle Brunet","niveau":"Régional","specialite":"CO à pied","contacts":"Ligue Auvergne de Course d'Orientation, 04 73 83 94 48, lauvco@orange.fr","latitude":"46.0043014816","longitude":"3.80350756844","date_saisie":"23/10/2014","valide":"Non","ppo":"Oui (30 postes)","type_carte":"Reprise","fond":"Ortho","obsolete":true}},{"type":"Feature","geometry":{"type":"Polygon","coordinates":[[[3.8051,46.0531],[3.8031,46.0532],[3.8011,46.0538],[3.7998,46.0548],[3.7981,46.0544],[3.7976,46.0535],[3.7974,46.0532],[3.796,46.0541],[3.7949,46.0544],[3.7935,46.0563],[3.791,46.0568],[3.7862,46.0569],[3.7854,46.0573],[3.7853,46.0582],[3.7849,46.0584],[3.7846,46.0564],[3.7859,46.0535],[3.7869,46.0522],[3.7862,46.052],[3.7835,46.0525],[3.7824,46.0525],[3.7815,46.0524],[3.7771,46.0511],[3.7756,46.0491],[3.7746,46.0471],[3.7736,46.0465],[3.7761,46.0445],[3.7774,46.0451],[3.779,46.0448],[3.7776,46.0432],[3.7785,46.0418],[3.7782,46.0414],[3.7775,46.0416],[3.7771,46.0398],[3.7776,46.0363],[3.7778,46.0342],[3.7781,46.033],[3.7784,46.0311],[3.779,46.0278],[3.7805,46.0273],[3.7817,46.0268],[3.7832,46.0275],[3.7852,46.028],[3.7872,46.0277],[3.7911,46.0269],[3.7928,46.026],[3.7979,46.0255],[3.8052,46.0192],[3.8009,46.0244],[3.8019,46.0252],[3.8038,46.0252],[3.807,46.0244],[3.8097,46.0233],[3.8116,46.024],[3.8144,46.025],[3.8131,46.0282],[3.8136,46.0321],[3.8129,46.0333],[3.8142,46.0345],[3.8136,46.0397],[3.8099,46.0417],[3.8067,46.0466],[3.8078,46.0487],[3.8051,46.0531]]]},"properties":{"id_ffco":"8559","nom":"La grande Borne - la loge des gardes","_dept":"03","numero":"2015-D03-74","commune":"ST NICOLAS DES BIEFS","echelle":"1/10000","surface":"8.2 km²","format":"A3","annee":"2015","cartographes":"CIGOS,CHROMY,LENHART,POTSTEJNSKY","proprietaire":"03 - Allier","niveau":"National, International","specialite":"CO à pied","latitude":"46.0394602835","longitude":"3.79477890667","date_saisie":"27/08/2015","valide":"Non","ppo":"Non","type_carte":"Reprise","base":"????-D03-9990 La Loge des Gardes","fond":"Ortho","obsolete":true}},{"type":"Feature","geometry":{"type":"Polygon","coordinates":[[[3.6957,45.9654],[3.6948,45.9651],[3.6945,45.9653],[3.6927,45.9664],[3.6915,45.9655],[3.6893,45.9653],[3.6888,45.9646],[3.6848,45.9627],[3.6845,45.9615],[3.685,45.9606],[3.6848,45.9599],[3.6874,45.9607],[3.6883,45.9605],[3.6893,45.9588],[3.689,45.9577],[3.686,45.9563],[3.6854,45.9555],[3.6858,45.9542],[3.6857,45.9527],[3.6891,45.9528],[3.691,45.9524],[3.6936,45.9503],[3.7004,45.9507],[3.702,45.9524],[3.7005,45.9553],[3.6987,45.9564],[3.6987,45.9588],[3.6987,45.9605],[3.6979,45.9618],[3.6991,45.9626],[3.6996,45.9649],[3.6957,45.9654]]]},"properties":{"id_ffco":"8425","nom":"LAVOINE foyer du Montoncel","_dept":"03","numero":"2008-D03-72","commune":"LAVOINE","echelle":"1/10000","surface":"1.56 km²","format":"A4","annee":"2008","niveau":"Régional","specialite":"CO à pied","latitude":"45.9579782976","longitude":"3.69338291982","date_saisie":"07/05/2015","valide":"Non","ppo":"Non","type_carte":"Nouvelle carte","fond":"Ortho","obsolete":true}},{"type":"Feature","geometry":{"type":"Polygon","coordinates":[[[3.6246,46.2475],[3.6247,46.2469],[3.6238,46.2468],[3.624,46.245],[3.6246,46.2451],[3.6247,46.2446],[3.6252,46.2446],[3.6253,46.2435],[3.6261,46.2426],[3.6266,46.243],[3.6282,46.2446],[3.6297,46.2462],[3.6278,46.2461],[3.6277,46.2477],[3.6246,46.2475]]]},"properties":{"id_ffco":"8418","nom":"Lapalisse Plaine scolaire","_dept":"03","numero":"2015-D03-64","commune":"Lapalisse","echelle":"1/2500","surface":"0.14 km²","format":"A4","annee":"2015","niveau":"Initiation, Scolaire","specialite":"CO à pied","latitude":"46.2455111955","longitude":"3.62634306971","date_saisie":"07/05/2015","valide":"Non","ppo":"Non","type_carte":"Nouvelle carte","fond":"Ortho","obsolete":true}},{"type":"Feature","geometry":{"type":"Polygon","coordinates":[[[3.6359,46.247],[3.6381,46.2474],[3.6383,46.2471],[3.6386,46.2472],[3.6392,46.2466],[3.6402,46.245],[3.6392,46.245],[3.6388,46.2455],[3.638,46.2457],[3.6365,46.2459],[3.6359,46.247]]]},"properties":{"id_ffco":"8417","nom":"Lapalisse Parc floral","_dept":"03","numero":"2015-D03-63","commune":"Lapalisse","echelle":"1/1500","surface":"0.04 km²","format":"A4","annee":"2015","niveau":"Initiation, Scolaire","specialite":"CO à pied","latitude":"46.2463169467","longitude":"3.63803079035","date_saisie":"07/05/2015","valide":"Non","ppo":"Non","type_carte":"Nouvelle carte","fond":"Ortho","obsolete":true}},{"type":"Feature","geometry":{"type":"Polygon","coordinates":[[[3.6422,46.2415],[3.6418,46.2422],[3.6401,46.2452],[3.6394,46.245],[3.6389,46.2445],[3.6387,46.2437],[3.6386,46.243],[3.6387,46.2424],[3.6396,46.2418],[3.6408,46.2413],[3.6422,46.2415]]]},"properties":{"id_ffco":"8416","nom":"Lapalisse Camping","_dept":"03","numero":"2015-D03-62","commune":"Lapalisse","echelle":"1/1500","surface":"0.07 km²","format":"A4","annee":"2015","niveau":"Initiation, Scolaire","specialite":"CO à pied","latitude":"46.2430306185","longitude":"3.64015396891","date_saisie":"07/05/2015","valide":"Non","ppo":"Non","type_carte":"Nouvelle carte","fond":"Ortho","obsolete":true}},{"type":"Feature","geometry":{"type":"Polygon","coordinates":[[[3.2933,46.3067],[3.2954,46.3045],[3.2934,46.303],[3.2927,46.3016],[3.2925,46.3],[3.2918,46.298],[3.2921,46.2962],[3.2909,46.2956],[3.2903,46.299],[3.2882,46.3023],[3.2882,46.3045],[3.289,46.3056],[3.2933,46.3067]]]},"properties":{"id_ffco":"7476","nom":"LA RONDE ET LES CORDELIERS SAINT POURCAIN","_dept":"03","numero":"2014-D03-45","commune":"SAINT POURCAIN","echelle":"1/4000","surface":"0.32 km²","format":"A3","annee":"2014","cartographes":"CAP ORIENTATION","niveau":"Initiation, Scolaire","specialite":"CO à pied","latitude":"46.302549602","longitude":"3.29130199393","date_saisie":"04/10/2014","valide":"Non","ppo":"Non","type_carte":"Nouvelle carte","fond":"Cadastre","obsolete":true}},{"type":"Feature","geometry":{"type":"Polygon","coordinates":[[[3.2886,46.3099],[3.2904,46.3088],[3.2933,46.3081],[3.2931,46.3071],[3.2918,46.3064],[3.2897,46.3055],[3.2888,46.3056],[3.2883,46.3058],[3.2869,46.3079],[3.2874,46.3097],[3.2886,46.3099]]]},"properties":{"id_ffco":"7475","nom":"LES ANCIENS REMPARTS centre ville SAINT POURCAIN","_dept":"03","numero":"2014-D03-44","commune":"SAINT POURCAIN","echelle":"1/3000","surface":"0.15 km²","format":"A4","annee":"2014","cartographes":"CAP ORIENTATION","niveau":"Régional","specialite":"Sprint (ISSOM)","latitude":"46.3076329434","longitude":"3.28971721516","date_saisie":"04/10/2014","valide":"Non","ppo":"Non","type_carte":"Nouvelle carte","fond":"Cadastre","obsolete":true}},{"type":"Feature","geometry":{"type":"Polygon","coordinates":[[[3.2938,46.3147],[3.2946,46.3135],[3.2946,46.3127],[3.2952,46.3121],[3.2947,46.3108],[3.2949,46.3093],[3.2938,46.3081],[3.2948,46.308],[3.2962,46.3092],[3.2967,46.3107],[3.2971,46.312],[3.2965,46.3136],[3.2953,46.3142],[3.2938,46.3147]]]},"properties":{"id_ffco":"7474","nom":"STADE DE LA MOUTTE SAINT POURCAIN","_dept":"03","numero":"2014-D03-43","commune":"SAINT POURCAIN","echelle":"1/3000","surface":"0.09 km²","format":"A4","annee":"2014","cartographes":"CAP ORIENTATION","niveau":"Initiation, Scolaire","specialite":"CO à pied","latitude":"46.3114437362","longitude":"3.29558341588","date_saisie":"04/10/2014","valide":"Non","ppo":"Non","type_carte":"Nouvelle carte","fond":"Cadastre","obsolete":true}},{"type":"Feature","geometry":{"type":"Polygon","coordinates":[[[3.4272,46.1185],[3.4268,46.1184],[3.4267,46.1181],[3.4268,46.1178],[3.4272,46.1176],[3.4277,46.1175],[3.4282,46.1175],[3.4289,46.1174],[3.4293,46.1175],[3.4296,46.1177],[3.4297,46.118],[3.4296,46.1182],[3.4294,46.1184],[3.4291,46.1185],[3.4272,46.1185]]]},"properties":{"id_ffco":"7465","nom":"PARC DU SOLEIL","_dept":"03","numero":"2012-D03-34","commune":"VICHY","echelle":"1/1000","surface":"0.02 km²","format":"A4","annee":"2012","cartographes":"Isabelle Brunet","proprietaire":"AU - Auvergne","niveau":"Initiation, Scolaire","specialite":"CO à pied","contacts":"Service des sports, PISCINE DE COMMENTRY, 03600, COMMENTRY, cap03.raid@gmail.com","latitude":"46.1179979384","longitude":"3.42819315789","date_saisie":"04/10/2014","date_depot":"04/12/2014","valide":"Oui","ppo":"Non","type_carte":"Nouvelle carte","fond":"Cadastre","obsolete":true}},{"type":"Feature","geometry":{"type":"Polygon","coordinates":[[[3.4023,46.1305],[3.4046,46.1324],[3.4064,46.1324],[3.4081,46.1332],[3.4081,46.1343],[3.41,46.1354],[3.4101,46.1359],[3.4113,46.1359],[3.4104,46.1387],[3.4076,46.1415],[3.4094,46.1422],[3.4083,46.1447],[3.4033,46.145],[3.4,46.1433],[3.3998,46.1411],[3.3977,46.1403],[3.3989,46.1366],[3.4,46.1343],[3.4023,46.1305]]]},"properties":{"id_ffco":"7462","nom":"Centre Omnisport et CREPS Vichy","_dept":"03","numero":"2008-D03-31","commune":"VICHY","echelle":"1/5000","surface":"1.06 km²","format":"A3","annee":"2008","cartographes":"Isabelle Brunet","proprietaire":"AU - Auvergne","niveau":"Départemental","specialite":"CO à pied","contacts":"espace du parc - Parc Omnisport de Vichy Bellerive, 03200, VICHY, 0470595100","latitude":"46.1383680326","longitude":"3.40431211699","date_saisie":"04/10/2014","date_depot":"04/12/2014","valide":"Oui","ppo":"Oui (24 postes)","type_carte":"Nouvelle carte","fond":"Cadastre","obsolete":true}},{"type":"Feature","geometry":{"type":"Polygon","coordinates":[[[3.4658,46.1043],[3.4666,46.107],[3.467,46.1096],[3.4718,46.1139],[3.475,46.1158],[3.4809,46.1126],[3.4826,46.1095],[3.4848,46.1092],[3.4861,46.1082],[3.4888,46.1072],[3.497,46.1046],[3.4996,46.1019],[3.5012,46.1013],[3.5056,46.1002],[3.5027,46.0969],[3.4967,46.0958],[3.491,46.0955],[3.4858,46.0971],[3.4797,46.0964],[3.4756,46.0992],[3.4735,46.1005],[3.4708,46.1011],[3.4658,46.1043]]]},"properties":{"id_ffco":"7461","nom":"LE VERNET","_dept":"03","numero":"2007-D03-30","commune":"VICHY","echelle":"1/10000","surface":"3.55 km²","format":"A4","annee":"2007","niveau":"Régional","specialite":"CO à pied","contacts":"MAIRIE DU VERNET, 03200","latitude":"46.1038876439","longitude":"3.48307916913","date_saisie":"04/10/2014","valide":"Non","ppo":"Oui (24 postes)","type_carte":"Nouvelle carte","obsolete":true}},{"type":"Feature","geometry":null,"properties":{"id_ffco":"3435","nom":"VITRAY","_dept":"03","numero":"2000-D03-29","commune":"VITRAY","echelle":"1/10000","surface":"8.0 km²","annee":"2000","proprietaire":"0301","specialite":"CO à pied","latitude":"46.6107934","longitude":"2.6600255","date_saisie":"25/01/2002","date_depot":"28/01/2002","valide":"Non","ppo":"Non","obsolete":true}},{"type":"Feature","geometry":null,"properties":{"id_ffco":"3431","nom":"ETANG DE TRONCAIS","_dept":"03","numero":"2000-D03-28","commune":"TRONCAIS","echelle":"1/10000","surface":"5.0 km²","annee":"2000","proprietaire":"0301","specialite":"CO à pied","latitude":"46.6599387","longitude":"2.6944136","date_saisie":"25/01/2002","date_depot":"28/01/2002","valide":"Non","ppo":"Non","obsolete":true}},{"type":"Feature","geometry":null,"properties":{"id_ffco":"3433","nom":"BOIS DE LA BROSSE 2","_dept":"03","numero":"2001-D03-26","commune":"MONTLUCON","echelle":"1/5000","surface":"0.3 km²","annee":"2001","proprietaire":"0301","specialite":"CO à pied","latitude":"46.3423938","longitude":"2.6075691","date_saisie":"25/01/2002","date_depot":"28/01/2002","valide":"Non","ppo":"Non","obsolete":true}},{"type":"Feature","geometry":null,"properties":{"id_ffco":"3434","nom":"LA FERME DE L'ETANG DE SAINT BONNET","_dept":"03","numero":"2000-D03-25","echelle":"1/2500","surface":"0.1 km²","annee":"2000","proprietaire":"0301","specialite":"CO à pied","latitude":"46.3115552","longitude":"3.4167655","date_saisie":"25/01/2002","date_depot":"28/01/2002","valide":"Non","ppo":"Non","obsolete":true}},{"type":"Feature","geometry":{"type":"Polygon","coordinates":[[[2.6697,46.575],[2.6758,46.5758],[2.6802,46.5749],[2.6833,46.568],[2.6738,46.5648],[2.6726,46.5638],[2.6724,46.5635],[2.6722,46.5632],[2.6721,46.5626],[2.672,46.5616],[2.672,46.561],[2.6727,46.5603],[2.6734,46.56],[2.674,46.5598],[2.6733,46.5591],[2.6728,46.5576],[2.6733,46.556],[2.6731,46.5551],[2.6726,46.5548],[2.6719,46.5542],[2.6742,46.5523],[2.6751,46.5527],[2.6809,46.5533],[2.6896,46.5588],[2.7021,46.5644],[2.7012,46.5658],[2.7009,46.5663],[2.7012,46.5681],[2.7011,46.5701],[2.7018,46.5701],[2.702,46.5705],[2.7015,46.5706],[2.7001,46.5707],[2.6983,46.5756],[2.698,46.5782],[2.6999,46.58],[2.7015,46.5812],[2.6962,46.5842],[2.6888,46.5839],[2.6825,46.5836],[2.68,46.5844],[2.6804,46.5838],[2.6812,46.5835],[2.671,46.582],[2.6709,46.583],[2.67,46.5843],[2.6684,46.5829],[2.6694,46.5819],[2.6698,46.5812],[2.67,46.5788],[2.6697,46.5775],[2.6697,46.575]]]},"properties":{"id_ffco":"7505","nom":"Saint Mayeul 2","_dept":"03","numero":"2000-D03-22","commune":"Montluçon","echelle":"1/10000","surface":"5.63 km²","format":"A4","annee":"2000","cartographes":"Beaudin Michel,Bausser Etienne,Cayet Stéphane,Patrick GRANGE","proprietaire":"03 - Allier","niveau":"Régional","specialite":"CO à pied","contacts":"Ecole de gendarmerie Montluçon, CSLG Section CO, 03102, Montluçon, 0470085000","latitude":"46.5702136607","longitude":"2.68595232465","date_saisie":"21/10/2014","date_depot":"04/12/2014","valide":"Oui","ppo":"Non","type_carte":"Reprise","base":"1981-D03-06 CHAPELLE ST MAYEUL","fond":"Cadastre","obsolete":true}},{"type":"Feature","geometry":{"type":"Polygon","coordinates":[[[2.6589,46.5708],[2.6578,46.5746],[2.6521,46.5765],[2.6525,46.5777],[2.6519,46.5798],[2.6502,46.5811],[2.6483,46.5821],[2.6493,46.5833],[2.6506,46.5854],[2.6511,46.5873],[2.6528,46.588],[2.6548,46.5894],[2.6567,46.5946],[2.6611,46.5942],[2.6667,46.5928],[2.6758,46.5956],[2.6848,46.596],[2.692,46.5959],[2.6917,46.5942],[2.694,46.5918],[2.6946,46.5912],[2.6952,46.5843],[2.6961,46.5724],[2.6815,46.5718],[2.6802,46.5749],[2.6758,46.5758],[2.6693,46.5749],[2.6696,46.5728],[2.67,46.5712],[2.6589,46.5708]]]},"properties":{"id_ffco":"7504","nom":"Les Chers Buissons","_dept":"03","numero":"2000-D03-20","commune":"Montluçon","echelle":"1/10000","surface":"7.88 km²","format":"A3","annee":"2000","cartographes":"Beaudin M,Bousset E,Cayet S,Grange P","proprietaire":"AU - Auvergne","niveau":"Interrégional","specialite":"CO à pied","contacts":"Ecole de gendarmerie Montluçon, CSLG Section CO, 03102, Montluçon, 0470085000","latitude":"46.5835922609","longitude":"2.67422967695","date_saisie":"21/10/2014","date_depot":"04/12/2014","valide":"Oui","ppo":"Non","type_carte":"Reprise","base":"1981-D03-06 CHAPELLE ST MAYEUL","fond":"Cadastre","obsolete":true}},{"type":"Feature","geometry":null,"properties":{"id_ffco":"1002","nom":"FORET TRONCAIS","_dept":"03","numero":"1981-D03-19","commune":"MONTLUCON","echelle":"1/15000","surface":"0.0 km²","annee":"1981","proprietaire":"0301","niveau":"Interrégional","specialite":"CO à pied","latitude":"46.3423938","longitude":"2.6075691","valide":"Non","ppo":"Non","obsolete":true}},{"type":"Feature","geometry":null,"properties":{"id_ffco":"3432","nom":"LES FORGES DE TRONCAIS","_dept":"03","numero":"2000-D03-18","commune":"TRONCAIS","echelle":"1/5000","surface":"1.0 km²","annee":"2000","proprietaire":"0301","specialite":"CO à pied","latitude":"46.6599387","longitude":"2.6944136","date_saisie":"25/01/2002","date_depot":"28/01/2002","valide":"Non","ppo":"Non","obsolete":true}},{"type":"Feature","geometry":{"type":"Polygon","coordinates":[[[3.402,46.1306],[3.4027,46.1306],[3.4045,46.1322],[3.4062,46.1324],[3.4083,46.1332],[3.4081,46.1343],[3.41,46.1353],[3.4102,46.1359],[3.4113,46.136],[3.4101,46.1394],[3.4095,46.1417],[3.4095,46.143],[3.4075,46.1442],[3.4002,46.1436],[3.3998,46.1419],[3.3999,46.1411],[3.3986,46.1408],[3.3978,46.1403],[3.399,46.1363],[3.4002,46.1337],[3.402,46.1306]]]},"properties":{"id_ffco":"1756","nom":"VICHY BELLERIVE","_dept":"03","numero":"1987-D03-17","commune":"VICHY","echelle":"1/5000","surface":"1.05 km²","annee":"1987","proprietaire":"AU - Auvergne","specialite":"CO à pied","latitude":"46.1380857258","longitude":"3.40443304776","valide":"Non","ppo":"Oui (24 postes)","obsolete":true}},{"type":"Feature","geometry":null,"properties":{"id_ffco":"1012","nom":"PRIEURES GROSBOIS","_dept":"03","numero":"1981-D03-16","commune":"MOULINS","echelle":"1/15000","surface":"14.0 km²","annee":"1981","proprietaire":"0301","niveau":"Interrégional","specialite":"CO à pied","latitude":"46.5661042","longitude":"3.3353369","valide":"Non","ppo":"Non","obsolete":true}},{"type":"Feature","geometry":null,"properties":{"id_ffco":"1011","nom":"PLANCHETTES","_dept":"03","numero":"1981-D03-15","commune":"MONTLUCON","echelle":"1/15000","surface":"8.5 km²","annee":"1981","proprietaire":"0301","niveau":"Interrégional","specialite":"CO à pied","latitude":"46.3423938","longitude":"2.6075691","valide":"Non","ppo":"Non","obsolete":true}},{"type":"Feature","geometry":null,"properties":{"id_ffco":"1755","nom":"ST JEAN","_dept":"03","numero":"1987-D03-14","commune":"CERILLY","echelle":"1/5000","surface":"0.4 km²","annee":"1987","proprietaire":"0301","specialite":"CO à pied","latitude":"46.6188817","longitude":"2.8210249","valide":"Non","ppo":"Non","obsolete":true}},{"type":"Feature","geometry":null,"properties":{"id_ffco":"1754","nom":"VAL DE LA MAGIEURE","_dept":"03","numero":"1987-D03-13","commune":"MONTLUCON","echelle":"1/5000","surface":"0.4 km²","annee":"1987","proprietaire":"0301","specialite":"CO à pied","latitude":"46.3423938","longitude":"2.6075691","valide":"Non","ppo":"Non","obsolete":true}},{"type":"Feature","geometry":null,"properties":{"id_ffco":"1010","nom":"COLETTES","_dept":"03","numero":"1981-D03-12","commune":"MONTLUCON","echelle":"1/15000","surface":"10.1 km²","annee":"1981","proprietaire":"0301","niveau":"Interrégional","specialite":"CO à pied","latitude":"46.3423938","longitude":"2.6075691","valide":"Non","ppo":"Non","obsolete":true}},{"type":"Feature","geometry":null,"properties":{"id_ffco":"1753","nom":"VIEUX MONTLUCON","_dept":"03","numero":"1987-D03-11","commune":"MONTLUCON","echelle":"1/2500","surface":"0.2 km²","annee":"1987","proprietaire":"0301","specialite":"CO à pied","latitude":"46.3423938","longitude":"2.6075691","valide":"Non","ppo":"Non","obsolete":true}},{"type":"Feature","geometry":null,"properties":{"id_ffco":"1009","nom":"FORET DREUILLE","_dept":"03","numero":"1981-D03-10","commune":"COSNE D'ALLIER","echelle":"1/15000","surface":"9.7 km²","annee":"1981","proprietaire":"0306","niveau":"Interrégional","specialite":"CO à pied","latitude":"46.5661042","longitude":"3.3353369","valide":"Non","ppo":"Non","obsolete":true}},{"type":"Feature","geometry":null,"properties":{"id_ffco":"2787","nom":"SUAVE","_dept":"03","numero":"1994-D03-09","echelle":"1/5000","surface":"0.0 km²","annee":"1994","specialite":"CO à pied","latitude":"46.3115552","longitude":"3.4167655","valide":"Non","ppo":"Non","obsolete":true}},{"type":"Feature","geometry":null,"properties":{"id_ffco":"1008","nom":"ETANG ST BONNET","_dept":"03","numero":"1981-D03-08","commune":"CERILLY","echelle":"1/15000","surface":"6.3 km²","annee":"1981","proprietaire":"0301","niveau":"Interrégional","specialite":"CO à pied","latitude":"46.6188817","longitude":"2.8210249","valide":"Non","ppo":"Non","obsolete":true}},{"type":"Feature","geometry":null,"properties":{"id_ffco":"1007","nom":"PRIEURES MOLADIER","_dept":"03","numero":"1981-D03-07","commune":"MOULINS","echelle":"1/15000","surface":"8.1 km²","annee":"1981","proprietaire":"0306","niveau":"Interrégional","specialite":"CO à pied","latitude":"46.5661042","longitude":"3.3353369","valide":"Non","ppo":"Non","obsolete":true}},{"type":"Feature","geometry":null,"properties":{"id_ffco":"1006","nom":"CHAPELLE ST MAYEUL","_dept":"03","numero":"1981-D03-06","commune":"CERILLY","echelle":"1/15000","surface":"9.8 km²","annee":"1981","proprietaire":"0301","niveau":"Interrégional","specialite":"CO à pied","latitude":"46.6188817","longitude":"2.8210249","valide":"Non","ppo":"Non","obsolete":true}},{"type":"Feature","geometry":null,"properties":{"id_ffco":"1005","nom":"FORET MARCENAT","_dept":"03","numero":"1981-D03-05","commune":"VICHY","echelle":"1/15000","surface":"4.0 km²","annee":"1981","proprietaire":"0303","niveau":"Interrégional","specialite":"CO à pied","latitude":"46.1230655","longitude":"3.4223971","valide":"Non","ppo":"Non","obsolete":true}},{"type":"Feature","geometry":{"type":"Polygon","coordinates":[[[2.534,46.333],[2.5321,46.3341],[2.5303,46.3351],[2.5275,46.3365],[2.5266,46.3371],[2.525,46.338],[2.5233,46.3391],[2.5228,46.3393],[2.5226,46.3401],[2.5212,46.3404],[2.5202,46.3401],[2.5194,46.3395],[2.5187,46.3386],[2.5178,46.3376],[2.5174,46.3373],[2.5181,46.3359],[2.5192,46.3345],[2.5197,46.334],[2.5208,46.3334],[2.522,46.3324],[2.5225,46.3312],[2.5235,46.331],[2.5258,46.3315],[2.5279,46.3318],[2.5284,46.3315],[2.5295,46.3318],[2.5302,46.332],[2.5313,46.3315],[2.5329,46.3317],[2.534,46.333]]]},"properties":{"id_ffco":"1752","nom":"MERY","_dept":"03","numero":"1987-D03-04","commune":"MONTLUCON","echelle":"1/5000","surface":"0.68 km²","annee":"1987","proprietaire":"0301","specialite":"CO à pied","latitude":"46.33508757","longitude":"2.52463466775","valide":"Non","ppo":"Oui (20 postes)","obsolete":true}},{"type":"Feature","geometry":null,"properties":{"id_ffco":"1004","nom":"FORET DE LESPINASSE","_dept":"03","numero":"1981-D03-03","commune":"BIZENEUILLE","echelle":"1/15000","surface":"9.5 km²","annee":"1981","proprietaire":"0301","niveau":"Interrégional","specialite":"CO à pied","latitude":"43.1548404","longitude":"0.0981694","valide":"Non","ppo":"Non","obsolete":true}},{"type":"Feature","geometry":null,"properties":{"id_ffco":"2786","nom":"BROSSE LANGUISTRE","_dept":"03","numero":"1994-D03-02","echelle":"1/12500","surface":"0.0 km²","annee":"1994","proprietaire":"0301","specialite":"CO à pied","latitude":"46.3115552","longitude":"3.4167655","valide":"Non","ppo":"Non","obsolete":true}},{"type":"Feature","geometry":null,"properties":{"id_ffco":"1751","nom":"BOIS DE LA BROSSE","_dept":"03","numero":"1987-D03-01","commune":"MONTLUCON","echelle":"1/4000","surface":"0.5 km²","annee":"1987","proprietaire":"0301","specialite":"CO à pied","latitude":"46.3423938","longitude":"2.6075691","valide":"Non","ppo":"Non","obsolete":true}}]}