{"type":"FeatureCollection","features":[{"type":"Feature","geometry":{"type":"Polygon","coordinates":[[[5.7868,43.9638],[5.7865,43.9621],[5.7864,43.9616],[5.7867,43.9606],[5.7862,43.9597],[5.787,43.959],[5.7876,43.9588],[5.7904,43.959],[5.7907,43.9585],[5.7886,43.955],[5.7865,43.9536],[5.7848,43.9526],[5.7805,43.9523],[5.7803,43.953],[5.7767,43.9532],[5.7744,43.9548],[5.773,43.9554],[5.7715,43.9596],[5.7722,43.9607],[5.7755,43.9659],[5.7772,43.9663],[5.7799,43.9667],[5.7821,43.9662],[5.7855,43.9644],[5.7868,43.9638]]]},"properties":{"id_ffco":"2022-D04-99","nom":"Forcalquier","_dept":"04","numero":"2022-D04-99","commune":"Forcalquier","echelle":"1/5000","surface":"1.65 km²","format":"A3","annee":"2022","cartographes":"Hervé Quinquenel, Matthieu Puech","proprietaire":"PZ - Provence-Alpes-Côte d'Azur","niveau":"Régional","specialite":"Sprint (ISSOM)","latitude":"43.9591850644","longitude":"5.78040774694","date_saisie":"18/10/2022","valide":"Non","ppo":"Non","type_carte":"Nouvelle carte","fond":"Cadastre","obsolete":false}},{"type":"Feature","geometry":{"type":"Polygon","coordinates":[[[5.9453,44.1993],[5.9456,44.1986],[5.9462,44.1977],[5.9477,44.1957],[5.951,44.1938],[5.952,44.193],[5.9504,44.1921],[5.9492,44.1925],[5.9478,44.1931],[5.9462,44.1934],[5.942,44.193],[5.9405,44.1951],[5.94,44.1972],[5.9394,44.1995],[5.9419,44.2002],[5.9442,44.1997],[5.9448,44.1993],[5.9453,44.1993]]]},"properties":{"id_ffco":"2022-D04-98","nom":"Sisteron","_dept":"04","numero":"2022-D04-98","commune":"Sisteron","echelle":"1/4000","surface":"0.46 km²","format":"A4","annee":"2022","cartographes":"Matthieu Puech","proprietaire":"PZ - Provence-Alpes-Côte d'Azur","niveau":"National, International","specialite":"Sprint (ISSOM)","latitude":"44.1960144207","longitude":"5.94446233082","date_saisie":"12/04/2022","valide":"Non","ppo":"Non","type_carte":"Reprise","base":"2009-D04-57 Sisteron","fond":"Cadastre","obsolete":false}},{"type":"Feature","geometry":{"type":"Polygon","coordinates":[[[5.7988,43.972],[5.8045,43.9718],[5.8085,43.9714],[5.8115,43.9734],[5.8137,43.9733],[5.8192,43.9701],[5.8235,43.9693],[5.8243,43.9705],[5.8232,43.9732],[5.8201,43.9778],[5.8192,43.98],[5.8192,43.981],[5.8174,43.9841],[5.8214,43.9839],[5.8265,43.9837],[5.8293,43.9844],[5.8303,43.9884],[5.8293,43.9931],[5.8266,43.9939],[5.8234,43.9936],[5.8214,43.9939],[5.8195,43.9918],[5.8153,43.9909],[5.813,43.9904],[5.8126,43.9896],[5.811,43.989],[5.8105,43.9871],[5.8091,43.9871],[5.8084,43.9884],[5.8063,43.9884],[5.8043,43.9889],[5.8034,43.9873],[5.8019,43.9858],[5.801,43.9847],[5.7998,43.983],[5.7993,43.9806],[5.7988,43.9787],[5.7985,43.9752],[5.7992,43.9729],[5.7988,43.972]]]},"properties":{"id_ffco":"2022-D04-97","nom":"Pavoux","_dept":"04","numero":"2022-D04-97","commune":"Forcalquier","echelle":"1/10000","surface":"4.09 km²","format":"A3","annee":"2022","cartographes":"Daniel Seckler","proprietaire":"PZ - Provence-Alpes-Côte d'Azur","niveau":"National, International","specialite":"CO à pied","latitude":"43.9817202612","longitude":"5.81372910257","date_saisie":"12/04/2022","valide":"Non","ppo":"Non","type_carte":"Reprise","base":"2012-D04-59 Pavoux","fond":"Ortho","obsolete":false}},{"type":"Feature","geometry":null,"properties":{"id_ffco":"2022-D04-96","nom":"Centre de Biabaux","_dept":"04","numero":"2022-D04-96","commune":"Dauphin","echelle":"1/1500","surface":"None km²","format":"A4","annee":"2022","cartographes":"Pierre Delenne","proprietaire":"PZ - Provence-Alpes-Côte d'Azur","niveau":"Initiation, Scolaire","specialite":"CO à pied","date_saisie":"04/02/2022","valide":"Non","ppo":"Non","type_carte":"Nouvelle carte","fond":"Ortho","obsolete":false}},{"type":"Feature","geometry":{"type":"Polygon","coordinates":[[[5.8841,43.7617],[5.885,43.7614],[5.8857,43.7607],[5.8856,43.7598],[5.8856,43.759],[5.8865,43.7584],[5.8881,43.7582],[5.8914,43.7582],[5.8932,43.7581],[5.8951,43.7575],[5.8951,43.7571],[5.8951,43.7553],[5.8953,43.7546],[5.8947,43.7541],[5.8921,43.754],[5.8892,43.7541],[5.886,43.7543],[5.8832,43.7547],[5.8828,43.7554],[5.8825,43.7569],[5.8823,43.7577],[5.882,43.7584],[5.8818,43.7592],[5.8821,43.7601],[5.8828,43.7609],[5.8841,43.7617]]]},"properties":{"id_ffco":"2021-D04-95","nom":"Gréoux les Bains","_dept":"04","numero":"2021-D04-95","commune":"Greoux les Bains","echelle":"1/4000","surface":"0.54 km²","format":"A4","annee":"2021","cartographes":"Hervé Quinquenel, Bertrand Massot","proprietaire":"0404 - BALISE 04","niveau":"Régional","specialite":"Sprint (ISSOM)","latitude":"43.7568552179","longitude":"5.88796316408","date_saisie":"08/09/2021","valide":"Non","ppo":"Non","type_carte":"Nouvelle carte","fond":"Cadastre","obsolete":false}},{"type":"Feature","geometry":{"type":"Polygon","coordinates":[[[6.3492,44.3416],[6.3492,44.3581],[6.3689,44.3581],[6.3689,44.3416],[6.3492,44.3416]]]},"properties":{"id_ffco":"2021-D04-94","nom":"Seyne les Alpes","_dept":"04","numero":"2021-D04-94","commune":"Seyne les Alpes","echelle":"1/10000","surface":"2.89 km²","format":"A4","annee":"2021","cartographes":"stephane Kajak","proprietaire":"0405 - UNION SPORTIVE DE SEYNE ET DE LA BLANCHE","niveau":"Départemental","specialite":"CO à pied","contacts":"Office tourisme Seyne, 0492351100","latitude":"44.3498460817","longitude":"6.35904550552","date_saisie":"07/07/2021","date_depot":"25/08/2021","valide":"Non","ppo":"Oui (37 postes)","type_carte":"Nouvelle carte","fond":"Ortho","obsolete":false}},{"type":"Feature","geometry":{"type":"Polygon","coordinates":[[[6.0042,44.1602],[6.0071,44.1609],[6.011,44.1617],[6.0152,44.162],[6.0175,44.1618],[6.0189,44.1658],[6.0196,44.169],[6.0191,44.1718],[6.0165,44.1728],[6.0133,44.1745],[6.0103,44.1754],[6.009,44.1759],[6.0058,44.1749],[6.0024,44.1746],[5.9988,44.1727],[5.9958,44.1732],[5.9915,44.1742],[5.988,44.1739],[5.9845,44.1728],[5.981,44.17],[5.9789,44.1675],[5.9766,44.1658],[5.9765,44.1633],[5.9794,44.1594],[5.9816,44.1582],[5.9844,44.1573],[5.9869,44.1593],[5.9898,44.1595],[5.9934,44.1586],[5.997,44.1575],[5.9987,44.1579],[6.0011,44.1587],[6.0042,44.1602]]]},"properties":{"id_ffco":"2021-D04-93","nom":"Salignac","_dept":"04","numero":"2021-D04-93","commune":"Salignac","echelle":"1/10000","surface":"5.01 km²","format":"A3","annee":"2021","cartographes":"Daniel Seckler, Ray Hulse","proprietaire":"PZ - Provence-Alpes-Côte d'Azur","niveau":"National, International","specialite":"CO à pied","latitude":"44.1665546583","longitude":"5.99817133573","date_saisie":"30/05/2021","date_depot":"22/06/2021","valide":"Oui","ppo":"Non","type_carte":"Reprise","base":"2015-D04-67 salignac","fond":"Ortho","obsolete":false}},{"type":"Feature","geometry":{"type":"Polygon","coordinates":[[[6.3202,44.3374],[6.3984,44.3374],[6.3991,44.4302],[6.3188,44.4351],[6.3202,44.3374]]]},"properties":{"id_ffco":"2020-D04-92","nom":"Les Baladins","_dept":"04","numero":"2020-D04-92","commune":"Seyne les Alpes","echelle":"1/20000","surface":"66.84 km²","format":"+","annee":"2020","cartographes":"stephane Kajak, Bernard Loyau","proprietaire":"0405 - UNION SPORTIVE DE SEYNE ET DE LA BLANCHE","niveau":"National, International","specialite":"Raid'O","latitude":"44.3852184158","longitude":"6.35879027454","date_saisie":"30/10/2020","date_depot":"05/11/2020","valide":"Oui","ppo":"Non","type_carte":"Extrait","base":"2019-D04-90 Blanche Serre Ponçon","fond":"Ortho","obsolete":false}},{"type":"Feature","geometry":{"type":"Polygon","coordinates":[[[5.8865,43.9652],[5.888,43.9658],[5.8897,43.9668],[5.8904,43.969],[5.8907,43.9698],[5.8907,43.9713],[5.8912,43.9731],[5.8911,43.9741],[5.8884,43.9742],[5.888,43.973],[5.8877,43.971],[5.8872,43.9703],[5.8868,43.9699],[5.8859,43.9693],[5.8854,43.9686],[5.8861,43.9672],[5.8865,43.9652]]]},"properties":{"id_ffco":"2019-D04-91","nom":"Lurs","_dept":"04","numero":"2019-D04-91","commune":"Lurs","echelle":"1/4000","surface":"0.26 km²","format":"A4","annee":"2019","cartographes":"Hervé Quinquenel, Bertrand Massot","proprietaire":"PZ - Provence-Alpes-Côte d'Azur","niveau":"Régional","specialite":"Sprint (ISSOM)","latitude":"43.9697893399","longitude":"5.88856405986","date_saisie":"12/10/2019","valide":"Non","ppo":"Non","type_carte":"Nouvelle carte","fond":"Ortho","obsolete":false}},{"type":"Feature","geometry":{"type":"Polygon","coordinates":[[[6.2706,44.3617],[6.2706,44.4443],[6.3815,44.4443],[6.3815,44.3617],[6.2706,44.3617]]]},"properties":{"id_ffco":"2019-D04-90","nom":"Blanche Serre Ponçon","_dept":"04","numero":"2019-D04-90","commune":"Seyne","echelle":"1/20000","surface":"81.14 km²","format":"A3","annee":"2019","cartographes":"Stephane Kajak","proprietaire":"0405 - UNION SPORTIVE DE SEYNE ET DE LA BLANCHE","niveau":"National, International","specialite":"Raid'O","latitude":"44.4029904385","longitude":"6.32606506348","date_saisie":"11/08/2019","date_depot":"08/11/2019","valide":"Oui","ppo":"Non","type_carte":"Reprise","base":"2015-D04-69 Blanche Serre ponçon","fond":"Ortho","obsolete":false}},{"type":"Feature","geometry":{"type":"Polygon","coordinates":[[[6.1144,44.0287],[6.1181,44.0293],[6.1204,44.0294],[6.1221,44.0297],[6.1243,44.03],[6.1244,44.029],[6.125,44.0271],[6.1259,44.0261],[6.1261,44.0252],[6.1249,44.0245],[6.1225,44.0235],[6.1201,44.0222],[6.1184,44.0221],[6.1165,44.0242],[6.1151,44.026],[6.1147,44.0276],[6.114,44.0287],[6.1144,44.0287]]]},"properties":{"id_ffco":"2019-D04-89","nom":"Ruines de Lagremuse","_dept":"04","numero":"2019-D04-89","commune":"Le Chaffaud","echelle":"1/5000","surface":"0.55 km²","format":"A4","annee":"2019","cartographes":"Michel Haberkorn, Pierre Delenne","proprietaire":"PZ - Provence-Alpes-Côte d'Azur","niveau":"Départemental","specialite":"CO à pied","latitude":"44.0263167759","longitude":"6.12019618523","date_saisie":"19/02/2019","valide":"Non","ppo":"Non","type_carte":"Nouvelle carte","fond":"Ortho","obsolete":false}},{"type":"Feature","geometry":{"type":"Polygon","coordinates":[[[5.9156,43.9221],[5.9246,43.9213],[5.9299,43.9226],[5.9356,43.9162],[5.9459,43.9057],[5.9408,43.9018],[5.9377,43.9007],[5.9315,43.8996],[5.922,43.8988],[5.9139,43.8968],[5.9073,43.8978],[5.9103,43.9062],[5.9119,43.9146],[5.9116,43.9195],[5.9156,43.9221]]]},"properties":{"id_ffco":"2017-D04-88","nom":"Oraison","_dept":"04","numero":"2017-D04-88","commune":"Oraison","echelle":"1/10000","surface":"5.85 km²","format":"A4","annee":"2017","cartographes":"Bertrand Massot","proprietaire":"0404 - BALISE 04","niveau":"Départemental","specialite":"CO à pied","latitude":"43.909123328","longitude":"5.92470717261","date_saisie":"14/02/2019","valide":"Non","ppo":"Non","type_carte":"Nouvelle carte","fond":"Ortho","obsolete":false}},{"type":"Feature","geometry":{"type":"Polygon","coordinates":[[[6.1332,44.0321],[6.1339,44.0319],[6.1345,44.0315],[6.1353,44.031],[6.136,44.0301],[6.137,44.0305],[6.1369,44.0317],[6.1365,44.0326],[6.136,44.0336],[6.1353,44.0341],[6.1346,44.0347],[6.1332,44.0339],[6.1333,44.033],[6.1332,44.0321]]]},"properties":{"id_ffco":"2019-D04-87","nom":"Lycée de Carmejane","_dept":"04","numero":"2019-D04-87","commune":"Le Chaffaud","echelle":"1/2500","surface":"0.09 km²","format":"A4","annee":"2019","cartographes":"Pierre Delenne","proprietaire":"PZ - Provence-Alpes-Côte d'Azur","niveau":"Initiation, Scolaire","specialite":"Sprint (ISSOM)","latitude":"44.0324704893","longitude":"6.13509725481","date_saisie":"15/01/2019","valide":"Non","ppo":"Non","type_carte":"Nouvelle carte","fond":"Ortho","obsolete":false}},{"type":"Feature","geometry":null,"properties":{"id_ffco":"2018-D04-86","nom":"Sisteron","_dept":"04","numero":"2018-D04-86","commune":"sisteron","echelle":"1/4000","surface":"None km²","format":"A4","annee":"2018","cartographes":"Jerome Monclard, Pierre Sciora","proprietaire":"PZ - Provence-Alpes-Côte d'Azur","niveau":"National, International","specialite":"Sprint (ISSOM)","date_saisie":"28/11/2018","date_depot":"28/12/2018","valide":"Non","ppo":"Non","type_carte":"Reprise","base":"2009-D04-57 Sisteron","fond":"Cadastre","obsolete":false}},{"type":"Feature","geometry":{"type":"Polygon","coordinates":[[[5.9937,44.0925],[5.9964,44.0889],[5.9978,44.0856],[5.998,44.0837],[5.9974,44.0817],[5.9952,44.08],[5.9932,44.0788],[5.9874,44.0746],[5.9834,44.0713],[5.9841,44.0698],[5.9806,44.0681],[5.9768,44.0705],[5.9734,44.0724],[5.9706,44.0751],[5.9683,44.0772],[5.9663,44.0817],[5.9654,44.0851],[5.9683,44.088],[5.973,44.0872],[5.9769,44.0886],[5.9821,44.0899],[5.9868,44.0883],[5.9896,44.0888],[5.9937,44.0925]]]},"properties":{"id_ffco":"2018-D04-85","nom":"Fanchironnette, les Bruyères","_dept":"04","numero":"2018-D04-85","commune":"Chateau Arnoux","echelle":"1/10000","surface":"4.05 km²","format":"A3","annee":"2018","cartographes":"Pierre Delenne","proprietaire":"PZ - Provence-Alpes-Côte d'Azur","niveau":"National, International","specialite":"CO à pied","contacts":"Office de Tourisme Val de Durance, 04 92 64 02 64, info@valdedurance-tourisme.com, https://www.dignelesbains-tourisme.com/bouger-sortir/les-activites-de-pleine-nature/sports-et-jeux-dequipe/","latitude":"44.0811455524","longitude":"5.98158687631","date_saisie":"13/10/2018","date_depot":"28/12/2018","valide":"Oui","ppo":"Oui (30 postes)","type_carte":"Reprise","base":"2008-D04- Les Bruyères/Saint Jean","fond":"Ortho","obsolete":false}},{"type":"Feature","geometry":{"type":"Polygon","coordinates":[[[5.7811,43.9596],[5.7808,43.9595],[5.7807,43.9591],[5.7798,43.9587],[5.7794,43.9581],[5.7794,43.9577],[5.7795,43.9566],[5.78,43.9555],[5.7803,43.9549],[5.782,43.9547],[5.7831,43.9546],[5.7847,43.9561],[5.7849,43.9572],[5.7846,43.9588],[5.7851,43.9593],[5.7858,43.9597],[5.7848,43.9608],[5.7841,43.9609],[5.7831,43.9604],[5.7824,43.9598],[5.7817,43.9595],[5.7811,43.9596]]]},"properties":{"id_ffco":"2018-D04-84","nom":"Forcalquier","_dept":"04","numero":"2018-D04-84","commune":"Forcalquier","echelle":"1/4000","surface":"0.23 km²","format":"A4","annee":"2018","cartographes":"Hervé Quinquenel, Matthieu Puech","proprietaire":"PZ - Provence-Alpes-Côte d'Azur","niveau":"National, International","specialite":"CO à pied","latitude":"43.9575653171","longitude":"5.78244653751","date_saisie":"13/10/2018","date_depot":"28/12/2018","valide":"Oui","ppo":"Non","type_carte":"Reprise","base":"2003-D04-51 Forcalquier","fond":"Cadastre","obsolete":false}},{"type":"Feature","geometry":{"type":"Polygon","coordinates":[[[5.7816,43.8353],[5.7828,43.8355],[5.7846,43.8348],[5.7857,43.8341],[5.7859,43.8328],[5.7869,43.8323],[5.7872,43.8316],[5.7871,43.8311],[5.7879,43.83],[5.7875,43.8294],[5.7859,43.8289],[5.7861,43.8277],[5.7867,43.8263],[5.7876,43.8256],[5.7873,43.825],[5.7858,43.8253],[5.7847,43.8258],[5.7831,43.8264],[5.7819,43.8273],[5.7827,43.8283],[5.783,43.8298],[5.7832,43.8304],[5.7828,43.8313],[5.7815,43.8323],[5.7811,43.8336],[5.7816,43.8343],[5.7817,43.8348],[5.7816,43.8353]]]},"properties":{"id_ffco":"2018-D04-83","nom":"Ville de Manosque","_dept":"04","numero":"2018-D04-83","commune":"Manosque","echelle":"1/4000","surface":"0.36 km²","format":"A4","annee":"2018","cartographes":"Hervé Quinquenel, Pierre Delenne","proprietaire":"PZ - Provence-Alpes-Côte d'Azur","niveau":"National, International","specialite":"CO à pied","latitude":"43.8304641641","longitude":"5.7844720637","date_saisie":"13/10/2018","date_depot":"28/12/2018","valide":"Oui","ppo":"Non","type_carte":"Nouvelle carte","fond":"Cadastre","obsolete":false}},{"type":"Feature","geometry":{"type":"Polygon","coordinates":[[[5.8309,43.996],[5.8289,43.9946],[5.8275,43.9917],[5.8267,43.9893],[5.8271,43.9838],[5.8319,43.9812],[5.8397,43.9795],[5.8558,43.9812],[5.8583,43.9833],[5.8577,43.9853],[5.8519,43.9894],[5.8483,43.9916],[5.8428,43.9938],[5.8391,43.9951],[5.8329,43.9965],[5.8309,43.996]]]},"properties":{"id_ffco":"2018-D04-82","nom":"Sigonce Chante Oiseau","_dept":"04","numero":"2018-D04-82","commune":"Sigonce","echelle":"1/10000","surface":"3.25 km²","format":"A4","annee":"2018","cartographes":"Daniel Sekler","proprietaire":"PZ - Provence-Alpes-Côte d'Azur","niveau":"National, International","specialite":"CO à pied","latitude":"43.9871187135","longitude":"5.84053612575","date_saisie":"01/10/2018","valide":"Non","ppo":"Non","type_carte":"Reprise","base":"2018-D04-81 Pavoux","fond":"Ortho","obsolete":false}},{"type":"Feature","geometry":{"type":"Polygon","coordinates":[[[5.8237,43.9723],[5.8201,43.9724],[5.8156,43.9734],[5.8123,43.9744],[5.8101,43.974],[5.8067,43.9741],[5.8034,43.9746],[5.7998,43.9757],[5.7987,43.9776],[5.8001,43.9818],[5.8005,43.9832],[5.8015,43.9852],[5.8027,43.9862],[5.8037,43.9877],[5.8044,43.989],[5.8057,43.9885],[5.8079,43.9883],[5.8089,43.9865],[5.811,43.9867],[5.8117,43.9881],[5.8113,43.989],[5.8126,43.9894],[5.8129,43.99],[5.8148,43.9902],[5.8165,43.9908],[5.8206,43.9918],[5.821,43.9935],[5.823,43.9945],[5.8263,43.9924],[5.8245,43.9894],[5.8248,43.9867],[5.8227,43.984],[5.8201,43.9813],[5.8187,43.9797],[5.8202,43.9775],[5.8215,43.9754],[5.8233,43.973],[5.8237,43.9723]]]},"properties":{"id_ffco":"2018-D04-81","nom":"Pavoux","_dept":"04","numero":"2018-D04-81","commune":"Forcalquier","echelle":"1/10000","surface":"3.11 km²","format":"A4","annee":"2018","cartographes":"Daniel Sekler","proprietaire":"PZ - Provence-Alpes-Côte d'Azur","niveau":"National, International","specialite":"CO à pied","latitude":"43.9821982495","longitude":"5.81272132332","date_saisie":"01/10/2018","date_depot":"28/12/2018","valide":"Oui","ppo":"Non","type_carte":"Reprise","base":"2012-D04-59 Pavoux","fond":"Ortho","obsolete":false}},{"type":"Feature","geometry":{"type":"Polygon","coordinates":[[[6.2753,44.3189],[6.2753,44.378],[6.3733,44.378],[6.3733,44.3189],[6.2753,44.3189]]]},"properties":{"id_ffco":"2018-D04-80","nom":"Chardavon","_dept":"04","numero":"2018-D04-80","commune":"Seyne les alpes","echelle":"1/20000","surface":"51.28 km²","format":"+","annee":"2018","cartographes":"Stephane Kajak, Bernard Loyau","proprietaire":"0405 - UNION SPORTIVE DE SEYNE ET DE LA BLANCHE","niveau":"National, International","specialite":"Raid'O","latitude":"44.3484582511","longitude":"6.32426261902","date_saisie":"02/07/2018","date_depot":"21/07/2020","valide":"Oui","ppo":"Non","type_carte":"Extrait","base":"2015-D04-65 Vallee 2015","fond":"Ortho","obsolete":false}},{"type":"Feature","geometry":{"type":"Polygon","coordinates":[[[6.2961,44.3999],[6.3141,44.3996],[6.3262,44.3991],[6.3322,44.3987],[6.3304,44.3862],[6.3289,44.3786],[6.3301,44.3637],[6.3311,44.3482],[6.3282,44.3235],[6.3258,44.3195],[6.2836,44.3191],[6.2606,44.32],[6.2649,44.3381],[6.2695,44.3478],[6.2707,44.3539],[6.2755,44.3716],[6.2807,44.3795],[6.2867,44.3884],[6.2961,44.3999]]]},"properties":{"id_ffco":"2017-D04-79","nom":"Lesdiguières","_dept":"04","numero":"2017-D04-79","commune":"Selonnet","echelle":"1/20000","surface":"39.78 km²","format":"+","annee":"2017","cartographes":"Stephane Kajak, Bernard Loyau","proprietaire":"0405 - UNION SPORTIVE DE SEYNE ET DE LA BLANCHE","niveau":"National, International","specialite":"Raid'O","latitude":"44.3558264835","longitude":"6.30110174035","date_saisie":"06/09/2017","date_depot":"21/11/2017","valide":"Oui","ppo":"Non","type_carte":"Reprise","base":"2015-D04-65 Vallee 2015","fond":"IGN","obsolete":false}},{"type":"Feature","geometry":{"type":"Polygon","coordinates":[[[6.3125,44.3722],[6.3108,44.3721],[6.3081,44.3714],[6.3079,44.3701],[6.308,44.3697],[6.3084,44.3694],[6.3122,44.3705],[6.3125,44.3709],[6.3128,44.3715],[6.3127,44.3718],[6.3125,44.3722]]]},"properties":{"id_ffco":"2017-D04-78","nom":"Village de Selonnet","_dept":"04","numero":"2017-D04-78","commune":"Selonnet","echelle":"1/2000","surface":"0.08 km²","format":"A4","annee":"2017","cartographes":"Stephane Kajak","proprietaire":"0405 - UNION SPORTIVE DE SEYNE ET DE LA BLANCHE","niveau":"Initiation, Scolaire","specialite":"CO à pied","contacts":"Office Tourisme Selonnet, 0492351100","latitude":"44.3709144809","longitude":"6.31022144844","date_saisie":"30/08/2017","valide":"Non","ppo":"Oui (20 postes)","type_carte":"Nouvelle carte","fond":"IGN","obsolete":false}},{"type":"Feature","geometry":{"type":"Polygon","coordinates":[[[6.7488,44.5145],[6.752,44.5132],[6.7527,44.514],[6.7533,44.5147],[6.7543,44.5151],[6.7553,44.5151],[6.7562,44.5149],[6.7567,44.5155],[6.7571,44.5168],[6.7576,44.5175],[6.7569,44.5179],[6.7557,44.5183],[6.754,44.5186],[6.7528,44.518],[6.7526,44.5177],[6.7517,44.5175],[6.7513,44.5169],[6.751,44.5158],[6.7501,44.5151],[6.7488,44.5145]]]},"properties":{"id_ffco":"2017-D04-76","nom":"Saint Paul sur Ubaye Village","_dept":"04","numero":"2017-D04-76","commune":"St Paul sur Ubaye","echelle":"1/4000","surface":"0.2 km²","format":"A4","annee":"2017","cartographes":"Guillaume Mathurin","proprietaire":"1318 - TEAM LIFE EXPERIENCE","niveau":"Initiation, Scolaire","specialite":"CO à pied","latitude":"44.5160839766","longitude":"6.75354038504","date_saisie":"06/07/2017","valide":"Non","ppo":"Non","type_carte":"Nouvelle carte","fond":"Ortho","obsolete":false}},{"type":"Feature","geometry":{"type":"Polygon","coordinates":[[[5.9104,44.0059],[5.9094,44.0056],[5.9091,44.0053],[5.9085,44.0042],[5.9077,44.0032],[5.9069,44.0023],[5.9056,44.0018],[5.9053,44.0012],[5.905,44.0004],[5.9042,43.999],[5.9037,43.9974],[5.9035,43.9961],[5.9039,43.9956],[5.9044,43.9951],[5.9046,43.9945],[5.9059,43.9941],[5.9071,43.9942],[5.9074,43.9949],[5.9075,43.9957],[5.9079,43.9967],[5.9086,43.9974],[5.9089,43.9982],[5.9099,43.9987],[5.9106,43.9993],[5.9107,44.0002],[5.9105,44.0009],[5.9105,44.0014],[5.91,44.0021],[5.9099,44.0028],[5.91,44.0034],[5.9104,44.0041],[5.9106,44.0046],[5.9106,44.0049],[5.9109,44.0053],[5.9109,44.0057],[5.9104,44.0059]]]},"properties":{"id_ffco":"2016-D04-74","nom":"le prieuré de Ganagobie","_dept":"04","numero":"2016-D04-74","commune":"Ganagobie","echelle":"1/5000","surface":"0.4 km²","format":"A4","annee":"2016","cartographes":"D. Seckler","proprietaire":"PZ - Provence-Alpes-Côte d'Azur","niveau":"Régional","specialite":"CO à pied","latitude":"43.9994484553","longitude":"5.9072776069","date_saisie":"28/07/2016","date_depot":"04/10/2016","valide":"Oui","ppo":"Non","type_carte":"Reprise","base":"1992-D04-12 PRIEURE de GANAGOBIE","fond":"Ortho","obsolete":false}},{"type":"Feature","geometry":{"type":"Polygon","coordinates":[[[6.3486,44.3571],[6.3487,44.3532],[6.3493,44.3532],[6.3494,44.3526],[6.3502,44.3525],[6.3509,44.3524],[6.3514,44.3519],[6.352,44.3518],[6.3522,44.3511],[6.3524,44.3502],[6.3537,44.35],[6.3539,44.3503],[6.3554,44.3498],[6.3573,44.3496],[6.3591,44.3489],[6.3658,44.352],[6.3658,44.3571],[6.3486,44.3571]]]},"properties":{"id_ffco":"2016-D04-73","nom":"Seyne les Alpes","_dept":"04","numero":"2016-D04-73","commune":"Seyne les alpes","echelle":"1/5000","surface":"0.99 km²","format":"A4","annee":"2016","cartographes":"Kajak stephane","proprietaire":"0405 - UNION SPORTIVE DE SEYNE ET DE LA BLANCHE","niveau":"National, International","specialite":"Raid'O","contacts":"Office de Tourisme de Seyne, 0492351100","latitude":"44.3537230952","longitude":"6.35755333187","date_saisie":"03/07/2016","date_depot":"02/11/2016","valide":"Oui","ppo":"Oui (25 postes)","type_carte":"Extrait","base":"2015-D04-65 Vallee 2015","fond":"Ortho","obsolete":false}},{"type":"Feature","geometry":{"type":"Polygon","coordinates":[[[6.3528,44.3502],[6.3487,44.3531],[6.3374,44.3552],[6.3295,44.3595],[6.3293,44.3607],[6.314,44.37],[6.3171,44.3734],[6.3252,44.3779],[6.3261,44.3852],[6.3283,44.3907],[6.3316,44.3918],[6.3328,44.3974],[6.3307,44.4023],[6.3371,44.4145],[6.3449,44.4128],[6.3516,44.4167],[6.3769,44.4131],[6.3836,44.3947],[6.3837,44.3504],[6.3662,44.3511],[6.3551,44.349],[6.3528,44.3502]]]},"properties":{"id_ffco":"2016-D04-72","nom":"Les Sonnailles","_dept":"04","numero":"2016-D04-72","commune":"Seyne les alpes","echelle":"1/20000","surface":"30.29 km²","format":"A3","annee":"2016","cartographes":"Stephane Kajak","proprietaire":"0405 - UNION SPORTIVE DE SEYNE ET DE LA BLANCHE","niveau":"National, International","specialite":"Raid'O","latitude":"44.3817471757","longitude":"6.35530379945","date_saisie":"17/07/2016","date_depot":"04/10/2016","valide":"Oui","ppo":"Non","type_carte":"Extrait","base":"2015-D04-65 Vallee 2015","fond":"Ortho","obsolete":false}},{"type":"Feature","geometry":{"type":"Polygon","coordinates":[[[5.9603,44.1227],[5.9521,44.1087],[5.9509,44.1016],[5.9538,44.0909],[5.9571,44.0828],[5.9588,44.077],[5.9676,44.0744],[5.9741,44.0717],[5.9806,44.0671],[5.9839,44.0666],[5.9918,44.0744],[5.9947,44.0769],[5.9942,44.0798],[5.9976,44.0781],[6.0012,44.081],[6.0046,44.0856],[6.0029,44.0942],[5.9995,44.101],[5.9916,44.1094],[5.9827,44.1211],[5.9603,44.1227]]]},"properties":{"id_ffco":"2016-D04-71","nom":"Fanchironnette, Les Bruyeres, Amarines","_dept":"04","numero":"2016-D04-71","commune":"Chateau Arnoux","echelle":"1/15000","surface":"18.31 km²","format":"A3","annee":"2016","cartographes":"Alain Pellegry, Pierre Delenne","proprietaire":"PZ - Provence-Alpes-Côte d'Azur","niveau":"Régional","specialite":"CO à pied","latitude":"44.0956761157","longitude":"5.9763013281","date_saisie":"24/01/2016","date_depot":"09/11/2016","valide":"Oui","ppo":"Non","type_carte":"Reprise","base":"2008-D04-21 AMARINES","fond":"Ortho","obsolete":false}},{"type":"Feature","geometry":{"type":"Polygon","coordinates":[[[6.3125,44.3328],[6.3043,44.3405],[6.3007,44.3469],[6.3128,44.3534],[6.3044,44.3547],[6.3043,44.3507],[6.2943,44.3536],[6.2893,44.3477],[6.2782,44.3526],[6.2866,44.359],[6.2818,44.3617],[6.2722,44.355],[6.2646,44.3534],[6.2723,44.3482],[6.2768,44.3424],[6.2644,44.3343],[6.2497,44.3211],[6.2497,44.3103],[6.2783,44.2928],[6.301,44.2714],[6.3235,44.2826],[6.3489,44.2823],[6.3659,44.2802],[6.3714,44.2757],[6.3893,44.2783],[6.3895,44.2826],[6.39,44.2869],[6.3943,44.2935],[6.4003,44.3004],[6.4036,44.3054],[6.4025,44.3085],[6.4027,44.3151],[6.4022,44.3198],[6.3964,44.3242],[6.3924,44.3279],[6.391,44.3312],[6.3907,44.3329],[6.3873,44.3347],[6.3842,44.3378],[6.3806,44.3398],[6.379,44.3425],[6.373,44.3415],[6.3655,44.3447],[6.3593,44.3457],[6.3569,44.3394],[6.3522,44.3353],[6.3514,44.3316],[6.3497,44.3323],[6.3488,44.3334],[6.3455,44.335],[6.3125,44.3328]]]},"properties":{"id_ffco":"2001-D04-70","nom":"Chabanon-Grand puy-les monges","_dept":"04","numero":"2001-D04-70","commune":"Seyne les alpes","echelle":"1/20000","surface":"72.41 km²","format":"+","annee":"2001","cartographes":"Michel Haberkorn","proprietaire":"0405 - UNION SPORTIVE DE SEYNE ET DE LA BLANCHE","niveau":"National, International","specialite":"Raid'O","latitude":"44.3120175721","longitude":"6.32761732909","date_saisie":"05/01/2016","valide":"Oui","ppo":"Non","type_carte":"Extrait","base":"2015-D04-65 Vallee 2015","fond":"Ortho","obsolete":false}},{"type":"Feature","geometry":{"type":"Polygon","coordinates":[[[6.3347,44.3623],[6.2772,44.3626],[6.2754,44.3905],[6.2729,44.4254],[6.2751,44.4468],[6.3427,44.4467],[6.3449,44.3624],[6.3347,44.3623]]]},"properties":{"id_ffco":"2015-D04-69","nom":"Blanche Serre ponçon","_dept":"04","numero":"2015-D04-69","commune":"Selonnet","echelle":"1/20000","surface":"51.52 km²","format":"+","annee":"2015","cartographes":"Michel Haberkorn, bernard Loyau","proprietaire":"0405 - UNION SPORTIVE DE SEYNE ET DE LA BLANCHE","niveau":"National, International","specialite":"Raid'O","latitude":"44.404743364","longitude":"6.30933034494","date_saisie":"06/01/2016","date_depot":"27/01/2016","valide":"Oui","ppo":"Non","type_carte":"Extrait","base":"2015-D04-65 Vallee 2015","fond":"Ortho","obsolete":false}},{"type":"Feature","geometry":{"type":"Polygon","coordinates":[[[6.3863,44.4436],[6.382,44.4437],[6.376,44.4514],[6.3724,44.452],[6.3563,44.441],[6.313,44.4421],[6.3077,44.4311],[6.3007,44.433],[6.3003,44.4121],[6.2993,44.3931],[6.3087,44.3718],[6.3528,44.35],[6.294,44.3504],[6.2713,44.3377],[6.2366,44.3171],[6.265,44.2619],[6.3415,44.2587],[6.392,44.2735],[6.44,44.2769],[6.4503,44.3568],[6.4637,44.4021],[6.4112,44.4215],[6.394,44.4377],[6.3863,44.4436]]]},"properties":{"id_ffco":"2015-D04-65","nom":"Vallee 2015","_dept":"04","numero":"2015-D04-65","commune":"Seyne les alpes","echelle":"1/20000","surface":"247.79 km²","format":"+","annee":"2015","cartographes":"Michel Haberkorn, Jean-luc Chandezon","proprietaire":"0405 - UNION SPORTIVE DE SEYNE ET DE LA BLANCHE","niveau":"National, International","specialite":"Raid'O","latitude":"44.3452225072","longitude":"6.35904690058","date_saisie":"22/12/2015","date_depot":"27/01/2016","valide":"Oui","ppo":"Non","type_carte":"Nouvelle carte","fond":"Ortho","obsolete":false}},{"type":"Feature","geometry":{"type":"Polygon","coordinates":[[[6.3277,44.3285],[6.3293,44.3266],[6.3311,44.3239],[6.3324,44.3222],[6.3326,44.3198],[6.3341,44.317],[6.3363,44.3161],[6.3362,44.3139],[6.3362,44.311],[6.3367,44.3075],[6.3443,44.3071],[6.3516,44.307],[6.3559,44.3098],[6.3623,44.3124],[6.3622,44.3188],[6.3597,44.3256],[6.3541,44.33],[6.3416,44.3331],[6.3317,44.3313],[6.3286,44.3279],[6.3277,44.3285]]]},"properties":{"id_ffco":"2013-D04-64","nom":"col du Fanget Est","_dept":"04","numero":"2013-D04-64","commune":"Seyne","echelle":"1/10000","surface":"5.67 km²","format":"A4","annee":"2013","cartographes":"Alain Denaix","proprietaire":"0405 - UNION SPORTIVE DE SEYNE ET DE LA BLANCHE","niveau":"Départemental","specialite":"Raid'O","latitude":"44.3200784972","longitude":"6.34614290026","date_saisie":"12/02/2014","date_depot":"09/11/2016","valide":"Oui","ppo":"Non","type_carte":"Nouvelle carte","fond":"Ortho","obsolete":false}},{"type":"Feature","geometry":{"type":"Polygon","coordinates":[[[5.7616,43.7838],[5.7601,43.7841],[5.7601,43.7847],[5.7593,43.7845],[5.7585,43.786],[5.7594,43.787],[5.76,43.7866],[5.7607,43.7868],[5.769,43.7876],[5.7691,43.7872],[5.7698,43.7872],[5.7698,43.7859],[5.77,43.785],[5.7686,43.7831],[5.7644,43.7842],[5.7643,43.784],[5.7618,43.784],[5.7616,43.7838]]]},"properties":{"id_ffco":"2012-D04-63","nom":"Village de Ste Tulle","_dept":"04","numero":"2012-D04-63","commune":"Ste Tulle","echelle":"1/4000","surface":"0.32 km²","format":"A4","annee":"2012","cartographes":"P Delenne","proprietaire":"PZ - Provence-Alpes-Côte d'Azur","niveau":"Initiation, Scolaire","specialite":"CO à pied","latitude":"43.7855204159","longitude":"5.76479644389","date_saisie":"18/01/2013","date_depot":"27/01/2016","valide":"Oui","ppo":"Non","type_carte":"Nouvelle carte","fond":"Cadastre","obsolete":false}},{"type":"Feature","geometry":{"type":"Polygon","coordinates":[[[5.9792,44.0664],[5.9734,44.0697],[5.9791,44.0753],[5.9832,44.083],[5.9863,44.0891],[5.9911,44.0941],[6.0055,44.0945],[6.004,44.0825],[5.9978,44.0772],[5.9831,44.0667],[5.9792,44.0664]]]},"properties":{"id_ffco":"2007-D04-60","nom":"Fanchironnette","_dept":"04","numero":"2007-D04-60","commune":"Chateau arnoux","echelle":"1/10000","surface":"4.12 km²","format":"A4","annee":"2007","cartographes":"P Delenne","proprietaire":"PZ - Provence-Alpes-Côte d'Azur","niveau":"Interrégional","specialite":"CO à pied","latitude":"44.0814315616","longitude":"5.99102396367","date_saisie":"19/07/2012","date_depot":"27/01/2016","valide":"Oui","ppo":"Non","type_carte":"Nouvelle carte","fond":"Ortho","obsolete":false}},{"type":"Feature","geometry":{"type":"Polygon","coordinates":[[[5.835,43.8697],[5.832,43.872],[5.832,43.8729],[5.8286,43.8751],[5.8283,43.8757],[5.8261,43.8758],[5.8226,43.8723],[5.8233,43.8673],[5.8252,43.8658],[5.8255,43.8654],[5.8255,43.8653],[5.8256,43.8649],[5.8263,43.8641],[5.8267,43.8645],[5.8279,43.8642],[5.8294,43.8645],[5.8307,43.8649],[5.8311,43.8656],[5.8316,43.8658],[5.8319,43.8659],[5.8322,43.866],[5.8328,43.8663],[5.8337,43.8667],[5.8352,43.8684],[5.835,43.8697]]]},"properties":{"id_ffco":"2018-D04-58","nom":"Les Olivades","_dept":"04","numero":"2018-D04-58","commune":"Volx","echelle":"1/5000","surface":"0.87 km²","format":"A4","annee":"2018","cartographes":"P Delenne","proprietaire":"PZ - Provence-Alpes-Côte d'Azur","niveau":"Initiation, Scolaire","specialite":"CO à pied","latitude":"43.8697513686","longitude":"5.82829748344","date_saisie":"19/07/2012","date_depot":"27/01/2016","valide":"Oui","ppo":"Non","type_carte":"Nouvelle carte","fond":"Ortho","obsolete":false}},{"type":"Feature","geometry":{"type":"Polygon","coordinates":[[[5.9456,44.2002],[5.9379,44.2008],[5.9378,44.1943],[5.9512,44.1944],[5.9456,44.2002]]]},"properties":{"id_ffco":"2009-D04-57","nom":"Sisteron","_dept":"04","numero":"2009-D04-57","commune":"Sisteron","echelle":"1/4000","surface":"0.57 km²","format":"A4","annee":"2009","cartographes":"J Monclard","niveau":"National, International","specialite":"CO à pied","latitude":"44.1971363139","longitude":"5.94314314975","date_saisie":"19/07/2012","date_depot":"27/01/2016","valide":"Oui","ppo":"Non","type_carte":"Nouvelle carte","fond":"Cadastre","obsolete":false}},{"type":"Feature","geometry":{"type":"Polygon","coordinates":[[[5.9805,44.1252],[5.981,44.1095],[5.9576,44.109],[5.9585,44.126],[5.9585,44.1264],[5.9595,44.1277],[5.9605,44.1287],[5.9614,44.1296],[5.963,44.1304],[5.9642,44.1308],[5.9659,44.1311],[5.967,44.1309],[5.9685,44.1306],[5.9696,44.1301],[5.9698,44.1296],[5.9709,44.1287],[5.9726,44.1279],[5.9744,44.1273],[5.9772,44.1257],[5.9777,44.126],[5.9792,44.1257],[5.9805,44.1252]]]},"properties":{"id_ffco":"2008-D04-56","nom":"Le Pas des Boeufs","_dept":"04","numero":"2008-D04-56","commune":"Aubignosc","echelle":"1/10000","surface":"3.88 km²","format":"A4","annee":"2008","proprietaire":"PZ - Provence-Alpes-Côte d'Azur","niveau":"National, International","specialite":"CO à pied","latitude":"44.1188578663","longitude":"5.96895312071","date_saisie":"19/07/2012","date_depot":"27/01/2016","valide":"Oui","ppo":"Non","type_carte":"Nouvelle carte","fond":"Ortho","obsolete":false}},{"type":"Feature","geometry":{"type":"Polygon","coordinates":[[[6.0052,44.0954],[6.0047,44.0949],[6.0074,44.0914],[6.0072,44.0915],[6.004,44.0878],[5.9945,44.0822],[5.9921,44.0807],[5.9832,44.0816],[5.9671,44.0819],[5.9659,44.0919],[5.9672,44.102],[5.9739,44.1086],[5.9887,44.1087],[5.9921,44.102],[5.9889,44.0925],[5.9997,44.095],[6.0057,44.095],[6.0052,44.0954]]]},"properties":{"id_ffco":"2007-D04-54","nom":"Les Bruyères","_dept":"04","numero":"2007-D04-54","commune":"Château Arnoux","echelle":"1/10000","surface":"6.89 km²","format":"A3","annee":"2007","cartographes":"A Pellegry, P Delenne","proprietaire":"PZ - Provence-Alpes-Côte d'Azur","niveau":"National, International","specialite":"CO à pied","contacts":"OT Moyenne Durance, 04 92 64 02 64, info@la-moyenne-durance.fr","latitude":"44.0935249287","longitude":"5.98263384365","date_saisie":"19/01/2006","date_depot":"15/02/2006","valide":"Oui","ppo":"Non","type_carte":"Nouvelle carte","fond":"Ortho","obsolete":false}},{"type":"Feature","geometry":{"type":"Polygon","coordinates":[[[5.7808,43.9593],[5.7821,43.9594],[5.7827,43.9587],[5.7838,43.9584],[5.7843,43.9566],[5.7831,43.9566],[5.7838,43.9557],[5.7829,43.9547],[5.7808,43.955],[5.7799,43.9564],[5.7797,43.9577],[5.7806,43.9591],[5.7808,43.9593]]]},"properties":{"id_ffco":"2003-D04-51","nom":"Forcalquier","_dept":"04","numero":"2003-D04-51","commune":"Forcalquier","echelle":"1/4000","surface":"0.13 km²","format":"A4","annee":"2003","cartographes":"Pierre Delenne","proprietaire":"PZ - Provence-Alpes-Côte d'Azur","niveau":"Départemental","specialite":"CO à pied","latitude":"43.9570510144","longitude":"5.7818865574","date_saisie":"19/07/2012","date_depot":"27/01/2016","valide":"Oui","ppo":"Non","type_carte":"Nouvelle carte","fond":"Cadastre","obsolete":false}},{"type":"Feature","geometry":{"type":"Polygon","coordinates":[[[6.5109,43.8593],[6.5106,43.8604],[6.5092,43.8609],[6.5086,43.8612],[6.5077,43.861],[6.507,43.8608],[6.5058,43.8632],[6.5056,43.8637],[6.5056,43.8644],[6.5044,43.865],[6.5029,43.8655],[6.5017,43.8659],[6.5024,43.8679],[6.5032,43.8676],[6.5046,43.8676],[6.5079,43.8668],[6.5087,43.8657],[6.5102,43.8649],[6.5109,43.864],[6.5123,43.8625],[6.5124,43.8615],[6.5127,43.8608],[6.5126,43.8604],[6.5118,43.86],[6.5109,43.8593]]]},"properties":{"id_ffco":"2026-D04-106","nom":"Les Paluds","_dept":"04","numero":"2026-D04-106","commune":"Castellane","echelle":"1/5000","surface":"0.36 km²","format":"A4","annee":"2026","cartographes":"Pierre Delenne","proprietaire":"PZ - Provence-Alpes-Côte d'Azur","niveau":"Départemental","specialite":"CO à pied","latitude":"43.8639882349","longitude":"6.50765259653","date_saisie":"09/03/2026","valide":"Non","ppo":"Non","type_carte":"Nouvelle carte","fond":"Laser","obsolete":false}},{"type":"Feature","geometry":{"type":"Polygon","coordinates":[[[6.5148,43.8737],[6.5165,43.8738],[6.5189,43.874],[6.5182,43.8747],[6.5192,43.875],[6.5199,43.8753],[6.5206,43.8752],[6.5213,43.8753],[6.5218,43.8758],[6.5219,43.8752],[6.5218,43.875],[6.5223,43.8748],[6.523,43.8747],[6.5237,43.8748],[6.5242,43.8752],[6.5239,43.8754],[6.5239,43.8757],[6.5246,43.8757],[6.525,43.8757],[6.5259,43.8763],[6.5256,43.8764],[6.5248,43.8763],[6.5246,43.8765],[6.5242,43.8766],[6.5239,43.8768],[6.5239,43.877],[6.5243,43.877],[6.5243,43.8772],[6.5241,43.8773],[6.5229,43.8781],[6.5225,43.8783],[6.5206,43.8782],[6.5184,43.8783],[6.5164,43.8786],[6.515,43.8788],[6.5149,43.8782],[6.5148,43.8777],[6.5145,43.8771],[6.5146,43.8759],[6.5143,43.8756],[6.5146,43.8751],[6.5148,43.8748],[6.5147,43.8741],[6.5148,43.8737]]]},"properties":{"id_ffco":"2026-D04-104","nom":"Base Nautique, Castellanne","_dept":"04","numero":"2026-D04-104","commune":"Castellanne","echelle":"1/5000","surface":"0.33 km²","format":"A4","annee":"2026","cartographes":"Pierre Delenne","proprietaire":"PZ - Provence-Alpes-Côte d'Azur","niveau":"Départemental","specialite":"CO à pied","latitude":"43.8763700327","longitude":"6.5189925595","date_saisie":"27/02/2026","valide":"Non","ppo":"Non","type_carte":"Nouvelle carte","fond":"Laser","obsolete":false}},{"type":"Feature","geometry":{"type":"Polygon","coordinates":[[[5.9829,43.8419],[5.9808,43.8411],[5.9805,43.8393],[5.9798,43.8375],[5.9801,43.8356],[5.9809,43.8344],[5.9824,43.8342],[5.9845,43.8346],[5.9867,43.835],[5.9881,43.8358],[5.9887,43.8371],[5.9883,43.8387],[5.9877,43.8409],[5.9869,43.8415],[5.9852,43.8418],[5.9838,43.8419],[5.9829,43.8419]]]},"properties":{"id_ffco":"2025-D04-103","nom":"Valensole Village","_dept":"04","numero":"2025-D04-103","commune":"Valensole","echelle":"1/4000","surface":"0.48 km²","format":"A4","annee":"2025","cartographes":"Bertrand Massot","proprietaire":"0404 - BALISE 04","niveau":"Régional","specialite":"Sprint (ISSOM)","latitude":"43.8380642732","longitude":"5.98414416691","date_saisie":"16/08/2025","date_depot":"15/01/2026","valide":"Oui","ppo":"Non","type_carte":"Nouvelle carte","fond":"Ortho","obsolete":false}},{"type":"Feature","geometry":{"type":"Polygon","coordinates":[[[5.9694,44.1291],[5.9734,44.1268],[5.9768,44.1247],[5.9796,44.1235],[5.9801,44.1207],[5.9827,44.1168],[5.983,44.1153],[5.9825,44.1129],[5.9813,44.112],[5.9799,44.1061],[5.976,44.1027],[5.9727,44.0989],[5.9706,44.0929],[5.9665,44.092],[5.9621,44.0935],[5.9564,44.0991],[5.9533,44.1021],[5.9538,44.1085],[5.9545,44.1145],[5.956,44.1205],[5.9578,44.1235],[5.9633,44.1285],[5.9694,44.1291]]]},"properties":{"id_ffco":"2024-D04-102","nom":"Aubignosc et les Amarines 2025","_dept":"04","numero":"2024-D04-102","commune":"Aubignosc","echelle":"1/10000","surface":"6.78 km²","format":"A3","annee":"2024","cartographes":"Ray HULSE","proprietaire":"PZ - Provence-Alpes-Côte d'Azur","niveau":"National, International","specialite":"CO à pied","latitude":"44.11139201","longitude":"5.96720068067","date_saisie":"29/11/2024","date_depot":"15/01/2026","valide":"Oui","ppo":"Non","type_carte":"Reprise","base":"2023-D04-101 Aigre-Vin","fond":"Laser","obsolete":false}},{"type":"Feature","geometry":{"type":"Polygon","coordinates":[[[5.9507,44.0505],[5.9493,44.0502],[5.9474,44.0497],[5.9455,44.0485],[5.9435,44.0482],[5.9423,44.0477],[5.9416,44.0459],[5.9415,44.0457],[5.9424,44.0449],[5.9428,44.044],[5.941,44.0436],[5.9388,44.043],[5.9365,44.0416],[5.9361,44.0406],[5.9355,44.0396],[5.935,44.0391],[5.9336,44.0385],[5.9326,44.0382],[5.9318,44.0375],[5.9294,44.0377],[5.926,44.0382],[5.9235,44.0384],[5.922,44.0384],[5.9207,44.0386],[5.9202,44.0394],[5.92,44.0401],[5.9201,44.0408],[5.9193,44.0411],[5.9186,44.0417],[5.9185,44.0433],[5.9167,44.0432],[5.9121,44.0436],[5.9103,44.044],[5.9091,44.0444],[5.907,44.0459],[5.9066,44.047],[5.9079,44.0509],[5.9097,44.0554],[5.9111,44.0549],[5.9119,44.0556],[5.913,44.0561],[5.9138,44.0561],[5.915,44.0564],[5.9168,44.0561],[5.9175,44.0565],[5.9192,44.056],[5.9195,44.0566],[5.9209,44.0565],[5.9221,44.0556],[5.9235,44.0551],[5.9247,44.0557],[5.9256,44.0571],[5.926,44.0581],[5.9268,44.0584],[5.9295,44.0599],[5.9319,44.061],[5.9332,44.0617],[5.934,44.0615],[5.9375,44.0602],[5.9398,44.0593],[5.9412,44.0591],[5.9428,44.0574],[5.9434,44.0568],[5.9454,44.0569],[5.9466,44.0569],[5.9483,44.0565],[5.9487,44.0559],[5.9486,44.0548],[5.9495,44.0536],[5.9502,44.052],[5.9507,44.0505]]]},"properties":{"id_ffco":"2023-D04-101","nom":"Aigre-Vin","_dept":"04","numero":"2023-D04-101","commune":"Peyruis","echelle":"1/10000","surface":"5.69 km²","format":"A3","annee":"2023","cartographes":"Franck Dechavanne","proprietaire":"PZ - Provence-Alpes-Côte d'Azur","niveau":"National, International","specialite":"CO à pied","latitude":"44.0495983953","longitude":"5.92836189057","date_saisie":"16/12/2023","date_depot":"19/01/2026","valide":"Oui","ppo":"Non","type_carte":"Nouvelle carte","fond":"Laser","obsolete":false}},{"type":"Feature","geometry":{"type":"Polygon","coordinates":[[[6.5724,44.392],[6.5729,44.3912],[6.5744,44.3904],[6.5745,44.3898],[6.5734,44.3895],[6.5715,44.3892],[6.5697,44.3896],[6.5683,44.3897],[6.567,44.3894],[6.5657,44.3894],[6.5651,44.3901],[6.5639,44.3905],[6.5641,44.391],[6.5648,44.3915],[6.5666,44.392],[6.5665,44.3927],[6.5654,44.3934],[6.5645,44.3937],[6.5648,44.3945],[6.5656,44.3957],[6.5653,44.3969],[6.5654,44.3978],[6.5658,44.3984],[6.5667,44.3985],[6.5677,44.3974],[6.5682,44.3965],[6.5688,44.396],[6.5696,44.3949],[6.5704,44.3944],[6.5718,44.3942],[6.5736,44.394],[6.5748,44.3935],[6.5745,44.3928],[6.5735,44.3926],[6.5723,44.3924],[6.5724,44.392]]]},"properties":{"id_ffco":"2023-D04-100","nom":"Les Thuiles","_dept":"04","numero":"2023-D04-100","commune":"Les Thuiles","echelle":"1/4000","surface":"0.47 km²","format":"A4","annee":"2023","cartographes":"Geodezic (Pierre Martinez)","proprietaire":"PZ - Provence-Alpes-Côte d'Azur","niveau":"Initiation, Scolaire","specialite":"CO à pied","latitude":"44.3928186355","longitude":"6.56886811553","date_saisie":"01/09/2023","date_depot":"19/01/2026","valide":"Oui","ppo":"Oui (15 postes)","type_carte":"Nouvelle carte","fond":"Ortho","obsolete":false}}]}