{"type":"FeatureCollection","features":[{"type":"Feature","geometry":{"type":"Polygon","coordinates":[[[5.8101,43.9871],[5.8104,43.9895],[5.8129,43.9908],[5.8143,43.9909],[5.8191,43.9926],[5.8202,43.9942],[5.824,43.9966],[5.8312,43.9978],[5.8364,43.9988],[5.8422,43.9981],[5.8435,43.9971],[5.8437,43.9955],[5.849,43.9936],[5.8606,43.9855],[5.8612,43.9844],[5.8638,43.9832],[5.8638,43.9794],[5.8462,43.9781],[5.839,43.9779],[5.8247,43.9797],[5.8185,43.9803],[5.8161,43.9844],[5.8159,43.986],[5.8101,43.9871]]]},"properties":{"id_ffco":"9738","nom":"Sigonce - chantoiseau","_dept":"04","numero":"2015-D04-77","commune":"sigonce","echelle":"1/10000","surface":"6.54 km²","format":"A3","annee":"2015","cartographes":"Pierre Delenne","proprietaire":"PZ - Provence-Alpes-Côte d'Azur","niveau":"Régional","specialite":"CO à pied","latitude":"43.9871127827","longitude":"5.83692521826","date_saisie":"13/10/2016","date_depot":"09/11/2016","valide":"Oui","ppo":"Non","type_carte":"Extrait","base":"2012-D04-59 Pavoux","fond":"Ortho","obsolete":true}},{"type":"Feature","geometry":{"type":"Polygon","coordinates":[[[6.5173,43.8471],[6.5174,43.8461],[6.5181,43.8459],[6.5182,43.8447],[6.5173,43.845],[6.5165,43.845],[6.5151,43.8449],[6.5138,43.8445],[6.5114,43.8439],[6.5091,43.8434],[6.5087,43.8431],[6.5087,43.8444],[6.5071,43.8439],[6.5068,43.8448],[6.5058,43.8443],[6.5052,43.8454],[6.5055,43.847],[6.5055,43.8482],[6.5079,43.8485],[6.5084,43.8494],[6.5111,43.8504],[6.5136,43.8486],[6.5153,43.8492],[6.5159,43.8485],[6.5156,43.8478],[6.5156,43.8473],[6.5163,43.8467],[6.5173,43.8471]]]},"properties":{"id_ffco":"9658","nom":"CASTELLANE","_dept":"04","numero":"2016-D04-75","commune":"Castellane","echelle":"1/4000","surface":"0.5 km²","format":"A4","annee":"2016","cartographes":"Pierre Delenne","proprietaire":"PZ - Provence-Alpes-Côte d'Azur","niveau":"Départemental","specialite":"Sprint (ISSOM)","latitude":"43.8466463695","longitude":"6.51104086221","date_saisie":"25/08/2016","date_depot":"04/10/2016","valide":"Oui","ppo":"Non","type_carte":"Nouvelle carte","fond":"Cadastre","obsolete":true}},{"type":"Feature","geometry":{"type":"Polygon","coordinates":[[[6.0016,44.1638],[5.9989,44.1636],[5.9969,44.1642],[5.9962,44.1655],[6.0001,44.1737],[6.0053,44.1756],[6.0101,44.1755],[6.0153,44.1738],[6.0203,44.1748],[6.0221,44.1723],[6.0219,44.1649],[6.0091,44.165],[6.0016,44.1638]]]},"properties":{"id_ffco":"8469","nom":"Salignac 7500","_dept":"04","numero":"2015-D04-68","commune":"Salignac","echelle":"1/7500","surface":"2.14 km²","format":"A4","annee":"2015","cartographes":"Ray Hulse","niveau":"Régional","specialite":"CO à pied","latitude":"44.1694844811","longitude":"6.00954404445","date_saisie":"08/06/2015","date_depot":"29/07/2015","valide":"Oui","ppo":"Non","type_carte":"Extrait","base":"2014-D04-66 Salignac","fond":"Ortho","obsolete":true}},{"type":"Feature","geometry":{"type":"Polygon","coordinates":[[[5.9969,44.1708],[5.9945,44.1707],[5.9915,44.1708],[5.9885,44.1717],[5.9863,44.1718],[5.9847,44.1706],[5.9824,44.1668],[5.9794,44.1634],[5.978,44.1623],[5.9776,44.1607],[5.9778,44.1592],[5.9779,44.159],[5.9797,44.1588],[5.9814,44.1581],[5.9821,44.1576],[5.9833,44.1572],[5.985,44.1576],[5.9864,44.1586],[5.9883,44.1593],[5.9909,44.1594],[5.9921,44.159],[5.9933,44.1583],[5.9945,44.1575],[5.9966,44.1574],[5.9972,44.1575],[5.9984,44.1587],[6.0006,44.1624],[6.0015,44.1628],[6.0031,44.1632],[6.0047,44.1634],[6.0061,44.1628],[6.0083,44.1627],[6.0101,44.1632],[6.0129,44.1639],[6.0152,44.1655],[6.015,44.1724],[6.0144,44.1737],[6.0128,44.1743],[6.0105,44.1752],[6.0081,44.1753],[6.0031,44.1744],[6.002,44.1738],[6.0009,44.1737],[5.9999,44.1729],[5.9969,44.1708]]]},"properties":{"id_ffco":"8466","nom":"salignac","_dept":"04","numero":"2015-D04-67","commune":"Salignac","echelle":"1/10000","surface":"3.7 km²","format":"A4","annee":"2015","cartographes":"Ray Hulse","proprietaire":"PZ - Provence-Alpes-Côte d'Azur","niveau":"Régional","specialite":"CO à pied","latitude":"44.1662018955","longitude":"5.99717398648","date_saisie":"05/06/2015","date_depot":"29/07/2015","valide":"Oui","ppo":"Non","type_carte":"Extrait","base":"2014-D04-66 Salignac","fond":"Ortho","obsolete":true}},{"type":"Feature","geometry":{"type":"Polygon","coordinates":[[[6.0077,44.1761],[6.0104,44.1754],[6.0123,44.1748],[6.0156,44.1738],[6.0169,44.1731],[6.0205,44.1717],[6.0215,44.1708],[6.0209,44.1688],[6.0195,44.1667],[6.0186,44.1655],[6.0166,44.164],[6.0124,44.1618],[6.0088,44.1605],[6.0056,44.1592],[6.0026,44.1584],[5.9991,44.158],[5.9969,44.1576],[5.9945,44.1581],[5.9925,44.159],[5.9871,44.1595],[5.9847,44.1579],[5.9824,44.1579],[5.9801,44.159],[5.9793,44.1597],[5.9779,44.1611],[5.9775,44.1635],[5.9804,44.1664],[5.9837,44.1711],[5.9846,44.173],[5.9872,44.1741],[5.9882,44.1752],[5.9874,44.1765],[5.9893,44.1776],[5.994,44.1775],[6.0004,44.1751],[6.003,44.1752],[6.006,44.1754],[6.0077,44.1761]]]},"properties":{"id_ffco":"7857","nom":"Salignac","_dept":"04","numero":"2014-D04-66","commune":"Salignac","echelle":"1/10000","surface":"5.36 km²","format":"A3","annee":"2014","cartographes":"Ray Hulse","proprietaire":"PR - Provence","niveau":"National, International","specialite":"CO à pied","latitude":"44.1672390735","longitude":"5.99873575159","date_saisie":"30/12/2014","date_depot":"29/07/2015","valide":"Oui","ppo":"Non","type_carte":"Reprise","base":"1999-D04-015 VILHOSC","fond":"Ortho","obsolete":true}},{"type":"Feature","geometry":null,"properties":{"id_ffco":"5420","nom":"Montclar-Selonnet","_dept":"04","numero":"2004-D04-62","commune":"Selonnet","echelle":"1/20000","surface":"50.0 km²","annee":"2004","proprietaire":"0405 - UNION SPORTIVE DE SEYNE ET DE LA BLANCHE","specialite":"Raid'O","latitude":"44.3921683534","longitude":"6.31219787579","date_saisie":"19/07/2012","valide":"Non","ppo":"Non","obsolete":true}},{"type":"Feature","geometry":{"type":"Polygon","coordinates":[[[5.8398,43.9966],[5.8442,43.9938],[5.852,43.9894],[5.8535,43.981],[5.8472,43.9778],[5.83,43.9754],[5.8156,43.9736],[5.8036,43.9723],[5.7988,43.9719],[5.7988,43.9798],[5.8013,43.9861],[5.7969,43.9966],[5.8072,43.9966],[5.8223,43.9959],[5.829,43.9959],[5.8398,43.9967],[5.8398,43.9966]]]},"properties":{"id_ffco":"5418","nom":"Pavoux","_dept":"04","numero":"2012-D04-59","commune":"Sigonce","echelle":"1/10000","surface":"9.67 km²","format":"A3","annee":"2012","cartographes":"P Delenne","proprietaire":"PZ - Provence-Alpes-Côte d'Azur","niveau":"National, International","specialite":"CO à pied","latitude":"43.9852347979","longitude":"5.82334649689","date_saisie":"19/07/2012","valide":"Oui","ppo":"Non","type_carte":"Nouvelle carte","fond":"Ortho","obsolete":true}},{"type":"Feature","geometry":null,"properties":{"id_ffco":"5414","nom":"Chateau Arnoux-Aubignosc","_dept":"04","numero":"2008-D04-55","commune":"Chateau Arnoux","echelle":"1/20000","surface":"20.0 km²","annee":"2008","proprietaire":"PR - Provence","niveau":"National, International","specialite":"CO à VTT","contacts":"OT Moyenne Durance, 04 92 64 02 64, info@la-moyenne-durance.fr","latitude":"44.1024590101","longitude":"5.97848815901","date_saisie":"19/07/2012","valide":"Non","ppo":"Non","obsolete":true}},{"type":"Feature","geometry":null,"properties":{"id_ffco":"5413","nom":"La Cabane des mulets","_dept":"04","numero":"2006-D04-53","commune":"Seyne","echelle":"1/20000","surface":"None km²","annee":"2006","proprietaire":"0405 - UNION SPORTIVE DE SEYNE ET DE LA BLANCHE","specialite":"Raid'O","latitude":"44.3281028337","longitude":"6.34584350567","date_saisie":"19/07/2012","valide":"Non","ppo":"Non","obsolete":true}},{"type":"Feature","geometry":null,"properties":{"id_ffco":"5412","nom":"Les Vannades","_dept":"04","numero":"2005-D04-52","commune":"Manosque","echelle":"1/2500","surface":"0.5 km²","annee":"2005","proprietaire":"0406 - PEYRUIS ORIENTATION INITIATION LOISIRS","niveau":"Initiation, Scolaire","specialite":"CO à pied","latitude":"43.8286629523","longitude":"5.83738250716","date_saisie":"19/07/2012","valide":"Non","ppo":"Non","obsolete":true}},{"type":"Feature","geometry":null,"properties":{"id_ffco":"5409","nom":"Col de Larche","_dept":"04","numero":"2004-D04-50","commune":"Larche","echelle":"1/10000","surface":"16.0 km²","annee":"2004","proprietaire":"PR - Provence","niveau":"Régional","specialite":"Rand'O","latitude":"44.4262589494","longitude":"6.88005371073","date_saisie":"19/07/2012","valide":"Non","ppo":"Non","obsolete":true}},{"type":"Feature","geometry":null,"properties":{"id_ffco":"5408","nom":"Le rioclard","_dept":"04","numero":"2004-D04-49","commune":"Meolans","echelle":"1/10000","surface":"5.0 km²","annee":"2004","proprietaire":"PR - Provence","niveau":"Régional","specialite":"CO à pied","latitude":"44.4000183087","longitude":"6.50772018413","date_saisie":"19/07/2012","valide":"Non","ppo":"Non","obsolete":true}},{"type":"Feature","geometry":null,"properties":{"id_ffco":"5407","nom":"Tournoux","_dept":"04","numero":"2003-D04-48","commune":"Jausiers","echelle":"1/10000","surface":"3.0 km²","annee":"2003","proprietaire":"PR - Provence","niveau":"Régional","specialite":"CO à pied","latitude":"44.4753977928","longitude":"6.75868911723","date_saisie":"19/07/2012","valide":"Non","ppo":"Non","obsolete":true}},{"type":"Feature","geometry":null,"properties":{"id_ffco":"5406","nom":"Pays de Forcalquier","_dept":"04","numero":"2003-D04-47","commune":"Forcalquier","surface":"50.0 km²","annee":"2003","proprietaire":"0406 - PEYRUIS ORIENTATION INITIATION LOISIRS","specialite":"Raid'O","latitude":"43.9696723295","longitude":"5.77352447494","date_saisie":"19/07/2012","valide":"Non","ppo":"Non","obsolete":true}},{"type":"Feature","geometry":null,"properties":{"id_ffco":"3579","nom":"Les Mourres","_dept":"04","numero":"2002-D04-45","commune":"Forcalquier","echelle":"1/10000","surface":"20.0 km²","format":"A3","annee":"2002","cartographes":"M Haberkorn","proprietaire":"0406 - PEYRUIS ORIENTATION INITIATION LOISIRS","specialite":"CO à pied","latitude":"43.9785639435","longitude":"5.77270805391","date_saisie":"29/11/2002","date_depot":"02/12/2002","valide":"Non","ppo":"Non","obsolete":true}},{"type":"Feature","geometry":null,"properties":{"id_ffco":"3580","nom":"Chapelle Toutes Aures","_dept":"04","numero":"2002-D04-44","commune":"Manosque","echelle":"1/7500","surface":"2.5 km²","annee":"2002","proprietaire":"0406 - PEYRUIS ORIENTATION INITIATION LOISIRS","specialite":"CO à pied","latitude":"43.8274154","longitude":"5.7876544","date_saisie":"29/11/2002","date_depot":"02/12/2002","valide":"Non","ppo":"Non","obsolete":true}},{"type":"Feature","geometry":null,"properties":{"id_ffco":"5405","nom":"Ste Madeleine","_dept":"04","numero":"2001-D04-39","commune":"Chateauneuf Val St Donnat","echelle":"1/15000","surface":"50.0 km²","annee":"2001","proprietaire":"0406 - PEYRUIS ORIENTATION INITIATION LOISIRS","specialite":"Raid'O","latitude":"44.0935829455","longitude":"5.94140930159","date_saisie":"19/07/2012","valide":"Non","ppo":"Non","obsolete":true}},{"type":"Feature","geometry":null,"properties":{"id_ffco":"17","nom":"Super Sauze","_dept":"04","numero":"2003-D04-37","commune":"Le Sauze","echelle":"1/10000","surface":"6.0 km²","format":"A3","annee":"2003","proprietaire":"PR - Provence","niveau":"Interrégional","specialite":"CO à pied","contacts":"OT Sauze, 04 92 81 05 61, info@sauze.com","latitude":"44.3729329","longitude":"6.6813829","valide":"Non","ppo":"Oui (30 postes)","obsolete":true}},{"type":"Feature","geometry":null,"properties":{"id_ffco":"3384","nom":"CHABLIS \"BOIS DES LYS\"","_dept":"04","numero":"1999-D04-25","commune":"SISTERON","echelle":"1/10000","surface":"6.0 km²","annee":"1999","proprietaire":"PR - Provence","specialite":"CO à pied","latitude":"44.1971538","longitude":"5.9435588","date_saisie":"23/11/2001","date_depot":"06/12/2001","valide":"Non","ppo":"Non","obsolete":true}},{"type":"Feature","geometry":{"type":"Polygon","coordinates":[[[5.962,44.1293],[5.9569,44.118],[5.9524,44.1052],[5.9503,44.0983],[5.9654,44.0919],[5.9867,44.0906],[5.9926,44.0993],[5.9891,44.1111],[5.9819,44.1197],[5.9792,44.1254],[5.962,44.1293]]]},"properties":{"id_ffco":"828","nom":"AMARINES","_dept":"04","numero":"2008-D04-21","commune":"Chateau Arnoux","echelle":"1/10000","surface":"10.03 km²","format":"A3","annee":"2008","proprietaire":"PR - Provence","niveau":"National, International","specialite":"CO à pied","latitude":"44.1077694342","longitude":"5.97153577222","valide":"Non","ppo":"Non","obsolete":true}},{"type":"Feature","geometry":null,"properties":{"id_ffco":"826","nom":"La Frache St Pons","_dept":"04","numero":"2004-D04-19","commune":"Barcelonnette","echelle":"1/15000","surface":"8.0 km²","format":"A4","annee":"2004","proprietaire":"PR - Provence","niveau":"Régional","specialite":"CO à pied","latitude":"44.3892687781","longitude":"6.60855101338","valide":"Non","ppo":"Non","obsolete":true}},{"type":"Feature","geometry":null,"properties":{"id_ffco":"5411","nom":"Dormillouse","_dept":"04","numero":"1999-D04-13","commune":"Seyne","echelle":"1/20000","surface":"None km²","annee":"1999","proprietaire":"0405 - UNION SPORTIVE DE SEYNE ET DE LA BLANCHE","specialite":"Raid'O","latitude":"44.3695938658","longitude":"6.38772888165","date_saisie":"19/07/2012","valide":"Non","ppo":"Non","obsolete":true}},{"type":"Feature","geometry":null,"properties":{"id_ffco":"2616","nom":"PRIEURE de GANAGOBIE","_dept":"04","numero":"1992-D04-12","commune":"MANOSQUE","echelle":"1/7500","surface":"1.0 km²","annee":"1992","proprietaire":"PR - Provence","specialite":"CO à pied","latitude":"44.0051103135","longitude":"5.91451215756","valide":"Non","ppo":"Non","obsolete":true}},{"type":"Feature","geometry":null,"properties":{"id_ffco":"1484","nom":"JAS DE MADAME","_dept":"04","numero":"1985-D04-11","commune":"MANOSQUE","echelle":"1/15000","surface":"7.0 km²","annee":"1985","proprietaire":"PR - Provence","niveau":"Interrégional","specialite":"CO à pied","latitude":"44.1256200146","longitude":"5.86524534238","valide":"Non","ppo":"Non","obsolete":true}},{"type":"Feature","geometry":null,"properties":{"id_ffco":"2875","nom":"CHARCHERIE","_dept":"04","numero":"1997-D04-1000","commune":"SEYNE LES ALPES","echelle":"1/20000","surface":"34.0 km²","annee":"1997","proprietaire":"0405 - UNION SPORTIVE DE SEYNE ET DE LA BLANCHE","niveau":"National, International","specialite":"CO à pied","latitude":"44.3520582","longitude":"6.3561238","valide":"Non","ppo":"Non","obsolete":true}},{"type":"Feature","geometry":null,"properties":{"id_ffco":"1483","nom":"COLLE ST MICHEL","_dept":"04","numero":"1985-D04-10","commune":"THORAMME-HAUTE","echelle":"1/20000","surface":"12.0 km²","annee":"1985","niveau":"Interrégional","specialite":"CO à pied","latitude":"44.0971492","longitude":"6.5554033","valide":"Non","ppo":"Non","obsolete":true}},{"type":"Feature","geometry":null,"properties":{"id_ffco":"1482","nom":"LAC DES SAGNES","_dept":"04","numero":"1985-D04-08","commune":"THORANNE HTE","echelle":"1/10000","surface":"2.5 km²","annee":"1985","proprietaire":"PR - Provence","niveau":"Interrégional","specialite":"CO à pied","latitude":"44.0890927174","longitude":"6.53697214139","valide":"Non","ppo":"Non","obsolete":true}},{"type":"Feature","geometry":null,"properties":{"id_ffco":"2615","nom":"JAUSIERS","_dept":"04","numero":"1992-D04-07","commune":"JAUSIERS","echelle":"1/10000","surface":"1.2 km²","annee":"1992","specialite":"CO à pied","latitude":"44.4169856","longitude":"6.7290573","valide":"Non","ppo":"Non","obsolete":true}},{"type":"Feature","geometry":null,"properties":{"id_ffco":"2614","nom":"TERRE NEUVE","_dept":"04","numero":"1992-D04-05","commune":"BARCELONETTE","echelle":"1/10000","surface":"0.8 km²","annee":"1992","specialite":"CO à pied","latitude":"44.3862309","longitude":"6.6479198","valide":"Non","ppo":"Non","obsolete":true}},{"type":"Feature","geometry":null,"properties":{"id_ffco":"1481","nom":"ST PONS","_dept":"04","numero":"1985-D04-04","commune":"BARCELONETTE","echelle":"1/15000","surface":"4.3 km²","annee":"1985","proprietaire":"0401","niveau":"Interrégional","specialite":"CO à pied","latitude":"44.3862309","longitude":"6.6479198","valide":"Non","ppo":"Non","obsolete":true}},{"type":"Feature","geometry":null,"properties":{"id_ffco":"3354","nom":"COL BAS","_dept":"04","numero":"2000-D04-036","commune":"Seyne","echelle":"1/10000","surface":"8.0 km²","format":"A3","annee":"2000","cartographes":"M Haberkorn","proprietaire":"PR - Provence","niveau":"Régional","specialite":"CO à pied","latitude":"44.4011347153","longitude":"6.39146680331","valide":"Non","ppo":"Non","obsolete":true}},{"type":"Feature","geometry":null,"properties":{"id_ffco":"2613","nom":"PRA SOUBEIRAN","_dept":"04","numero":"1992-D04-03","commune":"BARCELONETTE","echelle":"1/10000","surface":"3.6 km²","annee":"1992","proprietaire":"0401","specialite":"CO à pied","contacts":"Lycée Barcelonette","latitude":"44.3862309","longitude":"6.6479198","valide":"Non","ppo":"Non","obsolete":true}},{"type":"Feature","geometry":{"type":"Polygon","coordinates":[[[6.0185,44.1884],[6.0159,44.1801],[6.0092,44.1747],[6.008,44.1636],[5.9994,44.1543],[6.0326,44.154],[6.0514,44.169],[6.0557,44.1851],[6.0444,44.1911],[6.0207,44.1894],[6.0185,44.1884]]]},"properties":{"id_ffco":"830","nom":"VILHOSC","_dept":"04","numero":"1999-D04-015","commune":"Entrepierres","echelle":"1/10000","surface":"12.21 km²","format":"A3","annee":"1999","cartographes":"SHO Cart","proprietaire":"PR - Provence","niveau":"National, International","specialite":"CO à pied","latitude":"44.1721800696","longitude":"6.0297278786","valide":"Non","ppo":"Non","obsolete":true}},{"type":"Feature","geometry":null,"properties":{"id_ffco":"827","nom":"FORET DE GANAGOBIE","_dept":"04","numero":"1990-D04-009","commune":"MANOSQUE","echelle":"1/15000","surface":"11.0 km²","annee":"1990","proprietaire":"PR - Provence","specialite":"CO à pied","latitude":"43.9968370976","longitude":"5.90747404111","valide":"Non","ppo":"Non","obsolete":true}},{"type":"Feature","geometry":null,"properties":{"id_ffco":"1480","nom":"VERDON","_dept":"04","numero":"1985-D04-00","commune":"PALUD-VERDON","echelle":"1/25000","surface":"130.0 km²","annee":"1985","proprietaire":"LY","niveau":"Interrégional","specialite":"CO à pied","latitude":"43.7796546","longitude":"6.3403776","valide":"Non","ppo":"Non","obsolete":true}},{"type":"Feature","geometry":null,"properties":{"id_ffco":"16","nom":"Les Bruyères/Saint Jean","_dept":"04","numero":"2008-D04-","commune":"Château Arnoux","surface":"8.0 km²","annee":"2008","specialite":"Raid'O","contacts":"OT Moyenne Durance, 04 92 64 02 64, info@la-moyenne-durance.fr","latitude":"44.0937481","longitude":"6.0080995","valide":"Non","ppo":"Oui","obsolete":true}},{"type":"Feature","geometry":null,"properties":{"id_ffco":"18","nom":"La Frache St. Pons","_dept":"04","numero":"2004-D04-","surface":"3.0 km²","annee":"2004","specialite":"Raid'O","latitude":"44.0778716","longitude":"6.2375947","valide":"Non","ppo":"Oui (25 postes)","obsolete":true}}]}