{"type":"FeatureCollection","features":[{"type":"Feature","geometry":null,"properties":{"id_ffco":"2026-D05-71","nom":"Raid Altitude 2026","_dept":"05","numero":"2026-D05-71","surface":"None km²","annee":"2026","date_saisie":"01/06/2026","valide":"Non","ppo":"Non","obsolete":false}},{"type":"Feature","geometry":{"type":"Polygon","coordinates":[[[5.7909,44.5177],[5.7931,44.5161],[5.796,44.5163],[5.798,44.5167],[5.7997,44.5177],[5.8019,44.5183],[5.8036,44.5187],[5.8031,44.5199],[5.8013,44.5197],[5.8007,44.5206],[5.7993,44.5205],[5.7983,44.5204],[5.7973,44.5209],[5.7949,44.5198],[5.7929,44.5188],[5.7909,44.5177]]]},"properties":{"id_ffco":"15564","nom":"Plan d'eau de Veynes","_dept":"05","numero":"2026-D05-70","commune":"Veynes","echelle":"1/3000","surface":"0.3 km²","format":"A4","annee":"2026","cartographes":"Pierre Delenne","proprietaire":"0504 - SUD RAID TRIATHLON SPORTS NATURE","niveau":"Départemental","specialite":"CO à pied","latitude":"44.5184555824","longitude":"5.7970551817","date_saisie":"13/03/2026","valide":"Non","ppo":"Non","type_carte":"Nouvelle carte","fond":"Ortho","obsolete":false}},{"type":"Feature","geometry":{"type":"Polygon","coordinates":[[[6.0823,44.5827],[6.0827,44.5832],[6.0833,44.5838],[6.0837,44.5842],[6.0849,44.5842],[6.0852,44.5841],[6.0853,44.5837],[6.0855,44.5835],[6.0857,44.5832],[6.0854,44.5831],[6.0852,44.583],[6.0848,44.5827],[6.0845,44.5825],[6.084,44.5822],[6.0836,44.582],[6.083,44.5821],[6.0827,44.5822],[6.0828,44.5825],[6.0824,44.5825],[6.0823,44.5827]]]},"properties":{"id_ffco":"15496","nom":"Camping Napoléon","_dept":"05","numero":"2026-D05-69","commune":"Gap","echelle":"1/1500","surface":"0.04 km²","format":"A4","annee":"2026","cartographes":"Mathieu BRUGAT","proprietaire":"0504 - SUD RAID TRIATHLON SPORTS NATURE","niveau":"Départemental","specialite":"Sprint (ISSOM)","latitude":"44.5831619084","longitude":"6.08397554606","date_saisie":"18/02/2026","valide":"Non","ppo":"Non","type_carte":"Nouvelle carte","fond":"Ortho","obsolete":false}},{"type":"Feature","geometry":{"type":"Polygon","coordinates":[[[6.0436,44.4535],[6.0439,44.452],[6.0436,44.4508],[6.0435,44.4503],[6.0418,44.448],[6.0398,44.4461],[6.0395,44.4455],[6.0399,44.4445],[6.0415,44.4444],[6.0416,44.444],[6.0423,44.444],[6.0426,44.4431],[6.0417,44.4428],[6.0402,44.4428],[6.0386,44.4421],[6.0371,44.4417],[6.0357,44.4414],[6.0346,44.4407],[6.0335,44.4404],[6.0321,44.4403],[6.031,44.4406],[6.0308,44.4419],[6.0308,44.4423],[6.0315,44.4428],[6.0321,44.4442],[6.0322,44.4459],[6.0324,44.4473],[6.0354,44.4487],[6.0378,44.4503],[6.0394,44.4511],[6.0413,44.4521],[6.0428,44.453],[6.0436,44.4535]]]},"properties":{"id_ffco":"15495","nom":"Tallard SO","_dept":"05","numero":"2026-D05-68","commune":"Tallard","echelle":"1/10000","surface":"0.74 km²","format":"A4","annee":"2026","cartographes":"Mathieu BRUGAT","proprietaire":"0504 - SUD RAID TRIATHLON SPORTS NATURE","niveau":"Départemental","specialite":"CO à pied","latitude":"44.4460459511","longitude":"6.03724462311","date_saisie":"18/02/2026","valide":"Non","ppo":"Non","type_carte":"Nouvelle carte","fond":"Ortho","obsolete":false}},{"type":"Feature","geometry":{"type":"Polygon","coordinates":[[[6.0436,44.4537],[6.0435,44.4518],[6.0433,44.4504],[6.0417,44.4485],[6.04,44.4469],[6.0393,44.446],[6.0391,44.4453],[6.0393,44.445],[6.0396,44.4444],[6.0404,44.4443],[6.0411,44.444],[6.0418,44.4433],[6.0423,44.4428],[6.0443,44.4437],[6.0462,44.4445],[6.0482,44.4452],[6.0502,44.4466],[6.052,44.4477],[6.0527,44.4484],[6.0533,44.4493],[6.0534,44.45],[6.0547,44.4507],[6.0552,44.4516],[6.0559,44.4536],[6.0569,44.456],[6.0574,44.4571],[6.0581,44.4583],[6.0586,44.4596],[6.0593,44.462],[6.058,44.4624],[6.0576,44.4629],[6.0573,44.4634],[6.0566,44.4628],[6.0557,44.4628],[6.0551,44.462],[6.0551,44.4613],[6.0522,44.4598],[6.049,44.4574],[6.0464,44.4557],[6.0436,44.4537]]]},"properties":{"id_ffco":"15494","nom":"Tallard NE","_dept":"05","numero":"2026-D05-67","commune":"Tallard","echelle":"1/10000","surface":"1.55 km²","format":"A4","annee":"2026","cartographes":"Mathieu BRUGAT","proprietaire":"0504 - SUD RAID TRIATHLON SPORTS NATURE","niveau":"Départemental","specialite":"CO à pied","latitude":"44.4524143849","longitude":"6.04955519342","date_saisie":"18/02/2026","valide":"Non","ppo":"Non","type_carte":"Nouvelle carte","fond":"Ortho","obsolete":false}},{"type":"Feature","geometry":{"type":"Polygon","coordinates":[[[6.6259,44.8869],[6.6266,44.8879],[6.6272,44.889],[6.6276,44.8896],[6.6282,44.8903],[6.6288,44.8909],[6.629,44.8911],[6.6296,44.8908],[6.6298,44.8906],[6.6299,44.8901],[6.6302,44.8898],[6.6307,44.8897],[6.6317,44.8894],[6.6312,44.8886],[6.6308,44.8879],[6.6307,44.8874],[6.6305,44.8866],[6.6293,44.8867],[6.6279,44.8869],[6.6267,44.887],[6.6263,44.887],[6.6259,44.8869]]]},"properties":{"id_ffco":"15300","nom":"Briançon-Parc des Sports","_dept":"05","numero":"2025-D05-66","commune":"Briançon","echelle":"1/2500","surface":"0.13 km²","format":"A4","annee":"2025","cartographes":"Celine Dodin,Sylvan Lavallée","proprietaire":"0503 - BRIANCON NATURE COURSE D'ORIENTATION","niveau":"Initiation, Scolaire","specialite":"CO à pied","latitude":"44.888501978","longitude":"6.62894952885","date_saisie":"07/11/2025","valide":"Non","ppo":"Non","type_carte":"Nouvelle carte","fond":"Ortho","obsolete":false}},{"type":"Feature","geometry":{"type":"Polygon","coordinates":[[[6.6327,44.8723],[6.6338,44.8714],[6.6359,44.8709],[6.6381,44.8705],[6.6391,44.8698],[6.6412,44.8692],[6.6426,44.8681],[6.6435,44.8672],[6.6433,44.8665],[6.6413,44.8657],[6.6401,44.8653],[6.6381,44.8646],[6.6364,44.8637],[6.6353,44.8632],[6.6339,44.863],[6.6323,44.8625],[6.631,44.862],[6.6298,44.861],[6.6277,44.862],[6.6267,44.8631],[6.6255,44.8646],[6.623,44.866],[6.6221,44.8671],[6.622,44.8681],[6.6249,44.8695],[6.6269,44.8702],[6.6284,44.8709],[6.6312,44.8717],[6.6317,44.8721],[6.6332,44.8718],[6.6327,44.8723]]]},"properties":{"id_ffco":"15056","nom":"Villard Saint Pancrace","_dept":"05","numero":"2025-D05-65","commune":"Villard Saint Pancrace","echelle":"1/8000","surface":"1.19 km²","format":"A4","annee":"2025","cartographes":"Cap Orientation (Franck Dechavanne)","proprietaire":"Mairie de Villard Saint Pancrace","niveau":"Départemental","specialite":"CO à pied","latitude":"44.8669823512","longitude":"6.63226104658","date_saisie":"27/05/2025","date_depot":"15/01/2026","valide":"Oui","ppo":"Oui (30 postes)","type_carte":"Nouvelle carte","fond":"Ortho","obsolete":false}},{"type":"Feature","geometry":{"type":"Polygon","coordinates":[[[6.6429,44.897],[6.643,44.8967],[6.6426,44.896],[6.6424,44.8959],[6.642,44.8957],[6.6412,44.8954],[6.6401,44.8952],[6.639,44.8952],[6.6386,44.8954],[6.6386,44.8958],[6.6395,44.896],[6.6412,44.8964],[6.6424,44.8969],[6.6429,44.897]]]},"properties":{"id_ffco":"15015","nom":"Parc de la Schappe","_dept":"05","numero":"2025-D05-64","commune":"Briançon","echelle":"1/1500","surface":"0.03 km²","format":"A4","annee":"2025","cartographes":"Sylvan Lavallée","proprietaire":"PZ - Provence-Alpes-Côte d'Azur","niveau":"Initiation, Scolaire","specialite":"CO à pied","contacts":"Office Municipal des Spôrts de Briançon, 04 92 20 10 41, sports@mairie-briancon.fr","latitude":"44.8959144563","longitude":"6.64088459942","date_saisie":"29/04/2025","date_depot":"15/01/2026","valide":"Oui","ppo":"Oui (60 postes)","type_carte":"Extrait","base":"2013-D05-28 ville de Briançon","fond":"Ortho","obsolete":false}},{"type":"Feature","geometry":{"type":"Polygon","coordinates":[[[6.7352,44.7813],[6.7362,44.7811],[6.7369,44.7801],[6.7385,44.7796],[6.74,44.7811],[6.7412,44.782],[6.7427,44.7826],[6.7427,44.7832],[6.7413,44.7837],[6.7404,44.7841],[6.7401,44.7852],[6.74,44.7861],[6.7401,44.7868],[6.7392,44.7872],[6.7397,44.7884],[6.7399,44.7893],[6.7406,44.7905],[6.7394,44.7909],[6.7384,44.7908],[6.7373,44.7921],[6.7366,44.7933],[6.7371,44.7919],[6.7372,44.7915],[6.7367,44.7935],[6.7367,44.7944],[6.7352,44.7947],[6.7345,44.7954],[6.7346,44.7962],[6.733,44.796],[6.7319,44.7958],[6.7309,44.7963],[6.7297,44.7967],[6.7286,44.7969],[6.7282,44.7963],[6.7291,44.7955],[6.7304,44.7942],[6.7313,44.7927],[6.7318,44.7914],[6.7324,44.7901],[6.7327,44.7893],[6.7329,44.7881],[6.733,44.7867],[6.7336,44.7849],[6.7346,44.783],[6.7349,44.7821],[6.7352,44.7813]]]},"properties":{"id_ffco":"14736","nom":"Arvieux La Chalp","_dept":"05","numero":"2025-D05-63","commune":"Arvieux","echelle":"1/5000","surface":"0.9 km²","format":"A3","annee":"2025","cartographes":"Celine Dodin","proprietaire":"1307 - ATHLETIC CLUB AURELIEN","niveau":"National, International","specialite":"CO à ski","latitude":"44.7882389354","longitude":"6.73590715378","date_saisie":"14/11/2024","date_depot":"25/02/2025","valide":"Oui","ppo":"Non","type_carte":"Nouvelle carte","fond":"Ortho","obsolete":false}},{"type":"Feature","geometry":{"type":"Polygon","coordinates":[[[6.6384,44.9006],[6.6389,44.9005],[6.6392,44.9004],[6.6395,44.8999],[6.6399,44.8993],[6.6403,44.8988],[6.6393,44.8984],[6.6386,44.8991],[6.6384,44.8992],[6.6376,44.9002],[6.6379,44.9002],[6.6382,44.9002],[6.6384,44.9003],[6.6385,44.9004],[6.6384,44.9005],[6.6384,44.9006]]]},"properties":{"id_ffco":"14599","nom":"Lycee d'altitude de Briançon","_dept":"05","numero":"2024-D05-62","commune":"Briançon","echelle":"1/1500","surface":"0.02 km²","format":"A4","annee":"2024","cartographes":"Celine Dodin","proprietaire":"Lycée d'altitude Briançon","niveau":"Initiation, Scolaire","specialite":"CO à pied","latitude":"44.8994968221","longitude":"6.63900484604","date_saisie":"01/09/2024","date_depot":"15/01/2026","valide":"Oui","ppo":"Non","type_carte":"Nouvelle carte","fond":"Ortho","obsolete":false}},{"type":"Feature","geometry":{"type":"Polygon","coordinates":[[[6.7086,44.8053],[6.7101,44.8051],[6.711,44.8043],[6.7134,44.8026],[6.7159,44.8011],[6.7202,44.7996],[6.722,44.7989],[6.7252,44.7977],[6.7268,44.7977],[6.7276,44.7969],[6.728,44.7964],[6.7284,44.796],[6.728,44.796],[6.7289,44.7943],[6.7269,44.7937],[6.727,44.7933],[6.7272,44.793],[6.727,44.7926],[6.7256,44.793],[6.724,44.7934],[6.7225,44.7934],[6.7215,44.7937],[6.7184,44.7961],[6.7168,44.7968],[6.7138,44.7978],[6.7117,44.7986],[6.7092,44.7994],[6.7078,44.8009],[6.7068,44.8023],[6.7057,44.8036],[6.7066,44.8047],[6.7086,44.8053]]]},"properties":{"id_ffco":"14598","nom":"Arvieux Le Planet","_dept":"05","numero":"2024-D05-61","commune":"Arvieux","echelle":"1/7500","surface":"0.89 km²","format":"A4","annee":"2024","cartographes":"Celine Dodin","proprietaire":"1307 - ATHLETIC CLUB AURELIEN","niveau":"National, International","specialite":"CO à ski","contacts":"Chalet Nordique de Brunissard // Mairie d'Arvieux, 0492467281","latitude":"44.7987609657","longitude":"6.71719490701","date_saisie":"01/09/2024","date_depot":"25/02/2025","valide":"Oui","ppo":"Oui (30 postes)","type_carte":"Nouvelle carte","fond":"Ortho","obsolete":false}},{"type":"Feature","geometry":{"type":"Polygon","coordinates":[[[6.6531,44.662],[6.654,44.6621],[6.6542,44.6622],[6.6544,44.6623],[6.6549,44.6621],[6.6555,44.6623],[6.6557,44.6619],[6.6555,44.6618],[6.6548,44.6616],[6.6543,44.6615],[6.6538,44.6614],[6.6534,44.6614],[6.6531,44.662]]]},"properties":{"id_ffco":"14539","nom":"College des Hautes Vallées","_dept":"05","numero":"2024-D05-60","commune":"Guillestre","echelle":"1/900","surface":"0.01 km²","format":"A4","annee":"2024","cartographes":"Olivier Decamps","niveau":"Initiation, Scolaire","specialite":"CO à pied","latitude":"44.6618607685","longitude":"6.65435846911","date_saisie":"09/08/2024","valide":"Non","ppo":"Non","type_carte":"Nouvelle carte","fond":"Ortho","obsolete":false}},{"type":"Feature","geometry":{"type":"Polygon","coordinates":[[[6.6591,44.6665],[6.6588,44.6662],[6.6586,44.6653],[6.6582,44.665],[6.6575,44.6646],[6.657,44.6647],[6.657,44.6653],[6.6571,44.6663],[6.6574,44.6666],[6.6577,44.6668],[6.6586,44.6669],[6.6589,44.6667],[6.6591,44.6665]]]},"properties":{"id_ffco":"14543","nom":"La colline du Pain de sucre","_dept":"05","numero":"2024-D05-59","commune":"Guillestre","echelle":"1/1500","surface":"0.03 km²","format":"A4","annee":"2024","cartographes":"Olivier Decamps","niveau":"Initiation, Scolaire","specialite":"CO à pied","latitude":"44.6657887084","longitude":"6.65788795558","date_saisie":"09/08/2024","date_depot":"15/01/2026","valide":"Oui","ppo":"Non","type_carte":"Nouvelle carte","fond":"Ortho","obsolete":false}},{"type":"Feature","geometry":{"type":"Polygon","coordinates":[[[6.4681,44.5492],[6.4678,44.5494],[6.4673,44.5493],[6.4667,44.549],[6.4657,44.5486],[6.4651,44.5484],[6.4649,44.548],[6.4649,44.5475],[6.4649,44.5471],[6.4655,44.5473],[6.4668,44.5472],[6.4669,44.5473],[6.467,44.5478],[6.4672,44.5482],[6.4672,44.5488],[6.4675,44.549],[6.4681,44.5492]]]},"properties":{"id_ffco":"14541","nom":"Embrun, CNA","_dept":"05","numero":"2024-D05-58","commune":"Embrun","echelle":"1/2000","surface":"0.03 km²","format":"A4","annee":"2024","cartographes":"Olivier Decamps","niveau":"Initiation, Scolaire","specialite":"CO à pied","latitude":"44.5481219767","longitude":"6.46620597861","date_saisie":"09/08/2024","valide":"Non","ppo":"Non","type_carte":"Nouvelle carte","fond":"Ortho","obsolete":false}},{"type":"Feature","geometry":{"type":"Polygon","coordinates":[[[6.4651,44.5473],[6.4658,44.5472],[6.4667,44.5473],[6.4669,44.5475],[6.467,44.548],[6.4671,44.5483],[6.4671,44.5487],[6.4674,44.549],[6.4681,44.5491],[6.4674,44.5505],[6.4684,44.5506],[6.4702,44.5511],[6.4706,44.5513],[6.47,44.5518],[6.4696,44.5525],[6.4691,44.5534],[6.4676,44.5534],[6.466,44.5532],[6.4644,44.5539],[6.4631,44.5533],[6.4621,44.5527],[6.4609,44.5521],[6.4605,44.5517],[6.4597,44.5506],[6.4582,44.5503],[6.4573,44.5501],[6.4576,44.5489],[6.4573,44.5481],[6.4572,44.5471],[6.4595,44.5474],[6.4616,44.5477],[6.4633,44.5482],[6.4652,44.5487],[6.4651,44.5483],[6.4649,44.5479],[6.4651,44.5473]]]},"properties":{"id_ffco":"14542","nom":"Embrun, les Combes","_dept":"05","numero":"2024-D05-57","commune":"Embrun","echelle":"1/7500","surface":"0.47 km²","format":"A4","annee":"2024","cartographes":"Olivier Decamps","niveau":"Initiation, Scolaire","specialite":"CO à pied","latitude":"44.5503777423","longitude":"6.46373943633","date_saisie":"09/08/2024","valide":"Non","ppo":"Non","type_carte":"Nouvelle carte","fond":"Ortho","obsolete":false}},{"type":"Feature","geometry":{"type":"Polygon","coordinates":[[[6.5053,44.5674],[6.5048,44.5686],[6.5034,44.5689],[6.5008,44.5698],[6.4984,44.5689],[6.4955,44.5671],[6.4939,44.5662],[6.4921,44.5655],[6.4915,44.5645],[6.4899,44.563],[6.4915,44.5609],[6.4925,44.5605],[6.4951,44.5615],[6.4984,44.5626],[6.5015,44.5632],[6.5027,44.5647],[6.5039,44.5656],[6.5045,44.5661],[6.5053,44.5674]]]},"properties":{"id_ffco":"14540","nom":"Embrun, centre ville","_dept":"05","numero":"2024-D05-56","commune":"Embrun","echelle":"1/7000","surface":"0.66 km²","format":"A4","annee":"2024","cartographes":"Olivier Decamps","niveau":"Initiation, Scolaire","specialite":"Sprint (ISSOM)","latitude":"44.5652186871","longitude":"6.49776770041","date_saisie":"09/08/2024","date_depot":"15/01/2026","valide":"Oui","ppo":"Non","type_carte":"Nouvelle carte","fond":"Cadastre","obsolete":false}},{"type":"Feature","geometry":{"type":"Polygon","coordinates":[[[6.2742,44.546],[6.2738,44.5453],[6.275,44.5439],[6.2757,44.543],[6.2766,44.5423],[6.2773,44.5421],[6.2792,44.5423],[6.2785,44.5433],[6.2781,44.5443],[6.2782,44.5448],[6.2808,44.544],[6.2818,44.5445],[6.2821,44.5449],[6.2822,44.5463],[6.2823,44.5473],[6.2824,44.5484],[6.283,44.5496],[6.282,44.5495],[6.2814,44.5485],[6.2807,44.5482],[6.2796,44.5478],[6.2789,44.5476],[6.2785,44.5467],[6.2777,44.5467],[6.277,44.5468],[6.2768,44.5464],[6.2759,44.5465],[6.2751,44.5463],[6.2745,44.5462],[6.2742,44.546]]]},"properties":{"id_ffco":"14394","nom":"Village de Chorges","_dept":"05","numero":"2024-D05-55","commune":"Chorges","echelle":"1/3500","surface":"0.27 km²","format":"A4","annee":"2024","cartographes":"Celine Dodin","proprietaire":"UNSS Hautes Alpes","niveau":"Départemental","specialite":"CO à pied","latitude":"44.5454944558","longitude":"6.27858436427","date_saisie":"07/03/2024","date_depot":"19/01/2026","valide":"Oui","ppo":"Non","type_carte":"Nouvelle carte","fond":"Cadastre","obsolete":false}},{"type":"Feature","geometry":{"type":"Polygon","coordinates":[[[6.6116,44.6819],[6.6099,44.6819],[6.6084,44.6821],[6.6083,44.6809],[6.6081,44.6798],[6.6078,44.6794],[6.6076,44.6783],[6.6072,44.6774],[6.6069,44.6765],[6.607,44.6759],[6.607,44.6752],[6.607,44.6748],[6.6068,44.6742],[6.6065,44.6733],[6.6062,44.6725],[6.6062,44.6713],[6.6061,44.671],[6.6068,44.6705],[6.6068,44.6698],[6.6104,44.6702],[6.6115,44.6704],[6.6094,44.6715],[6.6092,44.6718],[6.6093,44.6727],[6.6089,44.6731],[6.6081,44.6737],[6.6094,44.6742],[6.6102,44.6748],[6.6108,44.6754],[6.6116,44.6763],[6.6116,44.677],[6.6117,44.678],[6.612,44.6786],[6.6125,44.6793],[6.6128,44.6797],[6.6116,44.6819]]]},"properties":{"id_ffco":"14076","nom":"Plan d'eau d'Eygliers","_dept":"05","numero":"2023-D05-54","commune":"Eygliers","echelle":"1/5000","surface":"0.39 km²","format":"A4","annee":"2023","cartographes":"Celine Dodin","proprietaire":"PZ - Provence-Alpes-Côte d'Azur","niveau":"Initiation, Scolaire","specialite":"CO à pied","latitude":"44.6762719319","longitude":"6.60915699908","date_saisie":"09/09/2023","valide":"Non","ppo":"Non","type_carte":"Nouvelle carte","fond":"Ortho","obsolete":false}},{"type":"Feature","geometry":{"type":"Polygon","coordinates":[[[6.6364,44.6248],[6.6394,44.6253],[6.6399,44.6234],[6.6394,44.6214],[6.6378,44.6202],[6.6351,44.6191],[6.6323,44.6196],[6.6296,44.62],[6.6287,44.6208],[6.6277,44.6223],[6.627,44.6236],[6.6303,44.6251],[6.6321,44.6239],[6.6333,44.6236],[6.6347,44.6243],[6.6364,44.6248]]]},"properties":{"id_ffco":"13475","nom":"Risoul Station","_dept":"05","numero":"2022-D05-53","commune":"Risoul","echelle":"1/4000","surface":"0.48 km²","format":"A4","annee":"2022","cartographes":"Rémi LEQUINT,Adrien Delenne","proprietaire":"PZ - Provence-Alpes-Côte d'Azur","niveau":"National, International","specialite":"CO à pied","latitude":"44.6222549784","longitude":"6.63381449516","date_saisie":"06/08/2022","valide":"Non","ppo":"Non","type_carte":"Nouvelle carte","fond":"Ortho","obsolete":false}},{"type":"Feature","geometry":{"type":"Polygon","coordinates":[[[6.633,44.6231],[6.6347,44.6243],[6.6375,44.6257],[6.6399,44.6266],[6.643,44.6276],[6.6458,44.6284],[6.6477,44.6281],[6.6502,44.6269],[6.6505,44.6255],[6.6496,44.624],[6.6494,44.6226],[6.6501,44.6219],[6.6513,44.6213],[6.6518,44.6205],[6.6533,44.6203],[6.6566,44.6209],[6.6586,44.6208],[6.6603,44.6199],[6.6634,44.6183],[6.665,44.617],[6.6658,44.616],[6.6651,44.6143],[6.664,44.6131],[6.6627,44.6122],[6.6609,44.6111],[6.66,44.6098],[6.6594,44.6081],[6.6566,44.6066],[6.6518,44.6052],[6.6479,44.6049],[6.6459,44.6044],[6.647,44.6015],[6.6463,44.5997],[6.6454,44.5977],[6.6416,44.5947],[6.6371,44.596],[6.6291,44.5972],[6.6241,44.5962],[6.6221,44.6021],[6.6169,44.6077],[6.6128,44.6097],[6.6097,44.6105],[6.6028,44.6111],[6.5982,44.6114],[6.5968,44.6173],[6.5961,44.6224],[6.5945,44.6258],[6.5948,44.6306],[6.5962,44.6347],[6.5982,44.6379],[6.5991,44.6399],[6.6035,44.6374],[6.6053,44.6363],[6.6073,44.6356],[6.6103,44.6355],[6.6118,44.6349],[6.6135,44.6359],[6.633,44.6231]]]},"properties":{"id_ffco":"13468","nom":"Risoul","_dept":"05","numero":"2022-D05-52","commune":"Risoul","echelle":"1/15000","surface":"14.72 km²","format":"A3","annee":"2022","cartographes":"Rémi LEQUINT","proprietaire":"PZ - Provence-Alpes-Côte d'Azur","niveau":"National, International","specialite":"CO à pied","latitude":"44.616559516","longitude":"6.62702695485","date_saisie":"26/07/2022","date_depot":"15/02/2023","valide":"Oui","ppo":"Non","type_carte":"Reprise","base":"2019-D05-47 Risoul","fond":"Ortho","obsolete":false}},{"type":"Feature","geometry":{"type":"Polygon","coordinates":[[[5.9368,44.4855],[5.9367,44.4859],[5.9364,44.4865],[5.9364,44.4869],[5.937,44.4872],[5.9378,44.4874],[5.938,44.4874],[5.9381,44.488],[5.9383,44.4885],[5.9381,44.4891],[5.938,44.4895],[5.9397,44.4896],[5.942,44.4895],[5.943,44.4884],[5.9426,44.4874],[5.9418,44.4869],[5.9418,44.4864],[5.9408,44.4864],[5.9422,44.4858],[5.9431,44.4855],[5.9426,44.4847],[5.9428,44.4841],[5.9416,44.4827],[5.9404,44.4823],[5.9393,44.4819],[5.938,44.4829],[5.9372,44.4841],[5.9366,44.4848],[5.9365,44.4852],[5.9368,44.4855]]]},"properties":{"id_ffco":"13466","nom":"Col des Guerins-Ceûze","_dept":"05","numero":"2022-D05-51","commune":"Sigoyer","echelle":"1/3000","surface":"0.32 km²","format":"A4","annee":"2022","cartographes":"DECHAVANNE Franck","proprietaire":"Ass Idées de demain","niveau":"Initiation, Scolaire","specialite":"CO à pied","latitude":"44.4859467062","longitude":"5.93983851636","date_saisie":"25/07/2022","valide":"Non","ppo":"Non","type_carte":"Nouvelle carte","fond":"Ortho","obsolete":false}},{"type":"Feature","geometry":{"type":"Polygon","coordinates":[[[5.7253,44.4086],[5.7236,44.4075],[5.7223,44.4066],[5.7226,44.4057],[5.7225,44.4054],[5.7235,44.4047],[5.7243,44.404],[5.7249,44.4032],[5.7254,44.4031],[5.7258,44.4037],[5.7262,44.4042],[5.7267,44.4044],[5.7275,44.4047],[5.7276,44.4051],[5.7273,44.4056],[5.7272,44.406],[5.7273,44.4064],[5.7266,44.407],[5.7262,44.4074],[5.726,44.4078],[5.7262,44.4079],[5.7257,44.4084],[5.7255,44.4084],[5.7253,44.4086]]]},"properties":{"id_ffco":"13285","nom":"Base de loisirs de la Germanette","_dept":"05","numero":"2022-D05-50","commune":"Serres","echelle":"1/2500","surface":"0.15 km²","format":"A4","annee":"2022","cartographes":"Pierre Delenne","proprietaire":"PZ - Provence-Alpes-Côte d'Azur","niveau":"Initiation, Scolaire","specialite":"CO à pied","latitude":"44.4058800036","longitude":"5.7250184459","date_saisie":"03/03/2022","valide":"Non","ppo":"Non","type_carte":"Nouvelle carte","fond":"Ortho","obsolete":false}},{"type":"Feature","geometry":{"type":"Polygon","coordinates":[[[6.2018,44.6203],[6.1956,44.6178],[6.1916,44.6178],[6.189,44.6152],[6.1865,44.6141],[6.1843,44.614],[6.1832,44.611],[6.182,44.6086],[6.1809,44.6075],[6.177,44.6061],[6.1764,44.6047],[6.1899,44.6009],[6.2054,44.5972],[6.216,44.5982],[6.2192,44.5997],[6.2179,44.607],[6.2167,44.6081],[6.2168,44.6091],[6.2184,44.6091],[6.218,44.6125],[6.2168,44.6143],[6.2148,44.6163],[6.2113,44.6165],[6.2078,44.6179],[6.2052,44.6188],[6.2018,44.6203]]]},"properties":{"id_ffco":"12854","nom":"Ancelle","_dept":"05","numero":"2021-D05-49","commune":"Ancelle","echelle":"1/10000","surface":"5.72 km²","format":"A3","annee":"2021","cartographes":"Alain Pellegry,Matthieu Puech","proprietaire":"PZ - Provence-Alpes-Côte d'Azur","niveau":"National, International","specialite":"CO à pied","contacts":"Mairie Ancelle, https://mairieancelle.fr/sports-et-loisirs/","latitude":"44.6079936144","longitude":"6.2008902371","date_saisie":"31/08/2021","date_depot":"30/07/2024","valide":"Oui","ppo":"Oui (50 postes)","type_carte":"Reprise","base":"1985-D05-04 ST PHILIPPE","fond":"Ortho","obsolete":false}},{"type":"Feature","geometry":{"type":"Polygon","coordinates":[[[5.781,44.3508],[5.781,44.3498],[5.7804,44.3487],[5.7803,44.3481],[5.7809,44.3481],[5.7821,44.3485],[5.7831,44.3483],[5.7837,44.3479],[5.7847,44.3472],[5.7856,44.3469],[5.7873,44.3462],[5.7892,44.3457],[5.7904,44.3465],[5.7891,44.3485],[5.7877,44.3497],[5.786,44.3506],[5.7848,44.3509],[5.7832,44.3512],[5.7826,44.3518],[5.781,44.3508]]]},"properties":{"id_ffco":"12699","nom":"Le Vieil Eyguians","_dept":"05","numero":"2021-D05-48","commune":"Eyguians","echelle":"1/4000","surface":"0.26 km²","format":"A4","annee":"2021","cartographes":"Pierre Delenne","proprietaire":"PZ - Provence-Alpes-Côte d'Azur","niveau":"Départemental","specialite":"CO à pied","latitude":"44.3487048898","longitude":"5.78533012697","date_saisie":"31/03/2021","valide":"Non","ppo":"Non","type_carte":"Reprise","base":"2009-D05-20 Vieil Eyguians","fond":"Ortho","obsolete":false}},{"type":"Feature","geometry":{"type":"Polygon","coordinates":[[[6.6482,44.6254],[6.6513,44.6215],[6.6566,44.6202],[6.6654,44.6189],[6.6652,44.6136],[6.6605,44.6105],[6.6581,44.6061],[6.6551,44.6046],[6.6444,44.6077],[6.642,44.6093],[6.6401,44.6075],[6.6334,44.6066],[6.6274,44.6057],[6.6226,44.6071],[6.6195,44.612],[6.6175,44.6156],[6.6152,44.6182],[6.6084,44.6172],[6.6017,44.6174],[6.5991,44.6207],[6.5969,44.624],[6.5969,44.6309],[6.6018,44.634],[6.607,44.636],[6.6214,44.6345],[6.6262,44.6323],[6.6281,44.6277],[6.6324,44.6252],[6.6401,44.628],[6.6482,44.6254]]]},"properties":{"id_ffco":"11522","nom":"Risoul","_dept":"05","numero":"2019-D05-47","commune":"Risoul","echelle":"1/10000","surface":"10.69 km²","format":"A3","annee":"2019","cartographes":"Rémi LEQUINT","proprietaire":"PZ - Provence-Alpes-Côte d'Azur","niveau":"National, International","specialite":"CO à pied","contacts":"OT Risoul, 04 92 46 02 60, https://www.risoul.com/activites-ete.html?theme=ETE","latitude":"44.6198586626","longitude":"6.62947202712","date_saisie":"05/06/2019","date_depot":"01/09/2020","valide":"Oui","ppo":"Oui (45 postes)","type_carte":"Nouvelle carte","fond":"IGN","obsolete":false}},{"type":"Feature","geometry":{"type":"Polygon","coordinates":[[[6.6297,44.6725],[6.6297,44.6719],[6.6288,44.671],[6.6285,44.6703],[6.6277,44.6689],[6.6269,44.6677],[6.6264,44.6668],[6.6253,44.6659],[6.6251,44.6653],[6.6237,44.6655],[6.622,44.6662],[6.621,44.6673],[6.6206,44.6681],[6.6206,44.6695],[6.6222,44.6706],[6.623,44.6712],[6.6232,44.6717],[6.6238,44.6727],[6.6247,44.6736],[6.6251,44.6738],[6.6267,44.6737],[6.6288,44.6733],[6.6297,44.6728],[6.6297,44.6725]]]},"properties":{"id_ffco":"11521","nom":"Mont-Dauphin","_dept":"05","numero":"2019-D05-46","commune":"Mont-Dauphin","echelle":"1/4000","surface":"0.41 km²","format":"A4","annee":"2019","cartographes":"Pierre Delenne","proprietaire":"PZ - Provence-Alpes-Côte d'Azur","niveau":"National, International","specialite":"Sprint (ISSOM)","latitude":"44.6697469217","longitude":"6.62500978912","date_saisie":"05/06/2019","date_depot":"01/09/2020","valide":"Oui","ppo":"Non","type_carte":"Nouvelle carte","fond":"Cadastre","obsolete":false}},{"type":"Feature","geometry":{"type":"Polygon","coordinates":[[[6.6985,44.6382],[6.7086,44.634],[6.7122,44.6309],[6.7169,44.6276],[6.722,44.6251],[6.726,44.6225],[6.7304,44.6202],[6.7356,44.6196],[6.7435,44.6183],[6.7453,44.6153],[6.7423,44.6148],[6.7385,44.6148],[6.7345,44.6153],[6.7301,44.6145],[6.7275,44.6143],[6.7251,44.6155],[6.7193,44.6202],[6.7134,44.6242],[6.7067,44.6282],[6.7033,44.6315],[6.7,44.634],[6.6944,44.6367],[6.6985,44.6382]]]},"properties":{"id_ffco":"11052","nom":"Val d'Escreins","_dept":"05","numero":"2018-D05-45","commune":"Vars","echelle":"1/7500","surface":"2.3 km²","format":"A4","annee":"2018","cartographes":"DECHAVANNE Franck","proprietaire":"Mairie de Vars","niveau":"Régional","specialite":"CO à pied","contacts":"Office Tourisme Vars, 04-92-46-51-31 , info@otvars.com","latitude":"44.62400859","longitude":"6.72008108282","date_saisie":"18/10/2018","valide":"Non","ppo":"Oui (28 postes)","type_carte":"Nouvelle carte","fond":"Ortho","obsolete":false}},{"type":"Feature","geometry":null,"properties":{"id_ffco":"11051","nom":"Vars  La Pinée","_dept":"05","numero":"2018-D05-44","surface":"None km²","annee":"2018","date_saisie":"18/10/2018","valide":"Non","ppo":"Non","obsolete":false}},{"type":"Feature","geometry":{"type":"Polygon","coordinates":[[[6.666,44.6154],[6.6636,44.6134],[6.6591,44.6116],[6.6604,44.6084],[6.6586,44.6058],[6.6585,44.6038],[6.6584,44.6],[6.6574,44.5968],[6.6583,44.5939],[6.662,44.5912],[6.664,44.5874],[6.6704,44.5873],[6.6731,44.5883],[6.6786,44.5929],[6.6785,44.5974],[6.6784,44.6035],[6.6758,44.6105],[6.6728,44.6164],[6.6696,44.6173],[6.6656,44.618],[6.666,44.6154]]]},"properties":{"id_ffco":"11050","nom":"Vars Peyrol","_dept":"05","numero":"2019-D05-43","commune":"Vars","echelle":"1/10000","surface":"4.28 km²","format":"A4","annee":"2019","cartographes":"DECHAVANNE Franck","proprietaire":"PZ - Provence-Alpes-Côte d'Azur","niveau":"National, International","specialite":"CO à pied","latitude":"44.6015775881","longitude":"6.66837920709","date_saisie":"18/10/2018","date_depot":"01/09/2020","valide":"Oui","ppo":"Non","type_carte":"Nouvelle carte","fond":"Ortho","obsolete":false}},{"type":"Feature","geometry":{"type":"Polygon","coordinates":[[[6.6838,44.5791],[6.6735,44.5781],[6.6627,44.5772],[6.6543,44.5752],[6.6531,44.5732],[6.6536,44.5674],[6.6536,44.5626],[6.6536,44.5608],[6.6598,44.5589],[6.6656,44.558],[6.672,44.555],[6.6804,44.5533],[6.6845,44.5527],[6.6883,44.5498],[6.6905,44.5463],[6.6922,44.5419],[6.6932,44.5389],[6.6941,44.5363],[6.6982,44.5356],[6.7039,44.5354],[6.703,44.5375],[6.7037,44.5438],[6.7011,44.5512],[6.6977,44.5561],[6.6939,44.5581],[6.689,44.5625],[6.6845,44.5669],[6.6823,44.5698],[6.6793,44.5737],[6.6817,44.5763],[6.6838,44.5791]]]},"properties":{"id_ffco":"11049","nom":"Vars les Claux","_dept":"05","numero":"2019-D05-42","commune":"Vars","echelle":"1/15000","surface":"8.26 km²","format":"A3","annee":"2019","cartographes":"DECHAVANNE Franck","proprietaire":"PZ - Provence-Alpes-Côte d'Azur","niveau":"National, International","specialite":"CO à pied","contacts":"Remontees mecaniques Vars, https://www.vars.com/ete/offres/parcours-dorientation-a-vars-les-claux-vars-fr-ete-4995550/","latitude":"44.5607320349","longitude":"6.67806067247","date_saisie":"18/10/2018","date_depot":"01/09/2020","valide":"Oui","ppo":"Oui (56 postes)","type_carte":"Nouvelle carte","fond":"Ortho","obsolete":false}},{"type":"Feature","geometry":{"type":"Polygon","coordinates":[[[6.082,44.6034],[6.0878,44.5996],[6.0959,44.6006],[6.1022,44.6027],[6.1096,44.6068],[6.1192,44.6147],[6.1228,44.6188],[6.1194,44.6236],[6.1094,44.6324],[6.1022,44.6329],[6.0979,44.6308],[6.095,44.6262],[6.0839,44.6218],[6.0823,44.6156],[6.0823,44.6109],[6.0823,44.6054],[6.082,44.6034]]]},"properties":{"id_ffco":"10874","nom":"Plateau Bayard","_dept":"05","numero":"2017-D05-41","commune":"Gap","echelle":"1/12500","surface":"7.8 km²","format":"A3","annee":"2017","cartographes":"Frederic Gibiat,Pierre Sciora","proprietaire":"PZ - Provence-Alpes-Côte d'Azur","niveau":"National, International","specialite":"CO à ski","latitude":"44.6160421196","longitude":"6.10041977695","date_saisie":"14/08/2018","date_depot":"21/07/2020","valide":"Oui","ppo":"Non","type_carte":"Reprise","base":"2014-D05-23 Col Bayard-Bois de St Laurent","fond":"Ortho","obsolete":false}},{"type":"Feature","geometry":{"type":"Polygon","coordinates":[[[5.843,44.3277],[5.8475,44.3258],[5.8548,44.3234],[5.8593,44.3223],[5.8665,44.3229],[5.8715,44.3226],[5.8746,44.3197],[5.8746,44.317],[5.8711,44.3164],[5.869,44.3145],[5.8659,44.3114],[5.8637,44.3097],[5.8613,44.3075],[5.8554,44.3086],[5.8506,44.3106],[5.8459,44.313],[5.8413,44.314],[5.8406,44.3172],[5.8388,44.3202],[5.8354,44.3215],[5.8316,44.3227],[5.834,44.3251],[5.8372,44.3264],[5.843,44.3277]]]},"properties":{"id_ffco":"10243","nom":"Beaumont","_dept":"05","numero":"2017-D05-40","commune":"Upaix","echelle":"1/10000","surface":"4.04 km²","format":"A4","annee":"2017","cartographes":"Ray Hulse","proprietaire":"PZ - Provence-Alpes-Côte d'Azur","niveau":"National, International","specialite":"CO à pied","latitude":"44.3180882842","longitude":"5.85400144337","date_saisie":"05/07/2017","date_depot":"21/07/2020","valide":"Oui","ppo":"Non","type_carte":"Nouvelle carte","fond":"Ortho","obsolete":false}},{"type":"Feature","geometry":{"type":"Polygon","coordinates":[[[6.497,44.9766],[6.4949,44.9751],[6.4932,44.9726],[6.4949,44.9698],[6.5016,44.9694],[6.5023,44.9682],[6.5099,44.9687],[6.51,44.9713],[6.51,44.9716],[6.5084,44.9727],[6.5088,44.9733],[6.5074,44.9738],[6.5054,44.9741],[6.5036,44.9744],[6.5025,44.9749],[6.5016,44.9757],[6.5007,44.9762],[6.5,44.9765],[6.4992,44.9766],[6.4979,44.9769],[6.4972,44.9772],[6.497,44.9766]]]},"properties":{"id_ffco":"8546","nom":"Le monetier les bains -5000","_dept":"05","numero":"2015-D05-39","commune":"Le monetier les bains","echelle":"1/5000","surface":"0.84 km²","format":"A4","annee":"2015","cartographes":"F Dechavanne","proprietaire":"1307 - ATHLETIC CLUB AURELIEN","niveau":"National, International","specialite":"CO à pied","contacts":"CSA Briançon, 06 81 54 61 98, jacslim@wanadoo.fr","latitude":"44.9721248822","longitude":"6.50148463408","date_saisie":"13/08/2015","date_depot":"20/10/2015","valide":"Oui","ppo":"Non","type_carte":"Extrait","base":"2015-D05-38 Le monetier les bains -7500","fond":"Ortho","obsolete":false}},{"type":"Feature","geometry":{"type":"Polygon","coordinates":[[[6.4872,44.9832],[6.482,44.9836],[6.4837,44.9819],[6.487,44.9795],[6.4882,44.9771],[6.489,44.9743],[6.4902,44.9731],[6.4901,44.9723],[6.4938,44.9697],[6.4929,44.9684],[6.4929,44.9673],[6.4947,44.9665],[6.4961,44.9664],[6.4991,44.9663],[6.504,44.9643],[6.506,44.964],[6.5066,44.9627],[6.5096,44.9623],[6.5109,44.9627],[6.5149,44.9609],[6.5159,44.9607],[6.5198,44.9617],[6.521,44.9608],[6.5213,44.9619],[6.5218,44.9627],[6.5224,44.9635],[6.5229,44.9641],[6.5231,44.9648],[6.5236,44.9655],[6.5243,44.9662],[6.5251,44.9667],[6.5257,44.9674],[6.526,44.9679],[6.5251,44.967],[6.5242,44.9672],[6.5235,44.9673],[6.5227,44.9673],[6.5215,44.9674],[6.5206,44.9677],[6.5196,44.9677],[6.5183,44.9679],[6.5172,44.9682],[6.5162,44.969],[6.5149,44.9697],[6.5133,44.9706],[6.5127,44.9711],[6.5131,44.9717],[6.5118,44.9721],[6.5102,44.9726],[6.5091,44.9732],[6.5078,44.9738],[6.5069,44.9738],[6.5058,44.974],[6.5044,44.9742],[6.5028,44.9748],[6.5019,44.9754],[6.5013,44.9759],[6.5005,44.9764],[6.4993,44.9765],[6.4982,44.9767],[6.4976,44.977],[6.497,44.9778],[6.4955,44.9793],[6.4943,44.9803],[6.4934,44.9812],[6.4926,44.9814],[6.4916,44.9815],[6.4902,44.9821],[6.4893,44.9825],[6.4887,44.9829],[6.4878,44.983],[6.4872,44.9832]]]},"properties":{"id_ffco":"8545","nom":"Le monetier les bains -7500","_dept":"05","numero":"2015-D05-38","commune":"Le monetier les bains","echelle":"1/7500","surface":"3.07 km²","format":"A3","annee":"2015","cartographes":"F Dechavanne","proprietaire":"1307 - ATHLETIC CLUB AURELIEN","niveau":"National, International","specialite":"CO à pied","contacts":"CSA Briançon, 06 81 54 61 98, jacslim@wanadoo.fr","latitude":"44.9705542668","longitude":"6.50340396787","date_saisie":"13/08/2015","date_depot":"20/10/2015","valide":"Oui","ppo":"Non","type_carte":"Nouvelle carte","fond":"Ortho","obsolete":false}},{"type":"Feature","geometry":{"type":"Polygon","coordinates":[[[6.6527,45.0277],[6.6596,45.0276],[6.6589,45.0291],[6.6576,45.0335],[6.6572,45.0359],[6.6584,45.0366],[6.6586,45.0383],[6.6593,45.0404],[6.6525,45.0406],[6.6523,45.039],[6.6519,45.0375],[6.6525,45.0364],[6.653,45.035],[6.6535,45.0333],[6.6533,45.031],[6.6526,45.0301],[6.6527,45.0277]]]},"properties":{"id_ffco":"8544","nom":"Col de l'échelle 5000","_dept":"05","numero":"2015-D05-37","commune":"Névache","echelle":"1/5000","surface":"0.63 km²","format":"A4","annee":"2015","cartographes":"F Dechavanne","proprietaire":"1307 - ATHLETIC CLUB AURELIEN","niveau":"National, International","specialite":"CO à pied","contacts":"CSA Briançon, 06 81 54 61 98, jacslim@wanadoo.fr","latitude":"45.034177199","longitude":"6.65556454317","date_saisie":"13/08/2015","date_depot":"20/10/2015","valide":"Oui","ppo":"Non","type_carte":"Extrait","base":"2015-D05-36 Col de l 'échelle - 7500","fond":"Ortho","obsolete":false}},{"type":"Feature","geometry":{"type":"Polygon","coordinates":[[[6.6576,45.0226],[6.6551,45.0244],[6.6561,45.0252],[6.6561,45.0263],[6.6545,45.0273],[6.6533,45.0276],[6.6529,45.0287],[6.6525,45.0304],[6.6514,45.0326],[6.6508,45.0329],[6.6507,45.0344],[6.6514,45.0353],[6.6527,45.0364],[6.6523,45.038],[6.6526,45.0397],[6.6527,45.0416],[6.6538,45.0431],[6.6551,45.0446],[6.6552,45.0451],[6.6586,45.0451],[6.6589,45.0455],[6.6597,45.0456],[6.6602,45.0454],[6.6608,45.0451],[6.6603,45.0429],[6.6608,45.0401],[6.6589,45.0381],[6.6593,45.0354],[6.6588,45.0332],[6.659,45.0319],[6.6593,45.0303],[6.6603,45.0274],[6.6613,45.0256],[6.661,45.0234],[6.6595,45.0226],[6.6576,45.0226]]]},"properties":{"id_ffco":"8543","nom":"Col de l 'échelle - 7500","_dept":"05","numero":"2015-D05-36","commune":"Névache","echelle":"1/7500","surface":"1.33 km²","format":"A3","annee":"2015","cartographes":"F Dechavanne","proprietaire":"1307 - ATHLETIC CLUB AURELIEN","niveau":"National, International","specialite":"CO à pied","contacts":"CSA Briançon, 06 81 54 61 98, jacslim@wanadoo.fr","latitude":"45.0344844463","longitude":"6.65644835684","date_saisie":"13/08/2015","date_depot":"20/10/2015","valide":"Oui","ppo":"Non","type_carte":"Nouvelle carte","fond":"Ortho","obsolete":false}},{"type":"Feature","geometry":{"type":"Polygon","coordinates":[[[6.6027,45.0179],[6.6026,45.0196],[6.6044,45.0199],[6.6057,45.0199],[6.6066,45.0196],[6.6076,45.0196],[6.6087,45.0196],[6.61,45.0196],[6.611,45.0191],[6.612,45.0185],[6.6127,45.0183],[6.614,45.0184],[6.6148,45.0188],[6.6157,45.0189],[6.6169,45.0189],[6.6178,45.0185],[6.618,45.018],[6.6178,45.0176],[6.6183,45.0169],[6.619,45.0161],[6.6199,45.0158],[6.6207,45.0154],[6.6221,45.0148],[6.6222,45.0141],[6.6221,45.0124],[6.6217,45.0124],[6.6213,45.0121],[6.6209,45.0119],[6.6203,45.0119],[6.6197,45.012],[6.6191,45.0122],[6.6187,45.012],[6.6178,45.0118],[6.6169,45.0122],[6.6156,45.0127],[6.6142,45.0127],[6.6115,45.0128],[6.6097,45.0128],[6.6093,45.0127],[6.609,45.0149],[6.6061,45.0158],[6.6028,45.0162],[6.6027,45.0179]]]},"properties":{"id_ffco":"8542","nom":"Névache les Clapieres - 5000","_dept":"05","numero":"2015-D05-35","commune":"Névache","echelle":"1/5000","surface":"0.84 km²","format":"A4","annee":"2015","cartographes":"F Dechavanne","proprietaire":"1307 - ATHLETIC CLUB AURELIEN","niveau":"National, International","specialite":"CO à pied","contacts":"CSA Briançon, 06 81 54 61 98, jacslim@wanadoo.fr","latitude":"45.0159655163","longitude":"6.61254769216","date_saisie":"13/08/2015","date_depot":"20/10/2015","valide":"Oui","ppo":"Non","type_carte":"Extrait","base":"2015-D05-34 Névache les Clapieres - 7500","fond":"Ortho","obsolete":false}},{"type":"Feature","geometry":{"type":"Polygon","coordinates":[[[6.6037,45.02],[6.6042,45.0212],[6.6048,45.0218],[6.6057,45.0221],[6.607,45.0224],[6.608,45.0226],[6.6084,45.023],[6.6097,45.0231],[6.6106,45.0233],[6.6111,45.0235],[6.6117,45.0235],[6.6126,45.0238],[6.6133,45.0235],[6.6139,45.0233],[6.6146,45.0232],[6.6152,45.0234],[6.6159,45.0236],[6.6166,45.0236],[6.6175,45.0234],[6.6184,45.0236],[6.6192,45.024],[6.6198,45.0239],[6.621,45.0238],[6.6214,45.0241],[6.6224,45.0239],[6.623,45.0235],[6.6245,45.0234],[6.6261,45.0234],[6.6294,45.0238],[6.63,45.0243],[6.6321,45.0243],[6.6333,45.0248],[6.6344,45.0253],[6.6351,45.0251],[6.6355,45.024],[6.636,45.0225],[6.636,45.0213],[6.6358,45.0206],[6.636,45.0189],[6.6357,45.018],[6.6363,45.0168],[6.6369,45.0145],[6.6364,45.0145],[6.636,45.0144],[6.6349,45.0144],[6.6337,45.0146],[6.6326,45.0145],[6.6314,45.0144],[6.6307,45.0142],[6.6304,45.0139],[6.6301,45.0136],[6.6297,45.0135],[6.6292,45.0135],[6.6289,45.0137],[6.6284,45.0138],[6.6281,45.0137],[6.6281,45.0135],[6.6279,45.0131],[6.6268,45.0129],[6.6262,45.0131],[6.6259,45.0129],[6.6255,45.0128],[6.6249,45.0128],[6.6248,45.0126],[6.6245,45.0124],[6.624,45.0124],[6.6235,45.0126],[6.623,45.0127],[6.6227,45.0127],[6.6222,45.0125],[6.6216,45.0124],[6.6211,45.0121],[6.6203,45.012],[6.6196,45.0121],[6.6191,45.0122],[6.6182,45.012],[6.6173,45.0121],[6.6166,45.0129],[6.6157,45.0129],[6.6146,45.0129],[6.6139,45.0127],[6.6133,45.0127],[6.6127,45.0126],[6.6119,45.0133],[6.6097,45.0135],[6.609,45.0133],[6.6078,45.0134],[6.6066,45.0128],[6.6055,45.0122],[6.6041,45.011],[6.6029,45.0109],[6.6014,45.0102],[6.6009,45.0105],[6.6009,45.011],[6.6012,45.0119],[6.6014,45.0125],[6.6016,45.0135],[6.6014,45.0143],[6.6015,45.0155],[6.6011,45.017],[6.6014,45.0182],[6.6037,45.02]]]},"properties":{"id_ffco":"8541","nom":"Névache les Clapieres - 7500","_dept":"05","numero":"2015-D05-34","commune":"Névache","echelle":"1/7500","surface":"3.15 km²","format":"A3","annee":"2015","cartographes":"F Dechavanne","proprietaire":"1307 - ATHLETIC CLUB AURELIEN","niveau":"National, International","specialite":"CO à pied","contacts":"CSA Briançon, 06 81 54 61 98, jacslim@wanadoo.fr","latitude":"45.01806669","longitude":"6.61904598679","date_saisie":"13/08/2015","date_depot":"20/10/2015","valide":"Oui","ppo":"Non","type_carte":"Reprise","base":"1997-D05-11 NEVACHE","fond":"Ortho","obsolete":false}},{"type":"Feature","geometry":{"type":"Polygon","coordinates":[[[6.108,44.6329],[6.0982,44.6342],[6.0978,44.6287],[6.1042,44.6149],[6.1196,44.616],[6.1195,44.6248],[6.1154,44.6264],[6.1121,44.6313],[6.108,44.6329]]]},"properties":{"id_ffco":"8467","nom":"Bois de St Laurent","_dept":"05","numero":"2015-D05-33","commune":"Gap","echelle":"1/10000","surface":"2.62 km²","format":"A4","annee":"2015","cartographes":"Pierre Delenne","proprietaire":"PZ - Provence-Alpes-Côte d'Azur","niveau":"Régional","specialite":"CO à pied","contacts":"Ligue PACA de course d'Orientation","latitude":"44.6240472722","longitude":"6.10851355707","date_saisie":"08/06/2015","date_depot":"29/07/2015","valide":"Oui","ppo":"Non","type_carte":"Extrait","base":"2014-D05-23 Col Bayard-Bois de St Laurent","fond":"Ortho","obsolete":false}},{"type":"Feature","geometry":{"type":"Polygon","coordinates":[[[6.1884,44.6153],[6.1862,44.6141],[6.1846,44.613],[6.183,44.6113],[6.1823,44.611],[6.1821,44.6086],[6.1835,44.606],[6.1887,44.6064],[6.1919,44.6079],[6.1952,44.6097],[6.2001,44.6101],[6.2027,44.6103],[6.2058,44.6111],[6.2068,44.6144],[6.2073,44.6168],[6.2058,44.6185],[6.2033,44.6197],[6.2022,44.6204],[6.198,44.619],[6.1952,44.6179],[6.193,44.6181],[6.1906,44.618],[6.1901,44.6167],[6.1884,44.6153]]]},"properties":{"id_ffco":"7696","nom":"Collet d'Ancelle","_dept":"05","numero":"2014-D05-32","commune":"Ancelle","echelle":"1/10000","surface":"1.85 km²","format":"A4","annee":"2014","cartographes":"Mathieu Puech","proprietaire":"PR - Provence","niveau":"National, International","specialite":"CO à pied","latitude":"44.6131327259","longitude":"6.19491728707","date_saisie":"11/12/2014","date_depot":"29/07/2015","valide":"Oui","ppo":"Non","type_carte":"Reprise","base":"1985-D05-04 ST PHILIPPE","fond":"Ortho","obsolete":false}},{"type":"Feature","geometry":{"type":"Polygon","coordinates":[[[6.2285,44.6684],[6.2294,44.6676],[6.2306,44.6676],[6.2328,44.668],[6.2353,44.6687],[6.2365,44.6694],[6.2387,44.6699],[6.2408,44.6705],[6.242,44.668],[6.2411,44.6672],[6.24,44.6666],[6.2375,44.6662],[6.236,44.6659],[6.234,44.6662],[6.2326,44.6663],[6.2312,44.6661],[6.2302,44.6661],[6.2289,44.6665],[6.2282,44.6667],[6.2276,44.6672],[6.2269,44.6677],[6.2285,44.6684]]]},"properties":{"id_ffco":"7414","nom":"Base de loisirs du Chatelard","_dept":"05","numero":"2014-D05-31","commune":"St Jean-St Nicolas","echelle":"1/5000","surface":"0.31 km²","format":"A4","annee":"2014","cartographes":"Pierre Delenne","proprietaire":"PR - Provence","niveau":"Initiation, Scolaire","specialite":"CO à pied","contacts":"Office de tourisme Pont du Fossé, http://www.pontdufosse.fr/","latitude":"44.6677200446","longitude":"6.23579148136","date_saisie":"11/08/2014","date_depot":"29/07/2015","valide":"Oui","ppo":"Oui (32 postes)","type_carte":"Nouvelle carte","fond":"Ortho","obsolete":false}},{"type":"Feature","geometry":{"type":"Polygon","coordinates":[[[5.9415,44.6829],[5.947,44.6748],[5.9471,44.6693],[5.9396,44.6621],[5.9286,44.6539],[5.9212,44.6458],[5.9001,44.653],[5.8826,44.6577],[5.8779,44.6613],[5.8802,44.6701],[5.8819,44.6768],[5.8836,44.6865],[5.8906,44.6898],[5.9008,44.6899],[5.9155,44.6914],[5.9238,44.6947],[5.9303,44.6938],[5.9353,44.686],[5.9415,44.6829]]]},"properties":{"id_ffco":"7695","nom":"SuperDevoluy","_dept":"05","numero":"2014-D05-30","commune":"Dévoluy","echelle":"1/15000","surface":"20.16 km²","format":"A3","annee":"2014","cartographes":"Daniel Seckler","proprietaire":"PR - Provence","niveau":"National, International","specialite":"CO à pied","latitude":"44.6714545853","longitude":"5.91218882198","date_saisie":"11/12/2014","date_depot":"29/07/2015","valide":"Oui","ppo":"Non","type_carte":"Reprise","base":"1997-D05-6 SUPER - DEVOLUY","fond":"Ortho","obsolete":false}},{"type":"Feature","geometry":{"type":"Polygon","coordinates":[[[6.0759,44.5601],[6.0744,44.5584],[6.0747,44.5577],[6.0765,44.5566],[6.0785,44.5559],[6.0796,44.5566],[6.0817,44.5576],[6.0832,44.5586],[6.0844,44.5598],[6.0859,44.5594],[6.0874,44.5601],[6.0888,44.5606],[6.0895,44.5614],[6.0899,44.5624],[6.089,44.5639],[6.0853,44.5624],[6.0839,44.5618],[6.0821,44.5612],[6.0815,44.5614],[6.0806,44.561],[6.0798,44.5612],[6.0762,44.56],[6.0759,44.5601]]]},"properties":{"id_ffco":"7694","nom":"Gap, centre ville","_dept":"05","numero":"2014-D05-29","commune":"Gap","echelle":"1/5000","surface":"0.44 km²","format":"A4","annee":"2014","cartographes":"Pierre Delenne","proprietaire":"PR - Provence","niveau":"National, International","specialite":"Sprint (ISSOM)","latitude":"44.5597750064","longitude":"6.0818471471","date_saisie":"11/12/2014","date_depot":"29/07/2015","valide":"Oui","ppo":"Non","type_carte":"Nouvelle carte","fond":"Cadastre","obsolete":false}},{"type":"Feature","geometry":{"type":"Polygon","coordinates":[[[6.6417,44.902],[6.6456,44.9019],[6.6466,44.9011],[6.6462,44.8986],[6.6465,44.8988],[6.6473,44.8989],[6.6477,44.8987],[6.6474,44.8984],[6.6474,44.8977],[6.6472,44.8971],[6.6457,44.897],[6.6449,44.8971],[6.6441,44.897],[6.6434,44.8968],[6.6432,44.8963],[6.6421,44.8956],[6.6409,44.8953],[6.6394,44.8951],[6.6385,44.895],[6.6372,44.8948],[6.6363,44.8963],[6.6369,44.8964],[6.6382,44.8967],[6.6391,44.8969],[6.64,44.8972],[6.6398,44.8977],[6.6397,44.8981],[6.6394,44.8981],[6.6393,44.8983],[6.6397,44.8986],[6.6405,44.899],[6.641,44.8994],[6.6407,44.9],[6.6404,44.9005],[6.6412,44.9008],[6.6417,44.901],[6.6418,44.9015],[6.6417,44.902]]]},"properties":{"id_ffco":"7222","nom":"ville de Briançon","_dept":"05","numero":"2013-D05-28","commune":"Briançon","echelle":"1/4000","surface":"0.36 km²","format":"A4","annee":"2013","cartographes":"Pierre Delenne","proprietaire":"PZ - Provence-Alpes-Côte d'Azur","niveau":"National, International","specialite":"CO à pied","latitude":"44.8983920262","longitude":"6.64261815747","date_saisie":"12/02/2014","date_depot":"20/10/2015","valide":"Oui","ppo":"Non","type_carte":"Nouvelle carte","fond":"Cadastre","obsolete":false}},{"type":"Feature","geometry":{"type":"Polygon","coordinates":[[[5.8164,44.5321],[5.8164,44.5361],[5.8172,44.536],[5.8173,44.5364],[5.8181,44.5364],[5.8193,44.5372],[5.8239,44.5382],[5.8267,44.537],[5.8301,44.5366],[5.8318,44.5352],[5.8236,44.5331],[5.8164,44.5321]]]},"properties":{"id_ffco":"5477","nom":"Village de Veynes","_dept":"05","numero":"2012-D05-27","commune":"Veynes","echelle":"1/5000","surface":"0.49 km²","format":"A4","annee":"2012","cartographes":"I Schiavo","proprietaire":"0406 - PEYRUIS ORIENTATION INITIATION LOISIRS","niveau":"Régional","specialite":"CO à pied","latitude":"44.5352108827","longitude":"5.82279471565","date_saisie":"05/08/2012","date_depot":"20/10/2015","valide":"Oui","ppo":"Non","type_carte":"Nouvelle carte","fond":"Cadastre","obsolete":false}},{"type":"Feature","geometry":{"type":"Polygon","coordinates":[[[6.5551,44.5023],[6.5608,44.5023],[6.5656,44.5024],[6.5711,44.501],[6.5709,44.4984],[6.5708,44.495],[6.5711,44.4885],[6.5712,44.4829],[6.5709,44.4787],[6.5574,44.4789],[6.5518,44.4814],[6.5502,44.4945],[6.5551,44.5023]]]},"properties":{"id_ffco":"7225","nom":"Les Orres","_dept":"05","numero":"2013-D05-26","commune":"Embrun","echelle":"1/10000","surface":"3.93 km²","format":"A4","annee":"2013","cartographes":"M Puech","proprietaire":"OT Embrun","niveau":"Régional","specialite":"CO à pied","latitude":"44.4904528864","longitude":"6.56136278258","date_saisie":"12/02/2014","date_depot":"20/10/2015","valide":"Oui","ppo":"Non","type_carte":"Nouvelle carte","fond":"Ortho","obsolete":false}},{"type":"Feature","geometry":{"type":"Polygon","coordinates":[[[6.7075,44.9264],[6.7091,44.9215],[6.7105,44.9185],[6.7195,44.9193],[6.7226,44.915],[6.722,44.9117],[6.7257,44.9095],[6.7309,44.911],[6.7424,44.914],[6.7445,44.9162],[6.7389,44.9227],[6.7362,44.9262],[6.739,44.9312],[6.739,44.9335],[6.7323,44.934],[6.7269,44.9315],[6.7198,44.9292],[6.7129,44.9277],[6.7075,44.9264]]]},"properties":{"id_ffco":"7224","nom":"Montgenèvre","_dept":"05","numero":"2013-D05-25","commune":"Montgenèvre","echelle":"1/10000","surface":"4.44 km²","format":"A3","annee":"2013","cartographes":"F Dechavanne","proprietaire":"PZ - Provence-Alpes-Côte d'Azur","niveau":"Interrégional","specialite":"CO à pied","latitude":"44.9219219827","longitude":"6.72731765046","date_saisie":"12/02/2014","date_depot":"20/10/2015","valide":"Oui","ppo":"Non","type_carte":"Reprise","base":"1995-D05-8 MONTGENEVRE","fond":"Ortho","obsolete":false}},{"type":"Feature","geometry":{"type":"Polygon","coordinates":[[[6.6542,44.8948],[6.6529,44.8966],[6.6524,44.9003],[6.6527,44.9007],[6.6586,44.9024],[6.6623,44.9041],[6.6635,44.9061],[6.6647,44.9073],[6.667,44.9089],[6.6681,44.9096],[6.6702,44.9102],[6.6724,44.9104],[6.6738,44.9092],[6.6768,44.9081],[6.6787,44.9071],[6.6668,44.8983],[6.664,44.8968],[6.6585,44.8941],[6.6568,44.8933],[6.656,44.8931],[6.6543,44.8948],[6.6542,44.8948]]]},"properties":{"id_ffco":"7223","nom":"les Forts","_dept":"05","numero":"2013-D05-24","commune":"Briançon","echelle":"1/7500","surface":"1.71 km²","format":"A3","annee":"2013","cartographes":"F Dechavanne","proprietaire":"PZ - Provence-Alpes-Côte d'Azur","niveau":"Interrégional","specialite":"CO à pied","latitude":"44.9020526889","longitude":"6.66459328955","date_saisie":"12/02/2014","date_depot":"20/10/2015","valide":"Oui","ppo":"Non","type_carte":"Nouvelle carte","fond":"Ortho","obsolete":false}},{"type":"Feature","geometry":{"type":"Polygon","coordinates":[[[6.0829,44.6219],[6.0871,44.6222],[6.0894,44.6235],[6.0979,44.624],[6.0998,44.6243],[6.0988,44.6266],[6.0987,44.6295],[6.0981,44.6304],[6.1005,44.632],[6.1017,44.6327],[6.104,44.6327],[6.1061,44.6329],[6.1078,44.6315],[6.1093,44.631],[6.1128,44.6311],[6.1121,44.6295],[6.1129,44.6273],[6.1137,44.6256],[6.1181,44.6261],[6.1206,44.6255],[6.12,44.6244],[6.1236,44.6227],[6.1222,44.6216],[6.123,44.6193],[6.1215,44.6175],[6.1188,44.6169],[6.1165,44.6169],[6.1156,44.6155],[6.1141,44.6148],[6.1115,44.6144],[6.1095,44.6134],[6.1085,44.6117],[6.1065,44.6112],[6.1043,44.6102],[6.1027,44.6087],[6.1013,44.6066],[6.0988,44.605],[6.0973,44.6033],[6.0954,44.6031],[6.092,44.6015],[6.0894,44.6007],[6.0858,44.6018],[6.0809,44.6077],[6.0806,44.6099],[6.0814,44.6143],[6.0822,44.6196],[6.0825,44.6219],[6.0829,44.6219]]]},"properties":{"id_ffco":"7693","nom":"Col Bayard-Bois de St Laurent","_dept":"05","numero":"2014-D05-23","commune":"Gap","echelle":"1/10000","surface":"6.53 km²","format":"A3","annee":"2014","cartographes":"Pieryves Coudray,Pierre Delenne","proprietaire":"PR - Provence","niveau":"National, International","specialite":"CO à pied","latitude":"44.6170313681","longitude":"6.09954123962","date_saisie":"11/12/2014","date_depot":"29/07/2015","valide":"Oui","ppo":"Non","type_carte":"Nouvelle carte","fond":"IGN","obsolete":false}},{"type":"Feature","geometry":{"type":"Polygon","coordinates":[[[6.3056,44.5139],[6.3039,44.5151],[6.3038,44.5159],[6.303,44.5174],[6.3027,44.5183],[6.3009,44.5201],[6.301,44.5223],[6.3014,44.5245],[6.3023,44.5252],[6.3021,44.526],[6.2998,44.5266],[6.3018,44.5275],[6.3024,44.5286],[6.3022,44.5296],[6.3039,44.5297],[6.3075,44.5297],[6.3086,44.5289],[6.3108,44.5273],[6.3126,44.5263],[6.3144,44.525],[6.3169,44.5236],[6.3184,44.5219],[6.3173,44.5209],[6.3182,44.519],[6.3186,44.517],[6.3177,44.515],[6.3169,44.5136],[6.3171,44.5128],[6.3164,44.5114],[6.3154,44.5108],[6.3145,44.511],[6.3142,44.5104],[6.3136,44.5101],[6.3135,44.5085],[6.3126,44.5077],[6.3114,44.5084],[6.3115,44.5092],[6.3111,44.51],[6.3116,44.5106],[6.3109,44.5113],[6.31,44.5107],[6.3081,44.5116],[6.3066,44.5129],[6.3062,44.5134],[6.3056,44.5139]]]},"properties":{"id_ffco":"7692","nom":"Chanteloube","_dept":"05","numero":"2014-D05-22","commune":"Chorges","echelle":"1/10000","surface":"2.19 km²","format":"A4","annee":"2014","cartographes":"Pierre Delenne","proprietaire":"PR - Provence","niveau":"National, International","specialite":"CO à pied","latitude":"44.5198024785","longitude":"6.30963727834","date_saisie":"11/12/2014","date_depot":"29/07/2015","valide":"Oui","ppo":"Non","type_carte":"Nouvelle carte","fond":"Ortho","obsolete":false}},{"type":"Feature","geometry":{"type":"Polygon","coordinates":[[[5.7829,44.5186],[5.7806,44.5194],[5.7798,44.5214],[5.7781,44.5261],[5.7781,44.5276],[5.78,44.5305],[5.7812,44.5321],[5.7831,44.534],[5.7871,44.5349],[5.7893,44.5366],[5.7927,44.5368],[5.7946,44.537],[5.7955,44.5348],[5.7956,44.5325],[5.7957,44.5311],[5.7974,44.5301],[5.7982,44.5304],[5.7983,44.5293],[5.7975,44.527],[5.7957,44.5252],[5.793,44.5234],[5.7906,44.5219],[5.7887,44.5213],[5.7862,44.5199],[5.7829,44.5186]]]},"properties":{"id_ffco":"5476","nom":"Les Egaux","_dept":"05","numero":"2014-D05-21","commune":"Veynes","echelle":"1/10000","surface":"2.11 km²","format":"A4","annee":"2014","cartographes":"P Biuatti","proprietaire":"0504 - SUD RAID TRIATHLON SPORTS NATURE","niveau":"Régional","specialite":"CO à pied","contacts":"Pascal Biuatti, pascal.buiatti@onf.fr","latitude":"44.5280078354","longitude":"5.78771691053","date_saisie":"05/08/2012","date_depot":"20/10/2015","valide":"Oui","ppo":"Non","type_carte":"Nouvelle carte","fond":"Ortho","obsolete":false}},{"type":"Feature","geometry":{"type":"Polygon","coordinates":[[[5.7681,44.3506],[5.7675,44.3515],[5.7674,44.352],[5.7679,44.3535],[5.7679,44.3553],[5.7679,44.3568],[5.7689,44.3573],[5.7714,44.3575],[5.7729,44.3579],[5.7734,44.358],[5.7748,44.3568],[5.7763,44.3559],[5.7771,44.3559],[5.7781,44.3568],[5.7803,44.3573],[5.7812,44.3579],[5.7835,44.3579],[5.7853,44.3578],[5.7877,44.3578],[5.7901,44.3569],[5.7914,44.3563],[5.7912,44.3551],[5.7912,44.3542],[5.7914,44.3533],[5.7916,44.352],[5.7915,44.35],[5.7919,44.3479],[5.7922,44.3456],[5.7897,44.3455],[5.7807,44.3453],[5.7806,44.3442],[5.777,44.3444],[5.775,44.3443],[5.7743,44.346],[5.7709,44.3476],[5.7691,44.3497],[5.7687,44.35],[5.7681,44.3506]]]},"properties":{"id_ffco":"5392","nom":"Vieil Eyguians","_dept":"05","numero":"2009-D05-20","commune":"Eyguians","echelle":"1/7500","surface":"2.42 km²","format":"A4","annee":"2009","cartographes":"Pierre Delenne","niveau":"Régional","specialite":"CO à pied","latitude":"44.3514423521","longitude":"5.78027236728","date_saisie":"03/05/2012","date_depot":"20/10/2015","valide":"Oui","ppo":"Non","type_carte":"Nouvelle carte","fond":"Ortho","obsolete":false}},{"type":"Feature","geometry":{"type":"Polygon","coordinates":[[[6.0582,44.5663],[6.0583,44.5679],[6.0574,44.5685],[6.0566,44.5693],[6.0579,44.5704],[6.0565,44.5731],[6.0581,44.5784],[6.0582,44.5801],[6.0596,44.5808],[6.0604,44.5842],[6.0615,44.5851],[6.0625,44.5859],[6.0626,44.5866],[6.0637,44.5871],[6.064,44.5878],[6.0645,44.5884],[6.0648,44.589],[6.0646,44.5892],[6.0631,44.5887],[6.0616,44.5885],[6.0603,44.588],[6.0595,44.587],[6.0504,44.5856],[6.0471,44.5839],[6.0433,44.58],[6.0403,44.5738],[6.044,44.5703],[6.0513,44.5681],[6.0522,44.5686],[6.0536,44.5684],[6.0578,44.5661],[6.0582,44.5663]]]},"properties":{"id_ffco":"3997","nom":"CHARANCE","_dept":"05","numero":"2004-D05-19","commune":"Gap","echelle":"1/10000","surface":"2.38 km²","format":"A4","annee":"2004","cartographes":"A Pellegry","proprietaire":"PZ - Provence-Alpes-Côte d'Azur","niveau":"Régional","specialite":"CO à pied","latitude":"44.5775433304","longitude":"6.05161080891","date_saisie":"01/09/2005","date_depot":"09/09/2005","valide":"Oui","ppo":"Non","type_carte":"Nouvelle carte","fond":"Ortho","obsolete":false}}]}