{"type":"FeatureCollection","features":[{"type":"Feature","geometry":{"type":"Polygon","coordinates":[[[6.6289,44.8911],[6.6314,44.8901],[6.6317,44.89],[6.6312,44.8889],[6.631,44.8884],[6.6307,44.8882],[6.6305,44.8876],[6.6304,44.8867],[6.6288,44.8867],[6.627,44.8869],[6.6262,44.8869],[6.6271,44.8884],[6.6278,44.8896],[6.6286,44.8904],[6.6289,44.8911]]]},"properties":{"id_ffco":"2914","nom":"PARC DES SPORTS","_dept":"05","numero":"1995-D05-9","commune":"BRIANCON","echelle":"1/2500","surface":"0.12 km²","format":"A4","annee":"1995","cartographes":"Robert Monshein","proprietaire":"0503 - BRIANCON NATURE COURSE D'ORIENTATION","niveau":"Initiation, Scolaire","specialite":"CO à pied","latitude":"44.8886295124","longitude":"6.62914196103","valide":"Non","ppo":"Non","type_carte":"Nouvelle carte","fond":"Ortho","obsolete":true}},{"type":"Feature","geometry":null,"properties":{"id_ffco":"2915","nom":"MONTGENEVRE","_dept":"05","numero":"1995-D05-8","commune":"BRIANCON","echelle":"1/10000","surface":"3.38 km²","format":"A4","annee":"1995","proprietaire":"0503 - BRIANCON NATURE COURSE D'ORIENTATION","niveau":"Régional","specialite":"CO à pied","latitude":"44.9275507159","longitude":"6.71964656572","valide":"Non","ppo":"Non","obsolete":true}},{"type":"Feature","geometry":{"type":"Polygon","coordinates":[[[5.9522,44.6766],[5.945,44.6802],[5.9438,44.6818],[5.9421,44.6831],[5.9408,44.684],[5.9315,44.6966],[5.9267,44.6936],[5.9136,44.6874],[5.9083,44.6914],[5.8936,44.6922],[5.8846,44.6872],[5.8836,44.6814],[5.8833,44.6774],[5.8827,44.6733],[5.8824,44.6709],[5.8866,44.667],[5.8887,44.6631],[5.8961,44.6629],[5.9065,44.6625],[5.9424,44.6634],[5.9518,44.6685],[5.9522,44.6766]]]},"properties":{"id_ffco":"3175","nom":"SUPER - DEVOLUY","_dept":"05","numero":"1997-D05-6","commune":"SUPER - DEVOLUY","echelle":"1/15000","surface":"15.37 km²","format":"A4","annee":"1997","cartographes":"G Venon","proprietaire":"PZ - Provence-Alpes-Côte d'Azur","niveau":"National, International","specialite":"CO à pied","latitude":"44.6767515643","longitude":"5.91566873833","valide":"Non","ppo":"Non","type_carte":"Nouvelle carte","fond":"Ortho","obsolete":true}},{"type":"Feature","geometry":null,"properties":{"id_ffco":"832","nom":"COLLET DU TAT","_dept":"05","numero":"1978-D05-3","commune":"DEVOLUY","echelle":"1/15000","surface":"9.0 km²","annee":"1978","proprietaire":"PR - Provence","specialite":"CO à pied","latitude":"44.65","longitude":"5.8833333","valide":"Non","ppo":"Non","obsolete":true}},{"type":"Feature","geometry":null,"properties":{"id_ffco":"19","nom":"Col de la pousterle","_dept":"05","numero":"2004-D05-17","commune":"Les Vigneaux","echelle":"1/10000","surface":"8.5 km²","format":"A3","annee":"2004","proprietaire":"0503 - BRIANCON NATURE COURSE D'ORIENTATION","niveau":"Régional","specialite":"CO à pied","latitude":"44.8170739104","longitude":"6.50975393838","valide":"Non","ppo":"Oui","obsolete":true}},{"type":"Feature","geometry":null,"properties":{"id_ffco":"2911","nom":"MONTGENEVRE - LES GONDRANS","_dept":"05","numero":"1995-D05-16","commune":"BRIANCON","echelle":"1/20000","surface":"35.0 km²","annee":"1995","proprietaire":"0503 - BRIANCON NATURE COURSE D'ORIENTATION","niveau":"Régional","specialite":"CO à pied","latitude":"44.92123048","longitude":"6.70557033281","valide":"Non","ppo":"Non","obsolete":true}},{"type":"Feature","geometry":{"type":"Polygon","coordinates":[[[6.2085,44.6185],[6.1986,44.618],[6.1913,44.6168],[6.1847,44.6128],[6.179,44.6042],[6.1859,44.597],[6.2041,44.5963],[6.2212,44.5998],[6.2173,44.6097],[6.2149,44.616],[6.2085,44.6185]]]},"properties":{"id_ffco":"4183","nom":"Ancelle","_dept":"05","numero":"2003-D05-15","commune":"Ancelle","echelle":"1/10000","surface":"6.21 km²","format":"A3","annee":"2003","cartographes":"A Pellegry","proprietaire":"PR - Provence","niveau":"National, International","specialite":"CO à pied","latitude":"44.6067788156","longitude":"6.20036574957","date_saisie":"19/01/2006","date_depot":"15/02/2006","valide":"Non","ppo":"Non","obsolete":true}},{"type":"Feature","geometry":{"type":"Polygon","coordinates":[[[6.4711,45.0067],[6.4733,45.0031],[6.4746,45.002],[6.4757,45.0004],[6.477,44.9987],[6.4778,44.9969],[6.4792,44.9962],[6.4802,44.9956],[6.4812,44.9939],[6.4824,44.9929],[6.4838,44.9922],[6.4858,44.9911],[6.4873,44.9901],[6.4891,44.9891],[6.4902,44.989],[6.4908,44.9886],[6.4914,44.988],[6.492,44.9873],[6.4931,44.9869],[6.4939,44.9867],[6.4944,44.9862],[6.4952,44.9858],[6.4954,44.9854],[6.4958,44.9851],[6.4966,44.9847],[6.4976,44.9842],[6.4985,44.9838],[6.4992,44.9832],[6.4996,44.9826],[6.4999,44.9819],[6.4999,44.9813],[6.4996,44.9807],[6.4996,44.9803],[6.5002,44.9796],[6.501,44.9789],[6.5025,44.9785],[6.5038,44.978],[6.5056,44.9774],[6.5071,44.9767],[6.5086,44.976],[6.511,44.9753],[6.5093,44.9736],[6.5086,44.9727],[6.5117,44.9714],[6.5146,44.9698],[6.5172,44.9685],[6.5208,44.9677],[6.5256,44.9668],[6.5289,44.9655],[6.5323,44.9654],[6.5347,44.9638],[6.5395,44.962],[6.5418,44.9602],[6.5443,44.9587],[6.5476,44.9573],[6.5462,44.9557],[6.5435,44.9548],[6.5404,44.9533],[6.5387,44.9555],[6.5294,44.9574],[6.5182,44.9597],[6.5119,44.9624],[6.5073,44.9642],[6.5018,44.9668],[6.4861,44.9828],[6.4783,44.986],[6.4749,44.9896],[6.4721,44.9926],[6.4697,44.997],[6.4671,45.0024],[6.4659,45.0063],[6.4686,45.0075],[6.4711,45.0067]]]},"properties":{"id_ffco":"21","nom":"le monetier les bains","_dept":"05","numero":"1998-D05-14","commune":"Le monetier les bains","echelle":"1/15000","surface":"6.57 km²","format":"A3","annee":"1998","proprietaire":"0503 - BRIANCON NATURE COURSE D'ORIENTATION","niveau":"Régional","specialite":"CO à pied","contacts":"Office du tourisme, 08 10 00 11 12","latitude":"44.9759005929","longitude":"6.50331962811","valide":"Non","ppo":"Non","type_carte":"Nouvelle carte","fond":"Ortho","obsolete":true}},{"type":"Feature","geometry":{"type":"Polygon","coordinates":[[[6.6616,45.0036],[6.6597,45.003],[6.6589,45.0023],[6.655,45.0027],[6.6536,45.0053],[6.6524,45.0069],[6.6507,45.0078],[6.6489,45.0087],[6.6456,45.0088],[6.6431,45.0084],[6.6426,45.0095],[6.6437,45.0106],[6.6436,45.0115],[6.6428,45.0121],[6.6415,45.0122],[6.6407,45.0129],[6.6402,45.0137],[6.6378,45.014],[6.6352,45.0143],[6.6324,45.0142],[6.6308,45.0137],[6.6282,45.013],[6.6255,45.0124],[6.6236,45.0125],[6.6225,45.0124],[6.621,45.0117],[6.6193,45.0117],[6.617,45.0118],[6.609,45.0128],[6.6031,45.013],[6.5969,45.0129],[6.5937,45.0137],[6.5897,45.0147],[6.5841,45.0168],[6.5863,45.0183],[6.593,45.0179],[6.5984,45.0189],[6.5998,45.0194],[6.6016,45.0193],[6.6039,45.0206],[6.6057,45.0222],[6.6074,45.0227],[6.6087,45.0232],[6.6101,45.0232],[6.6113,45.0236],[6.6119,45.0237],[6.6129,45.0239],[6.6141,45.0233],[6.6152,45.0233],[6.6164,45.0237],[6.6174,45.0235],[6.6189,45.0239],[6.6195,45.0239],[6.6211,45.0236],[6.628,45.0231],[6.631,45.0238],[6.6335,45.0257],[6.6357,45.0248],[6.6377,45.0241],[6.6389,45.0242],[6.6397,45.0232],[6.6423,45.0208],[6.6438,45.0204],[6.645,45.0194],[6.6488,45.0193],[6.6503,45.0187],[6.6527,45.0186],[6.654,45.0169],[6.6545,45.0157],[6.656,45.0151],[6.6562,45.0141],[6.6566,45.0133],[6.6583,45.0115],[6.6595,45.0101],[6.6596,45.0077],[6.6599,45.0058],[6.6616,45.0036]]]},"properties":{"id_ffco":"20","nom":"Névache","_dept":"05","numero":"1997-D05-13","commune":"Névache","echelle":"1/15000","surface":"6.02 km²","format":"A3","annee":"1997","proprietaire":"0503 - BRIANCON NATURE COURSE D'ORIENTATION","niveau":"Régional","specialite":"Raid'O","contacts":"CSA Briançon, 06 81 54 61 98, jacslim@wanadoo.fr","latitude":"45.0161535572","longitude":"6.62732269852","valide":"Oui","ppo":"Non","type_carte":"Reprise","base":"1997-D05-13 Névache","fond":"Ortho","obsolete":true}},{"type":"Feature","geometry":null,"properties":{"id_ffco":"833","nom":"ANCELLE","_dept":"05","numero":"1978-D05-12","commune":"ANCELLE","echelle":"1/10000","surface":"7.0 km²","annee":"1978","proprietaire":"PR - Provence","specialite":"CO à pied","latitude":"44.6238847","longitude":"6.2054204","valide":"Non","ppo":"Non","obsolete":true}},{"type":"Feature","geometry":null,"properties":{"id_ffco":"2912","nom":"NEVACHE","_dept":"05","numero":"1997-D05-11","commune":"Nevache","echelle":"1/15000","surface":"6.05 km²","format":"A3","annee":"1997","proprietaire":"0503 - BRIANCON NATURE COURSE D'ORIENTATION","niveau":"Régional","specialite":"CO à pied","latitude":"45.016689098","longitude":"6.60978328447","valide":"Non","ppo":"Non","obsolete":true}},{"type":"Feature","geometry":null,"properties":{"id_ffco":"2913","nom":"SERRE CHEVALIER","_dept":"05","numero":"1995-D05-10","commune":"BRIANCON","echelle":"1/20000","surface":"35.25 km²","format":"+","annee":"1995","proprietaire":"0503 - BRIANCON NATURE COURSE D'ORIENTATION","niveau":"Régional","specialite":"CO à pied","latitude":"44.8969154","longitude":"6.6341592","valide":"Non","ppo":"Non","obsolete":true}},{"type":"Feature","geometry":null,"properties":{"id_ffco":"2619","nom":"TOUR et GRISAIL","_dept":"05","numero":"1992-D05-05","commune":"ST JULIEN en BEAUC.","echelle":"1/7500","surface":"1.5 km²","annee":"1992","proprietaire":"PR - Provence","specialite":"CO à pied","latitude":"44.6008723","longitude":"6.3226072","valide":"Non","ppo":"Non","obsolete":true}},{"type":"Feature","geometry":null,"properties":{"id_ffco":"1487","nom":"ST PHILIPPE","_dept":"05","numero":"1985-D05-04","commune":"GAP","echelle":"1/15000","surface":"9.5 km²","annee":"1985","proprietaire":"PR - Provence","niveau":"Interrégional","specialite":"CO à pied","latitude":"44.5599012","longitude":"6.0759012","valide":"Non","ppo":"Non","obsolete":true}},{"type":"Feature","geometry":null,"properties":{"id_ffco":"2618","nom":"GAP CHARANCE","_dept":"05","numero":"1992-D05-02","commune":"RTE VEYNE","echelle":"1/10000","surface":"2.0 km²","annee":"1992","proprietaire":"0401","specialite":"CO à pied","latitude":"44.5564946","longitude":"6.0472876","valide":"Non","ppo":"Non","obsolete":true}},{"type":"Feature","geometry":null,"properties":{"id_ffco":"2617","nom":"BAUCHES","_dept":"05","numero":"1992-D05-01","commune":"NEVACHE","echelle":"1/10000","surface":"0.9 km²","annee":"1992","specialite":"CO à pied","latitude":"45.0194028","longitude":"6.6069679","valide":"Non","ppo":"Non","obsolete":true}},{"type":"Feature","geometry":null,"properties":{"id_ffco":"831","nom":"PUY ST VINCENT","_dept":"05","numero":"1978-D05-003","commune":"BRIANCON","echelle":"1/15000","surface":"10.0 km²","annee":"1978","proprietaire":"PR - Provence","specialite":"CO à pied","latitude":"44.8236649324","longitude":"6.48241054278","valide":"Non","ppo":"Non","obsolete":true}},{"type":"Feature","geometry":null,"properties":{"id_ffco":"1485","nom":"MONGES","_dept":"05","numero":"1985-D05-00","commune":"SISTERON","echelle":"1/25000","surface":"155.0 km²","annee":"1985","proprietaire":"PR - Provence","niveau":"Interrégional","specialite":"CO à pied","latitude":"44.1971538","longitude":"5.9435588","valide":"Non","ppo":"Non","obsolete":true}},{"type":"Feature","geometry":null,"properties":{"id_ffco":"1485","nom":"SOURCES BUECH","_dept":"05","numero":"1985-D05-00","echelle":"1/25000","surface":"130.0 km²","annee":"1985","proprietaire":"LY","niveau":"Interrégional","specialite":"CO à pied","latitude":"44.6748937611","longitude":"5.73380867707","valide":"Non","ppo":"Non","obsolete":true}}]}