{"type":"FeatureCollection","features":[{"type":"Feature","geometry":{"type":"Polygon","coordinates":[[[7.0461,43.6472],[7.0461,43.6481],[7.0461,43.6488],[7.0455,43.6492],[7.0442,43.648],[7.044,43.6479],[7.0446,43.6476],[7.0449,43.6475],[7.0453,43.6474],[7.0455,43.6472],[7.0461,43.6472],[7.0461,43.6472]]]},"properties":{"id_ffco":"2020-D06-99","nom":"Darbousson - Le Collège","_dept":"06","numero":"2020-D06-99","commune":"Valbonne","echelle":"1/1000","surface":"0.02 km²","format":"A4","annee":"2020","cartographes":"Olivier Benevello","proprietaire":"0615 - VALBONNE SOPHIA ANTIPOLIS ORIENTATION","niveau":"Initiation, Scolaire","specialite":"CO à pied","contacts":"VSAO, 06560, Valbonne, vsao@vsaorientation.com, http://vsaorientation.com/","latitude":"43.6480960875","longitude":"7.04535584239","date_saisie":"10/05/2022","date_depot":"22/06/2022","valide":"Oui","ppo":"Non","type_carte":"Extrait","base":"2013-D06-80 Darbousson","fond":"Cadastre","obsolete":false}},{"type":"Feature","geometry":{"type":"Polygon","coordinates":[[[7.0462,43.6472],[7.0461,43.6489],[7.0441,43.6506],[7.0439,43.6506],[7.0432,43.6504],[7.0429,43.6502],[7.0428,43.6497],[7.0426,43.6491],[7.0426,43.6489],[7.0429,43.6487],[7.0432,43.6484],[7.0439,43.6479],[7.0445,43.6476],[7.0453,43.6473],[7.0456,43.6472],[7.046,43.6472],[7.0462,43.6472]]]},"properties":{"id_ffco":"2020-D06-98","nom":"Darbousson - Le Cimetière","_dept":"06","numero":"2020-D06-98","commune":"Valbonne","echelle":"1/2000","surface":"0.07 km²","format":"A4","annee":"2020","cartographes":"Olivier Benevello","proprietaire":"0615 - VALBONNE SOPHIA ANTIPOLIS ORIENTATION","niveau":"Initiation, Scolaire","specialite":"CO à pied","contacts":"VSAO, 06560, Valbonne, vsao@vsaorientation.com, http://vsaorientation.com/","latitude":"43.648878713","longitude":"7.04443864269","date_saisie":"10/05/2022","date_depot":"22/06/2022","valide":"Oui","ppo":"Non","type_carte":"Extrait","base":"2013-D06-80 Darbousson","fond":"IGN","obsolete":false}},{"type":"Feature","geometry":{"type":"Polygon","coordinates":[[[7.3515,43.792],[7.3519,43.7927],[7.3519,43.7929],[7.3521,43.7931],[7.3523,43.7933],[7.353,43.7935],[7.3536,43.7935],[7.3542,43.7936],[7.3559,43.7943],[7.357,43.7948],[7.3572,43.7953],[7.3572,43.7962],[7.3571,43.7968],[7.3573,43.7971],[7.358,43.7976],[7.3584,43.7978],[7.3587,43.7979],[7.3594,43.798],[7.3608,43.7979],[7.363,43.7977],[7.3641,43.7977],[7.366,43.7978],[7.3687,43.7979],[7.3694,43.7979],[7.3697,43.7972],[7.37,43.7968],[7.3703,43.7964],[7.3701,43.7956],[7.3703,43.795],[7.3701,43.7941],[7.3697,43.7937],[7.3693,43.7929],[7.3691,43.7925],[7.369,43.7922],[7.3692,43.7915],[7.3694,43.791],[7.369,43.7898],[7.3688,43.7896],[7.3676,43.7891],[7.3664,43.7891],[7.3659,43.7891],[7.3643,43.7896],[7.3624,43.79],[7.3616,43.79],[7.3606,43.7896],[7.36,43.7892],[7.3593,43.7888],[7.3587,43.7887],[7.3577,43.7896],[7.3571,43.7904],[7.356,43.7913],[7.3553,43.7918],[7.355,43.7919],[7.354,43.7919],[7.3531,43.7919],[7.3522,43.7917],[7.3515,43.792]]]},"properties":{"id_ffco":"2019-D06-97","nom":"Blausasc","_dept":"06","numero":"2019-D06-97","commune":"Blausasc","echelle":"1/7500","surface":"1.04 km²","format":"A4","annee":"2019","cartographes":"Daniel Seckler","proprietaire":"06 - Alpes-Maritimes","niveau":"Régional","specialite":"CO à pied","contacts":"CDAMCO, cdamco@free.fr","latitude":"43.7935746655","longitude":"7.36254732598","date_saisie":"24/12/2020","date_depot":"22/06/2022","valide":"Oui","ppo":"Non","type_carte":"Nouvelle carte","fond":"IGN","obsolete":false}},{"type":"Feature","geometry":{"type":"Polygon","coordinates":[[[7.2427,43.7019],[7.243,43.7016],[7.243,43.7016],[7.2432,43.7015],[7.2435,43.7013],[7.2441,43.7011],[7.2444,43.7009],[7.2448,43.7007],[7.2453,43.7005],[7.2456,43.7005],[7.2459,43.7005],[7.2461,43.7005],[7.2462,43.7006],[7.2468,43.7006],[7.2472,43.7005],[7.2479,43.7003],[7.2478,43.7001],[7.2477,43.6996],[7.2473,43.6985],[7.2466,43.6986],[7.2461,43.6986],[7.2459,43.6987],[7.2457,43.6987],[7.2454,43.6986],[7.2452,43.6984],[7.245,43.6983],[7.2449,43.6982],[7.2447,43.6979],[7.2443,43.6979],[7.2442,43.6979],[7.2438,43.6979],[7.2434,43.698],[7.2431,43.698],[7.243,43.6979],[7.2428,43.6979],[7.2425,43.6981],[7.2425,43.6985],[7.243,43.6993],[7.2428,43.6996],[7.2422,43.6993],[7.2416,43.6992],[7.2416,43.6998],[7.2417,43.6999],[7.2418,43.7001],[7.2417,43.7003],[7.2414,43.7006],[7.2411,43.7008],[7.2409,43.7009],[7.2412,43.7011],[7.2414,43.7012],[7.2415,43.7013],[7.2417,43.7014],[7.2419,43.7016],[7.2419,43.7018],[7.242,43.7019],[7.2421,43.7019],[7.2422,43.7019],[7.2424,43.7019],[7.2425,43.702],[7.2427,43.7019]]]},"properties":{"id_ffco":"2019-D06-96","nom":"Parc Estienne d'Orves","_dept":"06","numero":"2019-D06-96","commune":"Nice","echelle":"1/2500","surface":"0.14 km²","format":"A4","annee":"2019","cartographes":"Daniel Seckler","proprietaire":"06 - Alpes-Maritimes","niveau":"Initiation, Scolaire","specialite":"CO à pied","contacts":"CDAMCO, cdamco@free.fr","latitude":"43.6997858943","longitude":"7.24427536246","date_saisie":"04/10/2020","date_depot":"16/10/2020","valide":"Oui","ppo":"Non","type_carte":"Nouvelle carte","fond":"IGN","obsolete":false}},{"type":"Feature","geometry":{"type":"Polygon","coordinates":[[[7.0412,43.592],[7.0416,43.592],[7.0421,43.5919],[7.0426,43.5917],[7.0428,43.5914],[7.0437,43.5914],[7.0437,43.5907],[7.0437,43.5904],[7.0438,43.59],[7.0437,43.5896],[7.0434,43.5892],[7.0433,43.5887],[7.0429,43.5876],[7.0421,43.5866],[7.0413,43.5859],[7.0411,43.5855],[7.0408,43.5853],[7.0404,43.585],[7.0394,43.5847],[7.0387,43.5845],[7.038,43.5845],[7.0367,43.5844],[7.036,43.5844],[7.0354,43.5844],[7.0347,43.5845],[7.0348,43.5849],[7.0348,43.5851],[7.0352,43.5864],[7.0354,43.5868],[7.0356,43.5873],[7.036,43.588],[7.0364,43.5884],[7.0368,43.5886],[7.0373,43.5888],[7.0379,43.589],[7.0387,43.5892],[7.0393,43.5897],[7.0397,43.5899],[7.0398,43.5902],[7.0398,43.5905],[7.0401,43.5914],[7.0404,43.5917],[7.0412,43.592]]]},"properties":{"id_ffco":"2019-D06-95","nom":"Mougins le Haut","_dept":"06","numero":"2019-D06-95","commune":"Mougins","echelle":"1/3500","surface":"0.36 km²","format":"A4","annee":"2019","cartographes":"Fran Stone, Gil Stone","proprietaire":"0621 - MOUGINS ORIENTATION","niveau":"Régional","specialite":"CO à pied","contacts":"Hickmore Brian, brianhickmore@hotmail.com","latitude":"43.5877564262","longitude":"7.03953962718","date_saisie":"25/12/2020","date_depot":"22/06/2022","valide":"Oui","ppo":"Non","type_carte":"Nouvelle carte","fond":"IGN","obsolete":false}},{"type":"Feature","geometry":{"type":"Polygon","coordinates":[[[6.7306,43.7662],[6.73,43.7658],[6.7299,43.7643],[6.7302,43.7635],[6.7309,43.7623],[6.7315,43.7613],[6.7323,43.7609],[6.7333,43.7606],[6.7346,43.7598],[6.7358,43.7589],[6.7371,43.758],[6.7376,43.7576],[6.7381,43.7572],[6.7396,43.7558],[6.7417,43.7544],[6.7431,43.7531],[6.7449,43.7526],[6.7471,43.7515],[6.7482,43.751],[6.7495,43.7511],[6.7505,43.7511],[6.7506,43.7518],[6.7506,43.7523],[6.7507,43.7529],[6.751,43.7538],[6.7515,43.7541],[6.752,43.7539],[6.7538,43.7534],[6.755,43.7532],[6.7575,43.7533],[6.759,43.7533],[6.7597,43.7529],[6.7601,43.7517],[6.7607,43.7501],[6.761,43.7489],[6.7627,43.7484],[6.7637,43.7483],[6.7646,43.7485],[6.7661,43.7492],[6.7678,43.7504],[6.7699,43.7514],[6.771,43.7516],[6.7721,43.7515],[6.7743,43.7513],[6.7765,43.7507],[6.7779,43.7524],[6.7783,43.7528],[6.7789,43.7533],[6.78,43.7531],[6.7808,43.7528],[6.7812,43.7531],[6.7818,43.7538],[6.7822,43.7541],[6.7831,43.7544],[6.7833,43.7544],[6.7843,43.7544],[6.7846,43.7556],[6.7851,43.7568],[6.7863,43.7597],[6.7867,43.7599],[6.7862,43.761],[6.7862,43.7616],[6.7864,43.7624],[6.786,43.7631],[6.7852,43.7633],[6.7842,43.7633],[6.7825,43.7637],[6.7815,43.7637],[6.7794,43.7637],[6.7778,43.7637],[6.7768,43.7639],[6.7747,43.764],[6.7738,43.7641],[6.7739,43.7645],[6.7745,43.7648],[6.7732,43.7648],[6.7718,43.7645],[6.7682,43.764],[6.7658,43.763],[6.7641,43.7626],[6.7623,43.7618],[6.7604,43.7615],[6.7593,43.7614],[6.7555,43.7622],[6.7538,43.7626],[6.7469,43.7629],[6.7322,43.7663],[6.7313,43.7662],[6.7306,43.7662]]]},"properties":{"id_ffco":"2018-D06-94","nom":"La Mouliere","_dept":"06","numero":"2018-D06-94","commune":"Caille","echelle":"1/15000","surface":"5.1 km²","format":"A4","annee":"2018","cartographes":"Daniel Seckler","proprietaire":"06 - Alpes-Maritimes","niveau":"National, International","specialite":"CO à pied","contacts":"CDAMCO, cdamco@free.fr","latitude":"43.7580411338","longitude":"6.76035515185","date_saisie":"28/05/2018","date_depot":"16/10/2020","valide":"Oui","ppo":"Non","type_carte":"Reprise","base":"2000-D06-31 LA MOULIERE","fond":"IGN","obsolete":false}},{"type":"Feature","geometry":{"type":"Polygon","coordinates":[[[7.2657,43.7157],[7.2657,43.7154],[7.2656,43.7151],[7.2656,43.7149],[7.2663,43.7149],[7.2668,43.7148],[7.2668,43.7154],[7.2687,43.7158],[7.2688,43.7154],[7.2689,43.7154],[7.269,43.7156],[7.2691,43.7157],[7.2691,43.7157],[7.2692,43.7159],[7.2693,43.7161],[7.2697,43.7159],[7.27,43.7163],[7.2699,43.7166],[7.2694,43.7166],[7.2695,43.7172],[7.2699,43.7171],[7.2701,43.7178],[7.2701,43.7181],[7.2699,43.7183],[7.2698,43.7184],[7.27,43.7186],[7.2699,43.7187],[7.2697,43.7186],[7.2696,43.7187],[7.2692,43.7183],[7.269,43.7184],[7.2688,43.7185],[7.2681,43.7188],[7.2677,43.7191],[7.2672,43.7185],[7.2669,43.7183],[7.2666,43.7181],[7.2663,43.718],[7.266,43.7177],[7.2657,43.717],[7.2657,43.7161],[7.2657,43.7157]]]},"properties":{"id_ffco":"2017-D06-93","nom":"Campus Valrose - Nice","_dept":"06","numero":"2017-D06-93","commune":"Nice","echelle":"1/2500","surface":"0.11 km²","format":"A4","annee":"2017","cartographes":"Franck Compagnon","proprietaire":"06 - Alpes-Maritimes","niveau":"Départemental","specialite":"Sprint (ISSOM)","contacts":"CDAMCO, cdamco@free.fr","latitude":"43.7169618618","longitude":"7.26775236975","date_saisie":"04/10/2020","date_depot":"16/10/2020","valide":"Oui","ppo":"Non","type_carte":"Nouvelle carte","fond":"Cadastre","obsolete":false}},{"type":"Feature","geometry":{"type":"Polygon","coordinates":[[[7.3005,43.7024],[7.3005,43.7021],[7.3007,43.7016],[7.3008,43.7011],[7.3011,43.7007],[7.3021,43.6996],[7.303,43.6986],[7.3037,43.6975],[7.3043,43.6967],[7.3048,43.6963],[7.3051,43.6954],[7.3055,43.6946],[7.3067,43.6936],[7.307,43.6932],[7.307,43.6928],[7.307,43.6908],[7.3071,43.6891],[7.3066,43.688],[7.3054,43.6867],[7.3049,43.6863],[7.3036,43.6862],[7.3027,43.6865],[7.3027,43.6868],[7.3022,43.6872],[7.3013,43.6876],[7.2999,43.688],[7.2989,43.6882],[7.2981,43.6887],[7.297,43.6896],[7.2966,43.6898],[7.2965,43.6905],[7.2961,43.6918],[7.2961,43.6926],[7.2965,43.6926],[7.2965,43.693],[7.2966,43.6932],[7.2966,43.6938],[7.2967,43.6952],[7.2968,43.6974],[7.2975,43.6973],[7.2976,43.6984],[7.2979,43.6995],[7.298,43.7003],[7.2989,43.7013],[7.2997,43.7022],[7.3002,43.7024],[7.3005,43.7024]]]},"properties":{"id_ffco":"2015-D06-92","nom":"Le Mont Boron","_dept":"06","numero":"2015-D06-92","commune":"Nice","echelle":"1/7500","surface":"1.02 km²","format":"A4","annee":"2015","cartographes":"Fran Stone, Giles Stone","proprietaire":"06 - Alpes-Maritimes","niveau":"Régional","specialite":"CO à pied","latitude":"43.6933053414","longitude":"7.30146009767","date_saisie":"04/10/2020","date_depot":"16/10/2020","valide":"Oui","ppo":"Non","type_carte":"Reprise","base":"1992-D06-11 MONT BORON","fond":"IGN","obsolete":false}},{"type":"Feature","geometry":{"type":"Polygon","coordinates":[[[7.3379,43.7293],[7.3366,43.7294],[7.3353,43.7296],[7.3338,43.7291],[7.3331,43.7284],[7.3323,43.728],[7.3313,43.728],[7.3297,43.728],[7.3283,43.7281],[7.3279,43.728],[7.3275,43.728],[7.3266,43.7281],[7.326,43.728],[7.3253,43.7277],[7.3242,43.728],[7.3234,43.728],[7.3228,43.7278],[7.3226,43.7273],[7.3223,43.7265],[7.322,43.7261],[7.322,43.7256],[7.3223,43.7252],[7.323,43.725],[7.3238,43.7246],[7.3245,43.724],[7.3242,43.7234],[7.3237,43.7235],[7.3234,43.7231],[7.3222,43.7231],[7.3208,43.7228],[7.3199,43.7223],[7.3194,43.7215],[7.3195,43.7202],[7.3197,43.7197],[7.3205,43.7193],[7.3209,43.7191],[7.3213,43.7193],[7.3215,43.7194],[7.3217,43.7194],[7.3221,43.7195],[7.3224,43.7195],[7.3238,43.7199],[7.3244,43.7205],[7.325,43.7207],[7.3256,43.7209],[7.3257,43.7211],[7.3259,43.7212],[7.3264,43.7214],[7.3269,43.7216],[7.3267,43.722],[7.3262,43.7227],[7.3259,43.7229],[7.326,43.723],[7.3268,43.7234],[7.3275,43.7235],[7.3283,43.7232],[7.329,43.7227],[7.3308,43.7221],[7.3308,43.7236],[7.3317,43.7238],[7.3325,43.7243],[7.3332,43.7249],[7.334,43.7254],[7.3346,43.7258],[7.3354,43.7261],[7.3359,43.7264],[7.3365,43.7268],[7.337,43.7271],[7.3377,43.7273],[7.3379,43.7277],[7.3379,43.7287],[7.3379,43.7292],[7.3379,43.7293]]]},"properties":{"id_ffco":"2015-D06-91","nom":"Le Plateau de la Justice","_dept":"06","numero":"2015-D06-91","commune":"Eze","echelle":"1/7500","surface":"0.75 km²","format":"A4","annee":"2015","cartographes":"Fran Stone, Giles Stone","proprietaire":"06 - Alpes-Maritimes","niveau":"Interrégional","specialite":"CO à pied","latitude":"43.7249782678","longitude":"7.32792593792","date_saisie":"04/10/2020","date_depot":"16/10/2020","valide":"Oui","ppo":"Non","type_carte":"Reprise","base":"2004-D06-51 Plateau de la Justice","fond":"IGN","obsolete":false}},{"type":"Feature","geometry":{"type":"Polygon","coordinates":[[[7.2725,43.6946],[7.2727,43.6952],[7.2731,43.6973],[7.2757,43.6981],[7.2762,43.6982],[7.2771,43.6987],[7.2788,43.7003],[7.2807,43.7002],[7.2823,43.698],[7.2829,43.6973],[7.283,43.697],[7.2828,43.6951],[7.2828,43.6945],[7.2824,43.694],[7.2824,43.6938],[7.2822,43.6935],[7.2816,43.6932],[7.2789,43.6933],[7.2788,43.6934],[7.2787,43.6934],[7.2787,43.6936],[7.2788,43.6936],[7.2787,43.6937],[7.2788,43.6939],[7.2784,43.6941],[7.2779,43.6942],[7.2768,43.6944],[7.2748,43.6945],[7.2725,43.6946]]]},"properties":{"id_ffco":"2015-D06-90","nom":"Le Vieux Nice","_dept":"06","numero":"2015-D06-90","commune":"Nice","echelle":"1/3500","surface":"0.43 km²","format":"A4","annee":"2015","cartographes":"Matthieu Puech","proprietaire":"06 - Alpes-Maritimes","niveau":"Interrégional","specialite":"CO à pied","contacts":"CDAMCO, cdamco@free.fr","latitude":"43.6964753467","longitude":"7.27847598265","date_saisie":"01/10/2020","date_depot":"16/10/2020","valide":"Oui","ppo":"Non","type_carte":"Reprise","base":"2005-D06-54 Le Vieux Nice","fond":"Cadastre","obsolete":false}},{"type":"Feature","geometry":{"type":"Polygon","coordinates":[[[7.0461,43.6472],[7.0461,43.6481],[7.0461,43.6487],[7.0462,43.649],[7.045,43.65],[7.0445,43.6507],[7.0455,43.6515],[7.0459,43.6515],[7.0457,43.6528],[7.0451,43.6547],[7.0337,43.6548],[7.0323,43.6537],[7.0279,43.651],[7.0279,43.6508],[7.0288,43.6507],[7.028,43.6485],[7.0296,43.6481],[7.0304,43.6481],[7.0328,43.6468],[7.0338,43.6463],[7.0347,43.6459],[7.0348,43.646],[7.0359,43.6457],[7.0358,43.6452],[7.0353,43.6448],[7.0351,43.6445],[7.0347,43.6443],[7.0341,43.6437],[7.0339,43.6432],[7.0346,43.6428],[7.0352,43.6427],[7.0355,43.6428],[7.0361,43.6427],[7.0376,43.643],[7.0383,43.6434],[7.0392,43.6438],[7.0397,43.6437],[7.0406,43.6437],[7.0408,43.644],[7.0399,43.6445],[7.0402,43.6451],[7.0392,43.6456],[7.0394,43.6468],[7.0419,43.6462],[7.0424,43.6461],[7.0424,43.6463],[7.0429,43.6462],[7.0436,43.6468],[7.0442,43.6476],[7.0443,43.6477],[7.0448,43.6475],[7.0453,43.6473],[7.0457,43.6472],[7.0459,43.6472],[7.0461,43.6472]]]},"properties":{"id_ffco":"2013-D06-80","nom":"Darbousson","_dept":"06","numero":"2013-D06-80","commune":"Valbonne","echelle":"1/7500","surface":"1.27 km²","format":"A4","annee":"2013","cartographes":"Alain Pellegry, Alain Richaud","proprietaire":"0615 - VALBONNE SOPHIA ANTIPOLIS ORIENTATION","niveau":"Départemental","specialite":"CO à pied","contacts":"VSAO, 06560, Valbonne, vsao@vsaorientation.com, http://vsaorientation.com/","latitude":"43.6498420794","longitude":"7.03762138544","date_saisie":"10/05/2022","valide":"Non","ppo":"Non","type_carte":"Reprise","base":"2008-D06-70 Darbousson","fond":"IGN","obsolete":false}},{"type":"Feature","geometry":{"type":"Polygon","coordinates":[[[6.9011,43.8027],[6.9039,43.803],[6.9094,43.8035],[6.9223,43.8039],[6.9305,43.804],[6.9327,43.8054],[6.9347,43.8054],[6.9387,43.8064],[6.9427,43.8075],[6.9472,43.8082],[6.9519,43.8089],[6.9533,43.8093],[6.9533,43.8157],[6.9532,43.8162],[6.9528,43.8165],[6.9531,43.8175],[6.9521,43.82],[6.9528,43.8206],[6.9536,43.8211],[6.9552,43.8223],[6.9562,43.8223],[6.9572,43.8232],[6.9598,43.8248],[6.9604,43.8253],[6.9627,43.8261],[6.9638,43.8258],[6.9651,43.8264],[6.9658,43.8273],[6.9659,43.8278],[6.9658,43.8293],[6.9659,43.83],[6.9653,43.8303],[6.9637,43.8308],[6.9622,43.8311],[6.9601,43.831],[6.9595,43.8318],[6.9592,43.831],[6.9582,43.8303],[6.957,43.8301],[6.9545,43.8316],[6.9526,43.832],[6.9509,43.8319],[6.9494,43.8313],[6.9481,43.8304],[6.9477,43.8291],[6.9483,43.8281],[6.948,43.8278],[6.9474,43.828],[6.9454,43.83],[6.9446,43.8301],[6.9422,43.8302],[6.939,43.8304],[6.937,43.83],[6.9339,43.8304],[6.9306,43.8299],[6.9274,43.8298],[6.9204,43.8291],[6.9175,43.8287],[6.9158,43.8282],[6.9126,43.8277],[6.9085,43.8272],[6.9042,43.8261],[6.9003,43.8245],[6.8976,43.8235],[6.8956,43.8227],[6.8939,43.8221],[6.894,43.8219],[6.895,43.8219],[6.8974,43.8219],[6.8976,43.8217],[6.897,43.8216],[6.8952,43.8207],[6.8943,43.8206],[6.8944,43.8205],[6.8965,43.8202],[6.8978,43.8199],[6.8985,43.82],[6.8985,43.8198],[6.898,43.8197],[6.8909,43.8168],[6.8892,43.8162],[6.8892,43.8076],[6.8918,43.8072],[6.8936,43.8061],[6.8963,43.804],[6.8976,43.8032],[6.899,43.8029],[6.9,43.8028],[6.9011,43.8027]]]},"properties":{"id_ffco":"2013-D06-75","nom":"La Brasque - Gréolières les neiges","_dept":"06","numero":"2013-D06-75","commune":"Gréolières","echelle":"1/15000","surface":"13.51 km²","format":"A3","annee":"2013","cartographes":"Pierre Delenne, Alain Pellegry, SHO-cart","proprietaire":"06 - Alpes-Maritimes","niveau":"National, International","specialite":"CO à pied","contacts":"CDAMCO, cdamco@free.fr","latitude":"43.8171232396","longitude":"6.92494438603","date_saisie":"02/10/2020","date_depot":"16/10/2020","valide":"Oui","ppo":"Non","type_carte":"Reprise","base":"1993-D06-14 GREOLIERES LES NEIGES","fond":"Ortho","obsolete":false}},{"type":"Feature","geometry":null,"properties":{"id_ffco":"2005-D06-55","nom":"LES GARDETTES - Bézaudun Les Alpes","_dept":"06","numero":"2005-D06-55","commune":"Bezaudun Les Alpes","echelle":"1/10000","surface":"7.7 km²","annee":"2005","cartographes":"A Pellegry","proprietaire":"AZ - Côte d'Azur","niveau":"National, International","specialite":"CO à pied","latitude":"43.8088843","longitude":"7.0965229","date_saisie":"17/11/2005","date_depot":"18/11/2005","valide":"Non","ppo":"Non","obsolete":false}},{"type":"Feature","geometry":{"type":"Polygon","coordinates":[[[6.9421,43.7343],[6.9415,43.7345],[6.941,43.7343],[6.9406,43.7344],[6.9399,43.7338],[6.9387,43.7344],[6.9377,43.7348],[6.9364,43.7348],[6.9351,43.7344],[6.9347,43.7352],[6.9338,43.7355],[6.9328,43.7358],[6.9315,43.7363],[6.9304,43.7368],[6.9296,43.7366],[6.9287,43.7364],[6.9277,43.7362],[6.9248,43.7359],[6.9231,43.7355],[6.9218,43.7347],[6.9186,43.7342],[6.9178,43.7342],[6.917,43.734],[6.9132,43.7337],[6.9111,43.7336],[6.9091,43.7335],[6.9091,43.7323],[6.9089,43.7309],[6.9089,43.7294],[6.9089,43.7273],[6.9093,43.7261],[6.9092,43.7255],[6.9089,43.7254],[6.909,43.7249],[6.9089,43.7242],[6.9068,43.7249],[6.9049,43.7247],[6.9047,43.7237],[6.9044,43.722],[6.9038,43.721],[6.9031,43.7197],[6.9023,43.7186],[6.9015,43.7172],[6.9004,43.7151],[6.8993,43.7136],[6.899,43.7126],[6.8999,43.7116],[6.9016,43.7112],[6.9031,43.7108],[6.905,43.7101],[6.9065,43.7094],[6.9077,43.7087],[6.9095,43.7086],[6.9109,43.7086],[6.9122,43.7084],[6.9125,43.7082],[6.9128,43.7085],[6.9138,43.7088],[6.9142,43.709],[6.9153,43.7088],[6.9184,43.7083],[6.9204,43.7082],[6.9219,43.7081],[6.9234,43.7079],[6.9236,43.7087],[6.9251,43.7104],[6.9255,43.7114],[6.9269,43.7117],[6.9284,43.712],[6.9307,43.7127],[6.9322,43.7133],[6.9332,43.7138],[6.9345,43.7148],[6.9361,43.716],[6.9372,43.7166],[6.937,43.7175],[6.9379,43.7182],[6.9386,43.7195],[6.9401,43.7209],[6.9411,43.7215],[6.9437,43.7226],[6.9454,43.724],[6.9465,43.725],[6.9478,43.7258],[6.9473,43.7264],[6.9472,43.7267],[6.9462,43.7277],[6.9448,43.7295],[6.9443,43.7309],[6.943,43.7323],[6.9425,43.7331],[6.9421,43.734],[6.9421,43.7343]]]},"properties":{"id_ffco":"1998-D06-25","nom":"CAUSSOLS","_dept":"06","numero":"1998-D06-25","commune":"Caussols","echelle":"1/15000","surface":"8.0 km²","format":"A4","annee":"1998","cartographes":"Alain Pellegry","proprietaire":"06 - Alpes-Maritimes","niveau":"Interrégional","specialite":"CO à pied","latitude":"43.7224204867","longitude":"6.92270666337","valide":"Non","ppo":"Non","type_carte":"Nouvelle carte","fond":"IGN","obsolete":false}},{"type":"Feature","geometry":null,"properties":{"id_ffco":"1997-D06-23","nom":"COURSEGOULES","_dept":"06","numero":"1997-D06-23","commune":"Coursegoules","echelle":"1/20000","surface":"50.0 km²","format":"+","annee":"1997","cartographes":"Alain Pellegry","proprietaire":"06 - Alpes-Maritimes","niveau":"Interrégional","specialite":"Raid'O","latitude":"43.7955242","longitude":"6.9429293","valide":"Non","ppo":"Non","type_carte":"Nouvelle carte","fond":"IGN","obsolete":false}},{"type":"Feature","geometry":{"type":"Polygon","coordinates":[[[7.0677,43.7696],[7.0673,43.7703],[7.0666,43.771],[7.0648,43.7705],[7.0636,43.7704],[7.0621,43.7702],[7.0619,43.7696],[7.0613,43.7689],[7.0594,43.7677],[7.056,43.7668],[7.0529,43.7664],[7.0496,43.7665],[7.0473,43.7665],[7.0456,43.7665],[7.0419,43.7662],[7.0375,43.766],[7.0367,43.7659],[7.0328,43.7674],[7.0314,43.7677],[7.03,43.7681],[7.0285,43.768],[7.0269,43.7687],[7.0249,43.7657],[7.0246,43.7645],[7.0238,43.7632],[7.0219,43.7625],[7.0218,43.7622],[7.0219,43.762],[7.0201,43.7599],[7.0189,43.7579],[7.0185,43.7566],[7.0178,43.7542],[7.0178,43.7533],[7.0162,43.7514],[7.0166,43.7499],[7.0178,43.7499],[7.0186,43.7503],[7.0193,43.7501],[7.0199,43.7494],[7.0221,43.7498],[7.0226,43.7503],[7.0248,43.75],[7.0283,43.7494],[7.0304,43.7496],[7.0339,43.7496],[7.0352,43.7497],[7.0366,43.7498],[7.0384,43.7493],[7.0398,43.7496],[7.0421,43.7497],[7.0441,43.7493],[7.0452,43.7488],[7.0456,43.7482],[7.047,43.748],[7.0479,43.7474],[7.0497,43.7474],[7.0509,43.7466],[7.0531,43.7471],[7.0546,43.7476],[7.0556,43.748],[7.0566,43.7483],[7.0581,43.7487],[7.0587,43.7494],[7.0614,43.7499],[7.0623,43.7502],[7.0631,43.7505],[7.0642,43.7504],[7.0649,43.7505],[7.0656,43.7506],[7.0664,43.7511],[7.0672,43.7515],[7.0677,43.7525],[7.0684,43.7536],[7.0683,43.7542],[7.0692,43.7547],[7.0697,43.755],[7.0721,43.7564],[7.0719,43.7568],[7.072,43.7574],[7.0728,43.7572],[7.074,43.7571],[7.0744,43.7573],[7.0747,43.7575],[7.0763,43.7578],[7.0768,43.7581],[7.077,43.7586],[7.0762,43.7593],[7.0753,43.7604],[7.074,43.7616],[7.0727,43.7622],[7.0718,43.7631],[7.0706,43.7652],[7.07,43.7671],[7.0697,43.7682],[7.0692,43.7686],[7.0684,43.7693],[7.0682,43.7697],[7.0677,43.7696]]]},"properties":{"id_ffco":"1995-D06-16","nom":"SAINT BARNABE","_dept":"06","numero":"1995-D06-16","commune":"Coursegoules","echelle":"1/15000","surface":"8.33 km²","format":"+","annee":"1995","cartographes":"Alain Pellegry","proprietaire":"06 - Alpes-Maritimes","niveau":"National, International","specialite":"CO à pied","latitude":"43.7582307019","longitude":"7.04635639176","valide":"Non","ppo":"Non","type_carte":"Nouvelle carte","fond":"IGN","obsolete":false}},{"type":"Feature","geometry":{"type":"Polygon","coordinates":[[[6.8633,43.6741],[6.8609,43.675],[6.8605,43.6748],[6.8599,43.6747],[6.8592,43.6748],[6.8586,43.6748],[6.8577,43.675],[6.8572,43.6754],[6.8564,43.6757],[6.8548,43.6757],[6.8533,43.6759],[6.8529,43.6759],[6.8526,43.676],[6.8522,43.6761],[6.8518,43.6762],[6.8504,43.6766],[6.8488,43.6767],[6.8474,43.6766],[6.8466,43.6766],[6.8457,43.6766],[6.8442,43.6766],[6.8431,43.6765],[6.842,43.6762],[6.8416,43.6766],[6.8406,43.6768],[6.84,43.6767],[6.8396,43.6765],[6.8385,43.6763],[6.8379,43.6757],[6.8365,43.6757],[6.8349,43.6758],[6.8345,43.6749],[6.8345,43.6746],[6.8347,43.6745],[6.8347,43.6743],[6.8321,43.6735],[6.8308,43.6733],[6.8297,43.6738],[6.8285,43.6736],[6.8279,43.6738],[6.8271,43.6747],[6.8262,43.6763],[6.826,43.6765],[6.8244,43.6763],[6.8223,43.6762],[6.821,43.676],[6.8188,43.6759],[6.8157,43.6757],[6.8133,43.6754],[6.8127,43.675],[6.8107,43.6757],[6.8093,43.6763],[6.8085,43.6767],[6.8075,43.6768],[6.8067,43.6769],[6.8061,43.6772],[6.8056,43.6775],[6.8048,43.6787],[6.8052,43.6791],[6.8056,43.6795],[6.806,43.68],[6.8054,43.6805],[6.8055,43.6807],[6.8062,43.6805],[6.8092,43.6802],[6.8103,43.6801],[6.811,43.6805],[6.8117,43.6811],[6.8134,43.6819],[6.8141,43.6822],[6.8149,43.6823],[6.8155,43.6823],[6.8161,43.6822],[6.817,43.6823],[6.8186,43.6829],[6.8191,43.6835],[6.8193,43.6843],[6.8204,43.6856],[6.8216,43.6862],[6.8224,43.6863],[6.8234,43.6861],[6.8239,43.686],[6.8241,43.6862],[6.8249,43.6871],[6.8255,43.6877],[6.8262,43.6879],[6.8269,43.6878],[6.8274,43.6876],[6.8281,43.6874],[6.8288,43.6873],[6.8292,43.6874],[6.8295,43.6876],[6.8296,43.6883],[6.8298,43.6889],[6.8304,43.6894],[6.8314,43.6896],[6.8324,43.6899],[6.8334,43.6901],[6.8339,43.6902],[6.8343,43.6903],[6.8349,43.6904],[6.8359,43.6908],[6.8373,43.6908],[6.8396,43.6909],[6.8414,43.6908],[6.8423,43.6908],[6.8426,43.6905],[6.8432,43.6905],[6.8439,43.6903],[6.8456,43.6905],[6.8466,43.6906],[6.8471,43.6907],[6.8481,43.6908],[6.8489,43.6908],[6.8504,43.6905],[6.8516,43.6903],[6.8526,43.6902],[6.8535,43.6899],[6.8549,43.6894],[6.856,43.6889],[6.8572,43.6889],[6.8576,43.689],[6.8577,43.6892],[6.8591,43.6886],[6.8597,43.6882],[6.8601,43.6879],[6.8603,43.6876],[6.8604,43.6872],[6.8606,43.6863],[6.8606,43.6854],[6.8608,43.6833],[6.8608,43.6812],[6.8611,43.6804],[6.8614,43.6794],[6.8614,43.6782],[6.862,43.6767],[6.8628,43.6756],[6.8632,43.6749],[6.8633,43.6741]]]},"properties":{"id_ffco":"2024-D06-101","nom":"Le Defends","_dept":"06","numero":"2024-D06-101","commune":"Saint Vallier de Thiey","echelle":"1/15000","surface":"5.78 km²","format":"+","annee":"2024","cartographes":"Daniel Seckler","proprietaire":"06 - Alpes-Maritimes","niveau":"National, International","specialite":"CO à pied","contacts":"CDAMCO, cdamco@free.fr","latitude":"43.6819960427","longitude":"6.83770724978","date_saisie":"09/04/2024","valide":"Non","ppo":"Non","type_carte":"Reprise","base":"2020-D06-100 Le Défends","fond":"Laser","obsolete":false}},{"type":"Feature","geometry":{"type":"Polygon","coordinates":[[[6.8433,43.6904],[6.8427,43.6906],[6.8425,43.6906],[6.8422,43.6904],[6.8416,43.6904],[6.8406,43.6903],[6.8399,43.6903],[6.8386,43.6907],[6.8377,43.691],[6.8365,43.6912],[6.8357,43.6907],[6.8348,43.6904],[6.8341,43.6903],[6.8332,43.69],[6.8322,43.6898],[6.8309,43.6895],[6.8305,43.6894],[6.8299,43.689],[6.8296,43.6884],[6.8295,43.6877],[6.8293,43.6874],[6.8288,43.6873],[6.8286,43.6872],[6.8271,43.6877],[6.8265,43.6879],[6.826,43.6879],[6.8253,43.6876],[6.8249,43.6872],[6.8245,43.6866],[6.824,43.686],[6.8237,43.686],[6.8226,43.6863],[6.8219,43.6863],[6.8213,43.6861],[6.8205,43.6857],[6.82,43.6852],[6.8196,43.6846],[6.8193,43.6844],[6.8189,43.6833],[6.8184,43.6829],[6.8176,43.6826],[6.8167,43.6822],[6.816,43.6822],[6.815,43.6823],[6.8135,43.6821],[6.8127,43.6816],[6.8121,43.6812],[6.8117,43.681],[6.8111,43.6805],[6.8105,43.6802],[6.8096,43.6802],[6.8076,43.6803],[6.8068,43.6804],[6.806,43.6805],[6.8055,43.6807],[6.8054,43.6806],[6.8054,43.6805],[6.806,43.6801],[6.806,43.6799],[6.8051,43.679],[6.8048,43.6788],[6.8049,43.6785],[6.8056,43.6774],[6.806,43.6772],[6.8062,43.6771],[6.8068,43.6769],[6.8073,43.6768],[6.8084,43.6768],[6.8094,43.6763],[6.8103,43.6759],[6.8116,43.6754],[6.8123,43.6752],[6.8127,43.6751],[6.8143,43.676],[6.8154,43.6765],[6.8189,43.6766],[6.822,43.6767],[6.8243,43.6765],[6.8255,43.6764],[6.8263,43.675],[6.827,43.6739],[6.8288,43.6734],[6.8312,43.6731],[6.833,43.6736],[6.8348,43.6741],[6.8345,43.6747],[6.8348,43.6756],[6.8351,43.6757],[6.8357,43.6758],[6.8378,43.6757],[6.8385,43.6762],[6.8395,43.6765],[6.8399,43.6765],[6.8404,43.6767],[6.8413,43.6767],[6.8417,43.6765],[6.8418,43.6764],[6.8421,43.6761],[6.8422,43.6762],[6.8425,43.6763],[6.8435,43.6766],[6.845,43.6766],[6.8459,43.6765],[6.8467,43.6766],[6.8471,43.6765],[6.8483,43.6766],[6.8486,43.6766],[6.8483,43.6771],[6.8482,43.6774],[6.8485,43.6783],[6.8487,43.6787],[6.849,43.6792],[6.8492,43.6796],[6.8493,43.6798],[6.8501,43.6798],[6.8506,43.6797],[6.8518,43.6794],[6.8535,43.679],[6.8545,43.6788],[6.8551,43.6787],[6.8553,43.679],[6.8563,43.6793],[6.8569,43.6796],[6.8568,43.68],[6.8567,43.6802],[6.8565,43.6805],[6.8564,43.6807],[6.8564,43.6808],[6.8562,43.6811],[6.856,43.6813],[6.8556,43.6816],[6.8553,43.6819],[6.8554,43.6822],[6.8554,43.6824],[6.8555,43.6828],[6.8556,43.6828],[6.8557,43.6828],[6.8558,43.683],[6.8562,43.6837],[6.8563,43.6839],[6.8563,43.6844],[6.8563,43.6848],[6.8566,43.6853],[6.8566,43.6855],[6.856,43.6857],[6.8558,43.6862],[6.8558,43.6868],[6.8557,43.6871],[6.8559,43.6875],[6.8561,43.6879],[6.8564,43.688],[6.8566,43.6879],[6.8571,43.6879],[6.8574,43.6879],[6.8574,43.6883],[6.8574,43.6885],[6.8574,43.6888],[6.857,43.6889],[6.8563,43.689],[6.8557,43.6889],[6.8555,43.689],[6.855,43.6892],[6.8544,43.6895],[6.8539,43.6897],[6.8534,43.6899],[6.853,43.6901],[6.8525,43.6902],[6.852,43.6901],[6.8513,43.6902],[6.8505,43.6904],[6.8496,43.6905],[6.849,43.6906],[6.8485,43.6907],[6.8481,43.6907],[6.8476,43.6906],[6.8471,43.6906],[6.8466,43.6906],[6.8463,43.6906],[6.8457,43.6905],[6.8451,43.6905],[6.8447,43.6904],[6.8441,43.6903],[6.8435,43.6905],[6.8433,43.6904]]]},"properties":{"id_ffco":"2020-D06-100","nom":"Le Défends","_dept":"06","numero":"2020-D06-100","commune":"Saint Vallier de Thiey","echelle":"1/10000","surface":"4.9 km²","format":"A3","annee":"2020","cartographes":"Daniel Seckler, Alain Pellegry","proprietaire":"06 - Alpes-Maritimes","niveau":"National, International","specialite":"CO à pied","contacts":"CDAMCO, cdamco@free.fr","latitude":"43.6822841326","longitude":"6.83457937346","date_saisie":"10/05/2022","date_depot":"22/06/2022","valide":"Oui","ppo":"Non","type_carte":"Reprise","base":"2001-D06-37 Le Défends","fond":"IGN","obsolete":false}},{"type":"Feature","geometry":null,"properties":{"id_ffco":"????-D06-","nom":"Mont Chauve","_dept":"06","numero":"????-D06-","commune":"Nice","surface":"None km²","latitude":"43.7034273","longitude":"7.2662656","valide":"Non","ppo":"Non","obsolete":false}},{"type":"Feature","geometry":null,"properties":{"id_ffco":"????-D06-","nom":"Mont Boron","_dept":"06","numero":"????-D06-","commune":"Nice","surface":"None km²","contacts":"Marcel Ponroy, 04 93 89 45 56","latitude":"43.7034273","longitude":"7.2662656","valide":"Non","ppo":"Oui (60 postes)","obsolete":false}},{"type":"Feature","geometry":null,"properties":{"id_ffco":"????-D06-","nom":"Le Château","_dept":"06","numero":"????-D06-","commune":"Nice","surface":"None km²","niveau":"Initiation, Scolaire","specialite":"CO à pied","contacts":"Marcel Ponroy, 04 93 89 45 56","latitude":"43.7034273","longitude":"7.2662656","valide":"Non","ppo":"Oui (44 postes)","obsolete":false}},{"type":"Feature","geometry":null,"properties":{"id_ffco":"????-D06-","nom":"Parc de la Valmasque","_dept":"06","numero":"????-D06-","commune":"Nice","surface":"None km²","specialite":"Raid'O","latitude":"43.7034273","longitude":"7.2662656","valide":"Non","ppo":"Oui (85 postes)","obsolete":false}}]}