{"type":"FeatureCollection","features":[{"type":"Feature","geometry":{"type":"Polygon","coordinates":[[[7.0461,43.6471],[7.0461,43.6487],[7.0461,43.6492],[7.0448,43.6502],[7.0445,43.6507],[7.045,43.6511],[7.0454,43.6515],[7.0451,43.6528],[7.044,43.6553],[7.035,43.6552],[7.0343,43.6549],[7.0337,43.6545],[7.0325,43.6537],[7.0297,43.6521],[7.0279,43.6511],[7.0282,43.6507],[7.0288,43.6506],[7.0283,43.6489],[7.0281,43.6484],[7.0295,43.6481],[7.0301,43.6481],[7.0305,43.648],[7.0329,43.6468],[7.0341,43.6462],[7.0347,43.646],[7.0362,43.6458],[7.0393,43.6457],[7.0394,43.6465],[7.0409,43.6464],[7.0424,43.6462],[7.043,43.6462],[7.0443,43.6477],[7.0448,43.6475],[7.0455,43.6472],[7.0459,43.6472],[7.0461,43.6471]]]},"properties":{"id_ffco":"13383","nom":"Darbousson","_dept":"06","numero":"2008-D06-70","commune":"Valbonne","echelle":"1/7500","surface":"1.17 km²","format":"A4","annee":"2008","cartographes":"Alain Pellegry","proprietaire":"0615 - VALBONNE SOPHIA ANTIPOLIS ORIENTATION","niveau":"Départemental","specialite":"CO à pied","contacts":"VSAO, 06560, Valbonne, vsao@vsaorientation.com, http://vsaorientation.com/","latitude":"43.6505434285","longitude":"7.03766576117","date_saisie":"10/05/2022","valide":"Non","ppo":"Non","type_carte":"Nouvelle carte","fond":"IGN","obsolete":true}},{"type":"Feature","geometry":{"type":"Polygon","coordinates":[[[7.2727,43.6952],[7.2731,43.6971],[7.2732,43.6974],[7.2745,43.6977],[7.2758,43.6981],[7.2767,43.6986],[7.2775,43.6992],[7.2784,43.7],[7.2789,43.7004],[7.2795,43.7007],[7.2804,43.7004],[7.2807,43.7002],[7.2825,43.6979],[7.2829,43.6973],[7.2829,43.6967],[7.2827,43.6945],[7.2829,43.6944],[7.2827,43.6938],[7.2823,43.6936],[7.282,43.6934],[7.2818,43.6931],[7.2811,43.6928],[7.2801,43.6931],[7.2793,43.6933],[7.2791,43.6933],[7.2789,43.6934],[7.2788,43.6936],[7.2788,43.6939],[7.2783,43.6941],[7.2769,43.6944],[7.2744,43.6945],[7.2727,43.6946],[7.2727,43.6952]]]},"properties":{"id_ffco":"12149","nom":"Le Vieux Nice","_dept":"06","numero":"2005-D06-54","commune":"Nice","echelle":"1/4000","surface":"0.44 km²","format":"A4","annee":"2005","cartographes":"Michel Maréchal,Bruno MARCHEGAY","proprietaire":"06 - Alpes-Maritimes","niveau":"Départemental","specialite":"CO à pied","latitude":"43.6964767346","longitude":"7.27852980638","date_saisie":"01/10/2020","valide":"Non","ppo":"Non","type_carte":"Nouvelle carte","fond":"Cadastre","obsolete":true}},{"type":"Feature","geometry":null,"properties":{"id_ffco":"12158","nom":"Plateau de la Justice","_dept":"06","numero":"2004-D06-51","commune":"Eze","echelle":"1/5000","surface":"None km²","format":"A4","annee":"2004","cartographes":"Michel Maréchal","proprietaire":"06 - Alpes-Maritimes","niveau":"Départemental","specialite":"CO à pied","date_saisie":"04/10/2020","valide":"Non","ppo":"Non","type_carte":"Nouvelle carte","fond":"IGN","obsolete":true}},{"type":"Feature","geometry":null,"properties":{"id_ffco":"3512","nom":"PARC DES SPORTS NICE (06)","_dept":"06","numero":"2002-D06-42","commune":"Nice","echelle":"1/3500","surface":"2.0 km²","format":"A4","annee":"2002","proprietaire":"0620","specialite":"CO à pied","latitude":"43.7034273","longitude":"7.2662656","date_saisie":"07/06/2002","date_depot":"10/06/2002","valide":"Non","ppo":"Non","obsolete":true}},{"type":"Feature","geometry":{"type":"Polygon","coordinates":[[[6.8432,43.6903],[6.8426,43.6904],[6.8411,43.6901],[6.8403,43.69],[6.8385,43.6906],[6.8365,43.6912],[6.8352,43.6905],[6.8338,43.6902],[6.8317,43.6897],[6.8301,43.6893],[6.8296,43.6882],[6.8293,43.6874],[6.8284,43.6873],[6.8263,43.6879],[6.8254,43.6876],[6.8244,43.6865],[6.8239,43.686],[6.8225,43.6863],[6.8208,43.6859],[6.82,43.6852],[6.8194,43.6844],[6.8189,43.6832],[6.8164,43.6822],[6.8151,43.6823],[6.8133,43.6819],[6.812,43.6812],[6.8107,43.6803],[6.8099,43.6802],[6.8061,43.6805],[6.8055,43.6806],[6.8054,43.6804],[6.8058,43.6802],[6.806,43.6799],[6.805,43.6789],[6.8049,43.6787],[6.807,43.6781],[6.8091,43.6781],[6.8135,43.6778],[6.8163,43.6775],[6.8192,43.6773],[6.8214,43.677],[6.8241,43.6765],[6.8263,43.6764],[6.8318,43.6762],[6.8342,43.6758],[6.8381,43.6757],[6.8412,43.6756],[6.842,43.6757],[6.8421,43.6761],[6.8432,43.6765],[6.8451,43.6766],[6.8474,43.6766],[6.8499,43.6767],[6.8517,43.6763],[6.8528,43.6759],[6.8548,43.6757],[6.8563,43.6757],[6.8573,43.6754],[6.8581,43.6749],[6.8593,43.6748],[6.8605,43.6749],[6.8611,43.6749],[6.8633,43.6741],[6.8633,43.6747],[6.8615,43.6776],[6.8614,43.6794],[6.8608,43.6814],[6.8606,43.6856],[6.8604,43.6873],[6.86,43.688],[6.8594,43.6883],[6.8579,43.6891],[6.8575,43.6888],[6.8561,43.689],[6.856,43.6885],[6.8545,43.6894],[6.8525,43.6901],[6.8519,43.69],[6.8513,43.69],[6.8502,43.6903],[6.8496,43.6903],[6.8484,43.6906],[6.8465,43.6905],[6.8459,43.6905],[6.8448,43.6904],[6.844,43.6903],[6.8434,43.6904],[6.8432,43.6903]]]},"properties":{"id_ffco":"13381","nom":"Le Défends","_dept":"06","numero":"2001-D06-37","commune":"Saint Vallier de Thiey","echelle":"1/10000","surface":"5.34 km²","format":"A3","annee":"2001","cartographes":"Alain Pellegry","proprietaire":"06 - Alpes-Maritimes","niveau":"Interrégional","specialite":"CO à pied","latitude":"43.6823755492","longitude":"6.83905463031","date_saisie":"10/05/2022","valide":"Non","ppo":"Non","type_carte":"Nouvelle carte","fond":"IGN","obsolete":true}},{"type":"Feature","geometry":{"type":"Polygon","coordinates":[[[6.73,43.7662],[6.7299,43.7646],[6.73,43.7637],[6.731,43.7627],[6.7315,43.7622],[6.7314,43.7613],[6.7322,43.7606],[6.7334,43.7602],[6.7347,43.7594],[6.7363,43.7581],[6.7374,43.7573],[6.7378,43.7568],[6.7387,43.7563],[6.7398,43.7554],[6.7415,43.7544],[6.7428,43.7533],[6.7435,43.7528],[6.7451,43.7524],[6.7472,43.7513],[6.7481,43.7508],[6.7486,43.7507],[6.753,43.7494],[6.7561,43.749],[6.7582,43.7491],[6.7602,43.7491],[6.7618,43.7486],[6.7636,43.7481],[6.765,43.7484],[6.7664,43.7493],[6.7676,43.7502],[6.7688,43.7507],[6.7696,43.7511],[6.7709,43.7516],[6.7719,43.7515],[6.7735,43.7515],[6.7755,43.7509],[6.7763,43.7506],[6.777,43.7503],[6.7773,43.7513],[6.7779,43.7522],[6.7811,43.7555],[6.7818,43.7567],[6.7823,43.7572],[6.7828,43.7579],[6.7833,43.7586],[6.783,43.7603],[6.7817,43.7608],[6.7807,43.7612],[6.78,43.7625],[6.7784,43.7627],[6.7768,43.7633],[6.7745,43.7636],[6.7738,43.764],[6.7736,43.7644],[6.772,43.7645],[6.7687,43.7641],[6.7674,43.7639],[6.7659,43.763],[6.7639,43.7626],[6.7621,43.7617],[6.7596,43.7614],[6.7577,43.7617],[6.7537,43.7626],[6.7486,43.7628],[6.7468,43.7629],[6.7347,43.7657],[6.7323,43.7663],[6.7314,43.7661],[6.7304,43.7663],[6.73,43.7662]]]},"properties":{"id_ffco":"12151","nom":"LA MOULIERE","_dept":"06","numero":"2000-D06-31","commune":"Caille","echelle":"1/10000","surface":"5.13 km²","format":"A3","annee":"2000","cartographes":"Alain Pellegry","proprietaire":"06 - Alpes-Maritimes","niveau":"National, International","specialite":"CO à pied","latitude":"43.7573859127","longitude":"6.75813241848","date_saisie":"02/10/2020","valide":"Non","ppo":"Non","type_carte":"Nouvelle carte","fond":"IGN","obsolete":true}},{"type":"Feature","geometry":null,"properties":{"id_ffco":"598","nom":"LA MOULIERE - AUDIBERGUE","_dept":"06","numero":"1995-D06-19","commune":"Andon","echelle":"1/10000","surface":"12.0 km²","format":"+","annee":"1995","cartographes":"Alain Pellegry","proprietaire":"06 - Alpes-Maritimes","niveau":"National, International","specialite":"CO à pied","latitude":"43.7737925","longitude":"6.7857144","valide":"Non","ppo":"Non","type_carte":"Nouvelle carte","fond":"Ortho","obsolete":true}},{"type":"Feature","geometry":{"type":"Polygon","coordinates":[[[7.0414,43.6152],[7.0388,43.6133],[7.0358,43.6108],[7.031,43.6074],[7.0286,43.6059],[7.0272,43.6044],[7.0262,43.6033],[7.0255,43.6035],[7.0206,43.6026],[7.0205,43.6022],[7.0175,43.6004],[7.0165,43.5995],[7.0155,43.599],[7.0098,43.5989],[7.0088,43.5989],[7.0087,43.5984],[7.0084,43.5972],[7.0084,43.5943],[7.0077,43.5932],[7.0105,43.5918],[7.011,43.5918],[7.0114,43.5926],[7.0122,43.5927],[7.0202,43.5924],[7.0208,43.5915],[7.0254,43.5912],[7.0273,43.5911],[7.0319,43.5909],[7.033,43.5917],[7.0337,43.5917],[7.0342,43.5914],[7.0347,43.5913],[7.0351,43.5918],[7.0355,43.5924],[7.0368,43.5927],[7.0381,43.5932],[7.0399,43.594],[7.0404,43.594],[7.0424,43.5946],[7.0452,43.5951],[7.0475,43.5956],[7.0494,43.5963],[7.0526,43.5985],[7.0553,43.6005],[7.0542,43.6015],[7.0535,43.6021],[7.0525,43.6028],[7.0518,43.604],[7.0514,43.6045],[7.0526,43.6062],[7.0533,43.6063],[7.0557,43.6068],[7.0567,43.6069],[7.055,43.6082],[7.0535,43.6084],[7.0511,43.6096],[7.0494,43.6102],[7.0482,43.6114],[7.0472,43.6128],[7.0459,43.6132],[7.0443,43.6135],[7.0432,43.6141],[7.0421,43.6149],[7.0414,43.6152]]]},"properties":{"id_ffco":"1032","nom":"PARC DEPARTEMENTAL DE LA VALMASQUE","_dept":"06","numero":"1995-D06-17","commune":"MOUGINS","echelle":"1/15000","surface":"5.48 km²","format":"A4","annee":"1995","cartographes":"Alain Pellegry","proprietaire":"06 - Alpes-Maritimes","niveau":"Régional","specialite":"CO à pied","latitude":"43.6008779273","longitude":"7.0343248662","valide":"Non","ppo":"Non","type_carte":"Nouvelle carte","fond":"IGN","obsolete":true}},{"type":"Feature","geometry":{"type":"Polygon","coordinates":[[[6.8401,43.6915],[6.8396,43.6929],[6.8374,43.692],[6.836,43.6909],[6.8347,43.6903],[6.8316,43.6897],[6.83,43.689],[6.8293,43.6875],[6.8288,43.6873],[6.8282,43.6873],[6.8265,43.6879],[6.8256,43.6878],[6.824,43.686],[6.8227,43.6862],[6.8214,43.6861],[6.8196,43.6847],[6.8192,43.6843],[6.8188,43.6831],[6.8166,43.6822],[6.8149,43.6823],[6.8136,43.682],[6.812,43.6812],[6.8107,43.6803],[6.81,43.6801],[6.8061,43.6805],[6.8055,43.6806],[6.8055,43.6805],[6.806,43.6798],[6.8049,43.6788],[6.8053,43.6778],[6.8058,43.6772],[6.8068,43.6769],[6.8084,43.6768],[6.8097,43.6761],[6.8125,43.6752],[6.8129,43.6749],[6.8142,43.6747],[6.8161,43.6745],[6.8179,43.6741],[6.8197,43.6736],[6.8214,43.6734],[6.8229,43.6731],[6.825,43.6718],[6.8274,43.6705],[6.8285,43.6702],[6.8312,43.6697],[6.8333,43.6685],[6.8342,43.6679],[6.8354,43.6674],[6.8373,43.667],[6.8385,43.6667],[6.8401,43.6665],[6.8415,43.6632],[6.8443,43.6641],[6.8458,43.6648],[6.8466,43.6658],[6.8477,43.6664],[6.8487,43.6665],[6.8506,43.6691],[6.852,43.6698],[6.853,43.6703],[6.8539,43.6703],[6.8549,43.67],[6.8555,43.6695],[6.8546,43.6685],[6.8544,43.6682],[6.8552,43.6684],[6.8559,43.6687],[6.8587,43.6695],[6.861,43.6702],[6.8614,43.6705],[6.8619,43.6712],[6.8635,43.6722],[6.8636,43.6727],[6.8633,43.6739],[6.8633,43.6747],[6.8616,43.6774],[6.8614,43.6784],[6.8613,43.6794],[6.8609,43.6812],[6.8607,43.6838],[6.8606,43.6867],[6.8603,43.6875],[6.8599,43.6881],[6.8592,43.6882],[6.8585,43.688],[6.8577,43.6882],[6.856,43.6889],[6.854,43.6898],[6.8535,43.6899],[6.8525,43.6902],[6.8522,43.6902],[6.8515,43.6901],[6.8506,43.6902],[6.8489,43.6907],[6.8476,43.6907],[6.845,43.6904],[6.8439,43.6902],[6.8432,43.6904],[6.8424,43.6906],[6.8424,43.6913],[6.8422,43.6916],[6.8409,43.6915],[6.8401,43.6915]]]},"properties":{"id_ffco":"596","nom":"ST VALLIER","_dept":"06","numero":"1994-D06-15","commune":"Saint Vallier de Thiey","echelle":"1/15000","surface":"8.54 km²","format":"+","annee":"1994","cartographes":"Alain Pellegry","proprietaire":"06 - Alpes-Maritimes","niveau":"National, International","specialite":"CO à pied","latitude":"43.6787831449","longitude":"6.83912950811","valide":"Non","ppo":"Non","type_carte":"Nouvelle carte","fond":"IGN","obsolete":true}},{"type":"Feature","geometry":{"type":"Polygon","coordinates":[[[6.9283,43.8298],[6.9283,43.8129],[6.928,43.8072],[6.9281,43.8057],[6.9291,43.8037],[6.9316,43.8041],[6.9328,43.805],[6.9401,43.8068],[6.9428,43.8074],[6.9528,43.8088],[6.9544,43.809],[6.9553,43.8093],[6.9557,43.8097],[6.9564,43.8096],[6.9573,43.8091],[6.959,43.8097],[6.9607,43.8106],[6.9622,43.8112],[6.9661,43.8127],[6.9676,43.8131],[6.9683,43.8137],[6.9687,43.814],[6.9693,43.8142],[6.9702,43.814],[6.9713,43.8142],[6.9733,43.8146],[6.9732,43.8169],[6.9732,43.8184],[6.9736,43.8191],[6.9737,43.8203],[6.974,43.8214],[6.9741,43.8219],[6.9741,43.8223],[6.9738,43.8226],[6.9732,43.8227],[6.9724,43.8227],[6.9712,43.8296],[6.9716,43.8301],[6.9723,43.8306],[6.9708,43.831],[6.9677,43.8318],[6.9655,43.8332],[6.9636,43.8339],[6.9603,43.8339],[6.9592,43.8333],[6.9592,43.8325],[6.9594,43.8314],[6.9583,43.8303],[6.9569,43.8301],[6.954,43.8318],[6.9519,43.832],[6.9499,43.8316],[6.9481,43.8304],[6.9477,43.8292],[6.9483,43.8282],[6.9481,43.8278],[6.9476,43.8278],[6.9452,43.83],[6.943,43.8302],[6.9421,43.8302],[6.9394,43.8304],[6.937,43.83],[6.9362,43.83],[6.9339,43.8305],[6.9317,43.83],[6.9297,43.8298],[6.9283,43.8298]]]},"properties":{"id_ffco":"595","nom":"GREOLIERES LES NEIGES","_dept":"06","numero":"1993-D06-14","commune":"Gréolières","echelle":"1/15000","surface":"8.85 km²","format":"+","annee":"1993","cartographes":"Alain Pellegry","proprietaire":"06 - Alpes-Maritimes","niveau":"National, International","specialite":"CO à pied","latitude":"43.8196938041","longitude":"6.94927173797","valide":"Non","ppo":"Non","type_carte":"Nouvelle carte","fond":"IGN","obsolete":true}},{"type":"Feature","geometry":null,"properties":{"id_ffco":"594","nom":"BEUIL VALBERG Tëte de Garnier","_dept":"06","numero":"1993-D06-13","commune":"VALBERG","echelle":"1/20000","surface":"25.0 km²","format":"A3","annee":"1993","cartographes":"Alain Pellegry","proprietaire":"06 - Alpes-Maritimes","niveau":"National, International","specialite":"Raid'O","latitude":"44.0953063","longitude":"6.9292454","valide":"Non","ppo":"Non","type_carte":"Reprise","base":"1990-D06-05 BEUIL les LAUNES","fond":"IGN","obsolete":true}},{"type":"Feature","geometry":null,"properties":{"id_ffco":"1785","nom":"COLLINE DU CHATEAU","_dept":"06","numero":"1992-D06-12","commune":"NICE","echelle":"1/5000","surface":"0.2 km²","format":"A5","annee":"1992","proprietaire":"AZ - Côte d'Azur","niveau":"Initiation, Scolaire","specialite":"CO à pied","latitude":"43.7034273","longitude":"7.2662656","valide":"Non","ppo":"Non","type_carte":"Nouvelle carte","fond":"Cadastre","obsolete":true}},{"type":"Feature","geometry":{"type":"Polygon","coordinates":[[[7.2991,43.7036],[7.2978,43.7019],[7.2973,43.7009],[7.2969,43.7004],[7.2965,43.6997],[7.2967,43.698],[7.2967,43.6965],[7.2967,43.6951],[7.2974,43.6931],[7.298,43.6916],[7.2983,43.6908],[7.2981,43.6902],[7.2983,43.6896],[7.2987,43.6891],[7.2994,43.6883],[7.3001,43.688],[7.3007,43.688],[7.3012,43.6878],[7.3017,43.6877],[7.303,43.6869],[7.3035,43.6867],[7.3039,43.6866],[7.3047,43.6864],[7.3053,43.6866],[7.3062,43.6876],[7.3066,43.6881],[7.3071,43.689],[7.307,43.69],[7.3071,43.6923],[7.307,43.6933],[7.3066,43.6937],[7.3058,43.6943],[7.3051,43.6954],[7.3045,43.6954],[7.3046,43.6962],[7.3039,43.6971],[7.3034,43.6975],[7.3028,43.699],[7.3019,43.6999],[7.3008,43.7011],[7.3004,43.7017],[7.3003,43.7021],[7.3009,43.7034],[7.3004,43.7036],[7.2996,43.7035],[7.2991,43.7036]]]},"properties":{"id_ffco":"1784","nom":"MONT BORON","_dept":"06","numero":"1992-D06-11","commune":"NICE","echelle":"1/10000","surface":"1.01 km²","format":"A5","annee":"1992","cartographes":"Alain Pellegry","niveau":"Départemental","specialite":"CO à pied","latitude":"43.6941237803","longitude":"7.30147091499","valide":"Non","ppo":"Non","type_carte":"Nouvelle carte","fond":"IGN","obsolete":true}},{"type":"Feature","geometry":{"type":"Polygon","coordinates":[[[7.1317,43.6252],[7.1304,43.6253],[7.1293,43.6253],[7.1283,43.6253],[7.1278,43.6257],[7.1273,43.6259],[7.1268,43.6264],[7.1274,43.6275],[7.1281,43.6289],[7.1273,43.6286],[7.1267,43.6285],[7.126,43.6285],[7.125,43.629],[7.1227,43.6296],[7.1224,43.6295],[7.1213,43.6297],[7.1206,43.6293],[7.1199,43.6287],[7.1192,43.6284],[7.1172,43.6278],[7.1171,43.6276],[7.118,43.6269],[7.1188,43.6261],[7.1185,43.6253],[7.1182,43.6249],[7.1182,43.6242],[7.118,43.6237],[7.1181,43.6231],[7.1182,43.6225],[7.1197,43.6215],[7.121,43.6205],[7.1211,43.6203],[7.1218,43.6202],[7.1245,43.6197],[7.1262,43.6193],[7.1275,43.6187],[7.1289,43.6182],[7.1304,43.6225],[7.1317,43.6252]]]},"properties":{"id_ffco":"1783","nom":"PARC DE VAUGRENIER","_dept":"06","numero":"1992-D06-10","commune":"Villeneuve-Loubet","echelle":"1/7500","surface":"0.9 km²","format":"A5","annee":"1992","cartographes":"Alain Pellegry","proprietaire":"06 - Alpes-Maritimes","niveau":"Départemental","specialite":"CO à pied","latitude":"43.6241791438","longitude":"7.12420213917","valide":"Non","ppo":"Non","type_carte":"Nouvelle carte","fond":"IGN","obsolete":true}},{"type":"Feature","geometry":{"type":"Polygon","coordinates":[[[6.9003,43.8029],[6.9042,43.8031],[6.9061,43.8034],[6.91,43.8035],[6.9149,43.8035],[6.9222,43.8034],[6.9307,43.8032],[6.9313,43.8068],[6.931,43.8082],[6.931,43.8137],[6.9309,43.8153],[6.9308,43.8174],[6.9306,43.8201],[6.9305,43.8227],[6.9305,43.824],[6.9303,43.8266],[6.9303,43.8298],[6.9234,43.8294],[6.9175,43.8287],[6.9136,43.8279],[6.9097,43.8274],[6.9056,43.8265],[6.903,43.8258],[6.8991,43.824],[6.8972,43.8235],[6.8957,43.8226],[6.8937,43.8221],[6.8936,43.8216],[6.8937,43.8203],[6.8938,43.8199],[6.8938,43.8198],[6.8938,43.8197],[6.8937,43.8197],[6.8939,43.8192],[6.893,43.8186],[6.893,43.8176],[6.8905,43.8166],[6.8864,43.8157],[6.8838,43.8153],[6.8828,43.8154],[6.882,43.815],[6.882,43.814],[6.8822,43.8089],[6.8839,43.8087],[6.8871,43.8081],[6.8894,43.8076],[6.8919,43.8072],[6.8968,43.8036],[6.8979,43.8031],[6.8992,43.803],[6.9003,43.8029]]]},"properties":{"id_ffco":"593","nom":"PLAN DU PEYRON","_dept":"06","numero":"1990-D06-09","commune":"GREOLIERES","echelle":"1/15000","surface":"8.74 km²","format":"+","annee":"1990","cartographes":"SH O Cart","proprietaire":"06 - Alpes-Maritimes","niveau":"National, International","specialite":"CO à pied","latitude":"43.8150223264","longitude":"6.91079238304","valide":"Non","ppo":"Non","type_carte":"Nouvelle carte","fond":"IGN","obsolete":true}},{"type":"Feature","geometry":null,"properties":{"id_ffco":"1031","nom":"THORENC","_dept":"06","numero":"1991-D06-08","commune":"Andon-Thorenc","echelle":"1/15000","surface":"9.0 km²","format":"+","annee":"1991","cartographes":"Alain Pellegry","proprietaire":"06 - Alpes-Maritimes","niveau":"Interrégional","specialite":"CO à pied","latitude":"43.8052694","longitude":"6.804448","valide":"Non","ppo":"Non","type_carte":"Nouvelle carte","fond":"IGN","obsolete":true}},{"type":"Feature","geometry":{"type":"Polygon","coordinates":[[[6.8455,43.8024],[6.8446,43.8011],[6.8438,43.799],[6.8433,43.7985],[6.8431,43.7966],[6.8432,43.7949],[6.8447,43.793],[6.8463,43.7921],[6.849,43.7905],[6.8551,43.7902],[6.8616,43.7901],[6.8627,43.791],[6.865,43.791],[6.8676,43.7917],[6.8693,43.7922],[6.8735,43.7928],[6.8751,43.7932],[6.8767,43.7936],[6.8789,43.7936],[6.8802,43.7936],[6.8819,43.794],[6.8833,43.7941],[6.885,43.7939],[6.8863,43.7941],[6.889,43.7945],[6.8916,43.7949],[6.8926,43.7954],[6.8939,43.7958],[6.8956,43.7962],[6.8967,43.7965],[6.8971,43.7966],[6.8974,43.7967],[6.8975,43.7976],[6.8975,43.7999],[6.8976,43.8019],[6.8975,43.8032],[6.8921,43.8071],[6.8882,43.8078],[6.885,43.8085],[6.8831,43.8089],[6.8803,43.809],[6.8767,43.8088],[6.8749,43.8083],[6.8727,43.8081],[6.8716,43.808],[6.8689,43.8084],[6.8674,43.8083],[6.8654,43.809],[6.8634,43.809],[6.8613,43.8085],[6.8596,43.808],[6.8533,43.805],[6.8521,43.8045],[6.8488,43.8035],[6.8455,43.8024]]]},"properties":{"id_ffco":"592","nom":"BAUMOUNS","_dept":"06","numero":"1991-D06-07","commune":"GREOLIERES","echelle":"1/15000","surface":"6.91 km²","format":"A4","annee":"1991","cartographes":"Alain Pellegry","proprietaire":"06 - Alpes-Maritimes","niveau":"Régional","specialite":"CO à pied","latitude":"43.7998074106","longitude":"6.86985481879","valide":"Non","ppo":"Non","type_carte":"Nouvelle carte","fond":"IGN","obsolete":true}},{"type":"Feature","geometry":null,"properties":{"id_ffco":"1782","nom":"BEUIL les LAUNES","_dept":"06","numero":"1990-D06-06","commune":"BEUIL","echelle":"1/7500","surface":"2.0 km²","format":"A5","annee":"1990","proprietaire":"06 - Alpes-Maritimes","niveau":"Initiation, Scolaire","specialite":"CO à pied","latitude":"44.0953063","longitude":"6.9292454","valide":"Non","ppo":"Non","type_carte":"Extrait","base":"1990-D06-05 BEUIL les LAUNES","fond":"IGN","obsolete":true}},{"type":"Feature","geometry":null,"properties":{"id_ffco":"591","nom":"BEUIL les LAUNES","_dept":"06","numero":"1990-D06-05","commune":"BEUIL","echelle":"1/15000","surface":"9.0 km²","format":"A4","annee":"1990","cartographes":"Alain Pellegry","proprietaire":"06 - Alpes-Maritimes","niveau":"Régional","specialite":"CO à pied","latitude":"44.0948355","longitude":"6.9882073","valide":"Non","ppo":"Non","type_carte":"Nouvelle carte","fond":"IGN","obsolete":true}},{"type":"Feature","geometry":null,"properties":{"id_ffco":"1781","nom":"PARC DE LA VALMASQUE","_dept":"06","numero":"1987-D06-04","commune":"MOUGINS","echelle":"1/10000","surface":"2.0 km²","format":"A4","annee":"1987","cartographes":"Gerard Rasquin","proprietaire":"06 - Alpes-Maritimes","niveau":"Initiation, Scolaire","specialite":"CO à pied","latitude":"43.6000902","longitude":"6.9962192","valide":"Non","ppo":"Non","type_carte":"Nouvelle carte","fond":"IGN","obsolete":true}},{"type":"Feature","geometry":null,"properties":{"id_ffco":"1780","nom":"ILE STE MARGUERITE","_dept":"06","numero":"1987-D06-03","commune":"CANNES","echelle":"1/10000","surface":"0.3 km²","format":"+","annee":"1987","proprietaire":"06 - Alpes-Maritimes","niveau":"Départemental","specialite":"CO à pied","latitude":"43.5508939","longitude":"7.010541","valide":"Non","ppo":"Non","type_carte":"Nouvelle carte","fond":"IGN","obsolete":true}},{"type":"Feature","geometry":null,"properties":{"id_ffco":"1779","nom":"SAGNA","_dept":"06","numero":"1987-D06-02","commune":"DRAP","echelle":"1/5000","surface":"0.5 km²","annee":"1987","proprietaire":"0602","specialite":"CO à pied","latitude":"43.7548771","longitude":"7.3203433","valide":"Non","ppo":"Non","obsolete":true}},{"type":"Feature","geometry":null,"properties":{"id_ffco":"1778","nom":"PARC DE LA VALMASQUE","_dept":"06","numero":"1987-D06-01","commune":"Mougins","echelle":"1/10000","surface":"2.5 km²","format":"A4","annee":"1987","cartographes":"Gerard Rasquin","niveau":"Départemental","specialite":"CO à pied","latitude":"43.6053586195","longitude":"7.03915175916","valide":"Non","ppo":"Non","type_carte":"Nouvelle carte","fond":"IGN","obsolete":true}}]}