{"type":"FeatureCollection","features":[{"type":"Feature","geometry":{"type":"Polygon","coordinates":[[[4.2583,44.6404],[4.2581,44.6408],[4.2552,44.6408],[4.2548,44.6401],[4.254,44.639],[4.2507,44.636],[4.2495,44.6351],[4.2504,44.634],[4.2482,44.6327],[4.2512,44.631],[4.2529,44.6308],[4.2534,44.6319],[4.2545,44.6318],[4.2552,44.633],[4.2566,44.6326],[4.2579,44.6325],[4.2581,44.6337],[4.2577,44.6343],[4.2596,44.6363],[4.2598,44.6395],[4.2583,44.6404]]]},"properties":{"id_ffco":"7293","nom":"VILLAGE DE JAUJAC","_dept":"07","numero":"2013-D07-99","commune":"07380 JAUJAC,","echelle":"1/4000","surface":"0.58 km²","format":"A4","annee":"2013","cartographes":"PARDOEN Thomas","niveau":"Régional","specialite":"CO à pied","contacts":"CDCO 07, 06-85-11-63-94, cartotheque@cdco07.fr, http://cdco07.fr/","latitude":"44.63685","longitude":"4.25561","date_saisie":"13/03/2014","date_depot":"12/02/2016","valide":"Oui","ppo":"Non","type_carte":"Nouvelle carte","fond":"Cadastre","obsolete":true}},{"type":"Feature","geometry":{"type":"Polygon","coordinates":[[[4.285,44.5109],[4.2866,44.5119],[4.2902,44.5118],[4.2929,44.5095],[4.2945,44.5078],[4.2944,44.5063],[4.2938,44.5052],[4.2929,44.5046],[4.2877,44.5046],[4.2838,44.5049],[4.2807,44.5056],[4.2807,44.508],[4.2828,44.5089],[4.285,44.5109]]]},"properties":{"id_ffco":"6091","nom":"LAURAC VILLAGE","_dept":"07","numero":"2011-D07-73","commune":"LAURAC","echelle":"1/4000","surface":"0.67 km²","format":"A4","annee":"2011","cartographes":"PARDOEN Thomas","proprietaire":"07 - Ardèche","niveau":"Départemental","specialite":"CO à pied","contacts":"CDCO 07, 06-85-11-63-94, cartotheque@cdco07.fr, http://cdco07.fr/","latitude":"44.50828","longitude":"4.28761","date_saisie":"19/07/2013","date_depot":"25/07/2013","valide":"Oui","ppo":"Non","type_carte":"Nouvelle carte","fond":"Cadastre","obsolete":true}},{"type":"Feature","geometry":{"type":"Polygon","coordinates":[[[4.3426,44.5978],[4.3446,44.5978],[4.3447,44.5952],[4.3448,44.5928],[4.3448,44.5915],[4.3431,44.5914],[4.3426,44.5907],[4.3411,44.5895],[4.3398,44.5888],[4.3387,44.5878],[4.3371,44.5866],[4.3359,44.5852],[4.3353,44.5846],[4.3334,44.5842],[4.3289,44.5842],[4.3293,44.5866],[4.3298,44.5885],[4.3316,44.5904],[4.3321,44.5909],[4.3328,44.5922],[4.3322,44.5933],[4.3358,44.5948],[4.3377,44.5953],[4.3363,44.596],[4.3384,44.5979],[4.3426,44.5978]]]},"properties":{"id_ffco":"6269","nom":"AIHLON","_dept":"07","numero":"2010-D07-59","commune":"AIHLON","echelle":"1/5000","surface":"1.11 km²","format":"A4","annee":"2010","cartographes":"PARDOEN Thomas","proprietaire":"07 - Ardèche","niveau":"Départemental","specialite":"CO à pied","contacts":"CDCO 07, 06-85-11-63-94, cartotheque@cdco07.fr, http://cdco07.fr/","latitude":"44.59103","longitude":"4.33686","date_saisie":"19/07/2013","date_depot":"25/07/2013","valide":"Oui","ppo":"Non","type_carte":"Nouvelle carte","fond":"Ortho","obsolete":true}},{"type":"Feature","geometry":{"type":"Polygon","coordinates":[[[4.3263,44.5937],[4.3276,44.5974],[4.3263,44.601],[4.3227,44.6022],[4.3229,44.6035],[4.3252,44.604],[4.3255,44.6057],[4.3273,44.607],[4.3298,44.6089],[4.3295,44.61],[4.3315,44.6112],[4.3338,44.6129],[4.3351,44.6129],[4.3362,44.613],[4.3392,44.6127],[4.3435,44.6109],[4.3452,44.6082],[4.3485,44.6061],[4.3485,44.6036],[4.3465,44.6034],[4.3518,44.6013],[4.3542,44.5993],[4.3548,44.5975],[4.3551,44.5955],[4.3554,44.5904],[4.3555,44.5885],[4.3553,44.5854],[4.3518,44.5825],[4.3483,44.5816],[4.3477,44.5806],[4.3474,44.5783],[4.3485,44.5775],[4.352,44.5757],[4.3531,44.5736],[4.3523,44.571],[4.3545,44.5692],[4.3558,44.5679],[4.3547,44.5657],[4.3516,44.5641],[4.3484,44.5631],[4.3456,44.5639],[4.3439,44.564],[4.3413,44.5625],[4.3412,44.5621],[4.3232,44.5624],[4.3229,44.567],[4.3269,44.5694],[4.3253,44.572],[4.3245,44.5738],[4.3248,44.5747],[4.3272,44.5759],[4.3269,44.5787],[4.3268,44.5808],[4.3257,44.5843],[4.3251,44.5874],[4.3256,44.591],[4.3263,44.5937]]]},"properties":{"id_ffco":"6691","nom":"LE BOIS DE VOGUE","_dept":"07","numero":"2009-D07-56","commune":"AIHLON","echelle":"1/20000","surface":"11.25 km²","format":"A4","annee":"2009","cartographes":"PARDOEN Thomas","proprietaire":"07 - Ardèche","niveau":"Départemental","specialite":"CO à VTT","contacts":"CDCO 07, 06-85-11-63-94, cartotheque@cdco07.fr, http://cdco07.fr/","latitude":"44.58754","longitude":"4.33926","date_saisie":"19/07/2013","date_depot":"22/01/2016","valide":"Oui","ppo":"Non","type_carte":"Nouvelle carte","fond":"IGN","obsolete":true}},{"type":"Feature","geometry":{"type":"Polygon","coordinates":[[[4.6029,44.5575],[4.6033,44.5584],[4.6036,44.5589],[4.6039,44.5594],[4.6041,44.5599],[4.6041,44.5612],[4.6036,44.5617],[4.6031,44.5623],[4.6009,44.563],[4.6002,44.5627],[4.5996,44.5625],[4.5992,44.5621],[4.5987,44.562],[4.5986,44.5616],[4.5983,44.5612],[4.5979,44.5609],[4.6029,44.5575]]]},"properties":{"id_ffco":"5744","nom":"ALBA LA ROMAINE LES VESTIGES","_dept":"07","numero":"2009-D07-53","commune":"ALBA LA ROMAINE","echelle":"1/2500","surface":"0.17 km²","format":"A4","annee":"2009","cartographes":"CHANNAC Cédric","proprietaire":"07 - Ardèche","niveau":"Initiation, Scolaire","specialite":"CO à pied","contacts":"CDCO 07, 06-48-09-82-92, cartotheque@cdco07.fr, http://cdco07.fr/","latitude":"44.56025","longitude":"4.60102","date_saisie":"19/07/2013","date_depot":"22/01/2016","valide":"Oui","ppo":"Non","type_carte":"Nouvelle carte","fond":"Cadastre","obsolete":true}},{"type":"Feature","geometry":{"type":"Polygon","coordinates":[[[4.36,44.5029],[4.3598,44.5065],[4.3612,44.5058],[4.3624,44.5061],[4.3634,44.5077],[4.3646,44.5082],[4.3654,44.5089],[4.3659,44.5085],[4.3662,44.508],[4.3659,44.5065],[4.3646,44.5055],[4.3624,44.5041],[4.361,44.5034],[4.36,44.5029]]]},"properties":{"id_ffco":"6736","nom":"VIEL AUDON","_dept":"07","numero":"2008-D07-37","commune":"BALAZUC","echelle":"1/3000","surface":"0.14 km²","format":"A4","annee":"2008","cartographes":"MIDENA Benjamin","proprietaire":"ASSOCIATION LE MAT","niveau":"Initiation, Scolaire","specialite":"CO à pied","contacts":"ASSOCIATION LE MAT, 04 75 37 73 80, contact@levielaudon.org, http://www.levielaudon.org","latitude":"44.50586","longitude":"4.36301","date_saisie":"19/07/2013","valide":"Non","ppo":"Non","type_carte":"Nouvelle carte","fond":"Cadastre","obsolete":true}},{"type":"Feature","geometry":{"type":"Polygon","coordinates":[[[4.2887,44.526],[4.288,44.5264],[4.2872,44.5269],[4.2872,44.5264],[4.2864,44.5267],[4.2856,44.5257],[4.2844,44.5262],[4.2838,44.5255],[4.2829,44.5251],[4.2842,44.5241],[4.2849,44.5236],[4.2854,44.5235],[4.2868,44.5228],[4.2882,44.5221],[4.2889,44.5217],[4.2893,44.5217],[4.2896,44.522],[4.2899,44.5222],[4.29,44.5225],[4.2907,44.523],[4.2915,44.524],[4.2893,44.5255],[4.2892,44.5262],[4.2887,44.526]]]},"properties":{"id_ffco":"6733","nom":"LE STADE DE MONTREAL","_dept":"07","numero":"2007-D07-35","commune":"MONTREAL","echelle":"1/5000","surface":"0.2 km²","format":"A4","annee":"2007","cartographes":"MIDENA Benjamin","proprietaire":"07 - Ardèche","niveau":"Initiation, Scolaire","specialite":"CO à pied","contacts":"CDCO 07, 06-85-11-63-94, cartotheque@cdco07.fr, http://cdco07.fr/","latitude":"44.52429","longitude":"4.28762","date_saisie":"19/07/2013","valide":"Non","ppo":"Non","type_carte":"Nouvelle carte","fond":"Cadastre","obsolete":true}},{"type":"Feature","geometry":{"type":"Polygon","coordinates":[[[4.3093,44.5268],[4.3111,44.5274],[4.3122,44.5282],[4.3121,44.5294],[4.3115,44.5304],[4.311,44.5313],[4.3122,44.5331],[4.3124,44.5339],[4.3117,44.5352],[4.3111,44.5357],[4.3101,44.5363],[4.3093,44.5368],[4.3084,44.5382],[4.3079,44.5398],[4.3072,44.5403],[4.3057,44.5396],[4.3043,44.5386],[4.3031,44.5388],[4.3022,44.5389],[4.3013,44.5387],[4.3016,44.5374],[4.3022,44.5366],[4.3016,44.5352],[4.3007,44.5339],[4.3008,44.5327],[4.3001,44.5312],[4.3003,44.5303],[4.3017,44.53],[4.3012,44.529],[4.3026,44.5285],[4.3042,44.5284],[4.3093,44.5268]]]},"properties":{"id_ffco":"6719","nom":"LE COLOMBIER","_dept":"07","numero":"2007-D07-33","commune":"LARGENTIERE","echelle":"1/5000","surface":"1.0 km²","format":"A4","annee":"2007","cartographes":"Christophe Néel","proprietaire":"07 - Ardèche","niveau":"Initiation, Scolaire","specialite":"CO à pied","contacts":"CDCO 07, 06-85-11-63-94, cartotheque@cdco07.fr, http://cdco07.fr/","latitude":"44.53353","longitude":"4.30621","date_saisie":"19/07/2013","valide":"Non","ppo":"Non","type_carte":"Nouvelle carte","fond":"Ortho","obsolete":true}},{"type":"Feature","geometry":{"type":"Polygon","coordinates":[[[4.4023,45.0535],[4.4005,45.0522],[4.4019,45.0508],[4.4021,45.0474],[4.407,45.0435],[4.4026,45.043],[4.3938,45.0428],[4.3902,45.0424],[4.3865,45.0434],[4.3839,45.0434],[4.3832,45.0468],[4.3828,45.0496],[4.3841,45.0515],[4.3829,45.0548],[4.3866,45.0561],[4.3902,45.0562],[4.3927,45.0574],[4.395,45.0553],[4.3968,45.0572],[4.4023,45.0535]]]},"properties":{"id_ffco":"6726","nom":"BASE DE LOISIRS DU LAC DEVESSET Compétition","_dept":"07","numero":"2006-D07-26","commune":"DEVESSET","echelle":"1/10000","surface":"2.21 km²","format":"A4","annee":"2006","cartographes":"MAREIGNER Franz et Yann","proprietaire":"BASE DE LOISIRS DU LAC DEVESSET","niveau":"Départemental","specialite":"CO à pied","contacts":"BASE DE LOISIRS DU LAC DEVESSET, 04.75.30.00.37, base.de.loisirs@lac-de-devesset.fr, http://www.lac-de-devesset.fr/loisirs.htm","latitude":"45.04988","longitude":"4.39488","date_saisie":"19/07/2013","valide":"Non","ppo":"Non","type_carte":"Nouvelle carte","fond":"Ortho","obsolete":true}},{"type":"Feature","geometry":{"type":"Polygon","coordinates":[[[4.6342,44.3809],[4.6335,44.3809],[4.6328,44.3809],[4.6321,44.3813],[4.6314,44.3818],[4.6315,44.3823],[4.6314,44.3828],[4.6311,44.3831],[4.6312,44.3833],[4.6319,44.3834],[4.6331,44.3833],[4.634,44.3833],[4.6342,44.383],[4.6341,44.3824],[4.6342,44.3816],[4.6342,44.3809],[4.6342,44.3809]]]},"properties":{"id_ffco":"5897","nom":"STADE LILIAN THURAM","_dept":"07","numero":"2005-D07-20","commune":"BOURG-SAINT-ANDEOL","echelle":"1/2000","surface":"0.05 km²","annee":"2005","cartographes":"COUPAT Gerard","proprietaire":"2606 - LOISIR ORIENTATION UNION PIERRELATTINE","specialite":"CO à pied","contacts":"CLUB L.O.U.PIERRELATTE, 04 75 52 58 23, 06 86 40 42 35, laure.coupat@free.fr, http://loup.segustero.com/","latitude":"44.3821","longitude":"4.63293","date_saisie":"19/07/2013","valide":"Non","ppo":"Non","obsolete":true}},{"type":"Feature","geometry":{"type":"Polygon","coordinates":[[[4.5773,44.4329],[4.5804,44.4323],[4.5837,44.4234],[4.5877,44.4193],[4.5942,44.4159],[4.5977,44.4131],[4.6,44.4105],[4.5978,44.4085],[4.5968,44.4054],[4.5962,44.4023],[4.5954,44.3999],[4.5941,44.3965],[4.5921,44.3954],[4.586,44.3954],[4.5755,44.3952],[4.5582,44.3944],[4.5481,44.3938],[4.5351,44.3897],[4.5254,44.3842],[4.5221,44.3844],[4.5213,44.3848],[4.52,44.385],[4.5186,44.3848],[4.5128,44.3884],[4.511,44.3912],[4.5074,44.3921],[4.5091,44.3978],[4.5133,44.4041],[4.5152,44.4075],[4.5163,44.4089],[4.5163,44.4095],[4.515,44.4106],[4.5147,44.4112],[4.5146,44.412],[4.5158,44.4132],[4.5166,44.4146],[4.5181,44.4157],[4.5188,44.4164],[4.5139,44.4184],[4.5126,44.4191],[4.5121,44.4199],[4.5113,44.4221],[4.5104,44.4235],[4.5094,44.4244],[4.5086,44.4269],[4.511,44.4271],[4.5128,44.4278],[4.5142,44.4292],[4.5146,44.4317],[4.5161,44.4336],[4.5188,44.4381],[4.5221,44.4393],[4.5241,44.439],[4.5278,44.4371],[4.5294,44.4371],[4.5337,44.4374],[4.5365,44.4368],[4.538,44.4367],[4.5403,44.437],[4.5424,44.4377],[4.544,44.4392],[4.5476,44.4387],[4.5468,44.4358],[4.551,44.4352],[4.553,44.434],[4.5595,44.4333],[4.5662,44.4316],[4.5697,44.4323],[4.5727,44.4338],[4.5748,44.4324],[4.5773,44.4329],[4.5773,44.4329]]]},"properties":{"id_ffco":"6111","nom":"PLATEAU LE LAOUL","_dept":"07","numero":"2005-D07-18","commune":"GRAS","echelle":"1/20000","surface":"30.0 km²","annee":"2005","cartographes":"BASTARD Robert","proprietaire":"2606 - LOISIR ORIENTATION UNION PIERRELATTINE","specialite":"Rand'O","contacts":"CLUB L.O.U.PIERRELATTE, 04 75 52 58 23, 06 86 40 42 35, laure.coupat@free.fr, http://loup.segustero.com/","latitude":"44.41254","longitude":"4.55485","date_saisie":"19/07/2013","valide":"Non","ppo":"Non","obsolete":true}},{"type":"Feature","geometry":{"type":"Polygon","coordinates":[[[4.6431,44.3702],[4.6429,44.3695],[4.6429,44.3692],[4.642,44.369],[4.6417,44.3694],[4.6413,44.3699],[4.6413,44.3702],[4.6418,44.3717],[4.6438,44.3708],[4.6431,44.3702],[4.6431,44.3702]]]},"properties":{"id_ffco":"6109","nom":"PARC PRADELLE BOURG SAINT ANDEOL","_dept":"07","numero":"2005-D07-16","commune":"BOURG-SAINT-ANDEOL","echelle":"1/1000","surface":"0.03 km²","annee":"2005","cartographes":"MIDENA Benjamin","proprietaire":"2606 - LOISIR ORIENTATION UNION PIERRELATTINE","specialite":"CO à pied","contacts":"CLUB L.O.U.PIERRELATTE, 04 75 52 58 23, 06 86 40 42 35, laure.coupat@free.fr, http://loup.segustero.com/","latitude":"44.36987","longitude":"4.64214","date_saisie":"19/07/2013","valide":"Non","ppo":"Non","obsolete":true}},{"type":"Feature","geometry":{"type":"Polygon","coordinates":[[[4.6413,44.3798],[4.6417,44.38],[4.642,44.3797],[4.6424,44.3796],[4.6431,44.3789],[4.6435,44.3782],[4.6436,44.3774],[4.6436,44.3769],[4.6432,44.3769],[4.6425,44.3772],[4.6419,44.3775],[4.6417,44.3777],[4.6415,44.3782],[4.6412,44.3789],[4.6412,44.379],[4.6413,44.3798],[4.6413,44.3798]]]},"properties":{"id_ffco":"6112","nom":"PLATEAU SPORTIF LA ROCHETTE COLLEGE LE LAOUL","_dept":"07","numero":"2005-D07-15","commune":"BOURG-SAINT-ANDEOL","echelle":"1/1500","surface":"0.04 km²","annee":"2005","cartographes":"MIDENA Benjamin","proprietaire":"2606 - LOISIR ORIENTATION UNION PIERRELATTINE","specialite":"CO à pied","contacts":"CLUB L.O.U.PIERRELATTE, 04 75 52 58 23, 06 86 40 42 35, laure.coupat@free.fr, http://loup.segustero.com/","latitude":"44.37832","longitude":"4.64237","date_saisie":"19/07/2013","valide":"Non","ppo":"Non","obsolete":true}},{"type":"Feature","geometry":{"type":"Polygon","coordinates":[[[4.6427,44.3629],[4.6423,44.3618],[4.641,44.3621],[4.6408,44.3623],[4.6405,44.3625],[4.6403,44.3627],[4.6401,44.3628],[4.6407,44.3636],[4.6408,44.3635],[4.641,44.3633],[4.6413,44.3634],[4.6417,44.3634],[4.642,44.3634],[4.6424,44.3634],[4.6426,44.3632],[4.6427,44.3629],[4.6427,44.3629]]]},"properties":{"id_ffco":"6113","nom":"STADE CAMBERABERO BOURG SAINT ANDEOL","_dept":"07","numero":"2005-D07-14","commune":"BOURG-SAINT-ANDEOL","echelle":"1/1500","surface":"0.03 km²","annee":"2005","cartographes":"MIDENA Benjamin","proprietaire":"2606 - LOISIR ORIENTATION UNION PIERRELATTINE","specialite":"CO à pied","contacts":"CLUB L.O.U.PIERRELATTE, 04 75 52 58 23, 06 86 40 42 35, laure.coupat@free.fr, http://loup.segustero.com/","latitude":"44.36268","longitude":"4.64157","date_saisie":"19/07/2013","valide":"Non","ppo":"Non","obsolete":true}},{"type":"Feature","geometry":{"type":"Polygon","coordinates":[[[4.2968,44.5447],[4.2918,44.5449],[4.2923,44.5441],[4.2899,44.5437],[4.2889,44.5422],[4.2886,44.5404],[4.2891,44.5392],[4.2924,44.5392],[4.2928,44.5407],[4.2943,44.5413],[4.296,44.5419],[4.2971,44.543],[4.2968,44.5447]]]},"properties":{"id_ffco":"9973","nom":"Largentière","_dept":"07","numero":"2016-D07-135","commune":"Largentière","echelle":"1/5000","surface":"0.28 km²","format":"A4","annee":"2016","cartographes":"T.Pardoen","proprietaire":"07 - Ardèche","niveau":"Régional","specialite":"Sprint (ISSOM)","contacts":"CDCO 07, 06-48-09-82-92, cartotheque@cdco07.fr, http://cdco07.fr/","latitude":"44.5422135507","longitude":"4.29247820129","date_saisie":"12/12/2016","date_depot":"26/01/2018","valide":"Oui","ppo":"Non","type_carte":"Nouvelle carte","fond":"Cadastre","obsolete":true}},{"type":"Feature","geometry":{"type":"Polygon","coordinates":[[[4.2669,44.6833],[4.2608,44.6834],[4.2615,44.6798],[4.2648,44.6779],[4.2671,44.6781],[4.271,44.6786],[4.27,44.6802],[4.2686,44.6824],[4.2669,44.6833]]]},"properties":{"id_ffco":"10021","nom":"Meyras village","_dept":"07","numero":"2016-D07-134","commune":"Meyras","echelle":"1/4000","surface":"0.35 km²","format":"A4","annee":"2016","cartographes":"T.Pardoen","proprietaire":"07 - Ardèche","niveau":"Départemental","specialite":"Sprint (ISSOM)","contacts":"CDCO 07, 06-48-09-82-92, cartotheque@cdco07.fr, http://cdco07.fr/","latitude":"44.6807094415","longitude":"4.26556445785","date_saisie":"09/01/2017","date_depot":"01/02/2017","valide":"Oui","ppo":"Non","type_carte":"Nouvelle carte","fond":"Cadastre","obsolete":true}},{"type":"Feature","geometry":{"type":"Polygon","coordinates":[[[4.3715,44.4036],[4.371,44.3999],[4.3701,44.3994],[4.3706,44.3981],[4.3692,44.3971],[4.3666,44.3967],[4.3648,44.3957],[4.3621,44.3938],[4.3605,44.3925],[4.3595,44.3914],[4.3599,44.3899],[4.3582,44.3904],[4.356,44.3899],[4.3558,44.3891],[4.3547,44.3888],[4.3514,44.3851],[4.3501,44.3836],[4.3491,44.3816],[4.3479,44.3798],[4.346,44.3785],[4.3448,44.3806],[4.3408,44.3826],[4.3391,44.3841],[4.3375,44.3847],[4.3374,44.3865],[4.341,44.3881],[4.3419,44.3884],[4.34,44.3892],[4.3406,44.3907],[4.3415,44.3917],[4.3429,44.3917],[4.3441,44.3933],[4.3438,44.3945],[4.3457,44.3947],[4.347,44.3957],[4.3473,44.3968],[4.3496,44.3958],[4.3503,44.3974],[4.3518,44.398],[4.3506,44.4012],[4.3521,44.4026],[4.3544,44.4031],[4.3571,44.4042],[4.3633,44.4032],[4.3689,44.4032],[4.3705,44.4038],[4.3715,44.4036]]]},"properties":{"id_ffco":"6724","nom":"LE CHAT DU DEVES","_dept":"07","numero":"2003-D07-13","commune":"SALAVAS","echelle":"1/15000","surface":"3.24 km²","format":"A4","annee":"2003","cartographes":"MERCIER Bruno","proprietaire":"0704 - SUD ARDECHE ORIENTATION","specialite":"CO à pied","contacts":"CLUB SUD ARDECHE ORIENTATION Club en sommeil","latitude":"44.39135","longitude":"4.35445","date_saisie":"19/07/2013","valide":"Non","ppo":"Non","obsolete":true}},{"type":"Feature","geometry":{"type":"Polygon","coordinates":[[[4.8772,44.9447],[4.8806,44.9448],[4.8843,44.941],[4.8851,44.9361],[4.8841,44.9344],[4.8816,44.9346],[4.8818,44.9388],[4.8812,44.9415],[4.8771,44.9446],[4.8772,44.9447]]]},"properties":{"id_ffco":"5759","nom":"BORDS DU RHONE","_dept":"07","numero":"2003-D07-11","commune":"GUILHERAND-GRANGES","echelle":"1/4000","surface":"0.28 km²","annee":"2003","cartographes":"PLOCKYN Daniel","proprietaire":"26 - Drôme","specialite":"CO à pied","contacts":"CDCO 26, cdco26@free.fr, http://cdco26.free.fr/index.html","latitude":"44.93961","longitude":"4.88111","date_saisie":"19/07/2013","valide":"Non","ppo":"Non","obsolete":true}},{"type":"Feature","geometry":{"type":"Polygon","coordinates":[[[4.3875,44.6308],[4.3883,44.6292],[4.3884,44.6287],[4.3881,44.6283],[4.3877,44.6265],[4.3873,44.6261],[4.3871,44.6256],[4.3868,44.6255],[4.3865,44.6255],[4.3854,44.6261],[4.3849,44.6265],[4.3844,44.6271],[4.3834,44.6287],[4.3842,44.6292],[4.385,44.63],[4.3856,44.6311],[4.386,44.6313],[4.3864,44.6314],[4.3871,44.631],[4.3875,44.6308],[4.3875,44.6308]]]},"properties":{"id_ffco":"5892","nom":"QUARTIER ROQUA","_dept":"07","numero":"2003-D07-1005","commune":"AUBENAS","echelle":"1/2500","surface":"0.16 km²","annee":"2003","cartographes":"COUPAT Gerard","proprietaire":"CONSEIL GENERAL ARDECHE","specialite":"CO à pied","contacts":"CONSEIL GENERAL ARDECHE, 04 75 66 77 07","latitude":"44.62858","longitude":"4.38599","date_saisie":"19/07/2013","valide":"Non","ppo":"Non","obsolete":true}},{"type":"Feature","geometry":{"type":"Polygon","coordinates":[[[4.4036,44.6051],[4.4044,44.6044],[4.4049,44.6032],[4.4049,44.6029],[4.4047,44.6028],[4.4038,44.6026],[4.4033,44.6024],[4.4026,44.6026],[4.4026,44.6033],[4.4021,44.6037],[4.4012,44.604],[4.4012,44.6047],[4.4013,44.6053],[4.4018,44.6055],[4.403,44.6053],[4.4036,44.6051],[4.4036,44.6051]]]},"properties":{"id_ffco":"6139","nom":"LYCEE AGRICOLE OLIVIER DE SERRE","_dept":"07","numero":"2006-D07-1001","commune":"AUBENAS","echelle":"1/3000","surface":"0.06 km²","format":"A5","annee":"2006","cartographes":"COUPAT Gerard","proprietaire":"CONSEIL GENERAL ARDECHE","niveau":"Initiation, Scolaire","specialite":"CO à pied","contacts":"CONSEIL GENERAL ARDECHE, 04 75 66 77 07","latitude":"44.60413","longitude":"4.40316","date_saisie":"19/07/2013","valide":"Non","ppo":"Non","type_carte":"Nouvelle carte","fond":"IGN","obsolete":true}},{"type":"Feature","geometry":{"type":"Polygon","coordinates":[[[4.8355,45.0288],[4.8352,45.0289],[4.8325,45.0321],[4.8319,45.0341],[4.8315,45.0353],[4.8315,45.0368],[4.8316,45.0374],[4.8318,45.0385],[4.8356,45.0401],[4.8397,45.0417],[4.8425,45.0403],[4.8395,45.0373],[4.8385,45.0357],[4.8377,45.0341],[4.8371,45.0316],[4.8372,45.0299],[4.8375,45.0289],[4.8355,45.0288],[4.8355,45.0288]]]},"properties":{"id_ffco":"5876","nom":"LES CONDAMINES","_dept":"07","numero":"2003-D07-1000","commune":"MAUVES","echelle":"1/5000","surface":"0.63 km²","annee":"2003","cartographes":"PLEYVEL Benoît","proprietaire":"CONSEIL GENERAL ARDECHE","specialite":"CO à pied","contacts":"CONSEIL GENERAL ARDECHE, 04 75 66 77 07","latitude":"45.03659","longitude":"4.8358","date_saisie":"19/07/2013","valide":"Non","ppo":"Non","obsolete":true}},{"type":"Feature","geometry":{"type":"Polygon","coordinates":[[[4.8667,44.9304],[4.8677,44.9308],[4.8695,44.9313],[4.8694,44.9296],[4.8694,44.9287],[4.8681,44.9286],[4.867,44.9288],[4.867,44.9301],[4.8667,44.9304],[4.8667,44.9304]]]},"properties":{"id_ffco":"5775","nom":"LA BOISSONNAT","_dept":"07","numero":"2003-D07-10","commune":"GUILHERAND-GRANGES","echelle":"1/1500","surface":"0.05 km²","annee":"2003","cartographes":"PLOCKYN Daniel","proprietaire":"26 - Drôme","specialite":"CO à pied","contacts":"CDCO 26, cdco26@free.fr, http://cdco26.free.fr/index.html","latitude":"44.92998","longitude":"4.86813","date_saisie":"19/07/2013","valide":"Non","ppo":"Non","obsolete":true}},{"type":"Feature","geometry":{"type":"Polygon","coordinates":[[[4.5774,44.4349],[4.5754,44.437],[4.577,44.4372],[4.5773,44.4378],[4.5791,44.4399],[4.5828,44.4421],[4.5854,44.4441],[4.5881,44.4447],[4.5906,44.4461],[4.5913,44.446],[4.5924,44.4454],[4.5943,44.4446],[4.5955,44.4437],[4.5962,44.4432],[4.5963,44.4423],[4.5963,44.4403],[4.5969,44.4369],[4.5961,44.434],[4.5954,44.4325],[4.5944,44.4307],[4.5924,44.4289],[4.5912,44.4284],[4.59,44.4285],[4.5883,44.4287],[4.5873,44.429],[4.5874,44.4297],[4.5871,44.431],[4.5866,44.4321],[4.5854,44.4315],[4.585,44.4321],[4.5841,44.4321],[4.5829,44.4327],[4.5815,44.4328],[4.5796,44.4329],[4.5784,44.4327],[4.5772,44.4325],[4.5774,44.4349],[4.5774,44.4349]]]},"properties":{"id_ffco":"5979","nom":"DOMAINE D'IMBOURS","_dept":"07","numero":"2000-D07-08","commune":"LARNAS","echelle":"1/7500","surface":"2.08 km²","format":"A4","annee":"2000","cartographes":"COUPAT Gerard","proprietaire":"2606 - LOISIR ORIENTATION UNION PIERRELATTINE","niveau":"Régional","specialite":"CO à pied","contacts":"CLUB L.O.U.PIERRELATTE, 04 75 52 58 23, 06 86 40 42 35, laure.coupat@free.fr, http://loup.segustero.com/","latitude":"44.43743","longitude":"4.5873","date_saisie":"19/07/2013","valide":"Non","ppo":"Non","type_carte":"Nouvelle carte","fond":"IGN","obsolete":true}},{"type":"Feature","geometry":{"type":"Polygon","coordinates":[[[4.4143,44.5462],[4.4176,44.5464],[4.42,44.5457],[4.4224,44.5447],[4.4246,44.5447],[4.4293,44.5469],[4.4353,44.5502],[4.4344,44.5513],[4.4347,44.5527],[4.435,44.5536],[4.4383,44.5548],[4.4397,44.5543],[4.4403,44.5557],[4.4401,44.5568],[4.4421,44.5579],[4.4436,44.5577],[4.4441,44.5588],[4.4458,44.56],[4.4459,44.5666],[4.4084,44.5666],[4.4089,44.5515],[4.4114,44.5503],[4.4144,44.5494],[4.4153,44.5483],[4.4143,44.5462]]]},"properties":{"id_ffco":"6723","nom":"PLATEAU DES GRAS","_dept":"07","numero":"1996-D07-07","commune":"VOGUE","echelle":"1/10000","surface":"5.45 km²","format":"A4","annee":"1996","cartographes":"COTIRTA Marian","proprietaire":"LYCEE AGRICOLE O DE SERRE","specialite":"CO à pied","contacts":"LYCEE AGRICOLE O DE SERRE","latitude":"44.55565","longitude":"4.4271","date_saisie":"19/07/2013","valide":"Non","ppo":"Non","obsolete":true}},{"type":"Feature","geometry":{"type":"Polygon","coordinates":[[[4.4429,44.5846],[4.4512,44.5797],[4.4516,44.5734],[4.4493,44.5638],[4.4437,44.5579],[4.4399,44.5544],[4.4367,44.5531],[4.436,44.551],[4.4348,44.5493],[4.4283,44.5461],[4.4253,44.5477],[4.4211,44.5495],[4.419,44.5484],[4.4172,44.5482],[4.4138,44.5493],[4.4096,44.5513],[4.4096,44.5545],[4.4102,44.5585],[4.4097,44.5632],[4.4101,44.565],[4.4102,44.5662],[4.4106,44.5741],[4.4136,44.5825],[4.421,44.5905],[4.4271,44.5885],[4.4305,44.5867],[4.4371,44.5862],[4.442,44.5851],[4.4429,44.5846],[4.4429,44.5846]]]},"properties":{"id_ffco":"6186","nom":"PLATEAU DES GRAS","_dept":"07","numero":"1996-D07-06","commune":"LAVILLEDIEU - VOGUE","echelle":"1/15000","surface":"12.0 km²","annee":"1996","cartographes":"COTIRTA Marian","proprietaire":"LYCEE AGRICOLE O DE SERRE","specialite":"CO à pied","contacts":"LYCEE AGRICOLE O DE SERRE","latitude":"44.57392","longitude":"4.43164","date_saisie":"19/07/2013","valide":"Non","ppo":"Non","obsolete":true}},{"type":"Feature","geometry":{"type":"Polygon","coordinates":[[[4.4106,44.3668],[4.4101,44.3651],[4.4085,44.3642],[4.4088,44.363],[4.4083,44.3615],[4.4068,44.3607],[4.4114,44.3584],[4.4145,44.3565],[4.4146,44.3558],[4.4135,44.3545],[4.4125,44.3538],[4.4099,44.3546],[4.4091,44.3541],[4.4087,44.3534],[4.4056,44.3538],[4.4031,44.3547],[4.4024,44.354],[4.4021,44.353],[4.401,44.3519],[4.3996,44.3521],[4.3989,44.3534],[4.3967,44.3544],[4.3956,44.3565],[4.3945,44.3582],[4.3927,44.359],[4.3923,44.3594],[4.3943,44.3612],[4.3985,44.3631],[4.3999,44.3647],[4.4015,44.3651],[4.4042,44.3657],[4.4068,44.366],[4.4106,44.3668],[4.4106,44.3668]]]},"properties":{"id_ffco":"6193","nom":"LE GRAS","_dept":"07","numero":"1995-D07-05","commune":"LA BASTIDE DE VIRAC","echelle":"1/15000","surface":"1.57 km²","annee":"1995","cartographes":"DEVRIEUX Michel","proprietaire":"07 - Ardèche","specialite":"CO à pied","contacts":"CDCO 07, 06-85-11-63-94, cartotheque@cdco07.fr, http://cdco07.fr/","latitude":"44.35803","longitude":"4.40243","date_saisie":"19/07/2013","valide":"Non","ppo":"Non","obsolete":true}},{"type":"Feature","geometry":{"type":"Polygon","coordinates":[[[4.6534,44.8965],[4.6533,44.897],[4.6521,44.8977],[4.6519,44.8991],[4.6551,44.9],[4.6582,44.9007],[4.6591,44.9025],[4.6596,44.9031],[4.6604,44.9032],[4.6621,44.9031],[4.6634,44.9026],[4.6634,44.9028],[4.6635,44.9035],[4.6636,44.9037],[4.6648,44.9042],[4.6656,44.9032],[4.6684,44.9024],[4.6707,44.9026],[4.6718,44.9019],[4.6725,44.9019],[4.6707,44.8999],[4.6736,44.9005],[4.6748,44.9005],[4.6745,44.9],[4.6731,44.899],[4.6719,44.8982],[4.6736,44.8976],[4.674,44.896],[4.6747,44.8955],[4.6747,44.8949],[4.6724,44.8936],[4.6707,44.8918],[4.6686,44.8918],[4.6668,44.8931],[4.6656,44.8948],[4.6645,44.8951],[4.6639,44.8959],[4.6626,44.8958],[4.6613,44.8954],[4.6588,44.8956],[4.656,44.8961],[4.6538,44.8961],[4.6534,44.8962],[4.6534,44.8965],[4.6534,44.8965]]]},"properties":{"id_ffco":"6100","nom":"LE BOIS DU FOUR","_dept":"07","numero":"1992-D07-04","commune":"VERNOUX-EN-VIVARAIS","echelle":"1/10000","surface":"1.35 km²","annee":"1992","cartographes":"ANTOINE Alain","proprietaire":"2605 - VALENCE SPORTS ORIENTATION","specialite":"CO à pied","contacts":"CLUB VALENCE SPORT ORIENTATION, 04 75 59 20 81, vso.2605@free.fr, http://www.valence-sports-orientation.fr/","latitude":"44.89946","longitude":"4.66457","date_saisie":"19/07/2013","valide":"Non","ppo":"Non","obsolete":true}},{"type":"Feature","geometry":{"type":"Polygon","coordinates":[[[4.5903,44.4459],[4.5893,44.4449],[4.586,44.4441],[4.5789,44.4396],[4.5764,44.4369],[4.5764,44.4333],[4.576,44.4304],[4.5803,44.4288],[4.5836,44.4279],[4.5843,44.4274],[4.5882,44.4276],[4.5904,44.428],[4.5962,44.4355],[4.5971,44.4438],[4.5964,44.4438],[4.5959,44.4433],[4.5949,44.4439],[4.5944,44.4444],[4.5925,44.4447],[4.5917,44.445],[4.5912,44.4458],[4.5903,44.4459]]]},"properties":{"id_ffco":"6722","nom":"DOMAINE D'IMBOURS","_dept":"07","numero":"1993-D07-03","commune":"LARNAS","echelle":"1/7500","surface":"2.41 km²","format":"A4","annee":"1993","cartographes":"BOSONI Jacques","proprietaire":"07 - Ardèche","specialite":"CO à pied","contacts":"CDCO 07, 06-85-11-63-94, cartotheque@cdco07.fr, http://cdco07.fr/","latitude":"44.43668","longitude":"4.58656","date_saisie":"19/07/2013","valide":"Non","ppo":"Non","obsolete":true}},{"type":"Feature","geometry":{"type":"Polygon","coordinates":[[[4.3861,44.3874],[4.3938,44.3844],[4.3996,44.3852],[4.4023,44.3847],[4.4055,44.3871],[4.4059,44.3659],[4.3964,44.3628],[4.392,44.3586],[4.3899,44.3544],[4.3867,44.3552],[4.3794,44.3554],[4.3716,44.3591],[4.3683,44.3633],[4.3689,44.3667],[4.3669,44.3679],[4.37,44.3732],[4.3705,44.3761],[4.3704,44.378],[4.3754,44.3808],[4.3797,44.3839],[4.3841,44.3867],[4.3861,44.3874]]]},"properties":{"id_ffco":"6390","nom":"LES BRUGIERES","_dept":"07","numero":"1984-D07-02","commune":"VALLON-PONT-D'ARC","echelle":"1/15000","surface":"8.13 km²","annee":"1984","cartographes":"DEVRIEUX Michel","proprietaire":"SANS ADRESSE","specialite":"CO à pied","contacts":"SANS ADRESSE","latitude":"44.3716","longitude":"4.38234","date_saisie":"19/07/2013","valide":"Non","ppo":"Non","obsolete":true}},{"type":"Feature","geometry":{"type":"Polygon","coordinates":[[[4.376,44.3812],[4.3789,44.3832],[4.3805,44.3822],[4.3813,44.3838],[4.3845,44.3861],[4.3849,44.3875],[4.3868,44.3873],[4.3912,44.3855],[4.3977,44.3852],[4.4038,44.386],[4.4049,44.3861],[4.4069,44.3656],[4.3949,44.3605],[4.3909,44.3581],[4.391,44.3543],[4.3872,44.3553],[4.3823,44.3554],[4.379,44.3557],[4.3712,44.3595],[4.3686,44.3631],[4.3693,44.3665],[4.3671,44.3678],[4.37,44.3729],[4.3707,44.3764],[4.3708,44.3782],[4.3721,44.3785],[4.376,44.3812]]]},"properties":{"id_ffco":"6389","nom":"VALLON LA  GOULE","_dept":"07","numero":"1980-D07-01","commune":"VALLON-PONT-D'ARC","echelle":"1/15000","surface":"8.23 km²","annee":"1980","cartographes":"DEVRIEUX Michel","proprietaire":"SANS ADRESSE","specialite":"CO à pied","contacts":"SANS ADRESSE","latitude":"44.37088","longitude":"4.387","date_saisie":"19/07/2013","valide":"Non","ppo":"Non","obsolete":true}},{"type":"Feature","geometry":{"type":"Polygon","coordinates":[[[4.2016,44.3985],[4.1997,44.4025],[4.1999,44.4062],[4.2013,44.4089],[4.1999,44.4118],[4.2009,44.415],[4.1979,44.4185],[4.1998,44.4259],[4.203,44.4243],[4.206,44.4245],[4.2076,44.425],[4.2108,44.425],[4.2132,44.4244],[4.2161,44.4235],[4.2191,44.4221],[4.2194,44.42],[4.2201,44.4196],[4.219,44.4181],[4.221,44.4133],[4.223,44.4059],[4.2214,44.4029],[4.2254,44.401],[4.2266,44.3993],[4.2239,44.3952],[4.209,44.3965],[4.2051,44.3963],[4.2033,44.3978],[4.2016,44.3985]]]},"properties":{"id_ffco":"6387","nom":"CASTELJAU","_dept":"07","numero":"1980-D07-00","commune":"CASTELJAU","echelle":"1/10000","surface":"5.43 km²","annee":"1980","cartographes":"ROBERT Thierry","proprietaire":"SARL CHAULET PLAGE","specialite":"CO à pied","contacts":"SARL CHAULET PLAGE, 04 75 39 01 36, contact@chaulet-plage.com","latitude":"44.41055","longitude":"4.21225","date_saisie":"19/07/2013","valide":"Non","ppo":"Non","obsolete":true}}]}