{"type":"FeatureCollection","features":[{"type":"Feature","geometry":{"type":"Polygon","coordinates":[[[1.3384,43.0593],[1.3381,43.0603],[1.3386,43.0612],[1.3395,43.0615],[1.34,43.0621],[1.339,43.0629],[1.3306,43.0693],[1.3298,43.0699],[1.3245,43.0739],[1.3215,43.0779],[1.3199,43.0799],[1.3188,43.0804],[1.3187,43.0808],[1.3187,43.0822],[1.3194,43.0842],[1.3204,43.0852],[1.3215,43.086],[1.3219,43.0866],[1.3197,43.0923],[1.3334,43.092],[1.3359,43.092],[1.3376,43.0921],[1.3391,43.0925],[1.3408,43.0927],[1.342,43.0926],[1.344,43.0927],[1.346,43.0925],[1.3477,43.0923],[1.3489,43.0921],[1.3485,43.0916],[1.3486,43.091],[1.349,43.0902],[1.3494,43.0895],[1.3497,43.0888],[1.3506,43.0877],[1.3511,43.0876],[1.3516,43.0871],[1.3523,43.0868],[1.353,43.0859],[1.3533,43.0851],[1.3529,43.0845],[1.3527,43.0841],[1.3525,43.0823],[1.3522,43.0819],[1.3516,43.0817],[1.3515,43.081],[1.3512,43.0804],[1.3516,43.0795],[1.352,43.0786],[1.352,43.078],[1.3519,43.0775],[1.3523,43.0771],[1.3529,43.0769],[1.3519,43.0761],[1.3516,43.0747],[1.3511,43.0737],[1.3529,43.0725],[1.3536,43.0714],[1.3535,43.0704],[1.3534,43.0697],[1.3533,43.0691],[1.3536,43.0682],[1.3523,43.0676],[1.3502,43.0668],[1.3489,43.0663],[1.3472,43.065],[1.3474,43.0646],[1.3467,43.0636],[1.3461,43.0628],[1.3459,43.0619],[1.3433,43.0612],[1.3405,43.0602],[1.3388,43.0599],[1.3384,43.0593]]]},"properties":{"id_ffco":"800","nom":"CROUZELLES","_dept":"09","numero":"1988-D09-09","commune":"MAS AZIL","echelle":"1/15000","surface":"7.12 km²","format":"A4","annee":"1988","cartographes":"COLLET WILLIAM,Nadège et James","proprietaire":"09 - Ariège","niveau":"Interrégional","specialite":"CO à pied","latitude":"43.0790188742","longitude":"1.33758495447","valide":"Oui","ppo":"Non","type_carte":"Nouvelle carte","fond":"IGN","ref_ign":"MAS D' AZIL","obsolete":false}},{"type":"Feature","geometry":{"type":"Polygon","coordinates":[[[1.4496,43.0187],[1.4492,43.0191],[1.4476,43.0202],[1.4472,43.0209],[1.4478,43.0225],[1.4471,43.0232],[1.4464,43.024],[1.4454,43.0244],[1.4446,43.0247],[1.4456,43.0309],[1.4464,43.0317],[1.4475,43.0325],[1.449,43.0335],[1.4498,43.0339],[1.451,43.0345],[1.452,43.0343],[1.4531,43.0338],[1.4537,43.0332],[1.4587,43.033],[1.4587,43.0321],[1.4589,43.0312],[1.4592,43.0305],[1.4602,43.0306],[1.461,43.0307],[1.4632,43.0301],[1.4648,43.0299],[1.4657,43.0296],[1.4667,43.0292],[1.4666,43.0282],[1.4667,43.0279],[1.4667,43.0271],[1.4667,43.0265],[1.4677,43.0263],[1.4694,43.0259],[1.4714,43.0255],[1.4714,43.0258],[1.4718,43.0269],[1.4728,43.0274],[1.4732,43.0278],[1.4738,43.0279],[1.4748,43.0277],[1.4749,43.0258],[1.4761,43.0255],[1.4765,43.0254],[1.4767,43.0253],[1.4793,43.0213],[1.4798,43.0212],[1.4807,43.0206],[1.4813,43.0199],[1.4815,43.019],[1.4818,43.0186],[1.4813,43.0161],[1.4773,43.0155],[1.4754,43.0153],[1.4749,43.0151],[1.4736,43.0151],[1.4731,43.0153],[1.4726,43.0152],[1.4723,43.0153],[1.4716,43.0162],[1.4699,43.0157],[1.4679,43.0157],[1.4656,43.0162],[1.4647,43.0167],[1.4641,43.017],[1.4632,43.0169],[1.4613,43.0174],[1.4589,43.0181],[1.4581,43.0185],[1.4576,43.0191],[1.4563,43.0194],[1.455,43.0196],[1.4535,43.0193],[1.4508,43.0189],[1.4496,43.0187]]]},"properties":{"id_ffco":"2467","nom":"LES PLAIGNES","_dept":"09","numero":"1987-D09-08","commune":"CADARCET","echelle":"1/10000","surface":"3.83 km²","format":"A4","annee":"1987","cartographes":"COLLET WILLIAM","proprietaire":"09 - Ariège","niveau":"Interrégional","specialite":"CO à pied","latitude":"43.0238330648","longitude":"1.46183034214","valide":"Oui","ppo":"Non","type_carte":"Nouvelle carte","fond":"IGN","ref_ign":"FOIX PAMIERS","obsolete":false}},{"type":"Feature","geometry":{"type":"Polygon","coordinates":[[[1.4827,42.7801],[1.4817,42.7799],[1.4823,42.7794],[1.4826,42.7789],[1.4818,42.7788],[1.4809,42.779],[1.4802,42.7794],[1.4799,42.7789],[1.4811,42.7778],[1.4821,42.7774],[1.4835,42.7763],[1.4849,42.7752],[1.4829,42.7756],[1.483,42.7748],[1.4834,42.7732],[1.4833,42.7717],[1.4835,42.77],[1.4836,42.7692],[1.485,42.769],[1.4853,42.7684],[1.4855,42.7678],[1.4856,42.7673],[1.4867,42.7669],[1.4875,42.7669],[1.4886,42.7668],[1.4896,42.7666],[1.4911,42.7661],[1.4912,42.7652],[1.4938,42.7641],[1.4953,42.7638],[1.497,42.7639],[1.4992,42.7645],[1.4992,42.7651],[1.4996,42.7655],[1.5011,42.766],[1.503,42.7667],[1.5029,42.7678],[1.5037,42.7684],[1.5044,42.7691],[1.5061,42.77],[1.5079,42.7707],[1.5097,42.7714],[1.5113,42.7723],[1.5123,42.7728],[1.5132,42.7735],[1.5141,42.7744],[1.5133,42.7754],[1.512,42.7763],[1.5108,42.7771],[1.5086,42.7784],[1.5095,42.7787],[1.5102,42.7791],[1.511,42.779],[1.5117,42.779],[1.5124,42.7792],[1.5125,42.7794],[1.5126,42.7796],[1.5123,42.7798],[1.5129,42.7799],[1.5124,42.7801],[1.512,42.7803],[1.5105,42.7803],[1.5096,42.7811],[1.508,42.7812],[1.5068,42.7816],[1.5055,42.7816],[1.5045,42.7815],[1.504,42.7818],[1.5026,42.7814],[1.5012,42.781],[1.4995,42.7804],[1.4982,42.7791],[1.4977,42.7781],[1.4971,42.7774],[1.4963,42.7769],[1.4952,42.7763],[1.4943,42.7757],[1.4925,42.7757],[1.4916,42.7754],[1.4899,42.7755],[1.4881,42.7761],[1.4875,42.777],[1.4873,42.7776],[1.4865,42.778],[1.4852,42.7784],[1.4841,42.779],[1.4827,42.7801]]]},"properties":{"id_ffco":"2466","nom":"VEXANE","_dept":"09","numero":"1986-D09-07","commune":"VICDESSOS","echelle":"1/10000","surface":"3.05 km²","format":"A4","annee":"1986","cartographes":"COLLET WILLIAM,COLLET Colette","proprietaire":"09 - Ariège","niveau":"Interrégional","specialite":"CO à pied","latitude":"42.7730336224","longitude":"1.49764291316","date_depot":"28/07/2015","valide":"Oui","ppo":"Oui (38 postes)","type_carte":"Nouvelle carte","fond":"IGN","obsolete":false}},{"type":"Feature","geometry":{"type":"Polygon","coordinates":[[[1.9515,42.8889],[1.9514,42.8902],[1.9512,42.892],[1.9509,42.8936],[1.9511,42.8949],[1.9513,42.8961],[1.952,42.8971],[1.9529,42.8977],[1.9542,42.8982],[1.9558,42.8984],[1.9569,42.8983],[1.9576,42.8973],[1.9582,42.8967],[1.9582,42.896],[1.959,42.8955],[1.9593,42.8948],[1.9603,42.8947],[1.9621,42.8945],[1.9632,42.894],[1.966,42.8941],[1.9674,42.8955],[1.9685,42.8963],[1.9692,42.8972],[1.9705,42.8979],[1.9717,42.8984],[1.9723,42.8986],[1.9737,42.899],[1.9754,42.8996],[1.9763,42.9001],[1.9775,42.9005],[1.9786,42.9008],[1.9798,42.901],[1.9817,42.9011],[1.9823,42.8998],[1.9841,42.8997],[1.9854,42.8997],[1.984,42.8993],[1.9829,42.8989],[1.9823,42.8984],[1.9823,42.8954],[1.9823,42.8942],[1.9824,42.8907],[1.9826,42.8895],[1.9829,42.8889],[1.9824,42.8875],[1.982,42.8867],[1.9825,42.8852],[1.9826,42.883],[1.9812,42.8786],[1.9857,42.8729],[1.987,42.8708],[1.984,42.8726],[1.9839,42.8716],[1.9818,42.8706],[1.9808,42.87],[1.978,42.8697],[1.9752,42.869],[1.9726,42.8681],[1.971,42.8662],[1.9687,42.8647],[1.9673,42.8639],[1.9657,42.8638],[1.9632,42.8637],[1.9618,42.863],[1.9604,42.8625],[1.9563,42.8622],[1.9547,42.8615],[1.9535,42.8611],[1.9533,42.8617],[1.9542,42.8627],[1.9547,42.8634],[1.9547,42.8648],[1.9544,42.8656],[1.9529,42.866],[1.9508,42.8662],[1.9497,42.8662],[1.9492,42.8668],[1.9484,42.8671],[1.9487,42.8737],[1.9499,42.8742],[1.9507,42.8745],[1.9506,42.8755],[1.9499,42.8763],[1.9495,42.8771],[1.9495,42.8782],[1.95,42.8795],[1.9496,42.8803],[1.9494,42.882],[1.9489,42.8836],[1.9491,42.8849],[1.9494,42.886],[1.9515,42.8889]]]},"properties":{"id_ffco":"1412","nom":"LE PASTURAL","_dept":"09","numero":"1986-D09-06","commune":"BELESTA","echelle":"1/15000","surface":"9.48 km²","format":"A4","annee":"1986","cartographes":"COLLET WILLIAM,COLLET Colette","proprietaire":"0901","niveau":"Interrégional","specialite":"CO à pied","latitude":"42.8812842501","longitude":"1.96604765342","date_depot":"28/07/2015","valide":"Oui","ppo":"Non","type_carte":"Nouvelle carte","fond":"IGN","obsolete":false}},{"type":"Feature","geometry":{"type":"Polygon","coordinates":[[[1.6191,42.8283],[1.6166,42.8279],[1.616,42.829],[1.6158,42.83],[1.6155,42.8302],[1.6136,42.8308],[1.6124,42.8315],[1.6114,42.8325],[1.6098,42.8331],[1.6092,42.8339],[1.609,42.8348],[1.6093,42.8356],[1.61,42.8357],[1.6115,42.8356],[1.6128,42.8352],[1.6142,42.8347],[1.6154,42.8344],[1.6168,42.8333],[1.6176,42.8322],[1.6189,42.8317],[1.6196,42.8314],[1.6202,42.8309],[1.6199,42.8303],[1.6195,42.8297],[1.6193,42.8292],[1.6195,42.8287],[1.6192,42.8283],[1.6191,42.8283]]]},"properties":{"id_ffco":"2465","nom":"COL PAOULO - USSAT","_dept":"09","numero":"1986-D09-05","commune":"TARASCON","echelle":"1/5000","surface":"0.36 km²","format":"A4","annee":"1986","cartographes":"COLLET Nadege","proprietaire":"0901","niveau":"Régional","specialite":"CO à pied","latitude":"42.8321265924","longitude":"1.61476598714","valide":"Oui","ppo":"Non","type_carte":"Nouvelle carte","fond":"IGN","obsolete":false}},{"type":"Feature","geometry":null,"properties":{"id_ffco":"1411","nom":"FORET ARES","_dept":"09","numero":"1983-D09-04","commune":"QUERIGUT","echelle":"1/15000","surface":"6.0 km²","format":"A4","annee":"1983","cartographes":"COLLET WILLIAM","proprietaire":"SSE","niveau":"Interrégional","specialite":"CO à pied","latitude":"42.6983637","longitude":"2.0987174","valide":"Non","ppo":"Non","type_carte":"Nouvelle carte","fond":"IGN","obsolete":false}},{"type":"Feature","geometry":{"type":"Polygon","coordinates":[[[2.13,42.6926],[2.1289,42.6936],[2.1266,42.6939],[2.1236,42.6944],[2.123,42.6951],[2.1247,42.696],[2.1244,42.697],[2.1224,42.6966],[2.1211,42.6958],[2.1186,42.6956],[2.1183,42.6962],[2.1187,42.6969],[2.1195,42.6983],[2.1183,42.6995],[2.1179,42.7017],[2.1169,42.7018],[2.1162,42.7023],[2.1153,42.7023],[2.1142,42.7016],[2.1137,42.7006],[2.1117,42.7001],[2.1107,42.6992],[2.1098,42.6986],[2.1087,42.6985],[2.1076,42.698],[2.1054,42.6992],[2.103,42.6998],[2.1004,42.6985],[2.0983,42.6983],[2.0989,42.6972],[2.0986,42.6963],[2.0991,42.6958],[2.0992,42.6939],[2.0992,42.692],[2.1011,42.6906],[2.1015,42.6896],[2.1022,42.6893],[2.1052,42.6877],[2.107,42.6875],[2.1078,42.6861],[2.1095,42.6857],[2.1124,42.6842],[2.116,42.6837],[2.1187,42.6826],[2.1205,42.6831],[2.1221,42.6829],[2.1249,42.6832],[2.1258,42.6819],[2.1267,42.6822],[2.1277,42.6816],[2.1307,42.6793],[2.1325,42.6808],[2.1347,42.6825],[2.1335,42.6829],[2.133,42.6837],[2.1322,42.6841],[2.1323,42.6855],[2.1327,42.6869],[2.1336,42.6881],[2.1339,42.6895],[2.134,42.6915],[2.1331,42.6925],[2.13,42.6926]]]},"properties":{"id_ffco":"14004","nom":"Col des Hares","_dept":"09","numero":"2023-D09-035","commune":"Quérigut","echelle":"1/10000","surface":"4.07 km²","format":"A3","annee":"2023","cartographes":"Léo Falcone","proprietaire":"8104 - AZIMUT ORIENTATION CASTRES","niveau":"National, International","specialite":"CO à pied","latitude":"42.6909522157","longitude":"2.11675505335","date_saisie":"23/07/2023","date_depot":"12/02/2025","valide":"Oui","ppo":"Non","type_carte":"Nouvelle carte","fond":"Laser","obsolete":false}},{"type":"Feature","geometry":{"type":"Polygon","coordinates":[[[1.8593,42.9484],[1.8581,42.9458],[1.8541,42.94],[1.8551,42.9395],[1.8581,42.9391],[1.8646,42.9384],[1.8698,42.9376],[1.8727,42.9373],[1.8734,42.9364],[1.8734,42.9356],[1.8742,42.9343],[1.8754,42.9343],[1.8765,42.9344],[1.8782,42.9348],[1.8797,42.9353],[1.8815,42.9354],[1.8824,42.9353],[1.8838,42.9353],[1.8851,42.9355],[1.8846,42.9362],[1.8842,42.9367],[1.885,42.9371],[1.8857,42.9376],[1.8853,42.9383],[1.8852,42.9387],[1.8859,42.9395],[1.8886,42.9395],[1.8884,42.9411],[1.8878,42.9417],[1.8869,42.9423],[1.8858,42.9436],[1.8858,42.9444],[1.8843,42.9445],[1.8831,42.944],[1.8776,42.944],[1.8691,42.9462],[1.8664,42.947],[1.8648,42.9477],[1.8651,42.9484],[1.8588,42.9491],[1.8593,42.9484]]]},"properties":{"id_ffco":"13462","nom":"DREUILHE \"2\"","_dept":"09","numero":"2022-D09-034","commune":"LAVELANET","echelle":"1/10000","surface":"2.47 km²","format":"A4","annee":"2022","cartographes":"Olivier THOMAS","proprietaire":"8105 - BALISE ORIENTATION ALBIGEOISE","niveau":"Interrégional","specialite":"CO à pied","latitude":"42.9414020061","longitude":"1.87127876834","date_saisie":"15/07/2022","date_depot":"21/09/2022","valide":"Oui","ppo":"Non","type_carte":"Reprise","base":"2013-D09-016 VOIE VERTE DREUILLE","fond":"Ortho","obsolete":false}},{"type":"Feature","geometry":{"type":"Polygon","coordinates":[[[1.7541,42.9373],[1.7525,42.9383],[1.752,42.9388],[1.752,42.9394],[1.7518,42.94],[1.7513,42.9404],[1.7506,42.9407],[1.7506,42.9411],[1.749,42.9421],[1.7478,42.9426],[1.7465,42.943],[1.7462,42.9439],[1.7462,42.9448],[1.7465,42.9455],[1.7469,42.9461],[1.7481,42.947],[1.7485,42.9476],[1.7491,42.9477],[1.7496,42.9475],[1.7502,42.9476],[1.7509,42.9479],[1.751,42.948],[1.7516,42.948],[1.7521,42.9482],[1.7524,42.9494],[1.7524,42.95],[1.7518,42.9505],[1.7514,42.9509],[1.7514,42.9516],[1.752,42.9522],[1.7535,42.9521],[1.7552,42.9518],[1.7584,42.9509],[1.759,42.9506],[1.7583,42.9487],[1.7579,42.9479],[1.7567,42.9479],[1.7563,42.9476],[1.7563,42.947],[1.7565,42.9461],[1.757,42.9456],[1.7573,42.9452],[1.757,42.9447],[1.7577,42.9444],[1.7582,42.944],[1.7578,42.9434],[1.7564,42.9427],[1.7561,42.9425],[1.7567,42.9424],[1.7572,42.9425],[1.7574,42.9422],[1.7579,42.9416],[1.7586,42.9414],[1.7603,42.9407],[1.76,42.9404],[1.7599,42.9402],[1.7591,42.9405],[1.7583,42.9384],[1.758,42.9383],[1.7565,42.9386],[1.7561,42.939],[1.7558,42.9387],[1.7555,42.9384],[1.7549,42.9384],[1.7546,42.938],[1.7541,42.9373]]]},"properties":{"id_ffco":"13461","nom":"CAP DE ROUQUET","_dept":"09","numero":"2022-D09-033","commune":"ROQUEFIXADE","echelle":"1/10000","surface":"1.01 km²","format":"A4","annee":"2022","cartographes":"Olivier THOMAS","proprietaire":"8105 - BALISE ORIENTATION ALBIGEOISE","niveau":"Interrégional","specialite":"CO à pied","latitude":"42.9447808808","longitude":"1.75347017695","date_saisie":"15/07/2022","date_depot":"21/09/2022","valide":"Oui","ppo":"Non","type_carte":"Nouvelle carte","fond":"Ortho","obsolete":false}},{"type":"Feature","geometry":{"type":"Polygon","coordinates":[[[1.8681,42.9764],[1.8657,42.9683],[1.8665,42.9682],[1.8664,42.9673],[1.8669,42.9672],[1.8669,42.9669],[1.8688,42.9666],[1.8686,42.9663],[1.8704,42.9662],[1.8709,42.9674],[1.8718,42.9672],[1.8724,42.9673],[1.8724,42.9681],[1.8731,42.9686],[1.8742,42.9698],[1.8754,42.9702],[1.8761,42.9714],[1.8736,42.972],[1.8722,42.9728],[1.871,42.9742],[1.8713,42.9749],[1.8695,42.9755],[1.8696,42.9758],[1.8689,42.9762],[1.8681,42.9764]]]},"properties":{"id_ffco":"13460","nom":"LAROQUE D'OLMES","_dept":"09","numero":"2022-D09-032","commune":"LAROQUE D'OLMES","echelle":"1/4000","surface":"0.51 km²","format":"A4","annee":"2022","cartographes":"Léo Falcone","proprietaire":"8105 - BALISE ORIENTATION ALBIGEOISE","niveau":"Interrégional","specialite":"CO à pied","latitude":"42.9707535262","longitude":"1.86997034752","date_saisie":"15/07/2022","date_depot":"21/09/2022","valide":"Oui","ppo":"Non","type_carte":"Nouvelle carte","fond":"Ortho","obsolete":false}},{"type":"Feature","geometry":{"type":"Polygon","coordinates":[[[1.75,42.8455],[1.7477,42.8421],[1.7461,42.8424],[1.7456,42.8415],[1.7437,42.8406],[1.7411,42.8427],[1.7398,42.8442],[1.7379,42.8452],[1.7377,42.8471],[1.7386,42.8475],[1.7398,42.8468],[1.7425,42.8467],[1.7447,42.8463],[1.7458,42.8455],[1.7484,42.8465],[1.7486,42.8458],[1.75,42.8455]]]},"properties":{"id_ffco":"13328","nom":"Monts d'Olmes","_dept":"09","numero":"2022-D09-031","commune":"Montferrier","echelle":"1/5000","surface":"0.41 km²","format":"A4","annee":"2022","cartographes":"Ray Hulse","proprietaire":"Station de Ski des Monts d'Olmes","niveau":"Initiation, Scolaire","specialite":"CO à pied","contacts":"Station de ski des Monts d'Olmes (billeterie)","latitude":"42.844337773","longitude":"1.74372490712","date_saisie":"01/04/2022","date_depot":"12/01/2023","valide":"Oui","ppo":"Oui (25 postes)","type_carte":"Nouvelle carte","fond":"Ortho","obsolete":false}},{"type":"Feature","geometry":{"type":"Polygon","coordinates":[[[1.6125,42.9594],[1.6117,42.9592],[1.6124,42.9587],[1.6134,42.9575],[1.6142,42.9569],[1.6156,42.9565],[1.6153,42.9555],[1.6169,42.9548],[1.6173,42.9547],[1.6176,42.9549],[1.6185,42.9541],[1.6188,42.9536],[1.6189,42.9534],[1.6201,42.9537],[1.6208,42.9526],[1.6219,42.9523],[1.6226,42.9546],[1.622,42.9564],[1.6209,42.957],[1.6197,42.9574],[1.6187,42.9574],[1.6184,42.9571],[1.6189,42.9572],[1.6188,42.9571],[1.6181,42.957],[1.6163,42.9569],[1.6165,42.9582],[1.6162,42.9582],[1.6158,42.9583],[1.6151,42.9587],[1.6146,42.9593],[1.6139,42.9596],[1.6128,42.9592],[1.6125,42.9594]]]},"properties":{"id_ffco":"12777","nom":"PARC BOUYCHERE ET ESPACE  JEAN SURRE","_dept":"09","numero":"2021-D09-030","commune":"FOIX","echelle":"1/4000","surface":"0.26 km²","format":"A4","annee":"2021","cartographes":"Olivier THOMAS","proprietaire":"Ville de FOIX UNSS","niveau":"Initiation, Scolaire","specialite":"CO à pied","latitude":"42.9560208926","longitude":"1.61813181544","date_saisie":"25/05/2021","date_depot":"21/06/2021","valide":"Oui","ppo":"Non","type_carte":"Nouvelle carte","fond":"Ortho","obsolete":false}},{"type":"Feature","geometry":{"type":"Polygon","coordinates":[[[1.6097,43.1143],[1.6094,43.1137],[1.6082,43.1142],[1.608,43.1133],[1.6079,43.1132],[1.6074,43.1132],[1.6069,43.1131],[1.6063,43.1133],[1.606,43.1135],[1.606,43.1137],[1.6061,43.1141],[1.6063,43.1143],[1.6068,43.1145],[1.6072,43.1147],[1.6074,43.1149],[1.6077,43.1149],[1.608,43.1147],[1.6083,43.1146],[1.6087,43.1146],[1.6092,43.1145],[1.6097,43.1143]]]},"properties":{"id_ffco":"2464","nom":"CASTELLA","_dept":"09","numero":"1984-D09-03","commune":"PAMIERS","echelle":"1/2500","surface":"0.03 km²","format":"A4","annee":"1984","proprietaire":"0901","niveau":"Initiation, Scolaire","specialite":"CO à pied","latitude":"43.1140036311","longitude":"1.60760780508","valide":"Oui","ppo":"Non","type_carte":"Nouvelle carte","fond":"Ortho","obsolete":false}},{"type":"Feature","geometry":{"type":"Polygon","coordinates":[[[1.6037,43.107],[1.6027,43.1093],[1.5998,43.1093],[1.5998,43.1081],[1.6006,43.1071],[1.6021,43.1068],[1.6028,43.1066],[1.6015,43.1056],[1.6005,43.1048],[1.6009,43.1039],[1.6009,43.1035],[1.6006,43.1029],[1.6,43.1023],[1.6032,43.0977],[1.6044,43.0968],[1.606,43.096],[1.6065,43.0958],[1.6076,43.0956],[1.6094,43.0957],[1.6107,43.0972],[1.6093,43.0996],[1.6116,43.1005],[1.6132,43.1031],[1.6155,43.1043],[1.6168,43.1055],[1.6168,43.1064],[1.6161,43.1072],[1.6142,43.1068],[1.6116,43.1061],[1.6111,43.1055],[1.6091,43.1052],[1.6066,43.1054],[1.6049,43.106],[1.6037,43.107]]]},"properties":{"id_ffco":"12776","nom":"ABBAYE DU CAILLOUP","_dept":"09","numero":"2021-D09-029","commune":"PAMIER","echelle":"1/8000","surface":"1.04 km²","format":"A4","annee":"2021","cartographes":"Olivier THOMAS","proprietaire":"Ville de Pamier  UNSS","niveau":"Initiation, Scolaire","specialite":"CO à pied","latitude":"43.1023598522","longitude":"1.60698499247","date_saisie":"25/05/2021","date_depot":"21/06/2021","valide":"Oui","ppo":"Non","type_carte":"Nouvelle carte","fond":"Ortho","obsolete":false}},{"type":"Feature","geometry":{"type":"Polygon","coordinates":[[[1.608,43.1169],[1.6069,43.1168],[1.6061,43.1155],[1.6053,43.1147],[1.6053,43.1143],[1.6053,43.114],[1.6056,43.1136],[1.606,43.1135],[1.6062,43.1133],[1.6067,43.1132],[1.6072,43.1131],[1.6079,43.1131],[1.6081,43.1132],[1.6083,43.114],[1.6092,43.1137],[1.6098,43.1143],[1.6096,43.1144],[1.6099,43.115],[1.6097,43.1151],[1.6099,43.1155],[1.6101,43.116],[1.6098,43.1163],[1.6094,43.1164],[1.6084,43.1167],[1.608,43.1169]]]},"properties":{"id_ffco":"12781","nom":"CASTELLA","_dept":"09","numero":"2021-D09-028","commune":"PAMIERS","echelle":"1/3000","surface":"0.11 km²","format":"A4","annee":"2021","cartographes":"Olivier THOMAS","proprietaire":"Mairie de PAMIERS UNSS","niveau":"Initiation, Scolaire","specialite":"CO à pied","latitude":"43.1149739663","longitude":"1.60768933167","date_saisie":"28/05/2021","date_depot":"21/06/2021","valide":"Oui","ppo":"Non","type_carte":"Nouvelle carte","fond":"Ortho","obsolete":false}},{"type":"Feature","geometry":{"type":"Polygon","coordinates":[[[1.4825,42.7639],[1.482,42.7636],[1.4814,42.7629],[1.4806,42.7621],[1.4802,42.7615],[1.48,42.7611],[1.4797,42.7609],[1.4791,42.7609],[1.4788,42.7608],[1.4792,42.7604],[1.4797,42.7601],[1.4807,42.7603],[1.484,42.7631],[1.4845,42.7635],[1.4838,42.7643],[1.4832,42.7641],[1.4825,42.7639]]]},"properties":{"id_ffco":"11449","nom":"CAMPING ET TERRAIN DE FOOT","_dept":"09","numero":"2019-D09-027","commune":"AUZAT","echelle":"1/2000","surface":"0.07 km²","format":"A4","annee":"2019","cartographes":"ESCUDIE Christian","proprietaire":"81 - Tarn","niveau":"Initiation, Scolaire","specialite":"CO à pied","latitude":"42.7622274516","longitude":"1.48183225404","date_saisie":"02/04/2019","date_depot":"15/11/2019","valide":"Oui","ppo":"Non","type_carte":"Nouvelle carte","fond":"Ortho","obsolete":false}},{"type":"Feature","geometry":{"type":"Polygon","coordinates":[[[1.4784,42.7637],[1.4791,42.7638],[1.4795,42.7638],[1.4799,42.7639],[1.4801,42.7639],[1.4819,42.7641],[1.4822,42.7641],[1.4823,42.7639],[1.4819,42.7635],[1.4815,42.763],[1.4806,42.7621],[1.4803,42.7616],[1.48,42.7611],[1.4795,42.7609],[1.4789,42.7609],[1.4784,42.7609],[1.4784,42.7637]]]},"properties":{"id_ffco":"11443","nom":"Stade auzat","_dept":"09","numero":"2019-D09-026","commune":"AUZAT","echelle":"1/1500","surface":"0.07 km²","format":"A4","annee":"2019","cartographes":"Esudie  Christian","proprietaire":"8105 - BALISE ORIENTATION ALBIGEOISE","niveau":"Initiation, Scolaire","specialite":"CO à pied","latitude":"42.7626747169","longitude":"1.47986822904","date_saisie":"30/03/2019","date_depot":"15/11/2019","valide":"Oui","ppo":"Non","type_carte":"Nouvelle carte","fond":"Ortho","obsolete":false}},{"type":"Feature","geometry":{"type":"Polygon","coordinates":[[[1.8235,42.7298],[1.8219,42.7278],[1.8205,42.7279],[1.821,42.7291],[1.8197,42.7294],[1.8177,42.7291],[1.8184,42.7284],[1.8182,42.7277],[1.8184,42.7271],[1.8191,42.7272],[1.8198,42.7274],[1.8204,42.7271],[1.8209,42.7269],[1.8218,42.7265],[1.8217,42.7257],[1.821,42.725],[1.8204,42.7244],[1.821,42.7245],[1.8214,42.7249],[1.822,42.7251],[1.8235,42.7252],[1.8247,42.7253],[1.8261,42.7257],[1.8267,42.726],[1.827,42.7263],[1.8277,42.7262],[1.8286,42.7261],[1.829,42.7267],[1.8294,42.7271],[1.8267,42.7287],[1.8235,42.7298]]]},"properties":{"id_ffco":"11245","nom":"CAMPING SAVIGNAC LES ORMEAUX","_dept":"09","numero":"2018-D09-025","commune":"SAVIGNAC LES ORMEAUX","echelle":"1/5000","surface":"0.27 km²","format":"A4","annee":"2018","cartographes":"Olivier THOMAS","proprietaire":"Camping de Savignac les ormeaux","niveau":"Départemental","specialite":"CO à pied","latitude":"42.7273632232","longitude":"1.82365217343","date_saisie":"03/12/2018","date_depot":"29/01/2019","valide":"Oui","ppo":"Non","type_carte":"Nouvelle carte","fond":"Ortho","obsolete":false}},{"type":"Feature","geometry":{"type":"Polygon","coordinates":[[[1.8597,42.9481],[1.8624,42.9483],[1.8645,42.948],[1.8657,42.9471],[1.8687,42.9462],[1.8715,42.9454],[1.8753,42.9443],[1.8778,42.944],[1.881,42.9439],[1.883,42.9439],[1.8848,42.9443],[1.8866,42.9442],[1.8884,42.9413],[1.8858,42.9402],[1.8851,42.9395],[1.8856,42.9385],[1.8857,42.9377],[1.8851,42.9364],[1.8848,42.9357],[1.8841,42.9355],[1.8828,42.9352],[1.8806,42.9356],[1.879,42.9353],[1.8773,42.9347],[1.8762,42.9346],[1.8753,42.9341],[1.8748,42.9349],[1.8741,42.9359],[1.8741,42.9364],[1.8718,42.9375],[1.8693,42.938],[1.8678,42.9381],[1.8659,42.9384],[1.8637,42.9385],[1.8618,42.9387],[1.8595,42.9391],[1.8578,42.9391],[1.8542,42.9399],[1.8574,42.9443],[1.8597,42.9481]]]},"properties":{"id_ffco":"10089","nom":"DREUILHE","_dept":"09","numero":"2016-D09-024","commune":"LAVELANET","echelle":"1/10000","surface":"2.34 km²","format":"A3","annee":"2016","cartographes":"Oliver THOMAS","proprietaire":"8105 - BALISE ORIENTATION ALBIGEOISE","niveau":"National, International","specialite":"CO à pied","latitude":"42.9413323831","longitude":"1.87144815099","date_saisie":"04/03/2017","date_depot":"05/04/2017","valide":"Oui","ppo":"Non","type_carte":"Nouvelle carte","fond":"Ortho","obsolete":false}},{"type":"Feature","geometry":{"type":"Polygon","coordinates":[[[1.6948,43.0413],[1.694,43.0408],[1.6933,43.0411],[1.6924,43.0412],[1.6914,43.0413],[1.6912,43.0416],[1.6913,43.0423],[1.6912,43.0426],[1.6909,43.043],[1.69,43.0435],[1.6893,43.0436],[1.6885,43.044],[1.6876,43.044],[1.6887,43.0452],[1.6885,43.0461],[1.6888,43.0475],[1.6889,43.0488],[1.6882,43.0493],[1.6876,43.0496],[1.6874,43.0498],[1.6873,43.0505],[1.6877,43.0517],[1.6876,43.0522],[1.6878,43.0527],[1.6888,43.0524],[1.6898,43.0522],[1.6914,43.052],[1.6922,43.0519],[1.6931,43.0521],[1.6937,43.0523],[1.6944,43.0527],[1.6952,43.0527],[1.6969,43.0524],[1.6982,43.052],[1.6991,43.0515],[1.7003,43.0508],[1.7013,43.0501],[1.7021,43.0499],[1.7056,43.0497],[1.7064,43.0498],[1.7074,43.0505],[1.7086,43.0507],[1.7096,43.0512],[1.7106,43.0517],[1.7119,43.0525],[1.7138,43.0522],[1.7146,43.0519],[1.716,43.0515],[1.7162,43.0512],[1.7158,43.0503],[1.7152,43.0495],[1.7147,43.0485],[1.7133,43.0481],[1.7124,43.0477],[1.7121,43.0475],[1.7124,43.046],[1.7132,43.0453],[1.7141,43.0449],[1.7122,43.0431],[1.7133,43.0426],[1.7131,43.0421],[1.712,43.0423],[1.7112,43.0429],[1.7103,43.0432],[1.7094,43.0426],[1.7076,43.0433],[1.7068,43.0433],[1.706,43.0431],[1.7047,43.0421],[1.7038,43.0413],[1.7033,43.0406],[1.7028,43.0403],[1.702,43.0397],[1.6989,43.0401],[1.6973,43.0406],[1.6948,43.0413]]]},"properties":{"id_ffco":"9229","nom":"LE SOULA","_dept":"09","numero":"2015-D09-023","commune":"SEGURA","echelle":"1/10000","surface":"2.24 km²","format":"A4","annee":"2015","cartographes":"Oliver THOMAS","proprietaire":"1er RCP de PAMIER","niveau":"Interrégional","specialite":"CO à pied","latitude":"43.0466970493","longitude":"1.70054422102","date_saisie":"31/01/2016","date_depot":"16/04/2016","valide":"Oui","ppo":"Non","type_carte":"Reprise","base":"1990-D09-010 SOULA","fond":"Ortho","obsolete":false}},{"type":"Feature","geometry":{"type":"Polygon","coordinates":[[[1.7561,42.9424],[1.7565,42.9426],[1.7573,42.9429],[1.7579,42.9434],[1.7581,42.9439],[1.7581,42.9442],[1.7577,42.9444],[1.7569,42.9446],[1.7569,42.9447],[1.7572,42.9451],[1.7573,42.9453],[1.757,42.9455],[1.7565,42.946],[1.7563,42.9463],[1.7562,42.9466],[1.7563,42.9471],[1.7562,42.9473],[1.7564,42.9476],[1.7568,42.9479],[1.7574,42.9479],[1.7579,42.9481],[1.7582,42.9484],[1.7583,42.9489],[1.7584,42.949],[1.7582,42.9499],[1.758,42.9504],[1.7568,42.9508],[1.7558,42.9511],[1.7555,42.9515],[1.7551,42.9519],[1.7543,42.9521],[1.7535,42.9522],[1.7528,42.9522],[1.7526,42.9522],[1.7524,42.9516],[1.7525,42.9511],[1.7527,42.9505],[1.7526,42.95],[1.7525,42.9497],[1.7524,42.9492],[1.7523,42.9488],[1.7521,42.9484],[1.752,42.9483],[1.7512,42.9482],[1.7507,42.9479],[1.7502,42.9476],[1.7499,42.9474],[1.7497,42.9473],[1.7493,42.9473],[1.7491,42.9476],[1.7485,42.9473],[1.7478,42.9467],[1.7472,42.9461],[1.7469,42.946],[1.7466,42.9458],[1.7462,42.9451],[1.746,42.9446],[1.7459,42.944],[1.7461,42.9434],[1.7463,42.9431],[1.7485,42.9421],[1.7497,42.9415],[1.7504,42.9409],[1.751,42.9404],[1.7514,42.9401],[1.752,42.9394],[1.7518,42.9389],[1.7518,42.9383],[1.7526,42.9379],[1.7533,42.9376],[1.7537,42.9377],[1.7541,42.9382],[1.7545,42.9383],[1.7559,42.9383],[1.7565,42.9383],[1.7568,42.9383],[1.7574,42.9385],[1.7581,42.9386],[1.7585,42.9389],[1.7585,42.9401],[1.7594,42.9401],[1.76,42.9402],[1.7601,42.9407],[1.7594,42.941],[1.7583,42.9413],[1.7578,42.9417],[1.7573,42.9421],[1.7571,42.9424],[1.7561,42.9424]]]},"properties":{"id_ffco":"9090","nom":"ROQUEFIXADE LE CHATEAU","_dept":"09","numero":"2015-D09-022","commune":"ROQUEFIXADE","echelle":"1/7500","surface":"0.98 km²","format":"A4","annee":"2015","cartographes":"Olivier THOMAS","proprietaire":"SNP 09","niveau":"Interrégional","specialite":"CO à pied","latitude":"42.944482624","longitude":"1.75332400632","date_saisie":"17/12/2015","date_depot":"19/04/2016","valide":"Oui","ppo":"Non","type_carte":"Nouvelle carte","fond":"Ortho","obsolete":false}},{"type":"Feature","geometry":{"type":"Polygon","coordinates":[[[1.875,43.0921],[1.8716,43.0933],[1.8725,43.0935],[1.8732,43.0936],[1.8748,43.0934],[1.8755,43.0936],[1.8764,43.0937],[1.8776,43.0937],[1.8781,43.0936],[1.8792,43.0935],[1.8793,43.0933],[1.8792,43.0927],[1.879,43.0921],[1.8789,43.092],[1.875,43.0921]]]},"properties":{"id_ffco":"9089","nom":"LES BERGES DE L'HERS","_dept":"09","numero":"2015-D09-021","commune":"MIREPOIX","echelle":"1/1500","surface":"0.08 km²","format":"A4","annee":"2015","cartographes":"Ludovic RUIS","proprietaire":"Collège de MIREPOIX","niveau":"Initiation, Scolaire","specialite":"CO à pied","latitude":"43.0928880891","longitude":"1.87616015564","date_saisie":"17/12/2015","date_depot":"19/04/2016","valide":"Oui","ppo":"Oui (15 postes)","type_carte":"Nouvelle carte","fond":"Ortho","obsolete":false}},{"type":"Feature","geometry":{"type":"Polygon","coordinates":[[[1.6817,43.2508],[1.6829,43.2501],[1.6816,43.2489],[1.6808,43.2488],[1.6803,43.2487],[1.6794,43.2477],[1.6786,43.248],[1.678,43.2485],[1.6774,43.2489],[1.6768,43.2494],[1.676,43.2498],[1.6757,43.25],[1.6761,43.2504],[1.6757,43.2513],[1.6755,43.2528],[1.6757,43.2534],[1.676,43.2538],[1.6765,43.2542],[1.6776,43.255],[1.6784,43.2543],[1.6791,43.2537],[1.6801,43.2533],[1.6808,43.2528],[1.6809,43.2521],[1.6808,43.2515],[1.6814,43.2508],[1.6817,43.2508]]]},"properties":{"id_ffco":"8222","nom":"MAZERES","_dept":"09","numero":"2015-D09-020","commune":"MAZERES","echelle":"1/4000","surface":"0.27 km²","format":"A4","annee":"2015","cartographes":"Ludovic RUIZ","proprietaire":"09 - Ariège","niveau":"Départemental","specialite":"CO à pied","latitude":"43.2512086403","longitude":"1.67862076553","date_saisie":"13/03/2015","date_depot":"28/07/2015","valide":"Oui","ppo":"Non","type_carte":"Nouvelle carte","fond":"Ortho","obsolete":false}},{"type":"Feature","geometry":{"type":"Polygon","coordinates":[[[1.6759,43.0455],[1.6768,43.0466],[1.6759,43.0467],[1.6757,43.0483],[1.6756,43.0496],[1.6769,43.0523],[1.6775,43.0539],[1.6781,43.0552],[1.6784,43.0568],[1.6786,43.058],[1.6854,43.0584],[1.6855,43.0593],[1.6867,43.0597],[1.688,43.0595],[1.6895,43.0592],[1.691,43.0595],[1.692,43.0594],[1.6923,43.06],[1.6937,43.06],[1.6962,43.0593],[1.6988,43.0589],[1.702,43.0584],[1.7036,43.0581],[1.7039,43.0577],[1.704,43.0568],[1.7053,43.0567],[1.7067,43.0566],[1.7077,43.0571],[1.7089,43.0579],[1.709,43.0586],[1.7099,43.0592],[1.7102,43.0598],[1.7111,43.0599],[1.7121,43.0595],[1.7131,43.0589],[1.715,43.059],[1.7169,43.0589],[1.7184,43.0585],[1.7193,43.058],[1.7203,43.0576],[1.7205,43.0542],[1.7187,43.0536],[1.7173,43.0522],[1.7179,43.0494],[1.7182,43.0483],[1.7188,43.0473],[1.7191,43.0467],[1.7189,43.046],[1.7188,43.0455],[1.7182,43.0413],[1.7164,43.0413],[1.7156,43.0414],[1.7143,43.0405],[1.7136,43.0402],[1.7128,43.0394],[1.7114,43.039],[1.7107,43.0385],[1.7103,43.0383],[1.7091,43.0385],[1.7077,43.0385],[1.707,43.0388],[1.7052,43.0389],[1.7036,43.0393],[1.7029,43.0385],[1.7024,43.0385],[1.701,43.0388],[1.7,43.0389],[1.6986,43.0383],[1.6972,43.0375],[1.6973,43.0385],[1.6967,43.0391],[1.6955,43.0396],[1.6949,43.0405],[1.6935,43.0406],[1.6929,43.041],[1.6916,43.041],[1.6898,43.0411],[1.6883,43.0411],[1.686,43.0415],[1.683,43.0417],[1.6819,43.0419],[1.6811,43.0425],[1.6797,43.0426],[1.6788,43.0434],[1.6765,43.0445],[1.6759,43.0455]]]},"properties":{"id_ffco":"1410","nom":"COL SEIX","_dept":"09","numero":"1983-D09-02","commune":"ST FELIX","echelle":"1/15000","surface":"6.96 km²","format":"A4","annee":"1983","cartographes":"COLLET WILLIAM,C. ESCUDIE","proprietaire":"09 - Ariège","niveau":"Interrégional","specialite":"CO à pied","latitude":"43.0494752004","longitude":"1.69843701222","date_depot":"28/07/2015","valide":"Oui","ppo":"Non","type_carte":"Nouvelle carte","fond":"IGN","obsolete":false}},{"type":"Feature","geometry":{"type":"Polygon","coordinates":[[[1.6564,43.2676],[1.6562,43.2681],[1.6562,43.2685],[1.6561,43.2689],[1.6564,43.2693],[1.6559,43.2707],[1.6561,43.2714],[1.6564,43.2721],[1.657,43.2723],[1.6587,43.2727],[1.6598,43.273],[1.6609,43.2731],[1.6624,43.2726],[1.663,43.272],[1.6638,43.2708],[1.6648,43.2702],[1.666,43.2694],[1.6657,43.269],[1.6648,43.2674],[1.6643,43.2666],[1.6641,43.2658],[1.6638,43.2642],[1.6622,43.2651],[1.6604,43.2658],[1.6579,43.2668],[1.6563,43.2673],[1.6564,43.2676]]]},"properties":{"id_ffco":"8221","nom":"DOMAINE DES OISEAUX, MAZERES 09","_dept":"09","numero":"2014-D09-019","commune":"MAZERES","echelle":"1/5000","surface":"0.51 km²","format":"A4","annee":"2014","cartographes":"Olivier THOMAS","proprietaire":"09 - Ariège","niveau":"Initiation, Scolaire","specialite":"CO à pied","latitude":"43.269124787","longitude":"1.66067429267","date_saisie":"13/03/2015","date_depot":"28/07/2015","valide":"Oui","ppo":"Non","type_carte":"Nouvelle carte","fond":"Ortho","obsolete":false}},{"type":"Feature","geometry":{"type":"Polygon","coordinates":[[[1.6008,43.1021],[1.6005,43.1028],[1.6004,43.1045],[1.6015,43.1061],[1.6024,43.1065],[1.6029,43.1067],[1.6014,43.107],[1.6007,43.1072],[1.6007,43.1081],[1.6009,43.1092],[1.6012,43.11],[1.6028,43.1099],[1.6027,43.1092],[1.6032,43.1085],[1.6037,43.1077],[1.6042,43.1067],[1.6049,43.1062],[1.6058,43.1058],[1.6077,43.1053],[1.6083,43.1053],[1.6092,43.1057],[1.6098,43.106],[1.6104,43.1063],[1.6121,43.1064],[1.6134,43.1066],[1.6144,43.107],[1.6155,43.107],[1.6165,43.1067],[1.6167,43.106],[1.6164,43.1051],[1.6148,43.1041],[1.6134,43.1028],[1.6119,43.1013],[1.6116,43.1008],[1.6111,43.0997],[1.6103,43.0993],[1.6093,43.0988],[1.6076,43.0985],[1.6071,43.099],[1.6059,43.0999],[1.6053,43.1004],[1.6042,43.1009],[1.6031,43.1015],[1.6025,43.1022],[1.6008,43.1021]]]},"properties":{"id_ffco":"8223","nom":"SITE DE CAILLOUP","_dept":"09","numero":"2011-D09-018","commune":"PAMIERS","echelle":"1/7500","surface":"0.8 km²","format":"A4","annee":"2011","cartographes":"Olivier THOMAS","proprietaire":"09 - Ariège","niveau":"Initiation, Scolaire","specialite":"CO à pied","latitude":"43.1037884598","longitude":"1.60759220619","date_saisie":"13/03/2015","date_depot":"28/07/2015","valide":"Oui","ppo":"Oui (75 postes)","type_carte":"Nouvelle carte","fond":"Ortho","obsolete":false}},{"type":"Feature","geometry":{"type":"Polygon","coordinates":[[[1.818,42.9558],[1.8233,42.9566],[1.8232,42.9612],[1.8217,42.961],[1.8204,42.9608],[1.8185,42.9604],[1.8176,42.9602],[1.8168,42.9606],[1.8168,42.9612],[1.8168,42.9623],[1.8155,42.9625],[1.812,42.9622],[1.8093,42.9625],[1.8073,42.9631],[1.8058,42.9629],[1.8047,42.9624],[1.804,42.962],[1.7943,42.9628],[1.7937,42.9611],[1.7921,42.9608],[1.7901,42.9609],[1.7878,42.9606],[1.7868,42.9602],[1.7861,42.9589],[1.7911,42.9568],[1.7944,42.9553],[1.7964,42.9545],[1.7985,42.9545],[1.8001,42.9549],[1.8015,42.9555],[1.8027,42.956],[1.8037,42.9566],[1.804,42.9572],[1.8057,42.9575],[1.8055,42.9571],[1.8063,42.957],[1.807,42.9575],[1.8077,42.9568],[1.8088,42.9562],[1.8093,42.9553],[1.8102,42.9554],[1.8118,42.9552],[1.8137,42.9545],[1.8154,42.9555],[1.818,42.9558]]]},"properties":{"id_ffco":"8219","nom":"LES ORRIS: GREOULOU","_dept":"09","numero":"2014-D09-017","commune":"LAVELANET","echelle":"1/10000","surface":"1.94 km²","format":"A4","annee":"2014","cartographes":"Oliver THOMAS","proprietaire":"09 - Ariège","niveau":"Interrégional","specialite":"CO à pied","latitude":"42.9588727809","longitude":"1.80544133998","date_saisie":"13/03/2015","date_depot":"28/07/2015","valide":"Oui","ppo":"Non","type_carte":"Nouvelle carte","fond":"Ortho","obsolete":false}},{"type":"Feature","geometry":{"type":"Polygon","coordinates":[[[1.8592,42.9486],[1.8592,42.9476],[1.8581,42.9453],[1.8567,42.9431],[1.855,42.9413],[1.8535,42.9393],[1.8547,42.9388],[1.8551,42.9385],[1.8564,42.9388],[1.8577,42.9389],[1.8591,42.939],[1.8604,42.9389],[1.8619,42.9386],[1.8633,42.9384],[1.8644,42.9382],[1.8711,42.9461],[1.8692,42.9467],[1.8669,42.9474],[1.865,42.9483],[1.8643,42.9486],[1.8617,42.9484],[1.8592,42.9486]]]},"properties":{"id_ffco":"8218","nom":"VOIE VERTE DREUILLE","_dept":"09","numero":"2013-D09-016","commune":"LAVELANET","echelle":"1/5750","surface":"0.99 km²","format":"A4","annee":"2013","cartographes":"ESCUDIE Christian","proprietaire":"09 - Ariège","niveau":"Départemental","specialite":"CO à pied","latitude":"42.9433474876","longitude":"1.86232835954","date_saisie":"13/03/2015","date_depot":"01/06/2013","valide":"Oui","ppo":"Oui (15 postes)","type_carte":"Nouvelle carte","fond":"Ortho","obsolete":false}},{"type":"Feature","geometry":{"type":"Polygon","coordinates":[[[1.8393,42.9204],[1.8455,42.9184],[1.846,42.9194],[1.8464,42.9209],[1.8467,42.9224],[1.8472,42.9241],[1.8475,42.9253],[1.8478,42.9267],[1.8485,42.9277],[1.8493,42.929],[1.8494,42.9296],[1.8494,42.9304],[1.8492,42.9311],[1.848,42.9315],[1.848,42.9307],[1.8475,42.93],[1.8472,42.9293],[1.8466,42.9286],[1.846,42.9281],[1.8456,42.9277],[1.8455,42.927],[1.8455,42.9262],[1.8451,42.9253],[1.8449,42.9248],[1.8431,42.9251],[1.8421,42.9252],[1.8416,42.9243],[1.8413,42.9236],[1.841,42.9232],[1.8415,42.923],[1.8409,42.922],[1.84,42.9214],[1.8395,42.9207],[1.8393,42.9204]]]},"properties":{"id_ffco":"8217","nom":"PLAINE DES SPORTS","_dept":"09","numero":"2013-D09-015","commune":"LAVELANET","echelle":"1/5000","surface":"0.44 km²","format":"A4","annee":"2013","cartographes":"ESCUDIE Christian","proprietaire":"09 - Ariège","niveau":"Initiation, Scolaire","specialite":"CO à pied","latitude":"42.9237088229","longitude":"1.84482410781","date_saisie":"13/03/2015","date_depot":"01/06/2013","valide":"Oui","ppo":"Oui (30 postes)","type_carte":"Nouvelle carte","fond":"Ortho","obsolete":false}},{"type":"Feature","geometry":{"type":"Polygon","coordinates":[[[1.3709,42.8051],[1.3705,42.8118],[1.371,42.8123],[1.3711,42.8129],[1.3716,42.8132],[1.3727,42.8136],[1.3739,42.8143],[1.3749,42.8156],[1.3792,42.8185],[1.3792,42.8195],[1.3797,42.8204],[1.382,42.8206],[1.3836,42.8206],[1.3841,42.8204],[1.3849,42.8198],[1.3857,42.8192],[1.3869,42.8192],[1.3889,42.8195],[1.3904,42.8197],[1.3915,42.8199],[1.3933,42.8198],[1.3959,42.8203],[1.3971,42.8209],[1.3985,42.8215],[1.3999,42.8214],[1.4005,42.8208],[1.4007,42.8201],[1.4015,42.82],[1.4025,42.8198],[1.4025,42.8189],[1.4023,42.8178],[1.4015,42.817],[1.4016,42.8162],[1.4025,42.8155],[1.4036,42.815],[1.4051,42.8056],[1.4038,42.8055],[1.4023,42.8053],[1.4011,42.8053],[1.4004,42.8052],[1.402,42.7973],[1.4026,42.796],[1.4029,42.7947],[1.4023,42.7933],[1.4011,42.7922],[1.3993,42.7917],[1.3978,42.7914],[1.3956,42.7916],[1.3923,42.7916],[1.3892,42.7916],[1.386,42.7916],[1.3781,42.7925],[1.3717,42.7942],[1.3698,42.7946],[1.3702,42.8041],[1.3711,42.8042],[1.3709,42.8051]]]},"properties":{"id_ffco":"8216","nom":"L' ETANG DE LERS","_dept":"09","numero":"2012-D09-014","commune":"LE PORT","echelle":"1/10000","surface":"7.83 km²","format":"A3","annee":"2012","cartographes":"Ray Hulse","proprietaire":"3105 - TOAC ORIENTATION","niveau":"National, International","specialite":"CO à pied","contacts":"TOAC Orientation , patrick.capbern@cegetel.net","latitude":"42.8056981363","longitude":"1.3874327689","date_saisie":"13/03/2015","date_depot":"15/05/2014","valide":"Oui","ppo":"Oui (50 postes)","type_carte":"Nouvelle carte","fond":"Ortho","obsolete":false}},{"type":"Feature","geometry":{"type":"Polygon","coordinates":[[[1.3493,42.8923],[1.3499,42.8922],[1.3508,42.8914],[1.3513,42.8907],[1.3518,42.8903],[1.3521,42.8895],[1.3522,42.8887],[1.3518,42.8879],[1.3499,42.8865],[1.3475,42.8866],[1.3459,42.8871],[1.3454,42.8866],[1.345,42.8867],[1.3441,42.8879],[1.3429,42.8885],[1.3425,42.8886],[1.3421,42.8885],[1.3418,42.8889],[1.3417,42.8895],[1.3417,42.8906],[1.3441,42.8922],[1.3444,42.8928],[1.3475,42.8928],[1.3482,42.8925],[1.3493,42.8923]]]},"properties":{"id_ffco":"5028","nom":"Massat bourg","_dept":"09","numero":"2010-D09-013","commune":"Massat","echelle":"1/4000","surface":"0.45 km²","format":"A4","annee":"2010","cartographes":"G Utard","proprietaire":"3105 - TOAC ORIENTATION","niveau":"Régional","specialite":"CO à pied","latitude":"42.8896544738","longitude":"1.34708014275","date_saisie":"21/07/2010","date_depot":"22/09/2010","valide":"Oui","ppo":"Non","type_carte":"Nouvelle carte","fond":"Cadastre","obsolete":false}},{"type":"Feature","geometry":{"type":"Polygon","coordinates":[[[1.3361,42.8893],[1.3348,42.8881],[1.3336,42.8856],[1.3332,42.8836],[1.3327,42.8826],[1.3343,42.8783],[1.335,42.8789],[1.3356,42.8794],[1.3368,42.8795],[1.3379,42.8796],[1.3392,42.88],[1.3404,42.88],[1.342,42.8797],[1.3429,42.8795],[1.3434,42.8791],[1.3437,42.8784],[1.3437,42.878],[1.345,42.8779],[1.3449,42.8787],[1.3451,42.8795],[1.3456,42.8804],[1.3459,42.8811],[1.3449,42.8816],[1.3449,42.8821],[1.3451,42.8826],[1.3442,42.8832],[1.3435,42.8835],[1.3436,42.8838],[1.3442,42.8841],[1.3451,42.8845],[1.3457,42.8888],[1.3453,42.889],[1.3452,42.8899],[1.3443,42.8903],[1.3442,42.8901],[1.3425,42.8901],[1.3411,42.89],[1.3397,42.8898],[1.338,42.8895],[1.3368,42.8889],[1.3363,42.8887],[1.3361,42.8893]]]},"properties":{"id_ffco":"5027","nom":"les Hauts d'Esquen","_dept":"09","numero":"2010-D09-012","commune":"Massat","echelle":"1/7500","surface":"1.07 km²","format":"A4","annee":"2010","cartographes":"P.Capbern","proprietaire":"3105 - TOAC ORIENTATION","niveau":"Régional","specialite":"CO à pied","latitude":"42.8843681272","longitude":"1.33959868881","date_saisie":"21/07/2010","date_depot":"22/09/2010","valide":"Oui","ppo":"Non","type_carte":"Nouvelle carte","fond":"Ortho","obsolete":false}},{"type":"Feature","geometry":{"type":"Polygon","coordinates":[[[1.8115,43.1173],[1.8106,43.118],[1.8092,43.1183],[1.806,43.1185],[1.8012,43.1192],[1.7985,43.1197],[1.7966,43.1194],[1.7966,43.1211],[1.7951,43.1212],[1.793,43.1207],[1.7913,43.1196],[1.7907,43.118],[1.7906,43.1166],[1.7876,43.1172],[1.7828,43.1183],[1.7763,43.1193],[1.7766,43.1198],[1.777,43.1309],[1.7836,43.1329],[1.7846,43.1343],[1.7838,43.1354],[1.7827,43.1359],[1.7824,43.1372],[1.7812,43.1383],[1.7812,43.14],[1.782,43.1416],[1.7818,43.1433],[1.7818,43.1472],[1.7824,43.1516],[1.7848,43.151],[1.7872,43.1497],[1.7891,43.1494],[1.792,43.1493],[1.7941,43.1485],[1.7959,43.1481],[1.796,43.1493],[1.7956,43.1517],[1.7951,43.1534],[1.7988,43.1535],[1.8017,43.1524],[1.804,43.1517],[1.8058,43.1506],[1.8079,43.1495],[1.8093,43.1487],[1.8127,43.1476],[1.8162,43.1473],[1.8189,43.1473],[1.82,43.1466],[1.82,43.1393],[1.8173,43.1383],[1.8151,43.1375],[1.8149,43.136],[1.8155,43.1344],[1.8164,43.1329],[1.8169,43.132],[1.8167,43.1306],[1.8163,43.1296],[1.8163,43.1281],[1.8165,43.1263],[1.8148,43.1236],[1.8136,43.1221],[1.8129,43.1213],[1.8119,43.1202],[1.8115,43.1173]]]},"properties":{"id_ffco":"1413","nom":"BOIS DE LA BELENE","_dept":"09","numero":"1991-D09-011","commune":"PAMIERS","echelle":"1/15000","surface":"10.39 km²","format":"A4","annee":"1991","cartographes":"PETETIN Gérard,ROCA,GRZESIAK et MARECHAL","proprietaire":"MP - Midi-Pyrénées","niveau":"Interrégional","specialite":"CO à pied","latitude":"43.1344115685","longitude":"1.79804640878","valide":"Oui","ppo":"Non","type_carte":"Nouvelle carte","fond":"Ortho","obsolete":false}},{"type":"Feature","geometry":{"type":"Polygon","coordinates":[[[1.7132,43.0345],[1.7132,43.0351],[1.7129,43.0366],[1.7122,43.0377],[1.7113,43.038],[1.7119,43.0384],[1.7137,43.0384],[1.7162,43.0383],[1.7184,43.0383],[1.7209,43.0379],[1.7235,43.0374],[1.7256,43.0365],[1.7274,43.0359],[1.7289,43.0352],[1.7299,43.0349],[1.73,43.0365],[1.7286,43.0398],[1.7277,43.0418],[1.7275,43.0446],[1.727,43.0457],[1.7269,43.0465],[1.7265,43.0472],[1.7272,43.0478],[1.7275,43.0487],[1.7269,43.0504],[1.7271,43.0519],[1.7273,43.0526],[1.7272,43.0536],[1.7269,43.0545],[1.7267,43.0554],[1.7258,43.056],[1.7262,43.0568],[1.7259,43.061],[1.7245,43.0609],[1.7229,43.0608],[1.7215,43.0607],[1.7206,43.06],[1.7199,43.059],[1.7153,43.0606],[1.7131,43.061],[1.7118,43.0613],[1.7106,43.0608],[1.7093,43.061],[1.7077,43.0615],[1.7066,43.0623],[1.7067,43.0637],[1.7066,43.0639],[1.7052,43.064],[1.7044,43.0641],[1.7035,43.0636],[1.7029,43.0637],[1.7021,43.0636],[1.7013,43.0635],[1.7006,43.063],[1.6997,43.0623],[1.6978,43.0616],[1.6977,43.0602],[1.6965,43.0597],[1.6955,43.0594],[1.6942,43.0598],[1.6928,43.0601],[1.6921,43.0596],[1.691,43.0594],[1.6893,43.0592],[1.6882,43.0595],[1.6868,43.06],[1.6859,43.0607],[1.6836,43.061],[1.682,43.0614],[1.6798,43.0622],[1.6787,43.0624],[1.678,43.0613],[1.6784,43.06],[1.6786,43.0587],[1.6785,43.0572],[1.6782,43.056],[1.6779,43.0546],[1.6764,43.0522],[1.6747,43.0495],[1.6737,43.0488],[1.6729,43.0483],[1.6731,43.0471],[1.6742,43.0459],[1.6767,43.0447],[1.6785,43.0436],[1.6793,43.0429],[1.6812,43.0425],[1.6819,43.0418],[1.6841,43.0403],[1.6864,43.0392],[1.6888,43.0389],[1.6909,43.0385],[1.6922,43.0381],[1.6935,43.0374],[1.6952,43.037],[1.6971,43.0368],[1.6994,43.0362],[1.7016,43.036],[1.7036,43.0358],[1.7053,43.0356],[1.7072,43.0355],[1.7085,43.0354],[1.7103,43.0352],[1.7132,43.0345]]]},"properties":{"id_ffco":"801","nom":"SOULA","_dept":"09","numero":"1990-D09-010","commune":"ST FELIX DE RIEUTORD","echelle":"1/15000","surface":"10.63 km²","format":"A4","annee":"1990","cartographes":"COLLET WILLIAM,COLLET Nadeje","proprietaire":"09 - Ariège","niveau":"Interrégional","specialite":"CO à pied","latitude":"43.0491446369","longitude":"1.70285317558","valide":"Oui","ppo":"Non","type_carte":"Nouvelle carte","fond":"Ortho","obsolete":false}},{"type":"Feature","geometry":{"type":"Polygon","coordinates":[[[1.6752,43.0454],[1.6768,43.0448],[1.6785,43.0436],[1.6801,43.0428],[1.6815,43.0426],[1.6823,43.0423],[1.6838,43.042],[1.6869,43.0414],[1.6891,43.0412],[1.6917,43.0412],[1.6922,43.0417],[1.6928,43.0425],[1.6936,43.0438],[1.6946,43.0452],[1.6955,43.0457],[1.6967,43.0461],[1.6981,43.0469],[1.6995,43.0476],[1.7006,43.0484],[1.7021,43.0496],[1.7016,43.0501],[1.7016,43.0509],[1.7024,43.0525],[1.7031,43.0534],[1.703,43.0537],[1.7028,43.0541],[1.7023,43.0548],[1.7021,43.0554],[1.7025,43.056],[1.7027,43.0568],[1.7036,43.0573],[1.7041,43.0578],[1.7037,43.0582],[1.6999,43.0585],[1.6977,43.0589],[1.6958,43.0593],[1.6943,43.0597],[1.6929,43.06],[1.692,43.0601],[1.692,43.0595],[1.6908,43.0595],[1.6896,43.0593],[1.6875,43.0597],[1.6867,43.0604],[1.685,43.0609],[1.6834,43.0611],[1.6823,43.0609],[1.6785,43.0598],[1.6788,43.0583],[1.6784,43.0561],[1.6778,43.0547],[1.6766,43.0523],[1.6756,43.05],[1.6755,43.0488],[1.6757,43.048],[1.6757,43.0474],[1.6766,43.0466],[1.6759,43.0459],[1.6753,43.0456],[1.6752,43.0454]]]},"properties":{"id_ffco":"2463","nom":"FAJOLLE","_dept":"09","numero":"1982-D09-01","commune":"ST FELIX","echelle":"1/10000","surface":"3.67 km²","format":"A4","annee":"1982","cartographes":"COLLET WILLIAM,C. ESCUDIE","proprietaire":"0901","niveau":"Interrégional","specialite":"CO à pied","latitude":"43.0514400095","longitude":"1.68858974929","date_depot":"28/07/2015","valide":"Oui","ppo":"Non","type_carte":"Nouvelle carte","fond":"IGN","obsolete":false}}]}