{"type":"FeatureCollection","features":[{"type":"Feature","geometry":{"type":"Polygon","coordinates":[[[4.0729,48.2747],[4.072,48.2663],[4.0748,48.2652],[4.0794,48.2635],[4.0813,48.2628],[4.0833,48.2643],[4.0874,48.2662],[4.0844,48.2693],[4.0808,48.271],[4.077,48.273],[4.0729,48.2747]]]},"properties":{"id_ffco":"2022-D10-13","nom":"Technopole de l'Aube","_dept":"10","numero":"2022-D10-13","commune":"TROYES","echelle":"1/4000","surface":"0.83 km²","format":"A3","annee":"2022","cartographes":"Thomas GINET","proprietaire":"GE - Grand Est","niveau":"Régional","specialite":"Sprint (ISSOM)","latitude":"48.2682121884","longitude":"4.07847758809","date_saisie":"24/08/2022","date_depot":"21/09/2022","valide":"Oui","ppo":"Non","type_carte":"Nouvelle carte","fond":"IGN","obsolete":false}},{"type":"Feature","geometry":{"type":"Polygon","coordinates":[[[4.0609,48.2679],[4.061,48.2697],[4.0588,48.2734],[4.0598,48.2751],[4.0667,48.2789],[4.0739,48.2743],[4.0733,48.2659],[4.0705,48.2667],[4.0661,48.2671],[4.0613,48.2673],[4.0609,48.2679]]]},"properties":{"id_ffco":"2022-D10-12","nom":"Campus UTT","_dept":"10","numero":"2022-D10-12","commune":"TROYES","echelle":"1/4000","surface":"1.12 km²","format":"A3","annee":"2022","cartographes":"Thomas GINET","proprietaire":"GE - Grand Est","niveau":"Régional","specialite":"Sprint (ISSOM)","latitude":"48.2720878622","longitude":"4.06686135928","date_saisie":"24/08/2022","date_depot":"21/09/2022","valide":"Oui","ppo":"Non","type_carte":"Nouvelle carte","fond":"Ortho","obsolete":false}},{"type":"Feature","geometry":null,"properties":{"id_ffco":"1982-D10-11","nom":"BARS SUR SEINE","_dept":"10","numero":"1982-D10-11","commune":"BARS SUR SEINE","echelle":"1/15000","surface":"4.0 km²","annee":"1982","proprietaire":"CA - Champagne-Ardenne","niveau":"Interrégional","specialite":"CO à pied","latitude":"48.069443","longitude":"4.537826","valide":"Non","ppo":"Non","obsolete":false}},{"type":"Feature","geometry":null,"properties":{"id_ffco":"1988-D10-10","nom":"GRAND ORIENT","_dept":"10","numero":"1988-D10-10","commune":"MESNIL SAINT PERE","echelle":"1/10000","surface":"1.5 km²","annee":"1988","proprietaire":"CA - Champagne-Ardenne","specialite":"CO à pied","latitude":"48.2486609","longitude":"4.3337567","valide":"Non","ppo":"Non","obsolete":false}},{"type":"Feature","geometry":null,"properties":{"id_ffco":"1994-D10-10","nom":"CAMPDE MAILLY","_dept":"10","numero":"1994-D10-10","commune":"MAILLY-CHAMPAGNE","echelle":"1/15000","surface":"7.0 km²","annee":"1994","specialite":"CO à pied","latitude":"48.1563418","longitude":"4.3732462","valide":"Non","ppo":"Non","obsolete":false}},{"type":"Feature","geometry":null,"properties":{"id_ffco":"1988-D10-09","nom":"FORET D'ORIENT (PPO)","_dept":"10","numero":"1988-D10-09","commune":"TROYES","echelle":"1/7500","surface":"5.0 km²","annee":"1988","proprietaire":"CA - Champagne-Ardenne","specialite":"CO à pied","latitude":"48.2974686","longitude":"4.074801","valide":"Non","ppo":"Non","obsolete":false}},{"type":"Feature","geometry":null,"properties":{"id_ffco":"1982-D10-08","nom":"FORET D'ORIENT","_dept":"10","numero":"1982-D10-08","commune":"TROYES","echelle":"1/15000","surface":"12.0 km²","annee":"1982","proprietaire":"CA - Champagne-Ardenne","niveau":"Interrégional","specialite":"CO à pied","latitude":"48.2974686","longitude":"4.074801","valide":"Non","ppo":"Non","obsolete":false}},{"type":"Feature","geometry":null,"properties":{"id_ffco":"1988-D10-07","nom":"PROMENADE DU PARC","_dept":"10","numero":"1988-D10-07","commune":"VENDEUVRE/BARSE","echelle":"1/5000","surface":"0.5 km²","annee":"1988","proprietaire":"CA - Champagne-Ardenne","specialite":"CO à pied","latitude":"48.2374982","longitude":"4.470249","valide":"Non","ppo":"Non","obsolete":false}},{"type":"Feature","geometry":null,"properties":{"id_ffco":"1988-D10-06","nom":"JARD","_dept":"10","numero":"1988-D10-06","commune":"AIX OTHE","echelle":"1/10000","surface":"2.0 km²","annee":"1988","proprietaire":"CA - Champagne-Ardenne","specialite":"CO à pied","latitude":"48.2234717","longitude":"3.7389315","valide":"Non","ppo":"Non","obsolete":false}},{"type":"Feature","geometry":null,"properties":{"id_ffco":"1988-D10-05","nom":"ORGEVAL","_dept":"10","numero":"1988-D10-05","commune":"MAILLY","echelle":"1/15000","surface":"2.6 km²","annee":"1988","proprietaire":"CA - Champagne-Ardenne","specialite":"CO à pied","latitude":"48.6749373","longitude":"4.1913243","valide":"Non","ppo":"Non","obsolete":false}},{"type":"Feature","geometry":null,"properties":{"id_ffco":"1982-D10-04","nom":"VAUDES","_dept":"10","numero":"1982-D10-04","echelle":"1/15000","surface":"10.0 km²","annee":"1982","proprietaire":"CA - Champagne-Ardenne","niveau":"Interrégional","specialite":"CO à pied","latitude":"48.1563418","longitude":"4.3732462","valide":"Non","ppo":"Non","obsolete":false}},{"type":"Feature","geometry":null,"properties":{"id_ffco":"1982-D10-03","nom":"Temple","_dept":"10","numero":"1982-D10-03","commune":"PINEY","echelle":"1/15000","surface":"8.0 km²","annee":"1982","proprietaire":"CA - Champagne-Ardenne","niveau":"Interrégional","specialite":"CO à pied","latitude":"48.3639848","longitude":"4.333772","valide":"Non","ppo":"Non","obsolete":false}},{"type":"Feature","geometry":null,"properties":{"id_ffco":"1988-D10-02","nom":"NOTRE DAME DU CHENE","_dept":"10","numero":"1988-D10-02","commune":"BAR/SEINE","surface":"1.5 km²","annee":"1988","proprietaire":"CA - Champagne-Ardenne","specialite":"CO à pied","latitude":"48.1147885","longitude":"4.3750957","valide":"Non","ppo":"Non","obsolete":false}},{"type":"Feature","geometry":null,"properties":{"id_ffco":"1988-D10-01","nom":"GRAND ORIENT","_dept":"10","numero":"1988-D10-01","commune":"MENIL ST PERE","echelle":"1/10000","surface":"1.5 km²","annee":"1988","proprietaire":"CA - Champagne-Ardenne","specialite":"CO à pied","latitude":"48.2486609","longitude":"4.3337567","valide":"Non","ppo":"Non","obsolete":false}},{"type":"Feature","geometry":null,"properties":{"id_ffco":"1982-D10-00","nom":"MAILLY \"Z\"","_dept":"10","numero":"1982-D10-00","commune":"MAILLY","echelle":"1/25000","surface":"16.0 km²","annee":"1982","niveau":"Interrégional","specialite":"CO à pied","latitude":"48.6749373","longitude":"4.1913243","valide":"Non","ppo":"Non","obsolete":false}},{"type":"Feature","geometry":null,"properties":{"id_ffco":"1988-D10-00","nom":"GRAND ORIENT","_dept":"10","numero":"1988-D10-00","commune":"MENIL ST PERE","echelle":"1/10000","surface":"0.2 km²","annee":"1988","proprietaire":"CA - Champagne-Ardenne","specialite":"CO à pied","latitude":"48.2486609","longitude":"4.3337567","valide":"Non","ppo":"Non","obsolete":false}},{"type":"Feature","geometry":null,"properties":{"id_ffco":"????-D10-","nom":"Parcours CO","_dept":"10","numero":"????-D10-","commune":"Rumilly lés Vaudes","surface":"None km²","latitude":"48.1456359","longitude":"4.2182614","valide":"Non","ppo":"Oui","obsolete":false}},{"type":"Feature","geometry":null,"properties":{"id_ffco":"????-D10-","nom":"Parcours CO","_dept":"10","numero":"????-D10-","commune":"Piney","surface":"None km²","latitude":"48.3639848","longitude":"4.333772","valide":"Non","ppo":"Oui","obsolete":false}},{"type":"Feature","geometry":null,"properties":{"id_ffco":"????-D10-","nom":"AC Promotion","_dept":"10","numero":"????-D10-","commune":"Lantages","surface":"None km²","latitude":"48.0728144","longitude":"4.2127204","valide":"Non","ppo":"Oui","obsolete":false}}]}