{"type":"FeatureCollection","features":[{"type":"Feature","geometry":{"type":"Polygon","coordinates":[[[2.9969,43.1514],[2.9978,43.1488],[2.9963,43.1447],[2.9967,43.1437],[2.9992,43.1426],[3.0032,43.1429],[3.0037,43.1447],[3.0048,43.1479],[3.0015,43.1495],[2.9986,43.1513],[2.9969,43.1514]]]},"properties":{"id_ffco":"4250","nom":"Port la Nautique","_dept":"11","numero":"2006-D11-014","commune":"Narbonne","echelle":"1/5000","surface":"0.45 km²","format":"A4","annee":"2006","cartographes":"R Hulse","proprietaire":"1104 - CORBIERES ORIENTATION OCCITANIE RAID EVASION","niveau":"Initiation, Scolaire","specialite":"CO à pied","latitude":"43.1465149205","longitude":"3.00027636282","date_saisie":"29/05/2006","date_depot":"10/11/2006","valide":"Oui","ppo":"Non","type_carte":"Nouvelle carte","fond":"Ortho","obsolete":true}},{"type":"Feature","geometry":{"type":"Polygon","coordinates":[[[2.4142,43.1867],[2.4147,43.1845],[2.4129,43.1828],[2.4105,43.1815],[2.4108,43.1801],[2.4117,43.178],[2.4127,43.177],[2.4154,43.1758],[2.4182,43.1739],[2.4188,43.1711],[2.4104,43.1705],[2.4102,43.1674],[2.4135,43.1649],[2.4161,43.1639],[2.4203,43.1639],[2.4286,43.1639],[2.4333,43.1642],[2.4351,43.1642],[2.4375,43.1646],[2.4381,43.1661],[2.44,43.1673],[2.4449,43.1678],[2.4461,43.1697],[2.4461,43.1733],[2.4461,43.1744],[2.4491,43.1762],[2.4532,43.1766],[2.4538,43.179],[2.4531,43.1849],[2.4524,43.1858],[2.4498,43.1859],[2.4488,43.1853],[2.4476,43.1853],[2.4472,43.1855],[2.4415,43.1858],[2.4412,43.1875],[2.4389,43.1886],[2.4251,43.1883],[2.4166,43.1883],[2.4145,43.1877],[2.4142,43.1867]]]},"properties":{"id_ffco":"4115","nom":"LAC DE CAVAYERE","_dept":"11","numero":"2003-D11-009","commune":"Montlegun","echelle":"1/10000","surface":"7.43 km²","format":"A3","annee":"2003","cartographes":"G Goret","proprietaire":"LR - Languedoc-Roussillon","niveau":"National, International","specialite":"CO à pied","latitude":"43.17674118","longitude":"2.43073515888","date_saisie":"13/10/2005","date_depot":"25/10/2005","valide":"Oui","ppo":"Non","type_carte":"Nouvelle carte","fond":"Ortho","obsolete":true}},{"type":"Feature","geometry":null,"properties":{"id_ffco":"3725","nom":"La Source de l'Eau Salée","_dept":"11","numero":"2003-D11-008","commune":"Sougraigne","echelle":"1/5000","surface":"2.0 km²","format":"A4","annee":"2003","cartographes":"Ray Hulse","proprietaire":"1103 - RESEAU DE DECOUVERTE DES PYRENEES AUDOISES","niveau":"Initiation, Scolaire","specialite":"CO à pied","latitude":"43.0543535","longitude":"2.2214603","date_saisie":"04/12/2003","date_depot":"08/12/2003","valide":"Non","ppo":"Non","type_carte":"Nouvelle carte","fond":"Ortho","obsolete":true}},{"type":"Feature","geometry":null,"properties":{"id_ffco":"3610","nom":"La  Plaine Mayrevielle","_dept":"11","numero":"2002-D11-007","commune":"Carcassonne","echelle":"1/5000","surface":"0.5 km²","annee":"2002","proprietaire":"LR - Languedoc-Roussillon","specialite":"CO à pied","latitude":"43.2126053","longitude":"2.3560999","date_saisie":"09/01/2003","date_depot":"10/01/2003","valide":"Non","ppo":"Non","obsolete":true}},{"type":"Feature","geometry":null,"properties":{"id_ffco":"3608","nom":"Bazalac","_dept":"11","numero":"2002-D11-005","commune":"Carcassonne","echelle":"1/2500","surface":"0.3 km²","annee":"2002","proprietaire":"LR - Languedoc-Roussillon","specialite":"CO à pied","latitude":"43.2126053","longitude":"2.3560999","date_saisie":"09/01/2003","date_depot":"10/01/2003","valide":"Non","ppo":"Non","obsolete":true}},{"type":"Feature","geometry":null,"properties":{"id_ffco":"3609","nom":"La Base Nautique","_dept":"11","numero":"2002-D11-004","commune":"Carcassonne","echelle":"1/2500","surface":"0.25 km²","annee":"2002","proprietaire":"LR - Languedoc-Roussillon","specialite":"CO à pied","latitude":"43.2126053","longitude":"2.3560999","date_saisie":"09/01/2003","date_depot":"10/01/2003","valide":"Non","ppo":"Non","obsolete":true}},{"type":"Feature","geometry":{"type":"Polygon","coordinates":[[[2.2459,43.3958],[2.254,43.3954],[2.2577,43.3946],[2.2592,43.3941],[2.2631,43.3954],[2.2668,43.3964],[2.2685,43.3964],[2.2704,43.3963],[2.2686,43.398],[2.2663,43.4013],[2.2672,43.4042],[2.2683,43.4053],[2.2685,43.4063],[2.2679,43.409],[2.2674,43.4102],[2.2667,43.4113],[2.2664,43.4118],[2.2666,43.4129],[2.2655,43.4138],[2.265,43.4148],[2.2618,43.4177],[2.2585,43.4208],[2.2572,43.4234],[2.2572,43.4243],[2.2561,43.4273],[2.2546,43.4277],[2.2529,43.4264],[2.2511,43.4257],[2.2493,43.4258],[2.2479,43.4249],[2.2474,43.4231],[2.2467,43.422],[2.2464,43.4161],[2.2463,43.4134],[2.246,43.4122],[2.2458,43.4114],[2.2455,43.4106],[2.2458,43.4082],[2.2431,43.4066],[2.2401,43.4055],[2.2395,43.4041],[2.2413,43.4019],[2.2434,43.4],[2.2445,43.3973],[2.245,43.396],[2.2459,43.3958]]]},"properties":{"id_ffco":"1374","nom":"LOUBATIERE","_dept":"11","numero":"1984-D11-003","commune":"Lacombe","echelle":"1/15000","surface":"5.46 km²","format":"A4","annee":"1984","cartographes":"Y Carer,JP Auger,P Girard,P Barneoud","proprietaire":"1102","niveau":"Interrégional","specialite":"CO à pied","latitude":"43.4083748388","longitude":"2.25505655493","valide":"Oui","ppo":"Non","type_carte":"Nouvelle carte","fond":"IGN","ref_ign":"MAZAMET","obsolete":true}},{"type":"Feature","geometry":null,"properties":{"id_ffco":"1373","nom":"BERTRANDOU","_dept":"11","numero":"1984-D11-002","commune":"CARCASSONNE","echelle":"1/15000","surface":"4.5 km²","annee":"1984","proprietaire":"1101","niveau":"Interrégional","specialite":"CO à pied","latitude":"43.2126053","longitude":"2.3560999","valide":"Non","ppo":"Non","obsolete":true}}]}