{"type":"FeatureCollection","features":[{"type":"Feature","geometry":{"type":"Polygon","coordinates":[[[3.0748,44.0933],[3.0766,44.0908],[3.0771,44.0902],[3.0783,44.0899],[3.0804,44.0904],[3.0813,44.091],[3.0827,44.0917],[3.0835,44.0919],[3.0828,44.093],[3.0826,44.094],[3.0808,44.0944],[3.0787,44.0948],[3.0766,44.0947],[3.0754,44.094],[3.0748,44.0933]]]},"properties":{"id_ffco":"9810","nom":"LA MALADRERIE","_dept":"12","numero":"2001-D12-077","commune":"MILLIAU","echelle":"1/3500","surface":"0.26 km²","format":"A4","annee":"2001","cartographes":"Julien VIGUIER","proprietaire":"12 - Aveyron","niveau":"Initiation, Scolaire","specialite":"CO à pied","latitude":"44.0925520203","longitude":"3.07900533722","date_saisie":"03/11/2016","date_depot":"12/12/2016","valide":"Oui","ppo":"Non","type_carte":"Nouvelle carte","fond":"Ortho","obsolete":true}},{"type":"Feature","geometry":{"type":"Polygon","coordinates":[[[3.1991,43.8489],[3.1974,43.8476],[3.1953,43.846],[3.1937,43.8451],[3.193,43.8445],[3.1921,43.8432],[3.1907,43.8424],[3.1903,43.8424],[3.1913,43.8421],[3.1908,43.8418],[3.1901,43.8411],[3.1891,43.8404],[3.1881,43.8399],[3.1872,43.8394],[3.176,43.8394],[3.1762,43.8534],[3.1801,43.8535],[3.1803,43.8542],[3.1776,43.8591],[3.1772,43.8605],[3.1779,43.8605],[3.1787,43.8601],[3.1798,43.86],[3.1806,43.86],[3.1816,43.8594],[3.1823,43.859],[3.1838,43.859],[3.1844,43.8591],[3.1857,43.8594],[3.1876,43.8597],[3.189,43.8602],[3.1917,43.8605],[3.1925,43.8598],[3.1935,43.8589],[3.1935,43.8581],[3.1947,43.8576],[3.1955,43.8555],[3.1957,43.8542],[3.1954,43.8531],[3.1958,43.8521],[3.197,43.8511],[3.1981,43.8499],[3.1991,43.8489]]]},"properties":{"id_ffco":"9809","nom":"PLO DE LAS CONQUAS","_dept":"12","numero":"2008-D12-067","commune":"CORNUS","echelle":"1/5000","surface":"3.19 km²","format":"+","annee":"2008","cartographes":"ARCANIS","proprietaire":"12 - Aveyron","niveau":"National, International","specialite":"CO à pied","latitude":"43.8497017015","longitude":"3.18590258335","date_saisie":"03/11/2016","date_depot":"08/12/2016","valide":"Oui","ppo":"Non","type_carte":"Reprise","base":"2008-D12-066 LES BOUZIGASSES","fond":"Ortho","obsolete":true}},{"type":"Feature","geometry":{"type":"Polygon","coordinates":[[[3.1744,43.8371],[3.1721,43.8381],[3.1688,43.8381],[3.1691,43.8383],[3.1695,43.8397],[3.1696,43.8408],[3.1687,43.8412],[3.1678,43.8416],[3.1675,43.842],[3.1673,43.8423],[3.1672,43.8475],[3.1665,43.8481],[3.1663,43.8485],[3.1666,43.8491],[3.1671,43.851],[3.1669,43.8519],[3.1669,43.8523],[3.1667,43.8532],[3.1672,43.8532],[3.168,43.8526],[3.169,43.8523],[3.1698,43.8525],[3.1708,43.8529],[3.172,43.8533],[3.1725,43.8536],[3.173,43.8539],[3.1737,43.8544],[3.1748,43.8543],[3.1755,43.8543],[3.1767,43.8543],[3.1789,43.8544],[3.1796,43.8548],[3.1797,43.8553],[3.1789,43.8572],[3.1784,43.8581],[3.1776,43.8593],[3.177,43.8596],[3.1767,43.8604],[3.178,43.8604],[3.1785,43.8602],[3.1795,43.8602],[3.1805,43.8601],[3.1816,43.8597],[3.1819,43.8591],[3.1827,43.859],[3.1841,43.8591],[3.1858,43.8594],[3.1871,43.8595],[3.1876,43.8597],[3.1885,43.8598],[3.189,43.86],[3.189,43.8594],[3.1894,43.8484],[3.1896,43.8466],[3.1894,43.8429],[3.1896,43.8407],[3.1884,43.8404],[3.1871,43.8393],[3.186,43.8386],[3.1844,43.8383],[3.1825,43.8386],[3.1811,43.8385],[3.1799,43.8383],[3.1786,43.8379],[3.177,43.8375],[3.1744,43.8371]]]},"properties":{"id_ffco":"9808","nom":"LES BOUZIGASSES","_dept":"12","numero":"2008-D12-066","commune":"CORNUS","echelle":"1/5000","surface":"3.55 km²","format":"+","annee":"2008","cartographes":"ARCANIS","proprietaire":"12 - Aveyron","niveau":"National, International","specialite":"CO à pied","latitude":"43.8477634446","longitude":"3.17917258483","date_saisie":"03/11/2016","date_depot":"08/12/2016","valide":"Oui","ppo":"Non","type_carte":"Nouvelle carte","fond":"Ortho","obsolete":true}},{"type":"Feature","geometry":{"type":"Polygon","coordinates":[[[3.3045,44.019],[3.3064,44.02],[3.3066,44.0207],[3.3063,44.0216],[3.306,44.0221],[3.3056,44.0223],[3.3053,44.0229],[3.3066,44.0234],[3.3068,44.0242],[3.3055,44.0247],[3.3025,44.0251],[3.3003,44.0248],[3.2997,44.0239],[3.2996,44.0233],[3.2983,44.0234],[3.298,44.0226],[3.2973,44.0219],[3.2966,44.0217],[3.2969,44.0209],[3.2988,44.0204],[3.3045,44.019]]]},"properties":{"id_ffco":"9796","nom":"NANT VILLAGE","_dept":"12","numero":"2007-D12-061","commune":"NANT","echelle":"1/5000","surface":"0.36 km²","format":"A4","annee":"2007","cartographes":"Julien VIGIER,Vincent HENRI","proprietaire":"12 - Aveyron","niveau":"National, International","specialite":"CO à pied","latitude":"44.0221104673","longitude":"3.30235000999","date_saisie":"27/10/2016","date_depot":"12/12/2016","valide":"Oui","ppo":"Non","type_carte":"Nouvelle carte","fond":"Ortho","obsolete":true}},{"type":"Feature","geometry":{"type":"Polygon","coordinates":[[[3.1541,44.0683],[3.1507,44.0733],[3.1507,44.0745],[3.122,44.0738],[3.1223,44.0714],[3.1236,44.0681],[3.1246,44.0681],[3.1251,44.0599],[3.1308,44.0551],[3.1535,44.0554],[3.1532,44.0576],[3.1537,44.061],[3.1542,44.0626],[3.1548,44.065],[3.1541,44.0683]]]},"properties":{"id_ffco":"9779","nom":"POTENSAC SUD","_dept":"12","numero":"2005-D12-055","commune":"MILLAU","echelle":"1/10000","surface":"4.81 km²","format":"A4","annee":"2005","cartographes":"RED ZONE ET CDCO 12","proprietaire":"12 - Aveyron","niveau":"National, International","specialite":"CO à pied","latitude":"44.0649594411","longitude":"3.13915399149","date_saisie":"26/10/2016","date_depot":"15/12/2016","valide":"Oui","ppo":"Non","type_carte":"Reprise","base":"2002-D12-033 POTENSAC","fond":"Ortho","obsolete":true}},{"type":"Feature","geometry":{"type":"Polygon","coordinates":[[[3.3024,43.9151],[3.3322,43.915],[3.3324,43.9042],[3.3269,43.9041],[3.3272,43.8981],[3.3274,43.893],[3.3153,43.8929],[3.3135,43.8934],[3.3114,43.8941],[3.3101,43.8942],[3.3109,43.8921],[3.3104,43.8903],[3.3094,43.8881],[3.3092,43.887],[3.295,43.887],[3.293,43.8879],[3.289,43.8891],[3.2853,43.8902],[3.2827,43.8933],[3.2816,43.896],[3.2812,43.8983],[3.2812,43.9],[3.2815,43.9014],[3.2822,43.9022],[3.2833,43.9031],[3.2838,43.9047],[3.3024,43.9151]]]},"properties":{"id_ffco":"9778","nom":"LE MONT MERDOUS","_dept":"12","numero":"2005-D12-053","commune":"LA COUVERTOIRADE","echelle":"1/10000","surface":"9.54 km²","format":"A3","annee":"2005","cartographes":"RED ZONE ET CDCO 12","proprietaire":"12 - Aveyron","niveau":"National, International","specialite":"CO à pied","latitude":"43.9017980396","longitude":"3.30679736296","date_saisie":"26/10/2016","date_depot":"15/12/2016","valide":"Oui","ppo":"Non","type_carte":"Nouvelle carte","fond":"Ortho","obsolete":true}},{"type":"Feature","geometry":{"type":"Polygon","coordinates":[[[2.6932,44.3985],[2.6903,44.3985],[2.6897,44.3981],[2.6886,44.398],[2.6883,44.3977],[2.6871,44.3975],[2.6854,44.3972],[2.6843,44.397],[2.6823,44.3971],[2.6806,44.397],[2.6794,44.397],[2.6766,44.3974],[2.6768,44.4004],[2.6775,44.4011],[2.6785,44.4023],[2.6774,44.4028],[2.6771,44.4035],[2.678,44.4053],[2.6871,44.405],[2.6875,44.4037],[2.6889,44.4017],[2.6903,44.4008],[2.6924,44.3998],[2.6932,44.3995],[2.6932,44.3985]]]},"properties":{"id_ffco":"2438","nom":"GAGES LE BAS","_dept":"12","numero":"1995-D12-04","commune":"GAGES","echelle":"1/5000","surface":"0.86 km²","format":"A4","annee":"1995","cartographes":"Julien VIGUIER,Alain VIGUIER","proprietaire":"12 - Aveyron","niveau":"Départemental","specialite":"CO à pied","latitude":"44.4008591005","longitude":"2.68348438819","date_depot":"19/04/2016","valide":"Oui","ppo":"Non","type_carte":"Nouvelle carte","fond":"Ortho","obsolete":true}},{"type":"Feature","geometry":{"type":"Polygon","coordinates":[[[3.2975,44.0257],[3.2959,44.0229],[3.3001,44.0216],[3.3029,44.0194],[3.3038,44.0128],[3.3075,44.0106],[3.3162,44.0123],[3.3193,44.015],[3.3206,44.0165],[3.3239,44.0172],[3.326,44.0188],[3.3267,44.0207],[3.3296,44.0223],[3.332,44.0238],[3.3337,44.0242],[3.3358,44.0229],[3.3374,44.0201],[3.338,44.0187],[3.3395,44.0185],[3.3412,44.0194],[3.3428,44.0212],[3.3451,44.0229],[3.3445,44.027],[3.3422,44.0274],[3.3403,44.0283],[3.3403,44.0292],[3.3415,44.03],[3.3325,44.0375],[3.3297,44.0369],[3.3273,44.0338],[3.3243,44.0313],[3.3203,44.0286],[3.3157,44.0284],[3.3109,44.0278],[3.3072,44.0281],[3.3061,44.0282],[3.3019,44.0297],[3.3001,44.03],[3.2988,44.0299],[3.2989,44.0274],[3.3004,44.025],[3.2975,44.0257]]]},"properties":{"id_ffco":"59","nom":"LE CAZI NANT","_dept":"12","numero":"2002-D12-037","commune":"NANT","echelle":"1/10000","surface":"5.47 km²","format":"A4","annee":"2002","cartographes":"Julien VIGIER","proprietaire":"12 - Aveyron","niveau":"Interrégional","specialite":"CO à pied","latitude":"44.0237182423","longitude":"3.32033335385","date_depot":"12/12/2016","valide":"Oui","ppo":"Non","type_carte":"Nouvelle carte","fond":"Ortho","obsolete":true}},{"type":"Feature","geometry":{"type":"Polygon","coordinates":[[[3.1485,44.0758],[3.1489,44.0769],[3.1479,44.0814],[3.138,44.0845],[3.1268,44.0856],[3.1214,44.0854],[3.1208,44.0626],[3.1319,44.0542],[3.154,44.054],[3.1536,44.0587],[3.1548,44.063],[3.1543,44.0671],[3.1513,44.0731],[3.1498,44.0754],[3.1485,44.0758]]]},"properties":{"id_ffco":"66","nom":"POTENSAC","_dept":"12","numero":"2002-D12-033","commune":"CORNUS","echelle":"1/10000","surface":"7.9 km²","format":"+","annee":"2002","cartographes":"Julien VIGUIER,Vincent HENRI,Matian CORTICA Maruis ANGHEL Jonas KUSZALI Natalia MOCAN","proprietaire":"12 - Aveyron","niveau":"National, International","specialite":"CO à pied","latitude":"44.0691614874","longitude":"3.13696044675","date_depot":"12/12/2016","valide":"Oui","ppo":"Non","type_carte":"Nouvelle carte","fond":"Ortho","obsolete":true}},{"type":"Feature","geometry":{"type":"Polygon","coordinates":[[[3.3033,44.0211],[3.3015,44.0201],[3.2998,44.0213],[3.2989,44.0222],[3.3011,44.0242],[3.2994,44.0265],[3.2986,44.0278],[3.302,44.0292],[3.3038,44.0288],[3.3123,44.0272],[3.3145,44.0275],[3.3161,44.0282],[3.3184,44.0283],[3.32,44.0288],[3.3219,44.0299],[3.324,44.0303],[3.3259,44.0304],[3.3268,44.0295],[3.3274,44.0286],[3.3283,44.0274],[3.3286,44.0264],[3.3292,44.0253],[3.3301,44.0247],[3.3317,44.0235],[3.3311,44.023],[3.3305,44.0224],[3.3295,44.0222],[3.3279,44.0213],[3.3265,44.0207],[3.3264,44.0198],[3.3259,44.0193],[3.3247,44.0184],[3.323,44.0176],[3.32,44.0163],[3.3185,44.0148],[3.3166,44.0131],[3.3105,44.0125],[3.3099,44.0132],[3.3098,44.0138],[3.309,44.0168],[3.3089,44.0183],[3.3064,44.0225],[3.3052,44.0228],[3.3049,44.0221],[3.3033,44.0211]]]},"properties":{"id_ffco":"62","nom":"la roc orientation","_dept":"12","numero":"2001-D12-029","commune":"NANT","echelle":"1/10000","surface":"2.92 km²","format":"A4","annee":"2001","cartographes":"J. VIGUIER,Vincent HENRI","proprietaire":"12 - Aveyron","niveau":"National, International","specialite":"CO à pied","latitude":"44.0225547945","longitude":"3.31532191947","date_depot":"04/10/2016","valide":"Oui","ppo":"Oui (27 postes)","type_carte":"Nouvelle carte","fond":"Ortho","obsolete":true}},{"type":"Feature","geometry":{"type":"Polygon","coordinates":[[[2.6933,44.0981],[2.6867,44.0979],[2.6869,44.0939],[2.6859,44.0899],[2.6851,44.0846],[2.6835,44.0794],[2.6831,44.076],[2.6823,44.0736],[2.6827,44.0701],[2.6834,44.0688],[2.6837,44.0672],[2.6841,44.0655],[2.6874,44.0645],[2.6899,44.064],[2.6923,44.0628],[2.6935,44.0621],[2.6936,44.0608],[2.6932,44.0594],[2.6938,44.0584],[2.6952,44.0571],[2.6985,44.0555],[2.702,44.055],[2.7017,44.0542],[2.7002,44.0525],[2.6986,44.0514],[2.6963,44.0504],[2.6956,44.0495],[2.6959,44.0482],[2.6957,44.0469],[2.6947,44.0443],[2.6968,44.0423],[2.6976,44.0396],[2.6952,44.0389],[2.6938,44.0359],[2.6987,44.032],[2.6995,44.0294],[2.7003,44.0289],[2.6998,44.027],[2.7005,44.0259],[2.7019,44.023],[2.7047,44.0212],[2.708,44.017],[2.7113,44.0158],[2.7116,44.0142],[2.7144,44.0139],[2.7184,44.0152],[2.7232,44.0149],[2.7266,44.0153],[2.729,44.0158],[2.7319,44.0163],[2.735,44.017],[2.7378,44.0171],[2.7374,44.0258],[2.7378,44.0269],[2.739,44.0275],[2.7422,44.0278],[2.7432,44.0278],[2.7451,44.027],[2.7458,44.0278],[2.7467,44.0285],[2.7471,44.0293],[2.7465,44.0303],[2.7459,44.0311],[2.7471,44.0311],[2.7492,44.0314],[2.7534,44.0308],[2.7572,44.0303],[2.7608,44.0303],[2.765,44.03],[2.7672,44.03],[2.7675,44.0311],[2.7677,44.0316],[2.7689,44.0318],[2.7716,44.0324],[2.775,44.0324],[2.7767,44.0324],[2.7782,44.0318],[2.78,44.0331],[2.7821,44.0335],[2.7832,44.0344],[2.7845,44.0361],[2.7859,44.0374],[2.7883,44.0394],[2.7894,44.0391],[2.79,44.0398],[2.7907,44.0409],[2.7942,44.0434],[2.7958,44.0443],[2.798,44.0454],[2.8001,44.0465],[2.7966,44.0467],[2.7961,44.0478],[2.7976,44.0486],[2.7966,44.0492],[2.7948,44.0493],[2.794,44.0499],[2.7934,44.0505],[2.7926,44.0507],[2.793,44.0514],[2.793,44.0519],[2.7919,44.0518],[2.7913,44.0518],[2.7913,44.0543],[2.791,44.0575],[2.7903,44.0587],[2.7931,44.0596],[2.7963,44.061],[2.7971,44.0617],[2.7958,44.0632],[2.7943,44.0653],[2.794,44.0656],[2.7928,44.0668],[2.7918,44.0671],[2.7903,44.067],[2.7877,44.0675],[2.787,44.0682],[2.7868,44.069],[2.7859,44.0699],[2.7855,44.0706],[2.7845,44.0722],[2.7837,44.0734],[2.7834,44.0736],[2.7827,44.0737],[2.7826,44.0741],[2.7831,44.0745],[2.7829,44.0749],[2.7821,44.0749],[2.7811,44.074],[2.7812,44.0725],[2.7813,44.0719],[2.7807,44.0709],[2.7798,44.0699],[2.7795,44.0701],[2.7784,44.0717],[2.7779,44.0732],[2.7771,44.0746],[2.7749,44.0749],[2.7731,44.0752],[2.7718,44.0761],[2.7715,44.0769],[2.7719,44.0773],[2.772,44.0779],[2.7708,44.0795],[2.77,44.0806],[2.7697,44.081],[2.77,44.0818],[2.7697,44.0825],[2.7686,44.0835],[2.7674,44.0848],[2.7657,44.085],[2.7641,44.0846],[2.7628,44.0852],[2.7613,44.0857],[2.7591,44.0858],[2.7564,44.0854],[2.755,44.0846],[2.7514,44.0841],[2.7508,44.0835],[2.734,44.0836],[2.7228,44.0866],[2.7144,44.0898],[2.7092,44.0915],[2.7067,44.0921],[2.7048,44.0923],[2.702,44.0925],[2.7015,44.0959],[2.7001,44.0978],[2.6933,44.0981]]]},"properties":{"id_ffco":"52","nom":"IKALANA 2000","_dept":"12","numero":"2000-D12-025","commune":"VILLEFRANCHE DE PANAT","echelle":"1/20000","surface":"53.25 km²","format":"A3","annee":"2000","cartographes":"Julien VIGUIER","niveau":"Interrégional","specialite":"Raid'O","latitude":"44.056394622","longitude":"2.73521545498","valide":"Non","ppo":"Non","type_carte":"Nouvelle carte","fond":"Ortho","obsolete":true}},{"type":"Feature","geometry":{"type":"Polygon","coordinates":[[[2.5601,44.4019],[2.5637,44.4016],[2.5637,44.4018],[2.5643,44.4018],[2.5644,44.4024],[2.5637,44.4026],[2.5628,44.4032],[2.5622,44.404],[2.5619,44.4049],[2.5614,44.4055],[2.5605,44.4054],[2.56,44.4056],[2.5597,44.4057],[2.5591,44.4052],[2.5586,44.4046],[2.5591,44.4036],[2.5601,44.4019]]]},"properties":{"id_ffco":"9241","nom":"PARC DE VABRE","_dept":"12","numero":"1993-D12-02","commune":"VABRE","echelle":"1/4000","surface":"0.12 km²","format":"A5","annee":"1993","cartographes":"Jean Pierre LAVAL","proprietaire":"MJC RODEZ","niveau":"Initiation, Scolaire","specialite":"CO à pied","latitude":"44.4034492797","longitude":"2.56113106695","date_saisie":"08/02/2016","date_depot":"19/04/2016","valide":"Oui","ppo":"Non","type_carte":"Nouvelle carte","fond":"Ortho","obsolete":true}},{"type":"Feature","geometry":{"type":"Polygon","coordinates":[[[1.9723,44.3038],[1.9744,44.3039],[1.975,44.302],[1.9814,44.3023],[1.9821,44.303],[1.9861,44.302],[1.9872,44.302],[1.9875,44.3015],[1.989,44.3015],[1.9904,44.3004],[1.9911,44.2995],[1.9914,44.2977],[1.9918,44.2969],[1.9918,44.2957],[1.9921,44.2942],[1.9924,44.2934],[1.991,44.2929],[1.9894,44.2934],[1.9894,44.2925],[1.9871,44.2924],[1.9875,44.2915],[1.9874,44.2883],[1.9842,44.2877],[1.9754,44.2876],[1.9756,44.2889],[1.9753,44.2901],[1.9753,44.2908],[1.973,44.2919],[1.9732,44.2931],[1.9731,44.2942],[1.9731,44.2953],[1.9731,44.2972],[1.9732,44.2988],[1.9733,44.2995],[1.9729,44.3003],[1.9725,44.3006],[1.9723,44.3038]]]},"properties":{"id_ffco":"67","nom":"LE PUECH DUBERT","_dept":"12","numero":"1998-D12-018","commune":"LAROUQUETTE","echelle":"1/7500","surface":"2.12 km²","format":"A4","annee":"1998","cartographes":"J. VIGUIER","proprietaire":"12 - Aveyron","niveau":"Interrégional","specialite":"CO à pied","latitude":"44.2955869999","longitude":"1.98164015461","date_depot":"04/10/2016","valide":"Oui","ppo":"Oui (14 postes)","type_carte":"Reprise","base":"1995-D12-07 LE PUECH DUBER","fond":"Ortho","obsolete":true}},{"type":"Feature","geometry":{"type":"Polygon","coordinates":[[[2.6669,44.4241],[2.6638,44.4212],[2.66,44.4184],[2.6528,44.416],[2.6499,44.415],[2.6504,44.4097],[2.647,44.4058],[2.6479,44.4051],[2.6511,44.404],[2.654,44.4027],[2.6559,44.4021],[2.656,44.4003],[2.6592,44.3999],[2.6611,44.3999],[2.6634,44.3987],[2.6642,44.3971],[2.6656,44.3957],[2.6669,44.3955],[2.6711,44.3986],[2.6783,44.3975],[2.6812,44.3971],[2.6835,44.3969],[2.6861,44.3968],[2.6871,44.3973],[2.6883,44.3975],[2.6883,44.398],[2.6893,44.3981],[2.6898,44.3983],[2.6903,44.3985],[2.6935,44.3982],[2.6965,44.3979],[2.7011,44.3969],[2.704,44.3969],[2.7044,44.3976],[2.7053,44.3977],[2.706,44.3983],[2.7074,44.3996],[2.7085,44.402],[2.7116,44.403],[2.7105,44.4145],[2.7047,44.4193],[2.7003,44.4197],[2.6971,44.4209],[2.6945,44.4212],[2.6917,44.421],[2.689,44.422],[2.6878,44.4223],[2.6811,44.4232],[2.678,44.4236],[2.6756,44.4233],[2.6729,44.4226],[2.6718,44.4226],[2.6687,44.4235],[2.6669,44.4241]]]},"properties":{"id_ffco":"2909","nom":"LA CAYROUSE","_dept":"12","numero":"1997-D12-012","commune":"LIOUJAS","echelle":"1/10000","surface":"11.88 km²","format":"+","annee":"1997","cartographes":"SHOCART","proprietaire":"12 - Aveyron","niveau":"National, International","specialite":"CO à pied","latitude":"44.409584969","longitude":"2.68093904273","date_depot":"23/09/2020","valide":"Oui","ppo":"Non","type_carte":"Nouvelle carte","fond":"Ortho","obsolete":true}},{"type":"Feature","geometry":{"type":"Polygon","coordinates":[[[2.6422,44.4307],[2.6411,44.4292],[2.6405,44.4278],[2.6404,44.4261],[2.642,44.4227],[2.6427,44.4209],[2.6434,44.4136],[2.649,44.4142],[2.6576,44.4167],[2.663,44.4193],[2.6674,44.4234],[2.6664,44.4246],[2.6643,44.4255],[2.6586,44.4272],[2.6598,44.4284],[2.6576,44.4296],[2.6565,44.4296],[2.6539,44.429],[2.6502,44.429],[2.6482,44.429],[2.645,44.4302],[2.6423,44.4312],[2.6422,44.4307]]]},"properties":{"id_ffco":"2907","nom":"CARLINA","_dept":"12","numero":"1997-D12-011","commune":"LIOUJAS","echelle":"1/10000","surface":"2.62 km²","format":"A4","annee":"1997","cartographes":"Julien VIGUIER,Nicolas GIGANTO","proprietaire":"12 - Aveyron","niveau":"Interrégional","specialite":"CO à pied","latitude":"44.4225288437","longitude":"2.65197375254","date_depot":"19/04/2016","valide":"Oui","ppo":"Non","type_carte":"Nouvelle carte","fond":"Ortho","obsolete":true}},{"type":"Feature","geometry":{"type":"Polygon","coordinates":[[[2.6229,44.4415],[2.6221,44.4407],[2.6202,44.4397],[2.6193,44.4387],[2.6186,44.4351],[2.6178,44.4322],[2.6161,44.4294],[2.6129,44.4263],[2.6108,44.424],[2.6115,44.4235],[2.6199,44.4231],[2.6266,44.4223],[2.6362,44.4206],[2.6435,44.4203],[2.6427,44.4222],[2.6411,44.4263],[2.6412,44.4281],[2.6418,44.4292],[2.6426,44.4302],[2.6419,44.4309],[2.6396,44.4327],[2.6376,44.4334],[2.6347,44.4355],[2.632,44.4378],[2.6295,44.4389],[2.6249,44.4403],[2.6229,44.4415]]]},"properties":{"id_ffco":"2910","nom":"LOUS CADES","_dept":"12","numero":"1997-D12-010","commune":"LIOUJAS","echelle":"1/10000","surface":"3.57 km²","format":"A3","annee":"1997","cartographes":"SHOCART","proprietaire":"12 - Aveyron","niveau":"National, International","specialite":"CO à pied","latitude":"44.429397618","longitude":"2.62821100744","valide":"Oui","ppo":"Non","type_carte":"Nouvelle carte","fond":"Ortho","obsolete":true}}]}