{"type":"FeatureCollection","features":[{"type":"Feature","geometry":null,"properties":{"id_ffco":"2568","nom":"PINEDE","_dept":"13","numero":"1992-D13-999","commune":"ISTRES","echelle":"1/5000","surface":"0.7 km²","annee":"1992","proprietaire":"1303 - MARSEILLE COURSE ORIENTATION","specialite":"CO à pied","latitude":"43.5126731","longitude":"4.9877661","valide":"Non","ppo":"Non","obsolete":true}},{"type":"Feature","geometry":null,"properties":{"id_ffco":"2577","nom":"CHATEAU CABASSE","_dept":"13","numero":"1992-D13-998","commune":"MIRAMAS","echelle":"1/10000","surface":"2.0 km²","annee":"1992","proprietaire":"PR - Provence","specialite":"CO à pied","latitude":"43.5798759","longitude":"5.0032716","valide":"Non","ppo":"Non","obsolete":true}},{"type":"Feature","geometry":null,"properties":{"id_ffco":"1465","nom":"PUITS MADAME","_dept":"13","numero":"1985-D13-997","commune":"PELISSANE","echelle":"1/15000","surface":"0.0 km²","annee":"1985","proprietaire":"13 - Bouches-du-Rhône","niveau":"Interrégional","specialite":"CO à pied","latitude":"43.6313126","longitude":"5.1502445","valide":"Non","ppo":"Non","obsolete":true}},{"type":"Feature","geometry":null,"properties":{"id_ffco":"2585","nom":"GORGUETTES","_dept":"13","numero":"2003-D13-996","commune":"CASSIS CES","echelle":"1/7500","surface":"1.1 km²","annee":"2003","proprietaire":"13 - Bouches-du-Rhône","specialite":"CO à pied","latitude":"43.5911679","longitude":"5.3102505","valide":"Non","ppo":"Non","obsolete":true}},{"type":"Feature","geometry":null,"properties":{"id_ffco":"2587","nom":"PARC GRIFFON","_dept":"13","numero":"1992-D13-995","commune":"vitrolles","echelle":"1/7500","surface":"0.8 km²","annee":"1992","proprietaire":"PR - Provence","specialite":"CO à pied","latitude":"43.4200332","longitude":"5.2975707","valide":"Non","ppo":"Non","obsolete":true}},{"type":"Feature","geometry":null,"properties":{"id_ffco":"3042","nom":"LES SAINTES MARIE DE LA MER","_dept":"13","numero":"1999-D13-994","commune":"LES SAINTES MARIES","echelle":"1/15000","surface":"4.0 km²","annee":"1999","proprietaire":"PR - Provence","niveau":"Interrégional","specialite":"CO à pied","latitude":"43.452133","longitude":"4.4291593","valide":"Non","ppo":"Non","obsolete":true}},{"type":"Feature","geometry":{"type":"Polygon","coordinates":[[[5.3678,43.2407],[5.3656,43.2391],[5.3664,43.2385],[5.3662,43.2376],[5.3661,43.2366],[5.3662,43.2362],[5.3671,43.2354],[5.368,43.2347],[5.3685,43.2343],[5.3683,43.2336],[5.3677,43.2331],[5.3674,43.2325],[5.3674,43.2318],[5.3673,43.2308],[5.3673,43.2298],[5.3668,43.2294],[5.3671,43.2285],[5.3671,43.2276],[5.3688,43.2283],[5.3702,43.2276],[5.3713,43.2278],[5.3731,43.2279],[5.3748,43.2277],[5.3763,43.2275],[5.3779,43.2279],[5.3786,43.229],[5.3782,43.2325],[5.3762,43.2346],[5.3755,43.2354],[5.3739,43.2351],[5.373,43.2362],[5.3722,43.236],[5.3716,43.2369],[5.3706,43.2364],[5.3686,43.2386],[5.3704,43.239],[5.3686,43.2405],[5.3683,43.2404],[5.3678,43.2407]]]},"properties":{"id_ffco":"4018","nom":"Campagne Pastré","_dept":"13","numero":"2004-D13-99","commune":"Marseille","echelle":"1/5000","surface":"0.89 km²","format":"A4","annee":"2004","cartographes":"S Rozoum,J Keller,Paul Visca","proprietaire":"13 - Bouches-du-Rhône","niveau":"Départemental","specialite":"CO à pied","latitude":"43.2326139746","longitude":"5.37184979215","date_saisie":"02/02/2012","date_depot":"20/09/2005","valide":"Oui","ppo":"Non","type_carte":"Reprise","base":"2004-D13-54 Campagne Pastre E","fond":"Ortho","obsolete":true}},{"type":"Feature","geometry":null,"properties":{"id_ffco":"72","nom":"Parc de la Pierre St Vincent","_dept":"13","numero":"2009-D13-97","commune":"Château Neuf les Martigues","surface":"0.1 km²","format":"A4","annee":"2009","cartographes":"CAP ORIENTATION","proprietaire":"Commune","niveau":"Initiation, Scolaire","specialite":"CO à pied","latitude":"43.3860086775","longitude":"5.15078860971","valide":"Non","ppo":"Oui","obsolete":true}},{"type":"Feature","geometry":null,"properties":{"id_ffco":"5351","nom":"Font de Mai","_dept":"13","numero":"2010-D13-95","commune":"Aubagne","echelle":"1/7500","surface":"1.0 km²","format":"A4","annee":"2010","cartographes":"S Rozoum","proprietaire":"1316 - GEMENOS AVENTURES ET DECOUVERTE","niveau":"Initiation, Scolaire","specialite":"CO à pied","latitude":"43.2716619771","longitude":"5.57147903427","date_saisie":"13/02/2012","valide":"Non","ppo":"Non","obsolete":true}},{"type":"Feature","geometry":null,"properties":{"id_ffco":"5350","nom":"Peynier village","_dept":"13","numero":"2010-D13-94","commune":"Peynier","echelle":"1/5000","surface":"1.0 km²","format":"A4","annee":"2010","cartographes":"R Viale","proprietaire":"1315 - PACARAID","niveau":"Départemental","specialite":"CO à pied","latitude":"43.4472669539","longitude":"5.63962860092","date_saisie":"13/02/2012","valide":"Non","ppo":"Non","type_carte":"Nouvelle carte","fond":"Cadastre","obsolete":true}},{"type":"Feature","geometry":null,"properties":{"id_ffco":"5345","nom":"Village de Gréasque","_dept":"13","numero":"2010-D13-89","commune":"Gréasque","echelle":"1/4000","surface":"0.5 km²","format":"A4","annee":"2010","cartographes":"P Delenne","proprietaire":"13 - Bouches-du-Rhône","specialite":"CO à pied","contacts":"CDCO13, cd.bouches-du-rhone@ffcorientation.fr","latitude":"43.4309385528","longitude":"5.54418487533","date_saisie":"12/02/2012","valide":"Non","ppo":"Non","obsolete":true}},{"type":"Feature","geometry":null,"properties":{"id_ffco":"5344","nom":"Les euves Sud","_dept":"13","numero":"2004-D13-88","commune":"Greasque","echelle":"1/10000","surface":"5.0 km²","format":"A4","annee":"2004","cartographes":"A Pellegry","proprietaire":"13 - Bouches-du-Rhône","niveau":"Régional","specialite":"CO à pied","contacts":"CDCO13, cd.bouches-du-rhone@ffcorientation.fr","latitude":"43.415603295","longitude":"5.55379791244","date_saisie":"12/02/2012","valide":"Non","ppo":"Non","obsolete":true}},{"type":"Feature","geometry":null,"properties":{"id_ffco":"5342","nom":"Ravin de Malaga","_dept":"13","numero":"2010-D13-86","commune":"Rognac","echelle":"1/5000","surface":"0.7 km²","format":"A4","annee":"2010","cartographes":"P Delenne","proprietaire":"13 - Bouches-du-Rhône","niveau":"Initiation, Scolaire","specialite":"CO à pied","contacts":"CDCO13, cd.bouches-du-rhone@ffcorientation.fr","latitude":"43.4835849501","longitude":"5.24257583604","date_saisie":"12/02/2012","valide":"Non","ppo":"Non","obsolete":true}},{"type":"Feature","geometry":null,"properties":{"id_ffco":"3539","nom":"PEYROLLES, La Grande Baume","_dept":"13","numero":"2001-D13-84","commune":"Peyrolles","echelle":"1/10000","surface":"5.0 km²","annee":"2001","proprietaire":"PR - Provence","specialite":"CO à pied","latitude":"43.6463237","longitude":"5.5833383","date_saisie":"25/07/2002","date_depot":"26/07/2002","valide":"Non","ppo":"Non","obsolete":true}},{"type":"Feature","geometry":null,"properties":{"id_ffco":"3996","nom":"Val de l'Arc","_dept":"13","numero":"2000-D13-83","commune":"Aix en Provence","echelle":"1/5000","surface":"0.2 km²","annee":"2000","cartographes":"P Delenne","proprietaire":"13 - Bouches-du-Rhône","niveau":"Départemental","specialite":"CO à pied","latitude":"43.5249088","longitude":"5.4541444","date_saisie":"01/09/2005","date_depot":"09/09/2005","valide":"Non","ppo":"Non","obsolete":true}},{"type":"Feature","geometry":{"type":"Polygon","coordinates":[[[5.5832,43.5194],[5.5856,43.5195],[5.5894,43.5207],[5.591,43.5206],[5.5958,43.5189],[5.5991,43.5183],[5.6002,43.5181],[5.5998,43.5146],[5.5992,43.5122],[5.5982,43.5117],[5.5958,43.5128],[5.5882,43.5133],[5.5835,43.515],[5.5827,43.5168],[5.5831,43.5194],[5.5832,43.5194]]]},"properties":{"id_ffco":"5272","nom":"Champ du chinois","_dept":"13","numero":"2008-D13-80","commune":"Saint Antonin","echelle":"1/5000","surface":"0.96 km²","format":"A4","annee":"2008","cartographes":"Pierre Delenne","proprietaire":"13 - Bouches-du-Rhône","niveau":"Régional","specialite":"CO à pied","latitude":"43.5164227339","longitude":"5.59169870605","date_saisie":"02/02/2012","valide":"Non","ppo":"Non","obsolete":true}},{"type":"Feature","geometry":null,"properties":{"id_ffco":"3077","nom":"Magenta","_dept":"13","numero":"1998-D13-77A","commune":"VITROLLES","echelle":"1/7500","surface":"3.0 km²","format":"A4","annee":"1998","cartographes":"M Haberkorn","proprietaire":"13 - Bouches-du-Rhône","niveau":"Interrégional","specialite":"CO à pied","latitude":"43.4604256","longitude":"5.2485256","valide":"Non","ppo":"Non","obsolete":true}},{"type":"Feature","geometry":null,"properties":{"id_ffco":"3059","nom":"LA PLAGE DU PRADO","_dept":"13","numero":"1999-D13-73","commune":"MARSEILLE","echelle":"1/4000","surface":"1.0 km²","annee":"1999","proprietaire":"13 - Bouches-du-Rhône","niveau":"Initiation, Scolaire","specialite":"CO à pied","latitude":"43.2976116","longitude":"5.3810421","valide":"Non","ppo":"Non","obsolete":true}},{"type":"Feature","geometry":{"type":"Polygon","coordinates":[[[5.4876,43.4395],[5.49,43.4389],[5.4915,43.4388],[5.4959,43.437],[5.4966,43.4363],[5.4972,43.4358],[5.498,43.4355],[5.5009,43.4357],[5.5017,43.4385],[5.5007,43.439],[5.4994,43.4395],[5.497,43.4401],[5.4959,43.4405],[5.4949,43.4408],[5.4924,43.4423],[5.492,43.4425],[5.4895,43.4432],[5.4885,43.4439],[5.4872,43.4438],[5.486,43.4439],[5.4873,43.4426],[5.487,43.4412],[5.4873,43.4405],[5.4876,43.4395]]]},"properties":{"id_ffco":"80","nom":"Bois de Verdillon","_dept":"13","numero":"2006-D13-71","commune":"Gardanne","echelle":"1/5000","surface":"0.5 km²","format":"A4","annee":"2006","cartographes":"C Jouve","proprietaire":"13 - Bouches-du-Rhône","niveau":"Initiation, Scolaire","specialite":"CO à pied","contacts":"Mairie Gardanne, 04 42 65 77 05","latitude":"43.4395333082","longitude":"5.49401050782","valide":"Non","ppo":"Oui (40 postes)","obsolete":true}},{"type":"Feature","geometry":{"type":"Polygon","coordinates":[[[5.6298,43.4503],[5.6331,43.4497],[5.6366,43.4491],[5.6368,43.4476],[5.6371,43.4456],[5.6328,43.4446],[5.6325,43.4429],[5.6231,43.4432],[5.6172,43.4435],[5.616,43.45],[5.6221,43.4505],[5.63,43.4503],[5.6298,43.4503]]]},"properties":{"id_ffco":"2581","nom":"Peynier, La Garenne","_dept":"13","numero":"2006-D13-70","commune":"PEYNIER","echelle":"1/10000","surface":"1.19 km²","format":"A4","annee":"2006","cartographes":"Jacques Keller,Pierre Delenne","proprietaire":"13 - Bouches-du-Rhône","niveau":"Départemental","specialite":"CO à pied","latitude":"43.4468426903","longitude":"5.62607349943","valide":"Non","ppo":"Non","obsolete":true}},{"type":"Feature","geometry":null,"properties":{"id_ffco":"4180","nom":"Jardin de la Mathilde","_dept":"13","numero":"2005-D13-67","commune":"Marseille","echelle":"1/1500","surface":"0.02 km²","annee":"2005","cartographes":"S Rozoum","proprietaire":"13 - Bouches-du-Rhône","niveau":"Initiation, Scolaire","specialite":"CO à pied","contacts":"Inspection Académie","latitude":"43.2976116","longitude":"5.3810421","date_saisie":"19/01/2006","date_depot":"15/02/2006","valide":"Non","ppo":"Non","obsolete":true}},{"type":"Feature","geometry":null,"properties":{"id_ffco":"5329","nom":"Parc du Font du Roy","_dept":"13","numero":"2002-D13-66","commune":"Gardanne","echelle":"1/1000","surface":"0.02 km²","format":"A4","annee":"2002","cartographes":"C Jouve","proprietaire":"13 - Bouches-du-Rhône","niveau":"Initiation, Scolaire","specialite":"CO à pied","contacts":"Mairie Gardanne, 04 42 65 77 05","latitude":"43.4508187323","longitude":"5.47114295944","date_saisie":"12/02/2012","valide":"Non","ppo":"Non","obsolete":true}},{"type":"Feature","geometry":null,"properties":{"id_ffco":"5309","nom":"La Bosque","_dept":"13","numero":"2005-D13-65","commune":"Venelles","echelle":"1/2500","surface":"0.06 km²","format":"A5","annee":"2005","cartographes":"Pierre Delenne","proprietaire":"13 - Bouches-du-Rhône","niveau":"Initiation, Scolaire","specialite":"CO à pied","latitude":"43.5951742462","longitude":"5.46760244355","date_saisie":"02/02/2012","valide":"Non","ppo":"Non","obsolete":true}},{"type":"Feature","geometry":{"type":"Polygon","coordinates":[[[5.579,43.415],[5.579,43.4107],[5.5794,43.406],[5.5897,43.406],[5.6029,43.407],[5.6099,43.4102],[5.6094,43.4149],[5.6091,43.4187],[5.596,43.4192],[5.5866,43.416],[5.5787,43.4151],[5.579,43.415]]]},"properties":{"id_ffco":"5308","nom":"Plaine de Baumont","_dept":"13","numero":"2005-D13-64","commune":"Belcodène","echelle":"1/7500","surface":"2.99 km²","format":"A3","annee":"2005","cartographes":"C Gaillard","proprietaire":"13 - Bouches-du-Rhône","niveau":"Départemental","specialite":"CO à VTT","latitude":"43.4122718916","longitude":"5.59464318927","date_saisie":"02/02/2012","valide":"Non","ppo":"Non","obsolete":true}},{"type":"Feature","geometry":null,"properties":{"id_ffco":"4015","nom":"Parc du Vieux Moulin","_dept":"13","numero":"2004-D13-62","commune":"Marseille","echelle":"1/1500","surface":"0.05 km²","annee":"2004","cartographes":"S Rozoum","proprietaire":"13 - Bouches-du-Rhône","niveau":"Initiation, Scolaire","specialite":"CO à pied","latitude":"43.2976116","longitude":"5.3810421","date_saisie":"01/09/2005","date_depot":"20/09/2005","valide":"Non","ppo":"Non","obsolete":true}},{"type":"Feature","geometry":null,"properties":{"id_ffco":"5305","nom":"Parc Saint-Cyr","_dept":"13","numero":"2004-D13-61","commune":"Marseille","echelle":"1/2000","surface":"0.08 km²","format":"A5","annee":"2004","proprietaire":"13 - Bouches-du-Rhône","niveau":"Initiation, Scolaire","specialite":"CO à pied","date_saisie":"02/02/2012","valide":"Non","ppo":"Non","obsolete":true}},{"type":"Feature","geometry":null,"properties":{"id_ffco":"4016","nom":"Colline Saint Joseph","_dept":"13","numero":"2004-D13-60","commune":"Marseille","echelle":"1/2500","surface":"0.07 km²","annee":"2004","cartographes":"S Rozoum","proprietaire":"13 - Bouches-du-Rhône","niveau":"Initiation, Scolaire","specialite":"CO à pied","contacts":"Inspection Académie","latitude":"43.2976116","longitude":"5.3810421","date_saisie":"01/09/2005","date_depot":"20/09/2005","valide":"Non","ppo":"Non","obsolete":true}},{"type":"Feature","geometry":null,"properties":{"id_ffco":"2906","nom":"CARPIAGNE","_dept":"13","numero":"1995-D13-59","commune":"CARPIAGNE","echelle":"1/15000","surface":"14.8 km²","annee":"1995","niveau":"National, International","specialite":"CO à pied","latitude":"43.2608689","longitude":"5.5388484","valide":"Non","ppo":"Non","obsolete":true}},{"type":"Feature","geometry":{"type":"Polygon","coordinates":[[[5.4994,43.6102],[5.5078,43.6086],[5.5143,43.606],[5.5186,43.6048],[5.5217,43.5976],[5.5256,43.59],[5.5217,43.5812],[5.5188,43.5751],[5.5083,43.5748],[5.5042,43.5803],[5.5009,43.5861],[5.4987,43.5922],[5.4901,43.5946],[5.4875,43.5964],[5.4951,43.6009],[5.4996,43.6102],[5.4994,43.6102]]]},"properties":{"id_ffco":"4002","nom":"Venelles Orientation à VTT","_dept":"13","numero":"2004-D13-58","commune":"Venelles","echelle":"1/10000","surface":"6.85 km²","format":"A3","annee":"2004","cartographes":"P Delenne","proprietaire":"13 - Bouches-du-Rhône","niveau":"National, International","specialite":"CO à pied","latitude":"43.5928296378","longitude":"5.50939918807","date_saisie":"01/09/2005","valide":"Non","ppo":"Non","obsolete":true}},{"type":"Feature","geometry":null,"properties":{"id_ffco":"2600","nom":"GRAND MEJAN","_dept":"13","numero":"1992-D13-55","commune":"MAUSSANE","echelle":"1/10000","surface":"1.5 km²","annee":"1992","proprietaire":"PR - Provence","specialite":"CO à pied","latitude":"43.7208889","longitude":"4.8050305","valide":"Non","ppo":"Non","obsolete":true}},{"type":"Feature","geometry":null,"properties":{"id_ffco":"2600","nom":"PETITE CRAU","_dept":"13","numero":"1992-D13-55","commune":"ST REMY DE PROVENCE","echelle":"1/7500","surface":"2.5 km²","annee":"1992","proprietaire":"PR - Provence","specialite":"CO à pied","latitude":"43.7885909","longitude":"4.8300367","valide":"Non","ppo":"Non","obsolete":true}},{"type":"Feature","geometry":null,"properties":{"id_ffco":"5297","nom":"Campagne Pastre E","_dept":"13","numero":"2004-D13-54","commune":"Marseille","echelle":"1/5000","surface":"0.9 km²","format":"A4","annee":"2004","proprietaire":"13 - Bouches-du-Rhône","niveau":"Départemental","specialite":"CO à pied","contacts":"CDCO, 06 87 49 57 65, paul.visca@wanadoo.fr","latitude":"43.2375930302","longitude":"5.36969108567","date_saisie":"02/02/2012","valide":"Non","ppo":"Oui (45 postes)","obsolete":true}},{"type":"Feature","geometry":null,"properties":{"id_ffco":"2598","nom":"VENELLES COLLET REDON","_dept":"13","numero":"1992-D13-52","commune":"AIX EN PROVENCE","echelle":"1/5000","surface":"0.5 km²","annee":"1992","proprietaire":"PR - Provence","specialite":"CO à pied","latitude":"43.5249088","longitude":"5.4541444","valide":"Non","ppo":"Non","obsolete":true}},{"type":"Feature","geometry":null,"properties":{"id_ffco":"2841","nom":"LES UBACS","_dept":"13","numero":"1995-D13-51","surface":"0.0 km²","annee":"1995","specialite":"CO à pied","latitude":"43.5911679","longitude":"5.3102505","valide":"Non","ppo":"Non","obsolete":true}},{"type":"Feature","geometry":null,"properties":{"id_ffco":"1475","nom":"FORET DE FONT BLANCHE","_dept":"13","numero":"1985-D13-50","commune":"AUBAGNE","echelle":"1/15000","surface":"6.0 km²","annee":"1985","proprietaire":"PR - Provence","niveau":"Interrégional","specialite":"CO à pied","latitude":"43.2932531","longitude":"5.5702808","valide":"Non","ppo":"Non","obsolete":true}},{"type":"Feature","geometry":null,"properties":{"id_ffco":"1474","nom":"VENELLES LES LIGOURES","_dept":"13","numero":"1985-D13-49","commune":"VENELLES","echelle":"1/15000","surface":"16.5 km²","annee":"1985","proprietaire":"PR - Provence","niveau":"Interrégional","specialite":"CO à pied","latitude":"43.597942","longitude":"5.4849561","valide":"Non","ppo":"Non","obsolete":true}},{"type":"Feature","geometry":{"type":"Polygon","coordinates":[[[5.5288,43.636],[5.5412,43.6346],[5.5451,43.6239],[5.5492,43.6093],[5.5563,43.602],[5.5542,43.602],[5.5506,43.5927],[5.5389,43.5933],[5.5245,43.5983],[5.5159,43.602],[5.5183,43.6074],[5.5225,43.6171],[5.5192,43.6242],[5.523,43.6291],[5.5209,43.632],[5.5283,43.6356],[5.5288,43.636]]]},"properties":{"id_ffco":"4003","nom":"Forêt de Meyrargues","_dept":"13","numero":"2004-D13-49","commune":"Meyrargues","echelle":"1/15000","surface":"9.91 km²","format":"A3","annee":"2004","cartographes":"S Rozoum","proprietaire":"13 - Bouches-du-Rhône","niveau":"Interrégional","specialite":"CO à pied","latitude":"43.6129057207","longitude":"5.53498301195","date_saisie":"01/09/2005","date_depot":"09/09/2005","valide":"Non","ppo":"Non","obsolete":true}},{"type":"Feature","geometry":null,"properties":{"id_ffco":"1472","nom":"ST JULIEN","_dept":"13","numero":"1985-D13-47","commune":"SAUSSET les PINS","echelle":"1/15000","surface":"6.0 km²","annee":"1985","proprietaire":"PR - Provence","niveau":"Interrégional","specialite":"CO à pied","latitude":"43.3311653","longitude":"5.1063094","valide":"Non","ppo":"Non","obsolete":true}},{"type":"Feature","geometry":null,"properties":{"id_ffco":"2597","nom":"BASTIDE HAUTE","_dept":"13","numero":"1992-D13-46","commune":"SALON de PROV.","echelle":"1/2500","surface":"0.5 km²","annee":"1992","proprietaire":"PR - Provence","specialite":"CO à pied","latitude":"43.6405058","longitude":"5.0866043","valide":"Non","ppo":"Non","obsolete":true}},{"type":"Feature","geometry":null,"properties":{"id_ffco":"4017","nom":"Parc François Billoux","_dept":"13","numero":"2003-D13-44","commune":"Marseille","echelle":"1/2000","surface":"0.06 km²","annee":"2003","cartographes":"S Rozoum","proprietaire":"13 - Bouches-du-Rhône","niveau":"Départemental","specialite":"CO à pied","latitude":"43.2976116","longitude":"5.3810421","date_saisie":"01/09/2005","date_depot":"20/09/2005","valide":"Non","ppo":"Non","obsolete":true}},{"type":"Feature","geometry":null,"properties":{"id_ffco":"2596","nom":"VAL DE TORSE","_dept":"13","numero":"1992-D13-43","commune":"AIX EN PRVCE","echelle":"1/5000","surface":"0.5 km²","annee":"1992","proprietaire":"PR - Provence","specialite":"CO à pied","latitude":"43.5249088","longitude":"5.4541444","valide":"Non","ppo":"Non","obsolete":true}},{"type":"Feature","geometry":null,"properties":{"id_ffco":"2595","nom":"JAS de BOUFFAN","_dept":"13","numero":"1992-D13-42","commune":"AIX en PROVENCE","echelle":"1/5000","surface":"1.0 km²","annee":"1992","proprietaire":"PR - Provence","specialite":"CO à pied","latitude":"43.5249088","longitude":"5.4541444","valide":"Non","ppo":"Non","obsolete":true}},{"type":"Feature","geometry":null,"properties":{"id_ffco":"4009","nom":"Chateaurenard, Rocher de Martin","_dept":"13","numero":"2003-D13-41","commune":"Chateurenard","echelle":"1/10000","surface":"3.5 km²","format":"A3","annee":"2003","cartographes":"A Pellegry","proprietaire":"PR - Provence","niveau":"Interrégional","specialite":"CO à pied","latitude":"43.8819591","longitude":"4.8553598","date_saisie":"01/09/2005","date_depot":"20/09/2005","valide":"Non","ppo":"Non","type_carte":"Nouvelle carte","base":"2010-D13-91 Rocher de Martin","fond":"Ortho","obsolete":true}},{"type":"Feature","geometry":null,"properties":{"id_ffco":"2594","nom":"PETIT ARBOIS","_dept":"13","numero":"1992-D13-40","commune":"AIX EN PROVENCE","echelle":"1/10000","surface":"3.2 km²","annee":"1992","proprietaire":"PR - Provence","specialite":"CO à pied","latitude":"43.5249088","longitude":"5.4541444","valide":"Non","ppo":"Non","obsolete":true}},{"type":"Feature","geometry":null,"properties":{"id_ffco":"2592","nom":"PLAINE NOTRE DAME","_dept":"13","numero":"1992-D13-38","commune":"MARIGNANE","echelle":"1/7500","surface":"0.8 km²","annee":"1992","proprietaire":"PR - Provence","specialite":"CO à pied","latitude":"43.4160467","longitude":"5.214093","valide":"Non","ppo":"Non","obsolete":true}},{"type":"Feature","geometry":null,"properties":{"id_ffco":"2592","nom":"Le Collet Redon","_dept":"13","numero":"1992-D13-38","commune":"Venelles","echelle":"1/10000","surface":"4.0 km²","format":"A4","annee":"1992","cartographes":"SHO Cart","proprietaire":"13 - Bouches-du-Rhône","niveau":"National, International","specialite":"CO à pied","latitude":"43.5950188431","longitude":"5.49358768448","date_saisie":"02/02/2012","valide":"Non","ppo":"Non","obsolete":true}},{"type":"Feature","geometry":null,"properties":{"id_ffco":"2591","nom":"ST ANTONIN","_dept":"13","numero":"1992-D13-37","commune":"AIX PROVENCE","echelle":"1/10000","surface":"3.0 km²","annee":"1992","proprietaire":"13 - Bouches-du-Rhône","specialite":"CO à pied","latitude":"43.5249088","longitude":"5.4541444","valide":"Non","ppo":"Non","obsolete":true}},{"type":"Feature","geometry":null,"properties":{"id_ffco":"2590","nom":"PELISSANNE","_dept":"13","numero":"1992-D13-36","commune":"MARSEILLE","echelle":"1/7500","surface":"0.7 km²","annee":"1992","proprietaire":"PR - Provence","specialite":"CO à pied","latitude":"43.2976116","longitude":"5.3810421","valide":"Non","ppo":"Non","obsolete":true}},{"type":"Feature","geometry":null,"properties":{"id_ffco":"1470","nom":"FORET DE  ROGNAC","_dept":"13","numero":"1985-D13-35","commune":"ROGNAC","echelle":"1/10000","surface":"4.5 km²","annee":"1985","proprietaire":"PR - Provence","niveau":"Interrégional","specialite":"CO à pied","latitude":"43.4876773","longitude":"5.2341176","valide":"Non","ppo":"Non","obsolete":true}},{"type":"Feature","geometry":null,"properties":{"id_ffco":"2589","nom":"MARTINE","_dept":"13","numero":"1992-D13-34","commune":"MARSEILLE","echelle":"1/2500","surface":"0.1 km²","annee":"1992","proprietaire":"13 - Bouches-du-Rhône","specialite":"CO à pied","latitude":"43.2976116","longitude":"5.3810421","valide":"Non","ppo":"Non","obsolete":true}},{"type":"Feature","geometry":null,"properties":{"id_ffco":"1469","nom":"PRE GAILLARD","_dept":"13","numero":"1985-D13-32","commune":"PEYPIN","echelle":"1/10000","surface":"3.5 km²","annee":"1985","proprietaire":"PR - Provence","niveau":"Interrégional","specialite":"CO à pied","latitude":"43.384394","longitude":"5.5776726","valide":"Non","ppo":"Non","obsolete":true}},{"type":"Feature","geometry":null,"properties":{"id_ffco":"1468","nom":"MANGEGARRI","_dept":"13","numero":"1985-D13-29","commune":"BOUC GARDANNE","echelle":"1/15000","surface":"6.5 km²","annee":"1985","proprietaire":"PR - Provence","niveau":"Interrégional","specialite":"CO à pied","latitude":"43.4484191","longitude":"5.4523873","valide":"Non","ppo":"Non","obsolete":true}},{"type":"Feature","geometry":null,"properties":{"id_ffco":"2584","nom":"ROCHER BLANC","_dept":"13","numero":"1992-D13-26","commune":"MARSEILLE","echelle":"1/10000","surface":"0.5 km²","annee":"1992","proprietaire":"PR - Provence","specialite":"CO à pied","latitude":"43.2976116","longitude":"5.3810421","valide":"Non","ppo":"Non","obsolete":true}},{"type":"Feature","geometry":null,"properties":{"id_ffco":"2583","nom":"VALENTINE","_dept":"13","numero":"1992-D13-25","commune":"SALON","echelle":"1/5000","surface":"0.1 km²","annee":"1992","proprietaire":"13 - Bouches-du-Rhône","specialite":"CO à pied","latitude":"43.603333","longitude":"5.106389","valide":"Non","ppo":"Non","obsolete":true}},{"type":"Feature","geometry":null,"properties":{"id_ffco":"2582","nom":"ST CANNAT","_dept":"13","numero":"1992-D13-240","commune":"4 TERMES","echelle":"1/10000","surface":"3.0 km²","annee":"1992","proprietaire":"13 - Bouches-du-Rhône","specialite":"CO à pied","latitude":"43.4201364","longitude":"5.0022107","valide":"Non","ppo":"Non","obsolete":true}},{"type":"Feature","geometry":{"type":"Polygon","coordinates":[[[5.5276,43.6407],[5.5288,43.64],[5.5294,43.6381],[5.53,43.6378],[5.5328,43.6379],[5.5336,43.6365],[5.5338,43.6353],[5.5339,43.6333],[5.5318,43.6328],[5.5309,43.6325],[5.5303,43.6324],[5.5294,43.6329],[5.5283,43.6325],[5.5262,43.6323],[5.5236,43.6329],[5.5234,43.6335],[5.5248,43.6342],[5.5251,43.6359],[5.5244,43.6374],[5.5247,43.6382],[5.5246,43.6393],[5.5245,43.6401],[5.5276,43.6407]]]},"properties":{"id_ffco":"5284","nom":"Meyrargues village","_dept":"13","numero":"2009-D13-24","commune":"Meyrargues","echelle":"1/4000","surface":"0.52 km²","format":"A4","annee":"2009","cartographes":"Pierre Delenne","proprietaire":"13 - Bouches-du-Rhône","niveau":"National, International","specialite":"Sprint (ISSOM)","latitude":"43.6359070365","longitude":"5.52855819164","date_saisie":"02/02/2012","valide":"Non","ppo":"Non","obsolete":true}},{"type":"Feature","geometry":null,"properties":{"id_ffco":"2580","nom":"CHATEAU EAU","_dept":"13","numero":"1992-D13-22","commune":"PENNES MIRABEAU","echelle":"1/5000","surface":"0.5 km²","annee":"1992","proprietaire":"PR - Provence","specialite":"CO à pied","latitude":"43.4100162","longitude":"5.3106401","valide":"Non","ppo":"Non","obsolete":true}},{"type":"Feature","geometry":null,"properties":{"id_ffco":"2579","nom":"BOIS BOULARD","_dept":"13","numero":"1992-D13-21","commune":"CABRIES","echelle":"1/10000","surface":"2.2 km²","annee":"1992","proprietaire":"1304","specialite":"CO à pied","latitude":"43.4408477","longitude":"5.3788645","valide":"Non","ppo":"Non","obsolete":true}},{"type":"Feature","geometry":null,"properties":{"id_ffco":"7128","nom":"Parc de St Paul","_dept":"13","numero":"2013-D13-2000","commune":"St Paul lez Durance","echelle":"1/2000","surface":"0.05 km²","format":"A4","annee":"2013","cartographes":"P Sciora","proprietaire":"8405 - LUBERON ORIENTATION","niveau":"Initiation, Scolaire","specialite":"CO à pied","latitude":"43.6829128181","longitude":"5.71249885559","date_saisie":"09/12/2013","valide":"Non","ppo":"Non","type_carte":"Nouvelle carte","fond":"Ortho","obsolete":true}},{"type":"Feature","geometry":{"type":"Polygon","coordinates":[[[5.5473,43.4321],[5.5467,43.4341],[5.5486,43.4349],[5.5498,43.4358],[5.5505,43.436],[5.5515,43.4358],[5.5516,43.4354],[5.5524,43.4351],[5.5531,43.4343],[5.5531,43.4331],[5.552,43.4324],[5.5508,43.432],[5.5493,43.4315],[5.5473,43.4321]]]},"properties":{"id_ffco":"5267","nom":"Stade de Gréasque","_dept":"13","numero":"2010-D13-2","commune":"Gréasque","echelle":"1/5000","surface":"0.17 km²","format":"A4","annee":"2010","cartographes":"Pierre Delenne","proprietaire":"13 - Bouches-du-Rhône","niveau":"Initiation, Scolaire","specialite":"CO à pied","contacts":"Mairie de Gréasque","latitude":"43.4336783487","longitude":"5.55000395699","date_saisie":"02/02/2012","date_depot":"21/11/2016","valide":"Oui","ppo":"Oui (40 postes)","type_carte":"Extrait","base":"2010-D13-56 Les Euves 2","fond":"Ortho","obsolete":true}},{"type":"Feature","geometry":null,"properties":{"id_ffco":"2578","nom":"MACONETTE","_dept":"13","numero":"1992-D13-19","commune":"ALLAUCH","echelle":"1/10000","surface":"1.2 km²","annee":"1992","proprietaire":"1303 - MARSEILLE COURSE ORIENTATION","specialite":"CO à pied","latitude":"43.3362997","longitude":"5.4819121","valide":"Non","ppo":"Non","obsolete":true}},{"type":"Feature","geometry":null,"properties":{"id_ffco":"1466","nom":"VALLON ROUGE","_dept":"13","numero":"1985-D13-18","commune":"LAMBESC","echelle":"1/15000","surface":"0.0 km²","annee":"1985","proprietaire":"13 - Bouches-du-Rhône","niveau":"Interrégional","specialite":"CO à pied","latitude":"43.6550667","longitude":"5.2604425","valide":"Non","ppo":"Non","obsolete":true}},{"type":"Feature","geometry":null,"properties":{"id_ffco":"7124","nom":"La Penne /huveaune","_dept":"13","numero":"2005-D13-163","commune":"La Penne sur Huveaune","echelle":"1/5000","surface":"0.8 km²","format":"A4","annee":"2005","cartographes":"S Rozoum","proprietaire":"13 - Bouches-du-Rhône","niveau":"Initiation, Scolaire","specialite":"CO à pied","latitude":"43.2744116659","longitude":"5.51448745728","date_saisie":"09/12/2013","valide":"Non","ppo":"Non","obsolete":true}},{"type":"Feature","geometry":{"type":"Polygon","coordinates":[[[5.5061,43.2882],[5.513,43.2881],[5.513,43.2907],[5.512,43.2915],[5.5119,43.2932],[5.5119,43.2941],[5.5097,43.2941],[5.5079,43.297],[5.5053,43.2979],[5.4957,43.2975],[5.4959,43.2951],[5.4923,43.2941],[5.4928,43.2905],[5.4947,43.2902],[5.4971,43.2893],[5.5003,43.2886],[5.5024,43.2884],[5.5044,43.2884],[5.5061,43.2882]]]},"properties":{"id_ffco":"5298","nom":"Parc 7 collines","_dept":"13","numero":"2010-D13-155","commune":"Marseille","echelle":"1/5000","surface":"1.38 km²","format":"A4","annee":"2010","cartographes":"P Delenne","proprietaire":"13 - Bouches-du-Rhône","niveau":"Départemental","specialite":"CO à pied","contacts":"Inspection Académie","latitude":"43.2927346662","longitude":"5.50286093335","date_saisie":"02/02/2012","date_depot":"21/11/2016","valide":"Oui","ppo":"Non","type_carte":"Nouvelle carte","fond":"Ortho","obsolete":true}},{"type":"Feature","geometry":null,"properties":{"id_ffco":"3043","nom":"FORET DOMANIALE DE CASTILLON","_dept":"13","numero":"1999-D13-14A","commune":"Port de Bouc","echelle":"1/10000","surface":"3.5 km²","annee":"1999","cartographes":"J Keller","proprietaire":"PR - Provence","niveau":"Interrégional","specialite":"CO à pied","latitude":"43.4521393575","longitude":"4.98295958144","valide":"Non","ppo":"Non","obsolete":true}},{"type":"Feature","geometry":null,"properties":{"id_ffco":"2575","nom":"FORET CASTILLON","_dept":"13","numero":"1992-D13-14","commune":"ISTRES","echelle":"1/10000","surface":"2.5 km²","annee":"1992","proprietaire":"1303 - MARSEILLE COURSE ORIENTATION","specialite":"CO à pied","latitude":"43.5126731","longitude":"4.9877661","valide":"Non","ppo":"Non","obsolete":true}},{"type":"Feature","geometry":null,"properties":{"id_ffco":"2574","nom":"FONT OBSCURE","_dept":"13","numero":"1992-D13-135","commune":"MERLAN","echelle":"1/5000","surface":"0.1 km²","annee":"1992","proprietaire":"1303 - MARSEILLE COURSE ORIENTATION","specialite":"CO à pied","latitude":"43.3362238","longitude":"5.4007872","valide":"Non","ppo":"Non","obsolete":true}},{"type":"Feature","geometry":{"type":"Polygon","coordinates":[[[4.7433,43.8972],[4.7429,43.8941],[4.743,43.8918],[4.7424,43.891],[4.7418,43.8898],[4.7383,43.8878],[4.7366,43.8835],[4.7339,43.8838],[4.7316,43.8831],[4.7296,43.8834],[4.7269,43.8828],[4.7246,43.881],[4.7208,43.8816],[4.7202,43.8828],[4.7203,43.8841],[4.7207,43.885],[4.7201,43.8858],[4.7189,43.8862],[4.7179,43.8857],[4.7171,43.8866],[4.7171,43.8881],[4.7173,43.8893],[4.7173,43.89],[4.7163,43.8909],[4.7151,43.8917],[4.7143,43.8918],[4.7138,43.8925],[4.7132,43.8925],[4.7122,43.896],[4.7143,43.8965],[4.716,43.8967],[4.7175,43.8973],[4.7199,43.8981],[4.7226,43.899],[4.7276,43.8992],[4.7296,43.8991],[4.7343,43.8994],[4.737,43.8989],[4.7394,43.8989],[4.7403,43.899],[4.7414,43.8976],[4.7433,43.8972]]]},"properties":{"id_ffco":"5280","nom":"Auriol et Mouroumiou","_dept":"13","numero":"2011-D13-134","commune":"Barbentane","echelle":"1/10000","surface":"3.49 km²","format":"A4","annee":"2011","cartographes":"Daniel Seckler","proprietaire":"13 - Bouches-du-Rhône","niveau":"Régional","specialite":"CO à pied","latitude":"43.8915193331","longitude":"4.72846014838","date_saisie":"02/02/2012","date_depot":"22/01/2016","valide":"Oui","ppo":"Non","type_carte":"Reprise","base":"2011-D13-134 Auriol et Mouroumiou","fond":"Ortho","obsolete":true}},{"type":"Feature","geometry":{"type":"Polygon","coordinates":[[[5.5089,43.5331],[5.5087,43.5304],[5.5087,43.5281],[5.5087,43.5266],[5.5197,43.5249],[5.5223,43.5242],[5.5227,43.5212],[5.5305,43.5213],[5.5324,43.5237],[5.5345,43.5247],[5.5378,43.5248],[5.5367,43.5268],[5.5334,43.5276],[5.5312,43.5288],[5.53,43.5303],[5.5332,43.5329],[5.5345,43.5339],[5.5382,43.5342],[5.5417,43.5345],[5.5424,43.5367],[5.5395,43.539],[5.5369,43.5393],[5.5341,43.5398],[5.5293,43.5376],[5.5264,43.5376],[5.517,43.5377],[5.5121,43.5365],[5.5081,43.5365],[5.5053,43.5352],[5.5089,43.5331]]]},"properties":{"id_ffco":"5275","nom":"Toscan, Lac Zola","_dept":"13","numero":"2009-D13-13","commune":"Le Tholonet","echelle":"1/10000","surface":"3.46 km²","format":"A4","annee":"2009","cartographes":"Pierre Delenne","proprietaire":"13 - Bouches-du-Rhône","niveau":"Régional","specialite":"CO à pied","contacts":"Département 13 MSV, 04 13 31 57 20, msv@cg13.fr","latitude":"43.5311681576","longitude":"5.52369478673","date_saisie":"02/02/2012","valide":"Non","ppo":"Non","obsolete":true}},{"type":"Feature","geometry":null,"properties":{"id_ffco":"3044","nom":"CREPS D'AIX EN PROVENCE","_dept":"13","numero":"1999-D13-12A","commune":"AIX EN PROVENCE","echelle":"1/2500","surface":"0.2 km²","annee":"1999","proprietaire":"PR - Provence","specialite":"CO à pied","latitude":"43.5249088","longitude":"5.4541444","valide":"Non","ppo":"Non","obsolete":true}},{"type":"Feature","geometry":{"type":"Polygon","coordinates":[[[4.9809,43.4464],[4.9809,43.4556],[4.9891,43.4556],[4.9891,43.4464],[4.9809,43.4464]]]},"properties":{"id_ffco":"8470","nom":"Castillon 5000","_dept":"13","numero":"2015-D13-126","commune":"Port de bouc","echelle":"1/5000","surface":"0.68 km²","format":"A4","annee":"2015","cartographes":"Pierre Delenne","proprietaire":"13 - Bouches-du-Rhône","niveau":"Régional","specialite":"CO à pied","latitude":"43.451021","longitude":"4.984982","date_saisie":"08/06/2015","date_depot":"29/07/2015","valide":"Oui","ppo":"Non","type_carte":"Extrait","base":"2012-D13-1002 Domaine de Castillon","fond":"Ortho","obsolete":true}},{"type":"Feature","geometry":null,"properties":{"id_ffco":"2573","nom":"CREPS AIX","_dept":"13","numero":"1992-D13-12","commune":"AIX PONT","echelle":"1/5000","surface":"0.1 km²","annee":"1992","proprietaire":"PR - Provence","specialite":"CO à pied","latitude":"43.5907589","longitude":"5.4295766","valide":"Non","ppo":"Non","obsolete":true}},{"type":"Feature","geometry":{"type":"Polygon","coordinates":[[[5.4599,43.5267],[5.4604,43.5268],[5.4617,43.5267],[5.463,43.5268],[5.4633,43.5268],[5.4645,43.5264],[5.465,43.5259],[5.4659,43.5245],[5.4663,43.5235],[5.4666,43.5229],[5.4673,43.5227],[5.4684,43.523],[5.4684,43.5222],[5.4679,43.5216],[5.4675,43.5206],[5.4672,43.5201],[5.4665,43.5196],[5.4658,43.5194],[5.4649,43.5187],[5.4642,43.5187],[5.4636,43.5184],[5.4632,43.5188],[5.4643,43.5195],[5.4651,43.5203],[5.4659,43.5209],[5.4656,43.5215],[5.4652,43.5222],[5.4646,43.5222],[5.4642,43.5222],[5.4629,43.5227],[5.4616,43.5228],[5.4606,43.5228],[5.4605,43.5243],[5.4603,43.5252],[5.4599,43.5267]]]},"properties":{"id_ffco":"7703","nom":"La Torse","_dept":"13","numero":"2014-D13-119","commune":"Aix en Provence","echelle":"1/5000","surface":"0.28 km²","format":"A4","annee":"2014","cartographes":"Pierre Delenne","proprietaire":"13 - Bouches-du-Rhône","niveau":"Départemental","specialite":"Sprint (ISSOM)","contacts":"Mairie d'Aix en Provence, sports@mairie-aixenprovence.fr","latitude":"43.5234792901","longitude":"5.46400690552","date_saisie":"12/12/2014","date_depot":"20/10/2015","valide":"Oui","ppo":"Oui (60 postes)","type_carte":"Reprise","base":"1992-D13-43 VAL DE TORSE","fond":"Ortho","obsolete":true}},{"type":"Feature","geometry":{"type":"Polygon","coordinates":[[[5.6325,43.4506],[5.6334,43.4493],[5.6368,43.4491],[5.6381,43.4487],[5.6371,43.4475],[5.6372,43.4467],[5.6367,43.4458],[5.636,43.4454],[5.6349,43.445],[5.6338,43.4456],[5.6325,43.4458],[5.6311,43.4451],[5.63,43.4441],[5.629,43.4429],[5.6286,43.4417],[5.6279,43.441],[5.6276,43.4399],[5.6259,43.439],[5.6226,43.44],[5.6202,43.4402],[5.6177,43.4413],[5.6163,43.4416],[5.6151,43.4423],[5.6143,43.4437],[5.6126,43.4451],[5.6107,43.446],[5.6096,43.4478],[5.6095,43.4494],[5.6128,43.4499],[5.6149,43.4507],[5.6177,43.4514],[5.6207,43.452],[5.6219,43.4512],[5.6258,43.4505],[5.6281,43.4503],[5.6304,43.4506],[5.6325,43.4506]]]},"properties":{"id_ffco":"7851","nom":"Peynier, La Garenne","_dept":"13","numero":"2014-D13-117","commune":"Peynier","echelle":"1/10000","surface":"1.92 km²","format":"A4","annee":"2014","cartographes":"Pierre Delenne","proprietaire":"13 - Bouches-du-Rhône","niveau":"Régional","specialite":"CO à pied","latitude":"43.4462361751","longitude":"5.62288882493","date_saisie":"30/12/2014","date_depot":"27/01/2016","valide":"Oui","ppo":"Non","type_carte":"Reprise","base":"2006-D13-70 Peynier, La Garenne","fond":"Ortho","obsolete":true}},{"type":"Feature","geometry":{"type":"Polygon","coordinates":[[[5.265,43.5348],[5.2631,43.5331],[5.2627,43.5313],[5.2626,43.5287],[5.264,43.5269],[5.267,43.5257],[5.2699,43.5236],[5.2739,43.5217],[5.2747,43.5231],[5.2742,43.5266],[5.2749,43.5288],[5.2753,43.5314],[5.2698,43.5337],[5.2665,43.5348],[5.2648,43.5348],[5.265,43.5348]]]},"properties":{"id_ffco":"7227","nom":"Prends toi garde","_dept":"13","numero":"2014-D13-116","commune":"Velaux","echelle":"1/5000","surface":"0.97 km²","format":"A4","annee":"2014","cartographes":"Pierre Delenne","proprietaire":"13 - Bouches-du-Rhône","niveau":"Départemental","specialite":"CO à pied","latitude":"43.5289555168","longitude":"5.26915480949","date_saisie":"12/02/2014","date_depot":"20/10/2015","valide":"Oui","ppo":"Non","type_carte":"Nouvelle carte","fond":"Ortho","obsolete":true}},{"type":"Feature","geometry":null,"properties":{"id_ffco":"4182","nom":"Forêt Domaniale de Cadarache","_dept":"13","numero":"2005-D13-112","commune":"Saint Paul les Durance","echelle":"1/15000","surface":"8.0 km²","annee":"2005","cartographes":"P Delenne","proprietaire":"PR - Provence","niveau":"Interrégional","specialite":"CO à VTT","latitude":"43.6873029","longitude":"5.7084456","date_saisie":"19/01/2006","date_depot":"15/02/2006","valide":"Non","ppo":"Non","obsolete":true}},{"type":"Feature","geometry":null,"properties":{"id_ffco":"4181","nom":"Meyrargues","_dept":"13","numero":"2005-D13-111","commune":"Meyrargues","echelle":"1/10000","surface":"4.5 km²","annee":"2005","cartographes":"S Rozoum","proprietaire":"PR - Provence","niveau":"Interrégional","specialite":"CO à pied","latitude":"43.635236","longitude":"5.5285457","date_saisie":"19/01/2006","date_depot":"15/02/2006","valide":"Non","ppo":"Non","obsolete":true}},{"type":"Feature","geometry":null,"properties":{"id_ffco":"2572","nom":"BARNOUINS","_dept":"13","numero":"1992-D13-11","commune":"PENNES MIRABEAU","echelle":"1/5000","surface":"0.5 km²","annee":"1992","proprietaire":"PR - Provence","specialite":"CO à pied","latitude":"43.4100162","longitude":"5.3106401","valide":"Non","ppo":"Non","obsolete":true}},{"type":"Feature","geometry":{"type":"Polygon","coordinates":[[[5.6073,43.1919],[5.6079,43.1908],[5.6082,43.1904],[5.6088,43.1904],[5.6088,43.1894],[5.608,43.1883],[5.6079,43.1877],[5.6073,43.1884],[5.6069,43.189],[5.6073,43.1894],[5.6066,43.1903],[5.6062,43.1904],[5.6058,43.1909],[5.6058,43.1916],[5.6073,43.1919]]]},"properties":{"id_ffco":"12730","nom":"Parc du Domaine de la Tour","_dept":"13","numero":"2021-D13-1095","commune":"La Ciotat","echelle":"1/2000","surface":"0.06 km²","format":"A4","annee":"2021","cartographes":"Pierre Delenne","proprietaire":"13 - Bouches-du-Rhône","niveau":"Initiation, Scolaire","specialite":"CO à pied","latitude":"43.1901232845","longitude":"5.60741265077","date_saisie":"23/04/2021","date_depot":"25/08/2021","valide":"Oui","ppo":"Non","type_carte":"Nouvelle carte","fond":"Ortho","obsolete":true}},{"type":"Feature","geometry":null,"properties":{"id_ffco":"4006","nom":"Forêt de Meyrargues","_dept":"13","numero":"2005-D13-107","commune":"Meyrargues","echelle":"1/15000","surface":"13.0 km²","annee":"2005","cartographes":"S Rozoum","proprietaire":"PR - Provence","niveau":"Interrégional","specialite":"CO à pied","latitude":"43.635236","longitude":"5.5285457","date_saisie":"01/09/2005","date_depot":"20/09/2005","valide":"Non","ppo":"Non","obsolete":true}},{"type":"Feature","geometry":{"type":"Polygon","coordinates":[[[4.9915,43.4991],[4.992,43.4994],[4.9924,43.4999],[4.9925,43.5006],[4.9932,43.5022],[4.9933,43.5025],[4.994,43.5027],[4.9947,43.5027],[4.9952,43.5023],[4.9956,43.502],[4.9959,43.5017],[4.9963,43.5016],[4.9967,43.5016],[4.9968,43.5013],[4.9968,43.5008],[4.9968,43.5003],[4.9967,43.4996],[4.9967,43.4992],[4.9968,43.4987],[4.997,43.4979],[4.9965,43.4983],[4.996,43.4987],[4.9954,43.4988],[4.9941,43.4989],[4.9929,43.4989],[4.9923,43.4989],[4.9917,43.4984],[4.9915,43.4991]]]},"properties":{"id_ffco":"10974","nom":"Istres les heures claires","_dept":"13","numero":"2018-D13-1060","commune":"Istres","echelle":"1/2500","surface":"0.14 km²","format":"A4","annee":"2018","cartographes":"Daniel Seckler","proprietaire":"1303 - MARSEILLE COURSE ORIENTATION","niveau":"Départemental","specialite":"Sprint (ISSOM)","latitude":"43.5004091612","longitude":"4.99454445674","date_saisie":"13/10/2018","date_depot":"06/12/2018","valide":"Oui","ppo":"Non","type_carte":"Nouvelle carte","fond":"Cadastre","obsolete":true}},{"type":"Feature","geometry":null,"properties":{"id_ffco":"7123","nom":"Val de l'Arc","_dept":"13","numero":"2000-D13-106","commune":"Aix en Provence","echelle":"1/5000","surface":"0.2 km²","format":"A5","annee":"2000","cartographes":"Pierre Delenne","proprietaire":"13 - Bouches-du-Rhône","niveau":"Initiation, Scolaire","specialite":"CO à pied","contacts":"Mairie d'Aix en Provence, sports@mairie-aixenprovence.fr","latitude":"43.5104200749","longitude":"5.46710891724","date_saisie":"09/12/2013","valide":"Non","ppo":"Oui","obsolete":true}},{"type":"Feature","geometry":null,"properties":{"id_ffco":"4008","nom":"Parc St. Cyr","_dept":"13","numero":"2005-D13-105","commune":"Marseille","echelle":"1/2000","surface":"0.08 km²","annee":"2005","cartographes":"S Rozoum","proprietaire":"PR - Provence","niveau":"Départemental","specialite":"CO à pied","latitude":"43.2976116","longitude":"5.3810421","date_saisie":"02/02/2012","date_depot":"20/09/2005","valide":"Non","ppo":"Non","obsolete":true}},{"type":"Feature","geometry":{"type":"Polygon","coordinates":[[[5.5841,43.6263],[5.5782,43.6264],[5.5775,43.6226],[5.5776,43.6213],[5.5785,43.6187],[5.5805,43.6176],[5.5837,43.6183],[5.584,43.6203],[5.5839,43.6233],[5.5841,43.6263]]]},"properties":{"id_ffco":"10797","nom":"Le Loubatas","_dept":"13","numero":"2018-D13-1049","commune":"Peyrolles","echelle":"1/5000","surface":"0.45 km²","format":"A5","annee":"2018","proprietaire":"13 - Bouches-du-Rhône","niveau":"Initiation, Scolaire","specialite":"CO à pied","contacts":"Office de Tourisme de Peyrolles, 04 42 57 89 82, accueil.tourisme@mairie-peyrollesenprovence.fr","latitude":"43.6222770356","longitude":"5.58090321621","date_saisie":"17/05/2018","valide":"Non","ppo":"Oui (12 postes)","type_carte":"Extrait","base":"2004-D13- Le Loubatas","fond":"Ortho","obsolete":true}},{"type":"Feature","geometry":{"type":"Polygon","coordinates":[[[5.0279,43.6868],[5.0298,43.6871],[5.0299,43.6866],[5.0297,43.6866],[5.0299,43.6861],[5.0295,43.686],[5.0294,43.6861],[5.0288,43.686],[5.0284,43.6859],[5.0282,43.6858],[5.0281,43.6862],[5.0279,43.6868]]]},"properties":{"id_ffco":"10757","nom":"College Eyguieres","_dept":"13","numero":"2018-D13-1048","commune":"eyguieres","echelle":"1/1000","surface":"0.02 km²","format":"A4","annee":"2018","cartographes":"Daniel Seckler","proprietaire":"13 - Bouches-du-Rhône","niveau":"Initiation, Scolaire","specialite":"CO à pied","latitude":"43.6864759386","longitude":"5.0289388058","date_saisie":"11/04/2018","valide":"Non","ppo":"Non","type_carte":"Nouvelle carte","fond":"Cadastre","obsolete":true}},{"type":"Feature","geometry":null,"properties":{"id_ffco":"5304","nom":"Colline Saint-Joseph","_dept":"13","numero":"2004-D13-104","commune":"Marseille","echelle":"1/2500","surface":"0.07 km²","format":"A5","annee":"2004","proprietaire":"13 - Bouches-du-Rhône","niveau":"Départemental","specialite":"CO à pied","date_saisie":"02/02/2012","valide":"Non","ppo":"Non","obsolete":true}},{"type":"Feature","geometry":null,"properties":{"id_ffco":"2576","nom":"FORET ST PONS","_dept":"13","numero":"1992-D13-1031","commune":"GEMENOS","echelle":"1/10000","surface":"0.5 km²","annee":"1992","proprietaire":"PR - Provence","specialite":"CO à pied","latitude":"43.2967342","longitude":"5.6284733","valide":"Non","ppo":"Non","obsolete":true}},{"type":"Feature","geometry":null,"properties":{"id_ffco":"2564","nom":"GREASQUE","_dept":"13","numero":"1992-D13-1030","commune":"GREASQUE","echelle":"1/15000","surface":"2.5 km²","annee":"1992","proprietaire":"13 - Bouches-du-Rhône","specialite":"CO à pied","latitude":"43.4313461","longitude":"5.5446495","valide":"Non","ppo":"Non","obsolete":true}},{"type":"Feature","geometry":null,"properties":{"id_ffco":"5303","nom":"Le regagnas","_dept":"13","numero":"2004-D13-103","commune":"Peynier","echelle":"1/20000","surface":"24.0 km²","format":"A3","annee":"2004","proprietaire":"13 - Bouches-du-Rhône","niveau":"Départemental","specialite":"CO à VTT","latitude":"43.4472825323","longitude":"5.63183946594","date_saisie":"02/02/2012","valide":"Non","ppo":"Non","obsolete":true}},{"type":"Feature","geometry":null,"properties":{"id_ffco":"1473","nom":"VENELLES LES LIGOURES","_dept":"13","numero":"1985-D13-1029","commune":"VENELLES","echelle":"1/10000","surface":"4.0 km²","annee":"1985","proprietaire":"PR - Provence","niveau":"Interrégional","specialite":"CO à pied","latitude":"43.597942","longitude":"5.4849561","valide":"Non","ppo":"Non","obsolete":true}},{"type":"Feature","geometry":null,"properties":{"id_ffco":"1467","nom":"FORET CADARACHE","_dept":"13","numero":"1985-D13-1028","commune":"VINON","echelle":"1/15000","surface":"8.0 km²","annee":"1985","proprietaire":"PR - Provence","niveau":"Interrégional","specialite":"CO à pied","latitude":"43.7247886","longitude":"5.8124062","valide":"Non","ppo":"Non","obsolete":true}},{"type":"Feature","geometry":null,"properties":{"id_ffco":"822","nom":"FORET STE BAUME","_dept":"13","numero":"1978-D13-1027","commune":"PLAN AUPS","echelle":"1/15000","surface":"6.5 km²","annee":"1978","proprietaire":"PR - Provence","specialite":"CO à pied","latitude":"43.5911679","longitude":"5.3102505","valide":"Non","ppo":"Non","obsolete":true}},{"type":"Feature","geometry":null,"properties":{"id_ffco":"2588","nom":"MAS GILLOT","_dept":"13","numero":"1992-D13-1026","commune":"BARBENTANE","echelle":"1/10000","surface":"0.3 km²","annee":"1992","proprietaire":"1305","specialite":"CO à pied","latitude":"43.8987058","longitude":"4.7477424","valide":"Non","ppo":"Non","obsolete":true}},{"type":"Feature","geometry":null,"properties":{"id_ffco":"2586","nom":"REYNARDE","_dept":"13","numero":"1992-D13-1025","commune":"LA PENNE","echelle":"1/10000","surface":"1.0 km²","annee":"1992","proprietaire":"PR - Provence","specialite":"CO à pied","latitude":"43.2814846","longitude":"5.5159606","valide":"Non","ppo":"Non","obsolete":true}},{"type":"Feature","geometry":{"type":"Polygon","coordinates":[[[5.1697,43.557],[5.1537,43.5689],[5.149,43.5811],[5.1563,43.5857],[5.1768,43.5864],[5.1899,43.5805],[5.1978,43.58],[5.199,43.5791],[5.2005,43.5781],[5.204,43.5767],[5.2073,43.572],[5.2084,43.5724],[5.2092,43.5724],[5.2097,43.5722],[5.2104,43.5724],[5.2194,43.5685],[5.2244,43.5584],[5.2153,43.5566],[5.2111,43.5548],[5.2099,43.5553],[5.209,43.5556],[5.209,43.5562],[5.2073,43.556],[5.2057,43.5562],[5.2036,43.5558],[5.2023,43.5553],[5.2013,43.5551],[5.2002,43.555],[5.199,43.5547],[5.1951,43.5546],[5.1937,43.5548],[5.1931,43.555],[5.1923,43.5549],[5.191,43.5547],[5.1893,43.5545],[5.1884,43.5544],[5.1868,43.554],[5.1865,43.5543],[5.1773,43.554],[5.1734,43.5555],[5.1697,43.557]]]},"properties":{"id_ffco":"75","nom":"La Fare-Lançon","_dept":"13","numero":"2010-D13-1024","commune":"La Fare des Oliviers","echelle":"1/15000","surface":"14.47 km²","format":"A3","annee":"2010","cartographes":"P Delenne","proprietaire":"13 - Bouches-du-Rhône","niveau":"Régional","specialite":"CO à pied","latitude":"43.5693047868","longitude":"5.18414455413","valide":"Non","ppo":"Oui","obsolete":true}},{"type":"Feature","geometry":null,"properties":{"id_ffco":"4001","nom":"La Fare Les Oliviers","_dept":"13","numero":"2000-D13-1023","commune":"La Fare les Oliviers","echelle":"1/10000","surface":"9.0 km²","annee":"2000","cartographes":"M Haberkorn","proprietaire":"PR - Provence","niveau":"Interrégional","specialite":"CO à pied","latitude":"43.5503024","longitude":"5.1939683","date_saisie":"01/09/2005","date_depot":"09/09/2005","valide":"Non","ppo":"Non","obsolete":true}},{"type":"Feature","geometry":null,"properties":{"id_ffco":"1471","nom":"PUITS AUZON 2","_dept":"13","numero":"1985-D13-1022","commune":"VAUVENARGUE","echelle":"1/15000","surface":"7.0 km²","annee":"1985","proprietaire":"PR - Provence","niveau":"Interrégional","specialite":"CO à pied","latitude":"43.5553475","longitude":"5.60091","valide":"Non","ppo":"Non","obsolete":true}},{"type":"Feature","geometry":null,"properties":{"id_ffco":"4014","nom":"Parc des Bruyères","_dept":"13","numero":"2010-D13-1021","commune":"Marseille","echelle":"1/2500","surface":"0.3 km²","format":"A4","annee":"2010","cartographes":"P Delenne","proprietaire":"13 - Bouches-du-Rhône","niveau":"Initiation, Scolaire","specialite":"CO à pied","latitude":"43.2731818275","longitude":"5.44438514809","date_saisie":"01/09/2005","date_depot":"20/09/2005","valide":"Non","ppo":"Non","type_carte":"Nouvelle carte","fond":"Ortho","obsolete":true}},{"type":"Feature","geometry":null,"properties":{"id_ffco":"4007","nom":"La Bosque (Venelles)","_dept":"13","numero":"2010-D13-1020","commune":"Venelles","echelle":"1/2500","surface":"0.06 km²","format":"A5","annee":"2010","cartographes":"P Delenne","proprietaire":"13 - Bouches-du-Rhône","niveau":"Initiation, Scolaire","specialite":"CO à pied","latitude":"43.5945853584","longitude":"5.46761830093","date_saisie":"01/09/2005","date_depot":"20/09/2005","valide":"Non","ppo":"Non","type_carte":"Nouvelle carte","fond":"Ortho","obsolete":true}},{"type":"Feature","geometry":null,"properties":{"id_ffco":"5302","nom":"Venelles VTT","_dept":"13","numero":"2004-D13-102","commune":"Venelles","echelle":"1/10000","surface":"6.0 km²","format":"A3","annee":"2004","proprietaire":"PR - Provence","niveau":"Régional","specialite":"CO à VTT","latitude":"43.5968836537","longitude":"5.50358695969","date_saisie":"02/02/2012","valide":"Non","ppo":"Non","obsolete":true}},{"type":"Feature","geometry":{"type":"Polygon","coordinates":[[[4.8416,43.7968],[4.8416,43.7969],[4.8414,43.7972],[4.8411,43.7974],[4.8406,43.7974],[4.8403,43.7975],[4.8398,43.7978],[4.8397,43.7981],[4.8394,43.7983],[4.8387,43.7987],[4.8381,43.799],[4.8375,43.7992],[4.8368,43.7993],[4.8361,43.7994],[4.8359,43.7994],[4.8358,43.7996],[4.8356,43.8001],[4.8355,43.8006],[4.8355,43.801],[4.8356,43.8012],[4.8358,43.8015],[4.8365,43.8024],[4.8366,43.8025],[4.8368,43.8026],[4.8377,43.803],[4.8379,43.8031],[4.838,43.8032],[4.838,43.8033],[4.8382,43.8044],[4.8383,43.8052],[4.8384,43.8054],[4.8385,43.8055],[4.8387,43.8056],[4.84,43.806],[4.8404,43.8061],[4.8406,43.8062],[4.8422,43.8061],[4.8454,43.8061],[4.8468,43.8062],[4.847,43.8063],[4.8471,43.8065],[4.8472,43.8066],[4.8476,43.8067],[4.848,43.8068],[4.8485,43.8071],[4.8507,43.8082],[4.8513,43.8084],[4.8537,43.8086],[4.8548,43.8086],[4.8566,43.8085],[4.8568,43.8085],[4.8564,43.8079],[4.8563,43.8076],[4.856,43.8074],[4.8557,43.807],[4.8548,43.8062],[4.8543,43.8057],[4.8536,43.8053],[4.8529,43.8048],[4.8519,43.8043],[4.8514,43.8039],[4.851,43.8034],[4.8506,43.803],[4.8491,43.8019],[4.8478,43.8007],[4.8473,43.7999],[4.8468,43.7991],[4.8465,43.7989],[4.8462,43.7986],[4.8452,43.7979],[4.8449,43.7977],[4.8444,43.7974],[4.8442,43.7973],[4.8435,43.7973],[4.8432,43.7972],[4.8429,43.797],[4.8423,43.7969],[4.8416,43.7968]]]},"properties":{"id_ffco":"74","nom":"La Petite Crau","_dept":"13","numero":"2008-D13-1019","commune":"St. Rémy de Provence","echelle":"1/7500","surface":"1.08 km²","format":"A4","annee":"2008","cartographes":"Michel HABERKORN,Daniel Seckler","niveau":"Départemental","specialite":"CO à pied","contacts":"Mairie St Rémi de Provence, 04 90 92 51 90, servicedessports@mairie-saintremydeprovence.fr","latitude":"43.8029763843","longitude":"4.84487911132","valide":"Non","ppo":"Oui (31 postes)","obsolete":true}},{"type":"Feature","geometry":{"type":"Polygon","coordinates":[[[5.6444,43.5925],[5.6415,43.5979],[5.6386,43.6007],[5.6118,43.5983],[5.6151,43.5934],[5.6201,43.5872],[5.6298,43.5878],[5.6316,43.5798],[5.642,43.5798],[5.6535,43.579],[5.651,43.5838],[5.6463,43.593],[5.6444,43.5925]]]},"properties":{"id_ffco":"5279","nom":"Le Taulisson","_dept":"13","numero":"2008-D13-1018","commune":"Jouques","echelle":"1/15000","surface":"4.62 km²","format":"A4","annee":"2008","cartographes":"Pierre Delenne","proprietaire":"13 - Bouches-du-Rhône","specialite":"Rand'O","contacts":"Département 13 MSV, 04 13 31 57 20, msv@cg13.fr","latitude":"43.5903733057","longitude":"5.63379782954","date_saisie":"02/02/2012","valide":"Non","ppo":"Oui (20 postes)","obsolete":true}},{"type":"Feature","geometry":{"type":"Polygon","coordinates":[[[5.5929,43.6378],[5.5943,43.6332],[5.5972,43.6299],[5.5981,43.6266],[5.596,43.6217],[5.591,43.6205],[5.5832,43.6203],[5.5799,43.6214],[5.5758,43.627],[5.571,43.6323],[5.5703,43.6365],[5.5816,43.6379],[5.588,43.6384],[5.5926,43.638],[5.5929,43.6378]]]},"properties":{"id_ffco":"3648","nom":"Peyrolles, La Grande Baume","_dept":"13","numero":"2005-D13-1017","commune":"Peyrolles","echelle":"1/10000","surface":"3.32 km²","format":"A4","annee":"2005","cartographes":"A Pellegry,P Delenne","proprietaire":"13 - Bouches-du-Rhône","niveau":"Régional","specialite":"CO à pied","latitude":"43.6296623254","longitude":"5.58505377335","date_saisie":"05/05/2003","valide":"Non","ppo":"Non","obsolete":true}},{"type":"Feature","geometry":null,"properties":{"id_ffco":"2599","nom":"CHATEAU DE CABASSE","_dept":"13","numero":"1994-D13-1016","commune":"MIRAMAS","echelle":"1/10000","surface":"1.3 km²","format":"A5","annee":"1994","proprietaire":"13 - Bouches-du-Rhône","niveau":"Initiation, Scolaire","specialite":"CO à pied","latitude":"43.5798759","longitude":"5.0032716","valide":"Non","ppo":"Non","obsolete":true}},{"type":"Feature","geometry":null,"properties":{"id_ffco":"5294","nom":"Vallon de la Roquette","_dept":"13","numero":"2003-D13-1015","commune":"Chateaurenard","echelle":"1/7500","surface":"1.0 km²","format":"A4","annee":"2003","proprietaire":"13 - Bouches-du-Rhône","niveau":"Régional","specialite":"CO à pied","latitude":"43.8800030369","longitude":"4.87071437823","date_saisie":"02/02/2012","valide":"Non","ppo":"Non","obsolete":true}},{"type":"Feature","geometry":null,"properties":{"id_ffco":"3998","nom":"Parc de la Forme (Bouc Bel Air)","_dept":"13","numero":"2003-D13-1014","commune":"Bouc Bel Air","echelle":"1/5000","surface":"0.3 km²","format":"A5","annee":"2003","cartographes":"S Rozoum","proprietaire":"13 - Bouches-du-Rhône","niveau":"Initiation, Scolaire","specialite":"CO à pied","latitude":"43.4319839912","longitude":"5.39871430571","date_saisie":"01/09/2005","date_depot":"09/09/2005","valide":"Non","ppo":"Non","obsolete":true}},{"type":"Feature","geometry":{"type":"Polygon","coordinates":[[[5.5519,43.442],[5.5567,43.4375],[5.562,43.4321],[5.5675,43.4262],[5.5675,43.4185],[5.571,43.4154],[5.5763,43.4121],[5.5656,43.4096],[5.5591,43.4087],[5.5529,43.409],[5.5476,43.4084],[5.5394,43.4099],[5.538,43.4137],[5.5437,43.4197],[5.545,43.422],[5.5459,43.4283],[5.5457,43.4324],[5.5447,43.4347],[5.5509,43.4409],[5.5519,43.442]]]},"properties":{"id_ffco":"4011","nom":"GRASQUE VTT O","_dept":"13","numero":"2003-D13-1013","commune":"Gréasque","echelle":"1/15000","surface":"6.13 km²","format":"A3","annee":"2003","cartographes":"A Pellegry,C Gaillard","proprietaire":"13 - Bouches-du-Rhône","niveau":"Interrégional","specialite":"CO à VTT","latitude":"43.42144196","longitude":"5.55515123483","date_saisie":"01/09/2005","date_depot":"20/09/2005","valide":"Non","ppo":"Non","obsolete":true}},{"type":"Feature","geometry":null,"properties":{"id_ffco":"5296","nom":"Collège des Gorguettes","_dept":"13","numero":"2003-D13-1012","commune":"Cassis","echelle":"1/4000","surface":"0.7 km²","format":"A4","annee":"2003","proprietaire":"13 - Bouches-du-Rhône","niveau":"Initiation, Scolaire","specialite":"CO à pied","latitude":"43.2322778065","longitude":"5.53446428589","date_saisie":"02/02/2012","valide":"Non","ppo":"Non","obsolete":true}},{"type":"Feature","geometry":null,"properties":{"id_ffco":"4012","nom":"Les Gorguettes Cassis (13)","_dept":"13","numero":"2003-D13-1011","commune":"Cassis","echelle":"1/7500","surface":"1.9 km²","annee":"2003","cartographes":"S Rozoum","proprietaire":"13 - Bouches-du-Rhône","niveau":"Départemental","specialite":"CO à pied","latitude":"43.2315086917","longitude":"5.53279641318","date_saisie":"01/09/2005","date_depot":"20/09/2005","valide":"Non","ppo":"Non","obsolete":true}},{"type":"Feature","geometry":{"type":"Polygon","coordinates":[[[5.0579,43.4308],[5.0548,43.4293],[5.053,43.4301],[5.052,43.4319],[5.0519,43.4342],[5.0502,43.4362],[5.0493,43.4399],[5.0495,43.4415],[5.0501,43.4432],[5.054,43.4433],[5.0579,43.4308]]]},"properties":{"id_ffco":"4000","nom":"Lycée Lurçat, Martigues","_dept":"13","numero":"2004-D13-1010","commune":"Martigues","echelle":"1/5000","surface":"0.64 km²","annee":"2004","cartographes":"P Delenne","proprietaire":"13 - Bouches-du-Rhône","niveau":"Départemental","specialite":"CO à pied","latitude":"43.4365211661","longitude":"5.05335910902","date_saisie":"01/09/2005","date_depot":"09/09/2005","valide":"Non","ppo":"Non","obsolete":true}},{"type":"Feature","geometry":null,"properties":{"id_ffco":"3788","nom":"Les Euves 2 Gréasque","_dept":"13","numero":"2004-D13-101","commune":"Les Euves 2 Gréasque","echelle":"1/15000","surface":"7.0 km²","format":"A5","annee":"2004","cartographes":"Alain Pellegry","proprietaire":"13 - Bouches-du-Rhône","specialite":"CO à pied","latitude":"43.4177236","longitude":"5.5475726","date_saisie":"02/02/2012","date_depot":"10/05/2004","valide":"Non","ppo":"Non","obsolete":true}},{"type":"Feature","geometry":null,"properties":{"id_ffco":"4004","nom":"PLAINE DE BEAUMONT","_dept":"13","numero":"2005-D13-1008","commune":"Belcodène","echelle":"1/7500","surface":"10.0 km²","annee":"2005","cartographes":"Ch Gaillard","proprietaire":"PR - Provence","niveau":"Interrégional","specialite":"CO à pied","latitude":"43.417081543","longitude":"5.59973285776","date_saisie":"01/09/2005","date_depot":"09/09/2005","valide":"Non","ppo":"Non","obsolete":true}},{"type":"Feature","geometry":null,"properties":{"id_ffco":"5306","nom":"Parc du Vieux Moulin","_dept":"13","numero":"2004-D13-1007","commune":"Marseille","echelle":"1/1500","surface":"0.05 km²","format":"A5","annee":"2004","proprietaire":"13 - Bouches-du-Rhône","niveau":"Départemental","specialite":"CO à pied","date_saisie":"02/02/2012","valide":"Non","ppo":"Non","obsolete":true}},{"type":"Feature","geometry":{"type":"Polygon","coordinates":[[[5.6422,43.4465],[5.6475,43.4427],[5.6561,43.4378],[5.6618,43.4297],[5.6621,43.4166],[5.6724,43.4099],[5.686,43.4048],[5.6673,43.3991],[5.6487,43.3971],[5.6319,43.4003],[5.6281,43.4038],[5.6233,43.4076],[5.6079,43.4084],[5.6056,43.4277],[5.6086,43.4495],[5.6266,43.4504],[5.6386,43.4468],[5.6422,43.4465]]]},"properties":{"id_ffco":"4005","nom":"LE REGAGNAS","_dept":"13","numero":"2004-D13-1006","commune":"Peynier","echelle":"1/20000","surface":"23.42 km²","format":"A3","annee":"2004","cartographes":"Ch Gaillard,T Puech,L Beyly","proprietaire":"13 - Bouches-du-Rhône","niveau":"Régional","specialite":"CO à VTT","latitude":"43.4225139609","longitude":"5.63702978124","date_saisie":"01/09/2005","date_depot":"09/09/2005","valide":"Non","ppo":"Non","obsolete":true}},{"type":"Feature","geometry":null,"properties":{"id_ffco":"4013","nom":"Parc Sept Collines","_dept":"13","numero":"2004-D13-100","commune":"Marseille","echelle":"1/5000","surface":"1.0 km²","annee":"2004","cartographes":"S Rozoum","proprietaire":"PR - Provence","niveau":"Départemental","specialite":"CO à pied","latitude":"43.2976116","longitude":"5.3810421","date_saisie":"02/02/2012","date_depot":"20/09/2005","valide":"Non","ppo":"Non","obsolete":true}},{"type":"Feature","geometry":{"type":"Polygon","coordinates":[[[4.8639,43.8111],[4.8555,43.8121],[4.8543,43.8152],[4.8583,43.8196],[4.8638,43.8229],[4.8768,43.8178],[4.871,43.8132],[4.8639,43.8105],[4.8639,43.8111]]]},"properties":{"id_ffco":"2593","nom":"La petite Crau","_dept":"13","numero":"2008-D13-10","commune":"ST REMY PROVENCE","echelle":"1/7500","surface":"1.46 km²","format":"A4","annee":"2008","cartographes":"Michel HABERKORN,Daniel Seckler","proprietaire":"Ville de saint remy de Provence","niveau":"Départemental","specialite":"CO à pied","latitude":"43.8163997292","longitude":"4.86459174594","valide":"Non","ppo":"Non","obsolete":true}},{"type":"Feature","geometry":null,"properties":{"id_ffco":"1464","nom":"PLAINE TISSERANDS","_dept":"13","numero":"1985-D13-10","commune":"PLAN CAMPAGNE","echelle":"1/15000","surface":"5.0 km²","annee":"1985","proprietaire":"1304","niveau":"Interrégional","specialite":"CO à pied","latitude":"43.4139006","longitude":"5.3447786","valide":"Non","ppo":"Non","obsolete":true}},{"type":"Feature","geometry":null,"properties":{"id_ffco":"1463","nom":"PUITS AUZON","_dept":"13","numero":"1985-D13-09","commune":"VAUVENARGUES","echelle":"1/15000","surface":"5.0 km²","annee":"1985","proprietaire":"1303 - MARSEILLE COURSE ORIENTATION","niveau":"Interrégional","specialite":"CO à pied","latitude":"43.5553475","longitude":"5.60091","valide":"Non","ppo":"Non","obsolete":true}},{"type":"Feature","geometry":null,"properties":{"id_ffco":"2571","nom":"MARSEILLEVEYRE","_dept":"13","numero":"1992-D13-08","commune":"MARSEILLE PTE RGE","echelle":"1/5000","surface":"0.1 km²","annee":"1992","proprietaire":"1303 - MARSEILLE COURSE ORIENTATION","specialite":"CO à pied","latitude":"43.2474206","longitude":"5.3741243","valide":"Non","ppo":"Non","obsolete":true}},{"type":"Feature","geometry":null,"properties":{"id_ffco":"8468","nom":"libre","_dept":"13","numero":"2015-D13-068","surface":"None km²","annee":"2015","date_saisie":"08/06/2015","valide":"Non","ppo":"Non","obsolete":true}},{"type":"Feature","geometry":null,"properties":{"id_ffco":"2569","nom":"GELADE","_dept":"13","numero":"1992-D13-06","commune":"CARPIAGNE","echelle":"1/15000","surface":"1.5 km²","annee":"1992","proprietaire":"13 - Bouches-du-Rhône","specialite":"CO à pied","latitude":"43.2608689","longitude":"5.5388484","valide":"Non","ppo":"Non","obsolete":true}},{"type":"Feature","geometry":null,"properties":{"id_ffco":"824","nom":"EUVES (LES)","_dept":"13","numero":"1978-D13-053","commune":"GREASQUE","echelle":"1/15000","surface":"6.25 km²","annee":"1978","proprietaire":"PR - Provence","specialite":"CO à pied","latitude":"43.4313461","longitude":"5.5446495","valide":"Non","ppo":"Non","obsolete":true}},{"type":"Feature","geometry":null,"properties":{"id_ffco":"823","nom":"PUITS D'AUZON 3","_dept":"13","numero":"1978-D13-045","commune":"AIX en PROVENCE","echelle":"1/15000","surface":"7.0 km²","annee":"1978","proprietaire":"PR - Provence","specialite":"CO à pied","latitude":"43.5249088","longitude":"5.4541444","valide":"Non","ppo":"Non","obsolete":true}},{"type":"Feature","geometry":null,"properties":{"id_ffco":"2566","nom":"CAMPAGNE PASTRE","_dept":"13","numero":"1992-D13-04","commune":"MARSEILLE","echelle":"1/7500","surface":"1.3 km²","annee":"1992","proprietaire":"13 - Bouches-du-Rhône","specialite":"CO à pied","latitude":"43.2976116","longitude":"5.3810421","valide":"Non","ppo":"Non","obsolete":true}},{"type":"Feature","geometry":null,"properties":{"id_ffco":"2566","nom":"PASTRE FONTAINE DE VOIRE","_dept":"13","numero":"1992-D13-04","commune":"MARSEILLE","echelle":"1/10000","surface":"2.5 km²","annee":"1992","proprietaire":"1303 - MARSEILLE COURSE ORIENTATION","specialite":"CO à pied","latitude":"43.2976116","longitude":"5.3810421","valide":"Non","ppo":"Non","obsolete":true}},{"type":"Feature","geometry":null,"properties":{"id_ffco":"2565","nom":"CROCHIROMOL","_dept":"13","numero":"1992-D13-03","commune":"OK.CORRAL","echelle":"1/15000","surface":"3.3 km²","annee":"1992","proprietaire":"13 - Bouches-du-Rhône","specialite":"CO à pied","latitude":"43.267909","longitude":"5.729069","valide":"Non","ppo":"Non","obsolete":true}},{"type":"Feature","geometry":null,"properties":{"id_ffco":"2563","nom":"VALLON ANGLAIS","_dept":"13","numero":"1992-D13-01","commune":"CARNOUX","echelle":"1/10000","surface":"1.5 km²","annee":"1992","proprietaire":"13 - Bouches-du-Rhône","specialite":"CO à pied","latitude":"43.2568499","longitude":"5.5672115","valide":"Non","ppo":"Non","obsolete":true}},{"type":"Feature","geometry":null,"properties":{"id_ffco":"2562","nom":"CAMPAGNOLE","_dept":"13","numero":"1992-D13-00","commune":"SALON","echelle":"1/10000","surface":"2.0 km²","annee":"1992","specialite":"CO à pied","latitude":"43.603333","longitude":"5.106389","valide":"Non","ppo":"Non","obsolete":true}},{"type":"Feature","geometry":null,"properties":{"id_ffco":"79","nom":"Le Loubatas","_dept":"13","numero":"2004-D13-","commune":"Peyrolles","surface":"0.3 km²","annee":"2004","contacts":"Collège","latitude":"43.6463237","longitude":"5.5833383","valide":"Non","ppo":"Oui (40 postes)","obsolete":true}},{"type":"Feature","geometry":{"type":"Polygon","coordinates":[[[5.497,43.6024],[5.5102,43.6026],[5.5105,43.593],[5.4978,43.593],[5.4915,43.5954],[5.4915,43.5975],[5.4968,43.6024],[5.497,43.6024]]]},"properties":{"id_ffco":"78","nom":"Collet Redon","_dept":"13","numero":"1992-D13-","commune":"Venelles","echelle":"1/5000","surface":"1.42 km²","format":"A4","annee":"1992","cartographes":"SH O Cart","proprietaire":"13 - Bouches-du-Rhône","niveau":"Départemental","specialite":"CO à pied","contacts":"Mairie Venelles, 04 42 54 93 32, c.enjalric@venelles.fr","latitude":"43.5976611365","longitude":"5.50195427393","valide":"Non","ppo":"Oui","obsolete":true}},{"type":"Feature","geometry":{"type":"Polygon","coordinates":[[[5.6299,43.5828],[5.6289,43.5848],[5.6271,43.5851],[5.6253,43.5851],[5.6238,43.5853],[5.6228,43.5854],[5.6222,43.5854],[5.6208,43.5858],[5.6196,43.5862],[5.6193,43.5864],[5.6194,43.5866],[5.6179,43.5902],[5.6179,43.5903],[5.6175,43.5904],[5.6172,43.5906],[5.6167,43.5906],[5.6161,43.5908],[5.6157,43.591],[5.6154,43.5912],[5.6153,43.5913],[5.615,43.5918],[5.6151,43.5938],[5.6149,43.5939],[5.6145,43.594],[5.6143,43.5943],[5.6141,43.5946],[5.6139,43.5951],[5.6137,43.5955],[5.6135,43.5959],[5.6133,43.5963],[5.6132,43.5966],[5.616,43.5963],[5.6242,43.5985],[5.6379,43.6021],[5.6395,43.6008],[5.6407,43.5995],[5.6423,43.5988],[5.6431,43.5979],[5.6442,43.5966],[5.6449,43.5959],[5.6451,43.5953],[5.6457,43.5944],[5.646,43.5937],[5.646,43.5933],[5.6466,43.5869],[5.6504,43.5865],[5.6529,43.5861],[5.6562,43.5867],[5.658,43.5865],[5.6582,43.5857],[5.6585,43.5852],[5.6594,43.5848],[5.6588,43.5844],[5.6584,43.5839],[5.6573,43.5835],[5.6572,43.583],[5.6566,43.5828],[5.6562,43.5814],[5.6565,43.5812],[5.6562,43.5798],[5.6565,43.5755],[5.6283,43.5756],[5.6273,43.5795],[5.6304,43.5799],[5.6299,43.5828]]]},"properties":{"id_ffco":"84","nom":"Domaine Départemantal du Taulisson","_dept":"13","numero":"2008-D13-","commune":"Jouques","echelle":"1/5000","surface":"6.23 km²","annee":"2008","contacts":"Département 13 MSV, 04 13 31 57 20, msv@cg13.fr","latitude":"43.5876129676","longitude":"5.63647355907","valide":"Non","ppo":"Oui (17 postes)","obsolete":true}},{"type":"Feature","geometry":{"type":"Polygon","coordinates":[[[5.4366,43.655],[5.4351,43.6549],[5.4335,43.6549],[5.4328,43.655],[5.4317,43.6552],[5.4313,43.6553],[5.4312,43.655],[5.4311,43.6546],[5.431,43.6543],[5.431,43.6539],[5.431,43.6534],[5.4309,43.6522],[5.4308,43.6514],[5.4308,43.6506],[5.4307,43.6497],[5.4307,43.6487],[5.4311,43.6483],[5.4318,43.6482],[5.4318,43.6473],[5.433,43.6438],[5.434,43.643],[5.4359,43.6426],[5.4389,43.6427],[5.441,43.6433],[5.4424,43.6449],[5.4427,43.6453],[5.4428,43.6457],[5.4428,43.6461],[5.4428,43.6465],[5.4424,43.648],[5.4417,43.6481],[5.4405,43.6481],[5.4404,43.6484],[5.4405,43.6488],[5.4407,43.6496],[5.4406,43.6499],[5.4404,43.6503],[5.44,43.6505],[5.4395,43.6508],[5.439,43.651],[5.4387,43.6514],[5.4384,43.6519],[5.4382,43.6523],[5.4379,43.6528],[5.438,43.6533],[5.4383,43.6537],[5.4381,43.6541],[5.4374,43.6549],[5.4366,43.655]]]},"properties":{"id_ffco":"81","nom":"Domaine Départemental de la Quille","_dept":"13","numero":"2006-D13-","commune":"Le Puy Ste. Réparade","echelle":"1/5000","surface":"0.97 km²","annee":"2006","contacts":"Département 13 MSV, 04 13 31 57 20, msv@cg13.fr","latitude":"43.6485684716","longitude":"5.43614574181","valide":"Non","ppo":"Oui (45 postes)","obsolete":true}},{"type":"Feature","geometry":null,"properties":{"id_ffco":"1476","nom":"GALERE","_dept":"13","numero":"1985-D13-","commune":"FUVEAU","echelle":"1/15000","surface":"5.6 km²","format":"A4","annee":"1985","cartographes":"G Venon","proprietaire":"13 - Bouches-du-Rhône","niveau":"Interrégional","specialite":"CO à pied","latitude":"43.4547006","longitude":"5.5611979","valide":"Non","ppo":"Non","obsolete":true}},{"type":"Feature","geometry":null,"properties":{"id_ffco":"79","nom":"Les Euves 2 nord","_dept":"13","numero":"2004-D13-","commune":"Gréasque","echelle":"1/10000","surface":"5.0 km²","format":"A4","annee":"2004","proprietaire":"13 - Bouches-du-Rhône","niveau":"Régional","specialite":"CO à pied","latitude":"43.4214012272","longitude":"5.54916305527","date_saisie":"02/02/2012","valide":"Non","ppo":"Non","obsolete":true}}]}