{"type":"FeatureCollection","features":[{"type":"Feature","geometry":{"type":"Polygon","coordinates":[[[2.4593,44.9425],[2.4606,44.9424],[2.4609,44.9416],[2.4605,44.941],[2.4599,44.9404],[2.4597,44.9396],[2.4592,44.9388],[2.4581,44.9383],[2.4569,44.9384],[2.4566,44.9387],[2.4569,44.9395],[2.4577,44.9406],[2.4593,44.9425]]]},"properties":{"id_ffco":"2021-D15-35","nom":"Complexe sportif de Peyrolles","_dept":"15","numero":"2021-D15-35","commune":"Aurillac","echelle":"1/2000","surface":"0.08 km²","format":"A4","annee":"2021","cartographes":"Sylvain Raimbault","proprietaire":"AR - Auvergne-Rhône-Alpes","niveau":"Initiation, Scolaire","specialite":"CO à pied","contacts":"Ligue Auvergne Rhône-Alpes de Course d'Orientation, Maison Départementale des Sports, 7 rue de l'Industrie, 38320, EYBENS, contact@lauraco.fr","latitude":"44.9403418436","longitude":"2.45881674105","date_saisie":"03/05/2021","date_depot":"25/11/2021","valide":"Oui","ppo":"Oui (25 postes)","type_carte":"Nouvelle carte","fond":"Ortho","obsolete":false}},{"type":"Feature","geometry":{"type":"Polygon","coordinates":[[[2.4486,44.9073],[2.448,44.9069],[2.4478,44.9067],[2.4475,44.9066],[2.4472,44.9065],[2.4473,44.9067],[2.4472,44.9069],[2.4471,44.907],[2.4468,44.9071],[2.4466,44.9072],[2.4461,44.9071],[2.4456,44.9071],[2.4456,44.9068],[2.4456,44.9065],[2.4457,44.9061],[2.4454,44.9057],[2.4451,44.9054],[2.4449,44.9054],[2.4448,44.9052],[2.445,44.9049],[2.4446,44.9045],[2.4443,44.904],[2.4438,44.9034],[2.4433,44.9027],[2.4427,44.9022],[2.4425,44.9021],[2.4423,44.9019],[2.4421,44.9015],[2.4424,44.9011],[2.4432,44.9006],[2.4437,44.9004],[2.4443,44.9004],[2.4456,44.9013],[2.446,44.902],[2.4462,44.9027],[2.4466,44.9029],[2.4471,44.9032],[2.448,44.9029],[2.4489,44.9033],[2.4494,44.9036],[2.4494,44.9045],[2.4496,44.9051],[2.4501,44.9057],[2.4502,44.9061],[2.4495,44.9065],[2.4492,44.9068],[2.4493,44.907],[2.4488,44.9073],[2.4486,44.9073]]]},"properties":{"id_ffco":"2010-D15-27","nom":"La Ponétie","_dept":"15","numero":"2010-D15-27","commune":"Aurillac","echelle":"1/3000","surface":"0.23 km²","format":"A4","annee":"2010","cartographes":"Isabelle Brunet","proprietaire":"AR - Auvergne-Rhône-Alpes","niveau":"Initiation, Scolaire","specialite":"CO à pied","latitude":"44.9040167835","longitude":"2.44630944296","date_saisie":"16/05/2021","valide":"Non","ppo":"Oui (30 postes)","type_carte":"Nouvelle carte","fond":"Ortho","obsolete":false}},{"type":"Feature","geometry":{"type":"Polygon","coordinates":[[[2.4305,44.9277],[2.4312,44.9278],[2.4316,44.9279],[2.4318,44.9277],[2.4317,44.9272],[2.4316,44.927],[2.432,44.9265],[2.4319,44.9262],[2.4317,44.9259],[2.4316,44.9255],[2.4315,44.925],[2.4314,44.9243],[2.431,44.9237],[2.4295,44.9237],[2.4287,44.9243],[2.4283,44.9255],[2.4281,44.9267],[2.4276,44.9274],[2.4276,44.9281],[2.4285,44.9283],[2.4286,44.9284],[2.4289,44.9282],[2.4292,44.9281],[2.4292,44.9279],[2.4293,44.9278],[2.4294,44.9276],[2.4301,44.9277],[2.4305,44.9277]]]},"properties":{"id_ffco":"2010-D15-26","nom":"Parc Hélitas","_dept":"15","numero":"2010-D15-26","commune":"Aurillac","echelle":"1/2000","surface":"0.12 km²","format":"A4","annee":"2010","cartographes":"Isabelle Brunet","proprietaire":"AR - Auvergne-Rhône-Alpes","niveau":"Initiation, Scolaire","specialite":"CO à pied","latitude":"44.9260455249","longitude":"2.42986732403","date_saisie":"16/05/2021","valide":"Non","ppo":"Oui (30 postes)","type_carte":"Nouvelle carte","fond":"Ortho","obsolete":false}}]}