{"type":"FeatureCollection","features":[{"type":"Feature","geometry":null,"properties":{"id_ffco":"87","nom":"Pays de Montsalvy","_dept":"15","numero":"2002-D15-9991","commune":"La Capelle del Fraisse","surface":"None km²","annee":"2002","specialite":"Raid'O","contacts":"mairie","latitude":"45.1191997","longitude":"2.6326062","valide":"Non","ppo":"Oui (90 postes)","obsolete":true}},{"type":"Feature","geometry":null,"properties":{"id_ffco":"88","nom":"Station du Lioran","_dept":"15","numero":"????-D15-9988","surface":"None km²","latitude":"45.1191997","longitude":"2.6326062","valide":"Non","ppo":"Non","obsolete":true}},{"type":"Feature","geometry":null,"properties":{"id_ffco":"86","nom":"Chalinargues","_dept":"15","numero":"2001-D15-9987","commune":"Chalinargues","echelle":"1/5000","surface":"None km²","annee":"2001","specialite":"Raid'O","contacts":"\"Destination Nature\", 04 71 20 03 52, http://www.gite-cantal-aft.com/randonn%C3%A9es-et-activit%C3%A9s-aux-alentours-de-chalinargues/les-parcours-d-orientation/","latitude":"45.1550345","longitude":"2.9316299","valide":"Non","ppo":"Oui","obsolete":true}},{"type":"Feature","geometry":{"type":"Polygon","coordinates":[[[2.3324,44.9876],[2.3323,44.9875],[2.3322,44.9871],[2.3321,44.9868],[2.3317,44.9864],[2.3312,44.9861],[2.3307,44.9858],[2.3303,44.9854],[2.33,44.9851],[2.3298,44.9848],[2.3297,44.9845],[2.3292,44.9844],[2.3286,44.9844],[2.3279,44.9844],[2.3275,44.9844],[2.3273,44.9844],[2.3271,44.9844],[2.3269,44.9843],[2.3268,44.9842],[2.3263,44.984],[2.3259,44.9839],[2.3257,44.9839],[2.3254,44.9845],[2.3253,44.9848],[2.3253,44.9851],[2.3252,44.9852],[2.3249,44.9853],[2.3246,44.9857],[2.3244,44.9855],[2.3242,44.9856],[2.3243,44.9857],[2.3244,44.986],[2.3243,44.9865],[2.3243,44.9869],[2.3242,44.9878],[2.3241,44.9882],[2.3241,44.9886],[2.3241,44.9891],[2.3244,44.9894],[2.3248,44.9898],[2.3249,44.99],[2.325,44.9907],[2.3251,44.991],[2.3253,44.9914],[2.3253,44.9915],[2.3252,44.9917],[2.3249,44.9919],[2.3243,44.9921],[2.3241,44.9921],[2.3235,44.9919],[2.3233,44.992],[2.3231,44.9921],[2.323,44.9923],[2.3229,44.9924],[2.3226,44.9929],[2.3226,44.9934],[2.3226,44.9936],[2.3225,44.9939],[2.3225,44.9942],[2.3225,44.9944],[2.3225,44.9948],[2.3223,44.9951],[2.3222,44.9954],[2.3222,44.9956],[2.3221,44.9958],[2.3218,44.9959],[2.3214,44.996],[2.3211,44.996],[2.3209,44.9961],[2.3207,44.9962],[2.3205,44.9962],[2.3203,44.9962],[2.32,44.996],[2.3197,44.996],[2.3195,44.996],[2.3193,44.9961],[2.3192,44.9963],[2.3193,44.9965],[2.3196,44.9967],[2.3199,44.997],[2.3203,44.9973],[2.3206,44.9975],[2.3208,44.9977],[2.321,44.998],[2.3213,44.9982],[2.3218,44.9984],[2.3225,44.9985],[2.3227,44.9985],[2.323,44.9985],[2.3233,44.9984],[2.3245,44.998],[2.3247,44.9979],[2.325,44.9977],[2.3252,44.9977],[2.3253,44.998],[2.3253,44.9984],[2.3254,44.9989],[2.3255,44.9992],[2.3256,44.9995],[2.3257,44.9998],[2.3258,45.0],[2.3262,45.0002],[2.3266,45.0003],[2.3271,45.0004],[2.3273,45.0003],[2.3274,45.0002],[2.3275,44.9999],[2.3276,44.9997],[2.3278,44.9995],[2.3281,44.9993],[2.3284,44.9991],[2.3286,44.999],[2.3289,44.9988],[2.3291,44.9989],[2.3292,44.9989],[2.3293,44.9991],[2.3293,44.9994],[2.3292,44.9999],[2.3291,45.0004],[2.3291,45.0007],[2.3291,45.001],[2.3291,45.0014],[2.329,45.0016],[2.329,45.0019],[2.3289,45.0023],[2.3289,45.0025],[2.3291,45.0029],[2.3294,45.0032],[2.3298,45.0035],[2.33,45.0037],[2.3302,45.0039],[2.3306,45.0043],[2.331,45.0045],[2.3314,45.0047],[2.333,45.0049],[2.3332,45.0041],[2.3338,45.0043],[2.3344,45.0043],[2.3348,45.0043],[2.3352,45.0042],[2.3358,45.004],[2.3363,45.0038],[2.3368,45.0036],[2.3374,45.0035],[2.338,45.0035],[2.3384,45.0034],[2.3385,45.0033],[2.3386,45.0032],[2.3389,45.0029],[2.3392,45.0026],[2.3395,45.0023],[2.3398,45.002],[2.3399,45.0018],[2.3401,45.0016],[2.3405,45.0014],[2.3407,45.0012],[2.3409,45.0011],[2.3411,45.001],[2.3412,45.001],[2.3415,45.0013],[2.3418,45.0016],[2.342,45.0019],[2.3424,45.0021],[2.3426,45.0023],[2.3429,45.0024],[2.3432,45.0026],[2.345,45.0023],[2.3463,45.0022],[2.3481,45.0018],[2.3477,45.0015],[2.3476,45.0013],[2.3475,45.0012],[2.3478,45.0005],[2.3481,44.9995],[2.3491,44.999],[2.3498,44.998],[2.3506,44.9975],[2.3512,44.9974],[2.3515,44.9974],[2.3518,44.9974],[2.3522,44.9971],[2.3521,44.9961],[2.3522,44.9957],[2.3523,44.9953],[2.3524,44.995],[2.3527,44.9947],[2.3528,44.9945],[2.3528,44.9943],[2.3526,44.9942],[2.3524,44.9941],[2.3522,44.994],[2.352,44.994],[2.3518,44.994],[2.3517,44.9939],[2.3515,44.9938],[2.3513,44.9938],[2.3511,44.9938],[2.351,44.9938],[2.351,44.9937],[2.3511,44.9934],[2.3511,44.9932],[2.3513,44.993],[2.3514,44.9928],[2.3517,44.9927],[2.3519,44.9926],[2.3521,44.9926],[2.3521,44.9924],[2.3519,44.9924],[2.3517,44.9924],[2.3516,44.9924],[2.3513,44.9922],[2.3506,44.992],[2.3502,44.9919],[2.3498,44.9918],[2.3491,44.9918],[2.3483,44.9917],[2.3477,44.9916],[2.3473,44.9916],[2.3469,44.9914],[2.3458,44.9911],[2.3452,44.9909],[2.3447,44.9908],[2.3432,44.9902],[2.3424,44.9899],[2.3419,44.9897],[2.3415,44.9895],[2.341,44.9894],[2.3404,44.9893],[2.3398,44.9894],[2.3394,44.9894],[2.3391,44.9893],[2.338,44.9888],[2.3368,44.9883],[2.336,44.988],[2.3357,44.9879],[2.3354,44.988],[2.335,44.9881],[2.3348,44.9883],[2.3347,44.9883],[2.3346,44.9883],[2.3343,44.9883],[2.3342,44.9882],[2.3341,44.9882],[2.3339,44.988],[2.3337,44.9879],[2.3332,44.9878],[2.3328,44.9877],[2.3326,44.9877],[2.3324,44.9876]]]},"properties":{"id_ffco":"12760","nom":"Ayrens","_dept":"15","numero":"2013-D15-30","commune":"Ayrens","echelle":"1/15000","surface":"3.33 km²","format":"A4","annee":"2013","cartographes":"Isabelle Brunet","proprietaire":"AR - Auvergne-Rhône-Alpes","niveau":"Régional","specialite":"CO à pied","latitude":"44.9951019962","longitude":"2.33570139744","date_saisie":"16/05/2021","valide":"Non","ppo":"Non","type_carte":"Nouvelle carte","fond":"Ortho","obsolete":true}},{"type":"Feature","geometry":{"type":"Polygon","coordinates":[[[2.901,45.1651],[2.9007,45.1637],[2.9007,45.1614],[2.9011,45.1594],[2.902,45.1585],[2.9027,45.1576],[2.904,45.1567],[2.9057,45.1547],[2.9072,45.1531],[2.9093,45.1532],[2.9119,45.1532],[2.915,45.153],[2.9154,45.1551],[2.9212,45.1548],[2.9197,45.1583],[2.9223,45.1587],[2.9251,45.1593],[2.9265,45.1603],[2.9256,45.1644],[2.9236,45.1655],[2.9223,45.1669],[2.9227,45.168],[2.9264,45.1682],[2.9272,45.1694],[2.9271,45.1707],[2.9269,45.1721],[2.9258,45.1728],[2.925,45.1735],[2.9224,45.1733],[2.9192,45.1734],[2.9167,45.1732],[2.9071,45.1731],[2.9034,45.1735],[2.9018,45.1727],[2.9011,45.1701],[2.9012,45.167],[2.901,45.1651]]]},"properties":{"id_ffco":"12999","nom":"Suc de Lagarde - Chalinargue","_dept":"15","numero":"2011-D15-25","echelle":"1/10000","surface":"3.78 km²","format":"A4","annee":"2011","cartographes":"DECHAVANNE Franck","proprietaire":"Maison de la Pinatelle","niveau":"Départemental","specialite":"CO à pied","latitude":"45.164229026","longitude":"2.91309347703","date_saisie":"12/11/2021","valide":"Non","ppo":"Non","type_carte":"Nouvelle carte","obsolete":true}},{"type":"Feature","geometry":{"type":"Polygon","coordinates":[[[2.9419,45.0797],[2.9386,45.0812],[2.9299,45.0834],[2.9287,45.0806],[2.9309,45.0777],[2.9332,45.0765],[2.9361,45.0759],[2.9409,45.0756],[2.9428,45.0793],[2.9419,45.0797]]]},"properties":{"id_ffco":"90","nom":"Ussel","_dept":"15","numero":"2010-D15-21","commune":"Ussel","echelle":"1/5000","surface":"0.6 km²","format":"A4","annee":"2010","cartographes":"Isabelle Brunet","proprietaire":"CC La Planèze","niveau":"Initiation, Scolaire","specialite":"CO à pied","latitude":"45.0791790133","longitude":"2.93550799002","valide":"Non","ppo":"Non","type_carte":"Nouvelle carte","obsolete":true}},{"type":"Feature","geometry":{"type":"Polygon","coordinates":[[[2.9856,45.0964],[2.9826,45.0964],[2.9794,45.0967],[2.9765,45.096],[2.9772,45.091],[2.9803,45.0903],[2.9817,45.0852],[2.9872,45.0862],[2.9944,45.0867],[2.994,45.0908],[2.9941,45.0951],[2.9912,45.0961],[2.9878,45.0963],[2.9856,45.0964]]]},"properties":{"id_ffco":"89","nom":"Coltines","_dept":"15","numero":"2010-D15-20","commune":"Coltines","echelle":"1/5000","surface":"1.37 km²","format":"A4","annee":"2010","cartographes":"Isabelle Brunet","proprietaire":"CC La Planèze","niveau":"Initiation, Scolaire","specialite":"CO à pied","latitude":"45.0915119565","longitude":"2.98597335268","valide":"Non","ppo":"Non","type_carte":"Nouvelle carte","obsolete":true}},{"type":"Feature","geometry":{"type":"Polygon","coordinates":[[[3.0424,45.0717],[3.0432,45.0712],[3.0436,45.0702],[3.0437,45.0697],[3.044,45.0692],[3.0442,45.0686],[3.0439,45.068],[3.0434,45.0674],[3.0432,45.067],[3.0434,45.0664],[3.0435,45.066],[3.0432,45.0657],[3.0428,45.0652],[3.0422,45.0642],[3.0416,45.0636],[3.0399,45.0634],[3.0387,45.0634],[3.0377,45.0634],[3.0371,45.0634],[3.0362,45.0634],[3.0356,45.0626],[3.035,45.062],[3.0343,45.0613],[3.034,45.06],[3.0322,45.0593],[3.0309,45.059],[3.0285,45.0588],[3.027,45.0587],[3.0257,45.0595],[3.0264,45.0605],[3.0272,45.0617],[3.0283,45.0626],[3.0296,45.0638],[3.0308,45.0655],[3.0318,45.0667],[3.0314,45.068],[3.0306,45.07],[3.0296,45.0714],[3.0296,45.0716],[3.0338,45.0721],[3.0357,45.0723],[3.0381,45.0714],[3.0397,45.0714],[3.0405,45.0715],[3.0424,45.0717]]]},"properties":{"id_ffco":"12719","nom":"Le Sailhant","_dept":"15","numero":"2010-D15-12","commune":"Le Sailhant","echelle":"1/5000","surface":"1.2 km²","format":"A4","annee":"2010","cartographes":"Isabelle Brunet","proprietaire":"AR - Auvergne-Rhône-Alpes","niveau":"Départemental","specialite":"CO à pied","latitude":"45.0661267758","longitude":"3.03542930105","date_saisie":"18/04/2021","valide":"Non","ppo":"Non","type_carte":"Nouvelle carte","fond":"Cadastre","obsolete":true}},{"type":"Feature","geometry":{"type":"Polygon","coordinates":[[[2.5296,45.4608],[2.5301,45.4604],[2.5303,45.4603],[2.5305,45.4602],[2.5306,45.4595],[2.5306,45.4591],[2.5304,45.4587],[2.5303,45.4585],[2.53,45.4583],[2.5295,45.4584],[2.5291,45.4582],[2.5288,45.4579],[2.5287,45.4576],[2.5285,45.4575],[2.5282,45.4572],[2.5279,45.4568],[2.5276,45.4567],[2.5274,45.4563],[2.5269,45.4556],[2.5267,45.4551],[2.5261,45.4544],[2.5259,45.4545],[2.5241,45.4549],[2.5239,45.4556],[2.5238,45.4564],[2.5238,45.4565],[2.5243,45.4572],[2.5251,45.4577],[2.5254,45.4581],[2.526,45.4587],[2.5256,45.4589],[2.5252,45.4592],[2.526,45.4594],[2.5264,45.4597],[2.527,45.4598],[2.5276,45.4598],[2.5282,45.4601],[2.5284,45.4603],[2.5287,45.4605],[2.5292,45.4605],[2.5294,45.4606],[2.5296,45.4608]]]},"properties":{"id_ffco":"12720","nom":"Lanobre","_dept":"15","numero":"2008-D15-11","commune":"Lanobre","echelle":"1/2500","surface":"0.18 km²","format":"A4","annee":"2008","cartographes":"Isabelle Brunet","proprietaire":"AR - Auvergne-Rhône-Alpes","niveau":"Initiation, Scolaire","specialite":"CO à pied","latitude":"45.4576984762","longitude":"2.52700119723","date_saisie":"18/04/2021","valide":"Non","ppo":"Non","type_carte":"Nouvelle carte","fond":"Cadastre","obsolete":true}},{"type":"Feature","geometry":null,"properties":{"id_ffco":"3408","nom":"Chalinargues Espace Loisir Compétition","_dept":"15","numero":"1999-D15-07","commune":"CHALINARGUES","echelle":"1/15000","surface":"11.0 km²","annee":"1999","proprietaire":"AU - Auvergne","specialite":"CO à pied","latitude":"45.1550345","longitude":"2.9316299","date_saisie":"23/11/2001","date_depot":"06/12/2001","valide":"Non","ppo":"Non","obsolete":true}},{"type":"Feature","geometry":null,"properties":{"id_ffco":"3411","nom":"CHALINARGUES Espace randonnée","_dept":"15","numero":"1999-D15-06","commune":"CHALINARGUES","echelle":"1/20000","surface":"None km²","annee":"1999","proprietaire":"AU - Auvergne","specialite":"CO à pied","latitude":"45.1550345","longitude":"2.9316299","date_saisie":"23/11/2001","date_depot":"06/12/2001","valide":"Non","ppo":"Non","obsolete":true}},{"type":"Feature","geometry":null,"properties":{"id_ffco":"3409","nom":"CHALINARGUES Espace Initiation Forêt","_dept":"15","numero":"1999-D15-05","commune":"CHALINARGUES","echelle":"1/7500","surface":"3.5 km²","annee":"1999","proprietaire":"AU - Auvergne","specialite":"CO à pied","latitude":"45.1550345","longitude":"2.9316299","date_saisie":"23/11/2001","date_depot":"06/12/2001","valide":"Non","ppo":"Non","obsolete":true}},{"type":"Feature","geometry":{"type":"Polygon","coordinates":[[[2.929,45.1551],[2.9283,45.1562],[2.9294,45.1595],[2.9314,45.1607],[2.9339,45.1603],[2.938,45.1593],[2.9407,45.1587],[2.9404,45.1574],[2.9404,45.1562],[2.9404,45.1555],[2.9399,45.1546],[2.9395,45.1534],[2.9394,45.1524],[2.9393,45.1518],[2.9369,45.1517],[2.9322,45.1519],[2.932,45.1528],[2.9307,45.1536],[2.9299,45.1544],[2.929,45.1551]]]},"properties":{"id_ffco":"3410","nom":"CHALINARGUES Espace Initiation Village","_dept":"15","numero":"1999-D15-04","commune":"CHALINARGUES","echelle":"1/5000","surface":"0.73 km²","format":"A4","annee":"1999","cartographes":"COTIRTA Marian","niveau":"Initiation, Scolaire","specialite":"CO à pied","latitude":"45.1561341069","longitude":"2.93464745438","date_saisie":"23/11/2001","date_depot":"06/12/2001","valide":"Non","ppo":"Non","type_carte":"Nouvelle carte","fond":"IGN","obsolete":true}},{"type":"Feature","geometry":null,"properties":{"id_ffco":"2948","nom":"SUPER LIORAN","_dept":"15","numero":"1997-D15-01","commune":"MURAT","echelle":"1/5000","surface":"0.8 km²","annee":"1997","specialite":"CO à pied","latitude":"45.1120191","longitude":"2.8688096","valide":"Non","ppo":"Non","obsolete":true}},{"type":"Feature","geometry":null,"properties":{"id_ffco":"994","nom":"CEZALLIER-CANTAL","_dept":"15","numero":"1980-D15-00","commune":"ALLANCHE","echelle":"1/25000","surface":"178.0 km²","annee":"1980","proprietaire":"RA - Rhône-Alpes","niveau":"Interrégional","specialite":"CO à pied","latitude":"45.2277706","longitude":"2.9344318","valide":"Non","ppo":"Non","obsolete":true}}]}