{"type":"FeatureCollection","features":[{"type":"Feature","geometry":{"type":"Polygon","coordinates":[[[0.3157,45.7646],[0.3234,45.7618],[0.3251,45.7616],[0.3287,45.7603],[0.3326,45.7605],[0.3338,45.7603],[0.3334,45.7558],[0.3323,45.7551],[0.3323,45.7484],[0.3306,45.7478],[0.3299,45.7475],[0.3286,45.7478],[0.3275,45.7477],[0.3264,45.748],[0.3184,45.7479],[0.3066,45.7478],[0.3041,45.7587],[0.3157,45.7646]]]},"properties":{"id_ffco":"2025-D16-67","nom":"Braconne lac de la biche","_dept":"16","numero":"2025-D16-67","commune":"Angoulème","echelle":"1/10000","surface":"3.34 km²","format":"A4","annee":"2025","cartographes":"Bruno MARCHEGAY","proprietaire":"1601 - CHARENTE ORIENTATION FEUILLADE - C-O-F","niveau":"Régional","specialite":"CO à pied","latitude":"45.7551108978","longitude":"0.31889619098","date_saisie":"07/12/2025","date_depot":"18/02/2026","valide":"Non","ppo":"Non","type_carte":"Nouvelle carte","fond":"IGN","obsolete":false}},{"type":"Feature","geometry":{"type":"Polygon","coordinates":[[[0.3069,45.7479],[0.3127,45.7205],[0.3096,45.7193],[0.3088,45.7196],[0.3013,45.7198],[0.2981,45.7341],[0.3069,45.7479]]]},"properties":{"id_ffco":"2025-D16-66","nom":"Braconne lac français","_dept":"16","numero":"2025-D16-66","commune":"Angoulème","echelle":"1/10000","surface":"2.15 km²","format":"A4","annee":"2025","cartographes":"Bruno MARCHEGAY","proprietaire":"1601 - CHARENTE ORIENTATION FEUILLADE - C-O-F","niveau":"Régional","specialite":"CO à pied","latitude":"45.7307813869","longitude":"0.30532283278","date_saisie":"07/12/2025","date_depot":"18/02/2026","valide":"Oui","ppo":"Non","type_carte":"Nouvelle carte","fond":"IGN","obsolete":false}},{"type":"Feature","geometry":{"type":"Polygon","coordinates":[[[-0.1694,45.5981],[-0.1681,45.5836],[-0.1456,45.5839],[-0.1433,45.5849],[-0.1435,45.586],[-0.1412,45.5888],[-0.1421,45.5904],[-0.1431,45.5924],[-0.145,45.5932],[-0.1456,45.5969],[-0.1449,45.601],[-0.1455,45.6031],[-0.1484,45.6035],[-0.1502,45.6037],[-0.1516,45.6048],[-0.1521,45.6051],[-0.1619,45.6048],[-0.1694,45.5981]]]},"properties":{"id_ffco":"2024-D16-65","nom":"Bois de Mangin VTT","_dept":"16","numero":"2024-D16-65","commune":"Saint Preuil","echelle":"1/10000","surface":"4.25 km²","format":"A4","annee":"2024","cartographes":"Thierry GUERAUD","proprietaire":"1601 - CHARENTE ORIENTATION FEUILLADE - C-O-F","niveau":"National, International","specialite":"CO à VTT","latitude":"45.5935913157","longitude":"-0.15613649689","date_saisie":"14/05/2024","date_depot":"05/03/2025","valide":"Oui","ppo":"Non","type_carte":"Nouvelle carte","fond":"IGN","obsolete":false}},{"type":"Feature","geometry":{"type":"Polygon","coordinates":[[[-0.1942,45.6419],[-0.1946,45.6436],[-0.1946,45.645],[-0.1951,45.6475],[-0.1991,45.6481],[-0.2108,45.6488],[-0.2137,45.6465],[-0.2137,45.643],[-0.2128,45.6395],[-0.2072,45.6384],[-0.2067,45.6388],[-0.2058,45.639],[-0.2053,45.6383],[-0.2013,45.639],[-0.1974,45.6406],[-0.196,45.6423],[-0.1942,45.6419]]]},"properties":{"id_ffco":"2024-D16-64","nom":"Les Balestières VTT","_dept":"16","numero":"2024-D16-64","commune":"Mainxe","echelle":"1/5000","surface":"1.42 km²","format":"A4","annee":"2024","cartographes":"Thierry GUERAUD","proprietaire":"1601 - CHARENTE ORIENTATION FEUILLADE - C-O-F","niveau":"Régional","specialite":"CO à VTT","latitude":"45.6437952641","longitude":"-0.204605032401","date_saisie":"14/05/2024","date_depot":"05/03/2025","valide":"Oui","ppo":"Non","type_carte":"Nouvelle carte","fond":"IGN","obsolete":false}},{"type":"Feature","geometry":{"type":"Polygon","coordinates":[[[-0.3117,45.6876],[-0.3151,45.6886],[-0.312,45.6914],[-0.3097,45.6906],[-0.3117,45.6876]]]},"properties":{"id_ffco":"2023-D16-63","nom":"Complexe soprtif Bernard Bacavin","_dept":"16","numero":"2023-D16-63","commune":"Cognac","echelle":"1/2000","surface":"0.09 km²","format":"A4","annee":"2023","cartographes":"Thierry GUERAUD","proprietaire":"1601 - CHARENTE ORIENTATION FEUILLADE - C-O-F","niveau":"Initiation, Scolaire","specialite":"CO à pied","latitude":"45.6894867817","longitude":"-0.312233437514","date_saisie":"16/12/2023","date_depot":"17/07/2024","valide":"Non","ppo":"Non","type_carte":"Nouvelle carte","fond":"IGN","obsolete":false}},{"type":"Feature","geometry":{"type":"Polygon","coordinates":[[[0.1923,45.6419],[0.1976,45.6405],[0.2037,45.6436],[0.2035,45.6452],[0.2058,45.6487],[0.2085,45.6538],[0.2082,45.6549],[0.2057,45.6569],[0.2043,45.6543],[0.2018,45.6528],[0.1988,45.6514],[0.1958,45.6508],[0.1903,45.6497],[0.1888,45.6501],[0.1894,45.6452],[0.1924,45.6452],[0.1923,45.6419]]]},"properties":{"id_ffco":"2023-D16-62","nom":"Bois de Soyaux","_dept":"16","numero":"2023-D16-62","commune":"Soyaux","echelle":"1/10000","surface":"1.36 km²","format":"A4","annee":"2023","cartographes":"Thierry GUERAUD","proprietaire":"1601 - CHARENTE ORIENTATION FEUILLADE - C-O-F","niveau":"Régional","specialite":"CO à pied","latitude":"45.6477343883","longitude":"0.198840557857","date_saisie":"16/12/2023","date_depot":"09/07/2024","valide":"Oui","ppo":"Non","type_carte":"Nouvelle carte","fond":"IGN","obsolete":false}},{"type":"Feature","geometry":{"type":"Polygon","coordinates":[[[0.3862,45.7375],[0.3859,45.7438],[0.3847,45.7448],[0.3811,45.7447],[0.3806,45.7437],[0.3734,45.7409],[0.3735,45.7369],[0.3862,45.7375]]]},"properties":{"id_ffco":"2023-D16-61","nom":"La Rochefoucault en Angoumois","_dept":"16","numero":"2023-D16-61","commune":"La Rochefoucault","echelle":"1/4000","surface":"0.67 km²","format":"A4","annee":"2023","cartographes":"Thierry GUERAUD","proprietaire":"1601 - CHARENTE ORIENTATION FEUILLADE - C-O-F","niveau":"Régional","specialite":"CO à pied","latitude":"45.7403800339","longitude":"0.380392246705","date_saisie":"16/12/2023","date_depot":"09/07/2024","valide":"Oui","ppo":"Non","type_carte":"Nouvelle carte","fond":"IGN","obsolete":false}},{"type":"Feature","geometry":{"type":"Polygon","coordinates":[[[0.5038,45.6684],[0.5034,45.6682],[0.5029,45.666],[0.5032,45.6645],[0.5062,45.6638],[0.5096,45.6647],[0.5089,45.668],[0.5056,45.6684],[0.5038,45.6684]]]},"properties":{"id_ffco":"2023-D16-60","nom":"Complexe sportif de Montbron","_dept":"16","numero":"2023-D16-60","commune":"Montbron","echelle":"1/4000","surface":"0.22 km²","format":"A5","annee":"2023","cartographes":"Thierry GUERAUD","proprietaire":"1601 - CHARENTE ORIENTATION FEUILLADE - C-O-F","niveau":"Initiation, Scolaire","specialite":"CO à pied","latitude":"45.6661875301","longitude":"0.506113710257","date_saisie":"16/12/2023","date_depot":"17/07/2024","valide":"Non","ppo":"Non","type_carte":"Nouvelle carte","fond":"IGN","obsolete":false}},{"type":"Feature","geometry":{"type":"Polygon","coordinates":[[[0.1802,45.6644],[0.1827,45.6665],[0.1845,45.6657],[0.1885,45.666],[0.1893,45.6663],[0.1905,45.6659],[0.1903,45.6652],[0.1909,45.6629],[0.1841,45.6612],[0.1802,45.6644]]]},"properties":{"id_ffco":"2023-D16-59","nom":"Bois des Mérigots","_dept":"16","numero":"2023-D16-59","commune":"Isle d'Espagnac","echelle":"1/4000","surface":"0.32 km²","format":"A4","annee":"2023","cartographes":"Thierry GUERAUD","proprietaire":"16 - Charente","niveau":"Initiation, Scolaire","specialite":"CO à pied","latitude":"45.6640132991","longitude":"0.185781645601","date_saisie":"16/12/2023","date_depot":"09/07/2024","valide":"Oui","ppo":"Non","type_carte":"Nouvelle carte","fond":"IGN","obsolete":false}},{"type":"Feature","geometry":{"type":"Polygon","coordinates":[[[0.3387,45.6949],[0.3394,45.692],[0.3394,45.6899],[0.3397,45.6873],[0.3386,45.6848],[0.336,45.6833],[0.3328,45.6825],[0.3335,45.6809],[0.3315,45.6798],[0.3303,45.6806],[0.3294,45.681],[0.3286,45.6799],[0.3259,45.6793],[0.3251,45.6787],[0.325,45.678],[0.3221,45.6772],[0.3198,45.6773],[0.3209,45.6814],[0.3206,45.6846],[0.321,45.6915],[0.3233,45.6944],[0.3242,45.6954],[0.3262,45.6982],[0.3276,45.6997],[0.3288,45.6987],[0.328,45.6971],[0.3302,45.6968],[0.3312,45.6963],[0.3335,45.6963],[0.3351,45.6962],[0.3361,45.6969],[0.3387,45.6949]]]},"properties":{"id_ffco":"2023-D16-58","nom":"Bois long","_dept":"16","numero":"2023-D16-58","commune":"Bunzac","echelle":"1/10000","surface":"2.5 km²","format":"A4","annee":"2023","cartographes":"Thierry GUERAUD","proprietaire":"1601 - CHARENTE ORIENTATION FEUILLADE - C-O-F","niveau":"Régional","specialite":"CO à pied","latitude":"45.6882087838","longitude":"0.329344990893","date_saisie":"07/02/2023","date_depot":"17/05/2023","valide":"Oui","ppo":"Non","type_carte":"Reprise","base":"2009-D16-21 Bois Long","fond":"IGN","obsolete":false}},{"type":"Feature","geometry":{"type":"Polygon","coordinates":[[[0.1864,45.7093],[0.1872,45.7097],[0.1885,45.71],[0.189,45.7106],[0.1901,45.7109],[0.1909,45.7113],[0.1926,45.7118],[0.1942,45.7128],[0.2003,45.7145],[0.2007,45.7154],[0.2004,45.7187],[0.2006,45.7195],[0.2014,45.7195],[0.2019,45.72],[0.2034,45.7201],[0.2039,45.7217],[0.2084,45.7226],[0.2082,45.7237],[0.211,45.7245],[0.2121,45.7226],[0.2134,45.7225],[0.2143,45.7233],[0.2165,45.722],[0.2144,45.7182],[0.2173,45.7167],[0.2162,45.7145],[0.2222,45.7131],[0.2217,45.7123],[0.2214,45.7118],[0.2201,45.7112],[0.2183,45.7111],[0.2199,45.7084],[0.2158,45.7073],[0.2139,45.7068],[0.2085,45.7075],[0.2018,45.7083],[0.2008,45.7077],[0.1991,45.7076],[0.1979,45.7066],[0.1966,45.7053],[0.1948,45.7037],[0.1928,45.7023],[0.1907,45.7036],[0.1897,45.7053],[0.1874,45.7062],[0.1864,45.7078],[0.1864,45.7093]]]},"properties":{"id_ffco":"2023-D16-57","nom":"Champniers","_dept":"16","numero":"2023-D16-57","commune":"Champniers","echelle":"1/7500","surface":"3.05 km²","format":"A4","annee":"2023","cartographes":"Thierry GUERAUD","proprietaire":"1601 - CHARENTE ORIENTATION FEUILLADE - C-O-F","niveau":"Départemental","specialite":"CO à pied","latitude":"45.7128696857","longitude":"0.205235400893","date_saisie":"07/02/2023","date_depot":"17/05/2023","valide":"Oui","ppo":"Oui (80 postes)","type_carte":"Nouvelle carte","fond":"IGN","obsolete":false}},{"type":"Feature","geometry":{"type":"Polygon","coordinates":[[[0.1975,46.0256],[0.197,46.0304],[0.198,46.0304],[0.2003,46.0316],[0.203,46.0347],[0.2038,46.0351],[0.2077,46.0358],[0.211,46.036],[0.2116,46.0357],[0.2121,46.0361],[0.2131,46.0357],[0.2105,46.0328],[0.2098,46.032],[0.209,46.0307],[0.2078,46.0298],[0.2049,46.0266],[0.2043,46.0257],[0.1975,46.0256]]]},"properties":{"id_ffco":"2021-D16-56","nom":"Ruffec centre","_dept":"16","numero":"2021-D16-56","commune":"Ruffec","echelle":"1/4000","surface":"0.79 km²","format":"A4","annee":"2021","cartographes":"Thierry GUERAUD","proprietaire":"1601 - CHARENTE ORIENTATION FEUILLADE - C-O-F","niveau":"Régional","specialite":"CO à pied","latitude":"46.0308182283","longitude":"0.204180925085","date_saisie":"21/06/2021","date_depot":"28/02/2023","valide":"Oui","ppo":"Oui (30 postes)","type_carte":"Nouvelle carte","fond":"IGN","obsolete":false}},{"type":"Feature","geometry":{"type":"Polygon","coordinates":[[[0.1597,45.6828],[0.1602,45.683],[0.1631,45.6835],[0.1637,45.6838],[0.1641,45.6838],[0.1641,45.682],[0.1638,45.6817],[0.1639,45.6791],[0.1623,45.6787],[0.1606,45.681],[0.1597,45.6828]]]},"properties":{"id_ffco":"2020-D16-55","nom":"Collège Gond-Pontouvre","_dept":"16","numero":"2020-D16-55","commune":"Gond-Pontouvre","echelle":"1/2000","surface":"0.13 km²","format":"A4","annee":"2020","cartographes":"Marian CORTITA","proprietaire":"1601 - CHARENTE ORIENTATION FEUILLADE - C-O-F","niveau":"Initiation, Scolaire","specialite":"CO à pied","latitude":"45.6814400355","longitude":"0.162310403791","date_saisie":"03/10/2020","date_depot":"08/12/2020","valide":"Oui","ppo":"Non","type_carte":"Nouvelle carte","fond":"Cadastre","obsolete":false}},{"type":"Feature","geometry":{"type":"Polygon","coordinates":[[[0.1825,45.8806],[0.183,45.8813],[0.1878,45.8806],[0.1875,45.8799],[0.1877,45.8793],[0.1871,45.879],[0.187,45.8782],[0.1857,45.8776],[0.1848,45.8769],[0.1832,45.8764],[0.1821,45.8764],[0.1817,45.8756],[0.1789,45.8758],[0.1782,45.8766],[0.1757,45.8773],[0.1738,45.8784],[0.172,45.8794],[0.1715,45.8801],[0.1686,45.8816],[0.169,45.8825],[0.1679,45.8839],[0.1678,45.8844],[0.1699,45.8848],[0.1716,45.8833],[0.173,45.8839],[0.1764,45.8845],[0.1825,45.8806]]]},"properties":{"id_ffco":"2020-D16-54","nom":"Mansle","_dept":"16","numero":"2020-D16-54","commune":"Mansle","echelle":"1/5000","surface":"0.83 km²","format":"A4","annee":"2020","cartographes":"Thierry GUERAUD","proprietaire":"1601 - CHARENTE ORIENTATION FEUILLADE - C-O-F","niveau":"Initiation, Scolaire","specialite":"CO à pied","latitude":"45.8801976657","longitude":"0.177806840514","date_saisie":"22/06/2020","date_depot":"21/07/2020","valide":"Oui","ppo":"Oui (38 postes)","type_carte":"Nouvelle carte","fond":"Cadastre","obsolete":false}},{"type":"Feature","geometry":{"type":"Polygon","coordinates":[[[-0.1943,45.6434],[-0.1951,45.6422],[-0.1957,45.6423],[-0.1963,45.6418],[-0.1971,45.6419],[-0.1979,45.6408],[-0.1989,45.6412],[-0.1999,45.6402],[-0.2003,45.6398],[-0.2014,45.6404],[-0.1983,45.6429],[-0.2012,45.6437],[-0.2017,45.6438],[-0.2,45.6477],[-0.199,45.6473],[-0.1979,45.6481],[-0.1953,45.6476],[-0.1943,45.6454],[-0.1943,45.6434]]]},"properties":{"id_ffco":"2019-D16-53","nom":"Bois de Mainxe","_dept":"16","numero":"2019-D16-53","commune":"Mainxe","echelle":"1/5000","surface":"0.32 km²","format":"A4","annee":"2019","cartographes":"Marian CORTITA","proprietaire":"1601 - CHARENTE ORIENTATION FEUILLADE - C-O-F","niveau":"Initiation, Scolaire","specialite":"CO à pied","latitude":"45.6445353257","longitude":"-0.197749073449","date_saisie":"24/10/2019","date_depot":"11/02/2021","valide":"Oui","ppo":"Non","type_carte":"Nouvelle carte","fond":"Ortho","obsolete":false}},{"type":"Feature","geometry":{"type":"Polygon","coordinates":[[[0.2318,45.6805],[0.2325,45.6794],[0.2325,45.6783],[0.2361,45.6773],[0.2414,45.6747],[0.2491,45.6728],[0.2503,45.6722],[0.2513,45.6733],[0.2531,45.6733],[0.2563,45.6755],[0.2643,45.6788],[0.2702,45.6805],[0.2709,45.6824],[0.2694,45.6854],[0.269,45.6887],[0.2647,45.6889],[0.2644,45.6901],[0.262,45.6901],[0.2596,45.6892],[0.2575,45.6891],[0.2506,45.6863],[0.2474,45.6861],[0.2431,45.6869],[0.2318,45.6805]]]},"properties":{"id_ffco":"2019-D16-52","nom":"Puyguyen","_dept":"16","numero":"2019-D16-52","commune":"Ruelle sur Touvre","echelle":"1/10000","surface":"3.52 km²","format":"A4","annee":"2019","cartographes":"Marian CORTITA","proprietaire":"1601 - CHARENTE ORIENTATION FEUILLADE - C-O-F","niveau":"Départemental","specialite":"CO à pied","latitude":"45.6814395359","longitude":"0.252328103743","date_saisie":"24/10/2019","date_depot":"11/02/2021","valide":"Oui","ppo":"Non","type_carte":"Nouvelle carte","fond":"Ortho","obsolete":false}},{"type":"Feature","geometry":{"type":"Polygon","coordinates":[[[-0.0063,45.8953],[-0.0083,45.8941],[-0.0108,45.8912],[-0.0079,45.8891],[-0.0044,45.8917],[-0.0025,45.8923],[-0.0036,45.8942],[-0.0063,45.8953]]]},"properties":{"id_ffco":"2019-D16-51","nom":"Bois de la Sablière","_dept":"16","numero":"2019-D16-51","commune":"Aigre","echelle":"1/5000","surface":"0.23 km²","format":"A4","annee":"2019","cartographes":"Marian CORTITA","proprietaire":"1601 - CHARENTE ORIENTATION FEUILLADE - C-O-F","niveau":"Initiation, Scolaire","specialite":"CO à pied","latitude":"45.8923315041","longitude":"-0.00672950133954","date_saisie":"24/10/2019","valide":"Non","ppo":"Non","type_carte":"Nouvelle carte","fond":"Ortho","obsolete":false}},{"type":"Feature","geometry":{"type":"Polygon","coordinates":[[[0.1245,45.4006],[0.1202,45.401],[0.1167,45.4018],[0.1141,45.4007],[0.1121,45.3977],[0.1124,45.396],[0.1135,45.3948],[0.1141,45.3938],[0.1154,45.3949],[0.116,45.3955],[0.1169,45.3963],[0.1179,45.3974],[0.1184,45.3978],[0.122,45.3981],[0.1243,45.4],[0.1245,45.4006]]]},"properties":{"id_ffco":"2019-D16-50","nom":"IME Montmoreau","_dept":"16","numero":"2019-D16-50","commune":"Montmoreau saint cybard","echelle":"1/5000","surface":"0.41 km²","format":"A4","annee":"2019","cartographes":"Thierry GUERAUD","proprietaire":"1601 - CHARENTE ORIENTATION FEUILLADE - C-O-F","niveau":"Départemental","specialite":"CO à pied","latitude":"45.3986168763","longitude":"0.1171485771","date_saisie":"06/09/2019","date_depot":"27/01/2020","valide":"Oui","ppo":"Non","type_carte":"Nouvelle carte","fond":"Ortho","obsolete":false}},{"type":"Feature","geometry":{"type":"Polygon","coordinates":[[[0.1441,45.6294],[0.145,45.6286],[0.1501,45.6269],[0.1514,45.6268],[0.1535,45.6271],[0.1539,45.6308],[0.1529,45.6311],[0.1523,45.6318],[0.1492,45.6321],[0.1464,45.632],[0.1459,45.6314],[0.1448,45.6311],[0.1441,45.6294]]]},"properties":{"id_ffco":"2019-D16-49","nom":"MJC ma campagne","_dept":"16","numero":"2019-D16-49","commune":"ANGOULEME","echelle":"1/5000","surface":"0.34 km²","format":"A4","annee":"2019","niveau":"Régional","specialite":"CO à pied","latitude":"45.6296097166","longitude":"0.149421732963","date_saisie":"28/06/2019","date_depot":"11/02/2021","valide":"Oui","ppo":"Non","type_carte":"Nouvelle carte","fond":"Cadastre","obsolete":false}},{"type":"Feature","geometry":{"type":"Polygon","coordinates":[[[-0.1458,45.6014],[-0.1501,45.6037],[-0.1524,45.6054],[-0.1534,45.6057],[-0.1538,45.6043],[-0.1538,45.6028],[-0.1561,45.6029],[-0.1573,45.6044],[-0.1599,45.6053],[-0.1621,45.605],[-0.1626,45.6036],[-0.162,45.6008],[-0.1642,45.6003],[-0.1656,45.5987],[-0.1656,45.5972],[-0.1675,45.5967],[-0.1677,45.5947],[-0.167,45.5931],[-0.1692,45.5912],[-0.1679,45.5886],[-0.1665,45.5869],[-0.1637,45.5862],[-0.1613,45.5858],[-0.1626,45.5828],[-0.1619,45.5816],[-0.1595,45.5816],[-0.1581,45.5841],[-0.1569,45.5835],[-0.1561,45.5855],[-0.1548,45.5858],[-0.1543,45.5846],[-0.1507,45.5831],[-0.1486,45.5828],[-0.1464,45.586],[-0.1425,45.5896],[-0.141,45.5921],[-0.1431,45.5945],[-0.1447,45.5959],[-0.1453,45.5986],[-0.1458,45.6],[-0.1458,45.6014]]]},"properties":{"id_ffco":"2019-D16-48","nom":"Bois de Mangin","_dept":"16","numero":"2019-D16-48","commune":"Saint Preuil","echelle":"1/10000","surface":"3.73 km²","format":"A4","annee":"2019","niveau":"Régional","specialite":"CO à pied","latitude":"45.5935318144","longitude":"-0.155354254141","date_saisie":"28/06/2019","date_depot":"11/02/2021","valide":"Oui","ppo":"Non","type_carte":"Nouvelle carte","fond":"Ortho","obsolete":false}},{"type":"Feature","geometry":{"type":"Polygon","coordinates":[[[0.1572,45.6433],[0.16,45.6449],[0.1615,45.6454],[0.1611,45.648],[0.1608,45.6502],[0.1588,45.6503],[0.157,45.6516],[0.1543,45.6522],[0.1523,45.653],[0.1562,45.6537],[0.1589,45.6563],[0.156,45.6573],[0.1495,45.6549],[0.1493,45.6531],[0.1467,45.6527],[0.1454,45.6521],[0.1457,45.6509],[0.1459,45.6503],[0.148,45.6494],[0.1495,45.6488],[0.1499,45.6477],[0.1487,45.645],[0.1504,45.6437],[0.1537,45.6427],[0.156,45.6418],[0.1572,45.6433]]]},"properties":{"id_ffco":"2019-D16-47","nom":"ANGOULEME CENTRE","_dept":"16","numero":"2019-D16-47","commune":"ANGOULEME","echelle":"1/5000","surface":"1.17 km²","format":"A3","annee":"2019","cartographes":"Damien clouzeau, Gilles clouzeau","proprietaire":"16 - Charente","niveau":"Régional","specialite":"CO à pied","latitude":"45.6492806951","longitude":"0.153955072228","date_saisie":"28/06/2019","date_depot":"27/01/2020","valide":"Oui","ppo":"Non","type_carte":"Nouvelle carte","fond":"Ortho","obsolete":false}},{"type":"Feature","geometry":{"type":"Polygon","coordinates":[[[0.2437,45.3234],[0.2385,45.3201],[0.2358,45.3196],[0.2334,45.3197],[0.2324,45.3217],[0.2337,45.3229],[0.2366,45.3235],[0.2395,45.3248],[0.2394,45.3255],[0.2405,45.3259],[0.2438,45.3238],[0.2437,45.3234]]]},"properties":{"id_ffco":"2019-D16-46","nom":"L'houme","_dept":"16","numero":"2019-D16-46","commune":"SAINT SEVERIN","echelle":"1/5000","surface":"0.32 km²","format":"A4","annee":"2019","cartographes":"Gilles clouzeau","proprietaire":"1601 - CHARENTE ORIENTATION FEUILLADE - C-O-F","niveau":"Départemental","specialite":"CO à pied","latitude":"45.3223570005","longitude":"0.237997581549","date_saisie":"20/06/2019","date_depot":"27/01/2020","valide":"Oui","ppo":"Non","type_carte":"Nouvelle carte","fond":"IGN","ref_ign":"dalle SCAN25 : 0480_6480_L93","obsolete":false}},{"type":"Feature","geometry":null,"properties":{"id_ffco":"2015-D16-45","nom":"Saint Séverin Centre","_dept":"16","numero":"2015-D16-45","commune":"Saint Séverin","surface":"None km²","annee":"2015","cartographes":"Joël Bourrinet","proprietaire":"1601 - CHARENTE ORIENTATION FEUILLADE - C-O-F","date_saisie":"15/12/2015","valide":"Non","ppo":"Non","obsolete":false}},{"type":"Feature","geometry":{"type":"Polygon","coordinates":[[[-0.0553,45.6044],[-0.0571,45.6039],[-0.0575,45.6041],[-0.0586,45.6035],[-0.0586,45.6028],[-0.0582,45.6021],[-0.0582,45.6011],[-0.0598,45.6012],[-0.0599,45.6008],[-0.0588,45.5996],[-0.0611,45.5974],[-0.0608,45.5941],[-0.0588,45.5934],[-0.0525,45.5928],[-0.0501,45.5931],[-0.0472,45.594],[-0.046,45.5956],[-0.047,45.5984],[-0.0553,45.6044]]]},"properties":{"id_ffco":"2015-D16-44","nom":"Châteauneuf Centre","_dept":"16","numero":"2015-D16-44","commune":"Châteauneuf","echelle":"1/5000","surface":"1.03 km²","format":"A4","annee":"2015","cartographes":"Damien Clouzeau","proprietaire":"1601 - CHARENTE ORIENTATION FEUILLADE - C-O-F","niveau":"Régional","specialite":"CO à pied","latitude":"45.5976788089","longitude":"-0.0540636852902","date_saisie":"15/12/2015","date_depot":"28/01/2020","valide":"Oui","ppo":"Non","type_carte":"Nouvelle carte","fond":"Cadastre","obsolete":false}},{"type":"Feature","geometry":{"type":"Polygon","coordinates":[[[0.0484,45.6251],[0.0489,45.6239],[0.0492,45.6231],[0.0494,45.6222],[0.052,45.6216],[0.0524,45.6218],[0.053,45.6221],[0.0547,45.6215],[0.0553,45.6228],[0.0553,45.6234],[0.0575,45.6227],[0.0583,45.6223],[0.0594,45.623],[0.0594,45.6235],[0.0594,45.6239],[0.0593,45.6246],[0.0589,45.6254],[0.0587,45.6255],[0.0579,45.6277],[0.0554,45.6273],[0.055,45.6282],[0.0553,45.6282],[0.055,45.6289],[0.0532,45.6285],[0.0525,45.6286],[0.0517,45.6294],[0.0507,45.6288],[0.05,45.6287],[0.0486,45.6286],[0.0479,45.6285],[0.0481,45.6266],[0.0483,45.6255],[0.0484,45.6251]]]},"properties":{"id_ffco":"2015-D16-43","nom":"Nersac Centre","_dept":"16","numero":"2015-D16-43","commune":"Nersac","echelle":"1/5000","surface":"0.55 km²","format":"A4","annee":"2015","cartographes":"Gilles Clouzeau","proprietaire":"1601 - CHARENTE ORIENTATION FEUILLADE - C-O-F","niveau":"Régional","specialite":"CO à pied","contacts":"Charente Orientation, contact@ccofeuillade.com, http://www.ccofeuillade.com/","latitude":"45.6253301607","longitude":"0.0532808198947","date_saisie":"15/12/2015","date_depot":"20/11/2019","valide":"Oui","ppo":"Non","type_carte":"Nouvelle carte","fond":"Cadastre","obsolete":false}},{"type":"Feature","geometry":null,"properties":{"id_ffco":"2015-D16-42","nom":"Les Renardières","_dept":"16","numero":"2015-D16-42","commune":"Saint Romain","surface":"None km²","annee":"2015","cartographes":"Gilles Clouzeau","proprietaire":"1601 - CHARENTE ORIENTATION FEUILLADE - C-O-F","date_saisie":"15/12/2015","valide":"Non","ppo":"Non","obsolete":false}},{"type":"Feature","geometry":{"type":"Polygon","coordinates":[[[0.1353,45.4044],[0.1331,45.405],[0.1304,45.4068],[0.1293,45.4054],[0.1272,45.4027],[0.1281,45.4014],[0.1267,45.4011],[0.1253,45.4009],[0.1257,45.3997],[0.1252,45.3989],[0.1266,45.397],[0.1281,45.3935],[0.1306,45.3936],[0.1335,45.3946],[0.1339,45.3974],[0.1338,45.3982],[0.1339,45.3994],[0.1336,45.4009],[0.1353,45.4044]]]},"properties":{"id_ffco":"2015-D16-41","nom":"Montmoreau Centre","_dept":"16","numero":"2015-D16-41","commune":"Montmoreau","echelle":"1/5000","surface":"0.72 km²","format":"A4","annee":"2015","cartographes":"Fabien Gaillard, gilles clouzeau","proprietaire":"1601 - CHARENTE ORIENTATION FEUILLADE - C-O-F","niveau":"Départemental","specialite":"CO à pied","latitude":"45.3997067408","longitude":"0.13037076882","date_saisie":"15/12/2015","date_depot":"28/01/2020","valide":"Oui","ppo":"Non","type_carte":"Nouvelle carte","fond":"IGN","ref_ign":"1733 Ouest","obsolete":false}},{"type":"Feature","geometry":{"type":"Polygon","coordinates":[[[0.2744,45.6491],[0.2757,45.6491],[0.277,45.6485],[0.278,45.6481],[0.2783,45.6478],[0.2789,45.6474],[0.2805,45.6464],[0.2797,45.6453],[0.2805,45.6445],[0.2817,45.6438],[0.2868,45.6466],[0.2902,45.6473],[0.2944,45.6496],[0.2988,45.6511],[0.2981,45.6521],[0.2976,45.6525],[0.3001,45.6554],[0.296,45.6592],[0.2933,45.6584],[0.2904,45.6569],[0.2898,45.6576],[0.2883,45.659],[0.2874,45.6596],[0.2867,45.6597],[0.2857,45.6597],[0.2851,45.6595],[0.2833,45.6605],[0.2833,45.6607],[0.2838,45.6611],[0.2835,45.6614],[0.2829,45.6614],[0.2815,45.661],[0.2808,45.6605],[0.2798,45.6613],[0.2792,45.6611],[0.2794,45.6584],[0.2804,45.6571],[0.276,45.6567],[0.2758,45.6564],[0.2762,45.6559],[0.2764,45.6536],[0.2732,45.651],[0.2713,45.6516],[0.2712,45.6494],[0.2726,45.6494],[0.2744,45.6491]]]},"properties":{"id_ffco":"2014-D16-40","nom":"Bois Blanc","_dept":"16","numero":"2014-D16-40","commune":"Touvre","echelle":"1/10000","surface":"2.33 km²","format":"A4","annee":"2014","cartographes":"Dionisie Rosca, Florin Tuncu, Gilles clouzeau","proprietaire":"1601 - CHARENTE ORIENTATION FEUILLADE - C-O-F","niveau":"Régional","specialite":"CO à pied","latitude":"45.6529474799","longitude":"0.285959567921","date_saisie":"15/12/2015","date_depot":"20/11/2019","valide":"Oui","ppo":"Non","type_carte":"Nouvelle carte","fond":"Ortho","obsolete":false}},{"type":"Feature","geometry":{"type":"Polygon","coordinates":[[[-0.0116,45.7816],[-0.0108,45.7812],[-0.0095,45.7805],[-0.0085,45.78],[-0.0078,45.7798],[-0.0061,45.7794],[-0.0042,45.779],[-0.0035,45.7789],[-0.003,45.7796],[-0.0028,45.78],[-0.0026,45.7805],[-0.0017,45.7806],[-0.0014,45.7804],[-0.0011,45.7804],[0.0001,45.7808],[0.0011,45.7806],[0.001,45.7802],[0.0022,45.7801],[0.0023,45.7808],[0.0023,45.7814],[0.0023,45.7819],[0.0021,45.7822],[-0.0008,45.7824],[-0.0006,45.7827],[-0.0008,45.783],[-0.0003,45.7837],[-0.0006,45.7839],[-0.0019,45.7843],[-0.0024,45.7845],[-0.0029,45.7851],[-0.0033,45.785],[-0.0039,45.7848],[-0.0054,45.7851],[-0.006,45.7843],[-0.0073,45.7847],[-0.0079,45.784],[-0.0109,45.7849],[-0.0113,45.7846],[-0.0111,45.7827],[-0.0116,45.7816]]]},"properties":{"id_ffco":"2014-D16-39","nom":"Théâtre des Bouchauds","_dept":"16","numero":"2014-D16-39","commune":"Saint Cybardeaux","echelle":"1/4000","surface":"0.47 km²","format":"A4","annee":"2014","cartographes":"Dionisie Rosca, Florin Tuncu","proprietaire":"1601 - CHARENTE ORIENTATION FEUILLADE - C-O-F","niveau":"Régional","specialite":"CO à pied","latitude":"45.7821330598","longitude":"-0.00514958692587","date_saisie":"15/12/2015","date_depot":"20/11/2019","valide":"Oui","ppo":"Non","type_carte":"Nouvelle carte","fond":"Ortho","obsolete":false}},{"type":"Feature","geometry":{"type":"Polygon","coordinates":[[[0.1084,45.6243],[0.1113,45.6278],[0.1091,45.6304],[0.1063,45.6328],[0.1033,45.6318],[0.1006,45.6308],[0.0968,45.6296],[0.0975,45.6284],[0.0971,45.628],[0.0973,45.6276],[0.0968,45.626],[0.0969,45.6224],[0.0993,45.6226],[0.1011,45.6225],[0.1028,45.6231],[0.1048,45.6234],[0.107,45.6239],[0.1084,45.6243]]]},"properties":{"id_ffco":"2015-D16-38","nom":"Lycée de l'Oisellerie","_dept":"16","numero":"2015-D16-38","commune":"La Couronne","echelle":"1/7500","surface":"0.9 km²","format":"A4","annee":"2015","cartographes":"Dionisie Rosca, Florin Tuncu","proprietaire":"16 - Charente","niveau":"Initiation, Scolaire","specialite":"CO à pied","latitude":"45.6272732601","longitude":"0.103415649434","date_saisie":"14/12/2015","date_depot":"20/11/2019","valide":"Oui","ppo":"Non","type_carte":"Nouvelle carte","fond":"Ortho","obsolete":false}},{"type":"Feature","geometry":{"type":"Polygon","coordinates":[[[0.1387,45.5981],[0.1408,45.5968],[0.1406,45.5956],[0.1398,45.5939],[0.1388,45.5927],[0.1383,45.5909],[0.1358,45.5911],[0.1358,45.5894],[0.1346,45.5888],[0.1331,45.5885],[0.1336,45.5867],[0.1304,45.5854],[0.1296,45.5848],[0.1292,45.5837],[0.1259,45.5836],[0.1255,45.5837],[0.1245,45.5825],[0.1235,45.5826],[0.1231,45.5822],[0.1224,45.5815],[0.1219,45.5809],[0.1208,45.5806],[0.1177,45.5797],[0.1165,45.5804],[0.1132,45.5822],[0.1108,45.5837],[0.1096,45.5846],[0.1078,45.5862],[0.1063,45.5876],[0.1055,45.5884],[0.1055,45.5888],[0.1057,45.5894],[0.1057,45.5897],[0.1052,45.5908],[0.1052,45.5916],[0.1049,45.5922],[0.1055,45.5935],[0.106,45.5944],[0.1065,45.5945],[0.1052,45.5961],[0.1038,45.5976],[0.1025,45.5987],[0.1019,45.5995],[0.1015,45.6002],[0.1017,45.601],[0.1025,45.602],[0.1033,45.6033],[0.104,45.6045],[0.1046,45.6044],[0.105,45.604],[0.1055,45.6042],[0.1063,45.6045],[0.1081,45.6047],[0.1095,45.6039],[0.1105,45.6032],[0.1116,45.6031],[0.113,45.6028],[0.1146,45.6023],[0.1156,45.6031],[0.1163,45.6037],[0.1171,45.604],[0.1177,45.6045],[0.1177,45.6035],[0.1182,45.6027],[0.1193,45.6018],[0.12,45.6011],[0.1223,45.6012],[0.124,45.601],[0.1252,45.6011],[0.127,45.6012],[0.1297,45.6009],[0.1314,45.6006],[0.1317,45.6004],[0.1318,45.5999],[0.1344,45.5982],[0.1359,45.5981],[0.1358,45.5974],[0.1363,45.5971],[0.1371,45.5973],[0.1382,45.5976],[0.1387,45.5981]]]},"properties":{"id_ffco":"2015-D16-37","nom":"Bois Brûlé","_dept":"16","numero":"2015-D16-37","commune":"La Couronne","echelle":"1/10000","surface":"5.18 km²","format":"A3","annee":"2015","cartographes":"Dionisie Rosca, Florin Tuncu","proprietaire":"1601 - CHARENTE ORIENTATION FEUILLADE - C-O-F","niveau":"Régional","specialite":"CO à pied","latitude":"45.5930106777","longitude":"0.119748209331","date_saisie":"14/12/2015","date_depot":"20/11/2019","valide":"Oui","ppo":"Non","type_carte":"Nouvelle carte","fond":"Ortho","obsolete":false}},{"type":"Feature","geometry":{"type":"Polygon","coordinates":[[[0.7657,45.8512],[0.766,45.8497],[0.7671,45.8485],[0.7672,45.8476],[0.7675,45.8466],[0.7688,45.8458],[0.7692,45.845],[0.7704,45.8447],[0.7709,45.8471],[0.7714,45.8472],[0.7742,45.8468],[0.7747,45.8469],[0.7753,45.8483],[0.774,45.849],[0.7731,45.8494],[0.7719,45.8495],[0.77,45.8497],[0.7681,45.8502],[0.7669,45.8508],[0.7661,45.851],[0.7657,45.8512]]]},"properties":{"id_ffco":"2015-D16-36","nom":"Les Thermes","_dept":"16","numero":"2015-D16-36","commune":"Chassenon","echelle":"1/4000","surface":"0.24 km²","format":"A4","annee":"2015","cartographes":"Dionisie Rosca, Florin Tuncu","proprietaire":"16 - Charente","niveau":"O+","specialite":"CO à pied","latitude":"45.8481093256","longitude":"0.770126509394","date_saisie":"14/12/2015","valide":"Non","ppo":"Non","type_carte":"Nouvelle carte","fond":"Ortho","obsolete":false}},{"type":"Feature","geometry":{"type":"Polygon","coordinates":[[[0.1433,45.6296],[0.1416,45.6296],[0.1392,45.6294],[0.1379,45.6294],[0.1364,45.6298],[0.134,45.6306],[0.1329,45.6314],[0.1321,45.6323],[0.132,45.6344],[0.133,45.6359],[0.1354,45.6379],[0.137,45.6381],[0.1436,45.6342],[0.1442,45.6347],[0.1458,45.6362],[0.1459,45.6371],[0.1456,45.6381],[0.1485,45.6413],[0.1493,45.6424],[0.1513,45.6425],[0.1528,45.6422],[0.1551,45.6417],[0.1545,45.6403],[0.153,45.6387],[0.1495,45.6349],[0.1505,45.634],[0.1474,45.6322],[0.1459,45.6314],[0.1441,45.6295],[0.1433,45.6296]]]},"properties":{"id_ffco":"2015-D16-35","nom":"Ma Campagne","_dept":"16","numero":"2015-D16-35","commune":"Angoulême","echelle":"1/7500","surface":"1.21 km²","format":"A4","annee":"2015","cartographes":"Dionisie Rosca, Florin Tuncu, Gilles clouzeau","proprietaire":"1601 - CHARENTE ORIENTATION FEUILLADE - C-O-F","niveau":"Départemental","specialite":"CO à pied","latitude":"45.6350086981","longitude":"0.142879507578","date_saisie":"14/12/2015","date_depot":"20/11/2019","valide":"Oui","ppo":"Non","type_carte":"Nouvelle carte","fond":"Ortho","obsolete":false}},{"type":"Feature","geometry":{"type":"Polygon","coordinates":[[[0.1446,45.678],[0.1442,45.6782],[0.1441,45.6786],[0.1436,45.6795],[0.1432,45.6803],[0.1429,45.6808],[0.1427,45.6811],[0.1427,45.6821],[0.1429,45.6837],[0.143,45.6849],[0.1432,45.6858],[0.1431,45.6861],[0.1429,45.6862],[0.1419,45.6892],[0.1395,45.6906],[0.1389,45.69],[0.1364,45.6908],[0.1362,45.6911],[0.1374,45.6924],[0.1381,45.6922],[0.1391,45.6933],[0.1408,45.697],[0.1438,45.696],[0.1469,45.6951],[0.1489,45.6942],[0.1509,45.6934],[0.1548,45.6932],[0.1553,45.6923],[0.1556,45.6911],[0.1559,45.6898],[0.1561,45.6888],[0.1561,45.6868],[0.1561,45.6844],[0.1559,45.6816],[0.1571,45.6787],[0.1504,45.6784],[0.1458,45.6781],[0.1446,45.678]]]},"properties":{"id_ffco":"2014-D16-34","nom":"Le Plan d'eau de la grande prairie","_dept":"16","numero":"2014-D16-34","commune":"Saint Yriex sur Charente","echelle":"1/7500","surface":"2.06 km²","format":"A4","annee":"2014","cartographes":"G Clouzeau","proprietaire":"1601 - CHARENTE ORIENTATION FEUILLADE - C-O-F","niveau":"Régional","specialite":"CO à pied","latitude":"45.6870744698","longitude":"0.148161170253","valide":"Oui","ppo":"Non","type_carte":"Nouvelle carte","fond":"IGN","ref_ign":"1732 Ouest","obsolete":false}},{"type":"Feature","geometry":null,"properties":{"id_ffco":"2014-D16-33","nom":"Marsac Centre","_dept":"16","numero":"2014-D16-33","commune":"Marsac","surface":"None km²","annee":"2014","cartographes":"Damien Clouzeau","proprietaire":"1601 - CHARENTE ORIENTATION FEUILLADE - C-O-F","date_saisie":"14/12/2015","valide":"Non","ppo":"Non","obsolete":false}},{"type":"Feature","geometry":null,"properties":{"id_ffco":"2014-D16-32","nom":"Ile de Fleurac","_dept":"16","numero":"2014-D16-32","commune":"Saint Michel","surface":"None km²","annee":"2014","date_saisie":"14/12/2015","valide":"Non","ppo":"Non","obsolete":false}},{"type":"Feature","geometry":{"type":"Polygon","coordinates":[[[0.3108,45.7183],[0.3089,45.72],[0.2943,45.7204],[0.2915,45.7486],[0.2902,45.7652],[0.3018,45.7697],[0.3161,45.7646],[0.322,45.7625],[0.3265,45.7611],[0.3293,45.7602],[0.3339,45.7603],[0.3352,45.7599],[0.3348,45.758],[0.3351,45.7562],[0.3351,45.7549],[0.3348,45.7522],[0.3338,45.7506],[0.3332,45.7485],[0.3329,45.7453],[0.334,45.7428],[0.336,45.7406],[0.3367,45.7387],[0.3337,45.7357],[0.331,45.7341],[0.3305,45.732],[0.3299,45.73],[0.3317,45.7287],[0.3269,45.7259],[0.3213,45.7237],[0.3159,45.7215],[0.3111,45.7192],[0.3108,45.7183]]]},"properties":{"id_ffco":"2013-D16-31","nom":"Braconne VTT","_dept":"16","numero":"2013-D16-31","commune":"Saint-Projet-Saint-Constant","echelle":"1/20000","surface":"15.36 km²","format":"A3","annee":"2013","cartographes":"Liviu Tintar, Dionisie Rosca","proprietaire":"1601 - CHARENTE ORIENTATION FEUILLADE - C-O-F","niveau":"Interrégional","specialite":"CO à VTT","latitude":"45.7442548463","longitude":"0.311425725757","date_saisie":"14/12/2015","valide":"Non","ppo":"Non","type_carte":"Nouvelle carte","fond":"Ortho","obsolete":false}},{"type":"Feature","geometry":{"type":"Polygon","coordinates":[[[0.3126,45.72],[0.3122,45.7205],[0.3127,45.7208],[0.3115,45.7262],[0.3107,45.73],[0.3094,45.7359],[0.3079,45.7429],[0.3069,45.7478],[0.3123,45.7479],[0.3123,45.7483],[0.3128,45.7483],[0.313,45.7482],[0.3132,45.7479],[0.317,45.748],[0.3231,45.748],[0.3264,45.7481],[0.3272,45.7479],[0.3278,45.7478],[0.329,45.7478],[0.3299,45.7475],[0.3308,45.7476],[0.3318,45.7479],[0.3326,45.748],[0.3327,45.7455],[0.3344,45.743],[0.3355,45.7421],[0.3349,45.7406],[0.336,45.7403],[0.3357,45.7397],[0.3361,45.7388],[0.3349,45.7383],[0.335,45.7376],[0.3335,45.7358],[0.3321,45.7361],[0.3311,45.735],[0.3298,45.7339],[0.3299,45.7317],[0.3294,45.7314],[0.3293,45.7299],[0.331,45.7295],[0.3316,45.7286],[0.328,45.7264],[0.3245,45.7248],[0.3177,45.722],[0.3126,45.72]]]},"properties":{"id_ffco":"2014-D16-30","nom":"Le Cèdre","_dept":"16","numero":"2014-D16-30","commune":"Saint-Projet-Saint-Constant","echelle":"1/10000","surface":"4.8 km²","format":"A3","annee":"2014","cartographes":"Liviu Tintar, Dionisie Rosca, Clouzeau Gilles","proprietaire":"1601 - CHARENTE ORIENTATION FEUILLADE - C-O-F","niveau":"Régional","specialite":"CO à pied","latitude":"45.7366056693","longitude":"0.320527651868","date_saisie":"14/12/2015","date_depot":"20/11/2019","valide":"Oui","ppo":"Non","type_carte":"Nouvelle carte","fond":"Ortho","obsolete":false}},{"type":"Feature","geometry":{"type":"Polygon","coordinates":[[[0.4869,45.6029],[0.4806,45.6046],[0.4756,45.6062],[0.4725,45.6062],[0.4692,45.6064],[0.4666,45.6074],[0.4644,45.608],[0.4566,45.6082],[0.4509,45.6095],[0.448,45.6103],[0.4436,45.6105],[0.4403,45.6103],[0.4365,45.6106],[0.4349,45.6115],[0.4352,45.6133],[0.4371,45.6178],[0.438,45.6191],[0.4436,45.6189],[0.4468,45.6209],[0.4495,45.6229],[0.4534,45.6269],[0.4563,45.6276],[0.46,45.6278],[0.4638,45.6279],[0.4699,45.6322],[0.4719,45.6336],[0.4762,45.6329],[0.4801,45.6318],[0.483,45.63],[0.5027,45.6283],[0.5088,45.6238],[0.4869,45.6029]]]},"properties":{"id_ffco":"2014-D16-29","nom":"Feuillade","_dept":"16","numero":"2014-D16-29","commune":"Feuillade","echelle":"1/14000","surface":"11.32 km²","format":"A3","annee":"2014","cartographes":"Joël Bourrinet, Jean-Pierre Grand","proprietaire":"1601 - CHARENTE ORIENTATION FEUILLADE - C-O-F","niveau":"Départemental","specialite":"CO à pied","latitude":"45.6182905026","longitude":"0.47350972917","date_saisie":"14/12/2015","valide":"Non","ppo":"Non","type_carte":"Reprise","base":"2002-D16-19 Feuillade-Marthon","fond":"Cadastre","obsolete":false}},{"type":"Feature","geometry":null,"properties":{"id_ffco":"2013-D16-28","nom":"Bois de Saint Amant","_dept":"16","numero":"2013-D16-28","commune":"Saint Amant de Boixe","surface":"None km²","annee":"2013","date_saisie":"14/12/2015","valide":"Non","ppo":"Non","obsolete":false}},{"type":"Feature","geometry":{"type":"Polygon","coordinates":[[[-0.3263,45.7024],[-0.3239,45.7007],[-0.3226,45.7022],[-0.3199,45.7009],[-0.3178,45.7032],[-0.3174,45.7053],[-0.3164,45.7065],[-0.315,45.7079],[-0.3139,45.7088],[-0.3149,45.7096],[-0.3167,45.7101],[-0.319,45.7103],[-0.3213,45.7101],[-0.3232,45.7096],[-0.3244,45.7088],[-0.3248,45.7079],[-0.3246,45.7069],[-0.3247,45.7054],[-0.325,45.7045],[-0.3263,45.7024]]]},"properties":{"id_ffco":"2013-D16-27","nom":"Parc François 1er","_dept":"16","numero":"2013-D16-27","commune":"Cognac","echelle":"1/5000","surface":"0.62 km²","format":"A4","annee":"2013","cartographes":"David Barranger","proprietaire":"16 - Charente","niveau":"O+","specialite":"CO à pied","latitude":"45.7059769237","longitude":"-0.320647890673","date_saisie":"15/12/2015","valide":"Non","ppo":"Non","type_carte":"Nouvelle carte","fond":"Ortho","obsolete":false}},{"type":"Feature","geometry":{"type":"Polygon","coordinates":[[[0.1325,45.6593],[0.137,45.6584],[0.1408,45.6573],[0.1427,45.6562],[0.143,45.6542],[0.1427,45.653],[0.1418,45.6529],[0.1409,45.6518],[0.1402,45.6517],[0.14,45.6527],[0.1389,45.6537],[0.1372,45.6545],[0.1362,45.6548],[0.1373,45.6559],[0.1352,45.657],[0.1341,45.6564],[0.1313,45.6581],[0.1325,45.6593]]]},"properties":{"id_ffco":"2013-D16-26","nom":"Parc de Frégeneuil","_dept":"16","numero":"2013-D16-26","commune":"Angoulême","echelle":"1/5000","surface":"0.32 km²","format":"A4","annee":"2013","cartographes":"David Barranger, Gilles clouzeau 2019","proprietaire":"16 - Charente","niveau":"Départemental","specialite":"CO à pied","latitude":"45.6560044826","longitude":"0.138268515684","date_saisie":"14/12/2015","date_depot":"20/11/2019","valide":"Oui","ppo":"Non","type_carte":"Nouvelle carte","fond":"Ortho","obsolete":false}},{"type":"Feature","geometry":{"type":"Polygon","coordinates":[[[0.1499,45.6546],[0.1508,45.6543],[0.1518,45.654],[0.1524,45.6534],[0.1546,45.6533],[0.1562,45.6539],[0.1576,45.6549],[0.1583,45.6558],[0.1582,45.6564],[0.1576,45.6569],[0.1572,45.6568],[0.1563,45.6561],[0.1552,45.6552],[0.1546,45.6549],[0.1537,45.6546],[0.1532,45.6545],[0.153,45.6547],[0.1528,45.6549],[0.1515,45.6548],[0.1499,45.6546]]]},"properties":{"id_ffco":"2013-D16-25","nom":"Ile Marquet","_dept":"16","numero":"2013-D16-25","commune":"Angoulême","echelle":"1/2500","surface":"0.1 km²","format":"A4","annee":"2013","cartographes":"David Barranger","proprietaire":"16 - Charente","niveau":"O+","specialite":"CO à pied","latitude":"45.6547426214","longitude":"0.154976381525","date_saisie":"14/12/2015","valide":"Non","ppo":"Non","type_carte":"Nouvelle carte","fond":"Ortho","obsolete":false}},{"type":"Feature","geometry":{"type":"Polygon","coordinates":[[[0.1279,45.6506],[0.1269,45.6505],[0.127,45.6489],[0.1272,45.6486],[0.1273,45.6485],[0.1276,45.6486],[0.1275,45.6487],[0.1283,45.6491],[0.1283,45.6496],[0.1283,45.6497],[0.129,45.6498],[0.1292,45.6492],[0.1299,45.6497],[0.1309,45.6503],[0.1303,45.6505],[0.1303,45.6509],[0.1299,45.651],[0.1279,45.6506]]]},"properties":{"id_ffco":"2013-D16-24","nom":"Collège Grande Garenne","_dept":"16","numero":"2013-D16-24","commune":"Angoulême","echelle":"1/1500","surface":"0.04 km²","format":"A4","annee":"2013","cartographes":"David Barranger","proprietaire":"16 - Charente","niveau":"O+","specialite":"CO à pied","latitude":"45.6499637564","longitude":"0.128575106664","date_saisie":"14/12/2015","valide":"Non","ppo":"Non","type_carte":"Nouvelle carte","fond":"Ortho","obsolete":false}},{"type":"Feature","geometry":{"type":"Polygon","coordinates":[[[0.1495,45.6493],[0.1483,45.6494],[0.1467,45.65],[0.1461,45.6504],[0.1457,45.6509],[0.1454,45.6516],[0.1454,45.6519],[0.1455,45.6521],[0.1458,45.6523],[0.1463,45.6525],[0.1469,45.6526],[0.147,45.6527],[0.1477,45.653],[0.1472,45.6532],[0.1473,45.6532],[0.1478,45.6533],[0.1478,45.6534],[0.1484,45.6533],[0.1489,45.6531],[0.1495,45.6528],[0.1503,45.6526],[0.1514,45.6524],[0.1526,45.6522],[0.1527,45.6518],[0.1519,45.6519],[0.1515,45.6519],[0.1506,45.652],[0.1503,45.652],[0.1495,45.6522],[0.1491,45.6522],[0.1483,45.6522],[0.1478,45.6522],[0.1474,45.6521],[0.1471,45.6519],[0.1471,45.6515],[0.1473,45.6505],[0.1475,45.6501],[0.1478,45.6498],[0.1487,45.6495],[0.1495,45.6493]]]},"properties":{"id_ffco":"2015-D16-23","nom":"Le Jardin Vert","_dept":"16","numero":"2015-D16-23","commune":"Angoulême","echelle":"1/2500","surface":"0.07 km²","format":"A4","annee":"2015","cartographes":"David Barranger","proprietaire":"16 - Charente","niveau":"O+","specialite":"CO à pied","latitude":"45.6517832197","longitude":"0.147977571203","date_saisie":"14/12/2015","date_depot":"04/06/2021","valide":"Oui","ppo":"Non","type_carte":"Nouvelle carte","fond":"Ortho","obsolete":false}},{"type":"Feature","geometry":{"type":"Polygon","coordinates":[[[0.3225,45.7029],[0.3159,45.7032],[0.3162,45.7084],[0.3189,45.7125],[0.3214,45.7148],[0.3238,45.7135],[0.3259,45.7113],[0.3269,45.7107],[0.3286,45.7117],[0.3306,45.7125],[0.3317,45.7135],[0.3325,45.7137],[0.3367,45.7147],[0.3422,45.7146],[0.3426,45.7132],[0.3435,45.7124],[0.3451,45.7121],[0.3464,45.7125],[0.3532,45.7099],[0.3547,45.7103],[0.3565,45.7133],[0.3584,45.7167],[0.3603,45.7181],[0.3625,45.7209],[0.365,45.722],[0.3715,45.7227],[0.3811,45.7233],[0.3837,45.7194],[0.384,45.7176],[0.3837,45.7162],[0.3838,45.7151],[0.3834,45.7134],[0.3854,45.7076],[0.3861,45.7049],[0.3875,45.7028],[0.388,45.7019],[0.3865,45.6959],[0.3867,45.6941],[0.385,45.6913],[0.383,45.6877],[0.3526,45.6877],[0.3466,45.6887],[0.3398,45.6892],[0.3431,45.6973],[0.3368,45.6989],[0.3296,45.7004],[0.3225,45.7029]]]},"properties":{"id_ffco":"2012-D16-22","nom":"Bunzac","_dept":"16","numero":"2012-D16-22","commune":"Bunzac","echelle":"1/15000","surface":"14.1 km²","format":"A3","annee":"2012","cartographes":"Joël Bourrinet, Jean-Pierre Grand","proprietaire":"1601 - CHARENTE ORIENTATION FEUILLADE - C-O-F","niveau":"Départemental","specialite":"CO à pied","latitude":"45.7039132285","longitude":"0.358673373303","date_saisie":"14/12/2015","valide":"Non","ppo":"Non","type_carte":"Nouvelle carte","fond":"IGN","ref_ign":"1732 Est et 1832 Ouest","obsolete":false}},{"type":"Feature","geometry":{"type":"Polygon","coordinates":[[[0.3388,45.6943],[0.332,45.6893],[0.3267,45.6853],[0.325,45.6838],[0.3241,45.6839],[0.3234,45.6837],[0.3227,45.6834],[0.3217,45.6835],[0.3213,45.6838],[0.3208,45.6845],[0.3206,45.6846],[0.3208,45.6875],[0.3212,45.6907],[0.3215,45.6919],[0.3221,45.693],[0.3231,45.694],[0.3242,45.6949],[0.3249,45.6957],[0.3255,45.6965],[0.326,45.6975],[0.3264,45.6978],[0.3282,45.6982],[0.3278,45.6973],[0.3281,45.6972],[0.3292,45.6971],[0.3302,45.697],[0.3304,45.6966],[0.3308,45.6964],[0.3334,45.6963],[0.3351,45.6959],[0.336,45.6966],[0.3387,45.6947],[0.3388,45.6943]]]},"properties":{"id_ffco":"2009-D16-21","nom":"Bois Long","_dept":"16","numero":"2009-D16-21","commune":"Bunzac","echelle":"1/7500","surface":"1.23 km²","format":"A4","annee":"2009","cartographes":"Emmanuel Rabault, gilles clouzeau","proprietaire":"1601 - CHARENTE ORIENTATION FEUILLADE - C-O-F","niveau":"Régional","specialite":"CO à pied","latitude":"45.691260009","longitude":"0.327963908007","date_saisie":"14/12/2015","date_depot":"20/11/2019","valide":"Oui","ppo":"Non","type_carte":"Nouvelle carte","fond":"IGN","ref_ign":"1732 Est","obsolete":false}},{"type":"Feature","geometry":{"type":"Polygon","coordinates":[[[0.2652,45.6106],[0.2672,45.6065],[0.269,45.5975],[0.2458,45.5954],[0.2317,45.5948],[0.2315,45.5996],[0.2275,45.6035],[0.217,45.6068],[0.208,45.6093],[0.2154,45.6154],[0.2172,45.6186],[0.2011,45.6236],[0.1986,45.625],[0.2113,45.6318],[0.2259,45.6271],[0.2287,45.6291],[0.2306,45.6288],[0.2416,45.6258],[0.2478,45.6241],[0.2503,45.6232],[0.2492,45.6223],[0.2493,45.6199],[0.2487,45.6188],[0.2519,45.616],[0.2585,45.6118],[0.2652,45.6106]]]},"properties":{"id_ffco":"2005-D16-20","nom":"Dirac","_dept":"16","numero":"2005-D16-20","commune":"Dirac","echelle":"1/20000","surface":"12.04 km²","format":"A3","annee":"2005","cartographes":"CCOFeuillade","proprietaire":"1601 - CHARENTE ORIENTATION FEUILLADE - C-O-F","niveau":"Initiation, Scolaire","specialite":"CO à pied","latitude":"45.6123136096","longitude":"0.236078684578","date_saisie":"14/12/2015","valide":"Non","ppo":"Non","type_carte":"Nouvelle carte","fond":"Cadastre","obsolete":false}},{"type":"Feature","geometry":{"type":"Polygon","coordinates":[[[0.4429,45.6046],[0.4429,45.6149],[0.4765,45.6149],[0.4765,45.6046],[0.4429,45.6046]]]},"properties":{"id_ffco":"2002-D16-19","nom":"Feuillade-Marthon","_dept":"16","numero":"2002-D16-19","commune":"Feuillade","echelle":"1/10000","surface":"3.02 km²","format":"A4","annee":"2002","cartographes":"Joël Bourrinet","proprietaire":"1601 - CHARENTE ORIENTATION FEUILLADE - C-O-F","niveau":"Initiation, Scolaire","specialite":"CO à pied","latitude":"45.6097443211","longitude":"0.45970916748","date_saisie":"14/12/2015","valide":"Non","ppo":"Non","type_carte":"Nouvelle carte","fond":"Cadastre","obsolete":false}}]}