{"type":"FeatureCollection","features":[{"type":"Feature","geometry":{"type":"Polygon","coordinates":[[[0.5029,45.6638],[0.5029,45.6686],[0.5095,45.6686],[0.5095,45.6638],[0.5029,45.6638]]]},"properties":{"id_ffco":"9052","nom":"Montbron Le Plantier","_dept":"16","numero":"2002-D16-18","commune":"Montbron","echelle":"1/3000","surface":"0.28 km²","format":"A4","annee":"2002","cartographes":"Marianne Bourrinet,Joël Bourrinet","proprietaire":"1601 - CHARENTE ORIENTATION FEUILLADE - C-O-F","niveau":"Initiation, Scolaire","specialite":"CO à pied","latitude":"45.6661632381","longitude":"0.506218671799","date_saisie":"14/12/2015","valide":"Non","ppo":"Non","type_carte":"Nouvelle carte","fond":"IGN","ref_ign":"1832 Est","obsolete":true}},{"type":"Feature","geometry":{"type":"Polygon","coordinates":[[[0.1494,45.6868],[0.1494,45.693],[0.1562,45.693],[0.1562,45.6868],[0.1494,45.6868]]]},"properties":{"id_ffco":"3452","nom":"Plan d'eau de la Grande Prairie","_dept":"16","numero":"2001-D16-17","commune":"Saint Yriex sur Charente","echelle":"1/4000","surface":"0.37 km²","format":"A4","annee":"2001","cartographes":"J Bourrinet,JC Dominici,P Grand","proprietaire":"1601 - CHARENTE ORIENTATION FEUILLADE - C-O-F","niveau":"Régional","specialite":"CO à pied","latitude":"45.6898734567","longitude":"0.15277326107","date_saisie":"19/02/2002","date_depot":"11/03/2002","valide":"Non","ppo":"Non","type_carte":"Nouvelle carte","fond":"IGN","ref_ign":"1732 Ouest","obsolete":true}},{"type":"Feature","geometry":{"type":"Polygon","coordinates":[[[0.3003,45.7251],[0.2922,45.7601],[0.3041,45.7587],[0.3156,45.7647],[0.3223,45.7623],[0.3245,45.762],[0.3257,45.7616],[0.3278,45.7607],[0.3304,45.7605],[0.328,45.7587],[0.3258,45.7561],[0.3291,45.7553],[0.3315,45.7551],[0.3325,45.7558],[0.3348,45.7561],[0.3342,45.7523],[0.3325,45.748],[0.3336,45.7415],[0.3358,45.7402],[0.336,45.7387],[0.3336,45.7359],[0.3316,45.7361],[0.3294,45.7319],[0.3248,45.7307],[0.3159,45.7244],[0.3121,45.724],[0.3113,45.7263],[0.3003,45.7251]]]},"properties":{"id_ffco":"9028","nom":"La Braconne","_dept":"16","numero":"1999-D16-16","commune":"Saint-Projet-Saint-Constant","echelle":"1/15000","surface":"10.68 km²","format":"A3","annee":"1999","cartographes":"D Malatray,P Cabessut,JP Baronnet","proprietaire":"1601 - CHARENTE ORIENTATION FEUILLADE - C-O-F","niveau":"Régional","specialite":"CO à pied","latitude":"45.7446454175","longitude":"0.313891742746","date_saisie":"14/12/2015","valide":"Non","ppo":"Non","type_carte":"Nouvelle carte","fond":"IGN","ref_ign":"1731 Est","obsolete":true}},{"type":"Feature","geometry":{"type":"Polygon","coordinates":[[[0.1938,45.5309],[0.1938,45.5674],[0.2453,45.5674],[0.2453,45.5309],[0.1938,45.5309]]]},"properties":{"id_ffco":"9026","nom":"Torsac","_dept":"16","numero":"1999-D16-15","commune":"Torsac","echelle":"1/20000","surface":"16.32 km²","format":"A3","annee":"1999","cartographes":"E Rabault,JC Dominici","proprietaire":"1601 - CHARENTE ORIENTATION FEUILLADE - C-O-F","niveau":"Départemental","specialite":"CO à pied","latitude":"45.5491714229","longitude":"0.219597816467","date_saisie":"14/12/2015","valide":"Non","ppo":"Non","type_carte":"Nouvelle carte","fond":"IGN","ref_ign":"1732 Ouest","obsolete":true}},{"type":"Feature","geometry":{"type":"Polygon","coordinates":[[[0.2954,45.7241],[0.2954,45.7652],[0.3173,45.7652],[0.3173,45.7241],[0.2954,45.7241]]]},"properties":{"id_ffco":"3157","nom":"Les Baillères","_dept":"16","numero":"1998-D16-14","commune":"Saint-Projet-Saint-Constant","echelle":"1/15000","surface":"7.78 km²","format":"A3","annee":"1998","cartographes":"D Malatray","proprietaire":"1601 - CHARENTE ORIENTATION FEUILLADE - C-O-F","niveau":"National, International","specialite":"CO à pied","latitude":"45.7446729441","longitude":"0.306329727173","valide":"Oui","ppo":"Non","type_carte":"Reprise","base":"1995-D16-11 Le Lac Français","fond":"IGN","ref_ign":"1731 Est","obsolete":true}},{"type":"Feature","geometry":{"type":"Polygon","coordinates":[[[0.4339,45.5152],[0.4327,45.5145],[0.4321,45.5138],[0.4306,45.5134],[0.4294,45.5128],[0.4297,45.5113],[0.429,45.5107],[0.4272,45.5106],[0.4276,45.5101],[0.4272,45.5098],[0.4231,45.5102],[0.4208,45.5098],[0.4181,45.51],[0.4171,45.5099],[0.4154,45.51],[0.4144,45.5104],[0.413,45.5095],[0.4097,45.51],[0.4087,45.51],[0.4076,45.5085],[0.4072,45.5071],[0.4063,45.5052],[0.4056,45.504],[0.4032,45.5051],[0.3999,45.5069],[0.3963,45.5089],[0.3942,45.5109],[0.3936,45.5116],[0.3938,45.5134],[0.3927,45.5171],[0.4015,45.5227],[0.3927,45.5342],[0.4041,45.5375],[0.4082,45.5387],[0.409,45.5376],[0.4102,45.5363],[0.4105,45.5347],[0.41,45.5335],[0.4142,45.5339],[0.4174,45.5336],[0.4176,45.5346],[0.4199,45.5333],[0.4218,45.5324],[0.4239,45.5324],[0.4292,45.5311],[0.4327,45.5296],[0.4354,45.5286],[0.4372,45.5276],[0.4404,45.5263],[0.4449,45.5255],[0.4442,45.5234],[0.4433,45.5215],[0.4427,45.52],[0.4398,45.517],[0.4362,45.5129],[0.4349,45.5143],[0.4339,45.5152]]]},"properties":{"id_ffco":"2922","nom":"La Mothe Clédou 2","_dept":"16","numero":"1997-D16-13","commune":"Combier","echelle":"1/15000","surface":"9.09 km²","format":"A3","annee":"1997","cartographes":"D Malatray,P Cabessut,JP Baronnet","proprietaire":"16 - Charente","niveau":"Interrégional","specialite":"CO à pied","latitude":"45.5215973159","longitude":"0.41553301032","valide":"Oui","ppo":"Non","type_carte":"Nouvelle carte","fond":"IGN","ref_ign":"1833 Ouest","obsolete":true}},{"type":"Feature","geometry":{"type":"Polygon","coordinates":[[[0.3005,45.759],[0.2932,45.7506],[0.2918,45.7495],[0.2925,45.7422],[0.2934,45.732],[0.2981,45.7339],[0.3093,45.7357],[0.3149,45.7366],[0.3314,45.7364],[0.3333,45.7359],[0.3348,45.7376],[0.3348,45.7385],[0.336,45.7389],[0.3355,45.7398],[0.3358,45.7403],[0.3349,45.7405],[0.3328,45.742],[0.3321,45.7443],[0.3319,45.7478],[0.3337,45.752],[0.3324,45.7521],[0.332,45.7551],[0.3285,45.7554],[0.3256,45.7561],[0.3047,45.7588],[0.3005,45.759]]]},"properties":{"id_ffco":"9027","nom":"Le Gros Roc","_dept":"16","numero":"1995-D16-12","commune":"Saint-Projet-Saint-Constant","echelle":"1/15000","surface":"7.42 km²","format":"A3","annee":"1995","cartographes":"Esgudie,Level,Thomas","proprietaire":"16 - Charente","niveau":"Régional","specialite":"CO à pied","latitude":"45.7460591375","longitude":"0.312280011489","date_saisie":"14/12/2015","valide":"Non","ppo":"Non","type_carte":"Nouvelle carte","fond":"IGN","ref_ign":"1731 Est","obsolete":true}},{"type":"Feature","geometry":{"type":"Polygon","coordinates":[[[0.2922,45.7466],[0.2952,45.7476],[0.3069,45.7479],[0.3185,45.748],[0.3261,45.7481],[0.3268,45.748],[0.3278,45.7477],[0.3289,45.7478],[0.3298,45.7476],[0.3314,45.7478],[0.3324,45.748],[0.3324,45.7443],[0.3329,45.7423],[0.3349,45.7407],[0.3334,45.7361],[0.3315,45.7364],[0.3318,45.7351],[0.3303,45.7339],[0.3304,45.7326],[0.3296,45.7322],[0.3279,45.731],[0.3285,45.7299],[0.3303,45.7296],[0.3314,45.7288],[0.3287,45.7271],[0.3251,45.7252],[0.3204,45.7233],[0.3125,45.72],[0.3043,45.7167],[0.2955,45.714],[0.2922,45.7466]]]},"properties":{"id_ffco":"2936","nom":"Le Lac Français","_dept":"16","numero":"1995-D16-11","commune":"Saint-Projet-Saint-Constant","echelle":"1/15000","surface":"9.05 km²","format":"A3","annee":"1995","cartographes":"Esgudie,Level,Thomas","proprietaire":"16 - Charente","niveau":"Interrégional","specialite":"CO à pied","latitude":"45.7342225532","longitude":"0.31122581893","valide":"Oui","ppo":"Non","type_carte":"Nouvelle carte","fond":"Cadastre","obsolete":true}},{"type":"Feature","geometry":null,"properties":{"id_ffco":"1415","nom":"GRANDE COMBE","_dept":"16","numero":"1984-D16-1001","echelle":"1/15000","surface":"0.0 km²","annee":"1984","niveau":"Interrégional","specialite":"CO à pied","latitude":"45.7519958","longitude":"0.1534761","valide":"Non","ppo":"Non","obsolete":true}},{"type":"Feature","geometry":null,"properties":{"id_ffco":"2475","nom":"ETAGNAC","_dept":"16","numero":"1991-D16-1000","commune":"ETAGNAC","echelle":"1/10000","surface":"1.7 km²","annee":"1991","proprietaire":"8704","specialite":"CO à pied","latitude":"45.8953461","longitude":"0.7780636","valide":"Non","ppo":"Non","obsolete":true}},{"type":"Feature","geometry":{"type":"Polygon","coordinates":[[[0.4336,45.5151],[0.4321,45.5139],[0.4311,45.5135],[0.4294,45.5127],[0.4296,45.511],[0.4285,45.5106],[0.4272,45.5106],[0.4256,45.51],[0.417,45.5101],[0.4137,45.5106],[0.4108,45.5099],[0.4088,45.51],[0.4075,45.5087],[0.4069,45.5066],[0.4059,45.5047],[0.4055,45.5041],[0.4034,45.5049],[0.3995,45.5071],[0.3969,45.5087],[0.3951,45.5098],[0.3939,45.5111],[0.3937,45.5119],[0.3938,45.5135],[0.3914,45.5214],[0.3912,45.5226],[0.3878,45.5241],[0.3857,45.5251],[0.3857,45.5258],[0.3858,45.5264],[0.3864,45.5262],[0.3871,45.5269],[0.3881,45.5277],[0.3892,45.5284],[0.3879,45.5294],[0.388,45.5306],[0.388,45.5317],[0.3879,45.5328],[0.4041,45.5375],[0.4079,45.5351],[0.4105,45.5344],[0.4101,45.5334],[0.417,45.5336],[0.4219,45.5323],[0.4258,45.5319],[0.4302,45.5306],[0.4345,45.529],[0.4372,45.5276],[0.44,45.5263],[0.4411,45.5263],[0.442,45.5263],[0.4424,45.5261],[0.4431,45.526],[0.4448,45.5255],[0.444,45.5235],[0.4433,45.5218],[0.443,45.5205],[0.4424,45.5196],[0.4375,45.5144],[0.435,45.5142],[0.4336,45.5151]]]},"properties":{"id_ffco":"9025","nom":"La Mothe Clédou","_dept":"16","numero":"1989-D16-10","commune":"Combiers","echelle":"1/15000","surface":"10.04 km²","format":"A3","annee":"1989","cartographes":"G Marcheseau","proprietaire":"16 - Charente","niveau":"Interrégional","specialite":"CO à pied","latitude":"45.5219401222","longitude":"0.413017537291","date_saisie":"14/12/2015","valide":"Non","ppo":"Non","type_carte":"Nouvelle carte","fond":"IGN","ref_ign":"1833 Ouest","obsolete":true}},{"type":"Feature","geometry":{"type":"Polygon","coordinates":[[[0.5444,45.6531],[0.5444,45.6637],[0.5663,45.6637],[0.5663,45.6531],[0.5444,45.6531]]]},"properties":{"id_ffco":"91","nom":"Centre de Plein Air du Chambon","_dept":"16","numero":"1988-D16-09","commune":"Eymouthiers","echelle":"1/5000","surface":"2.0 km²","format":"A4","annee":"1988","cartographes":"Marcel Beaumatin","proprietaire":"16 - Charente","niveau":"Départemental","specialite":"CO à pied","contacts":"http://www.lechambon.org/spip.php?article23","latitude":"45.6583798696","longitude":"0.555356740952","valide":"Non","ppo":"Non","type_carte":"Nouvelle carte","fond":"IGN","ref_ign":"Piégut 1832 Est","obsolete":true}},{"type":"Feature","geometry":{"type":"Polygon","coordinates":[[[0.4646,45.6149],[0.4562,45.6159],[0.4529,45.6165],[0.453,45.6194],[0.4517,45.62],[0.452,45.6203],[0.453,45.6204],[0.4538,45.6223],[0.4532,45.6226],[0.4535,45.6234],[0.4544,45.6236],[0.4541,45.6241],[0.4532,45.6244],[0.4552,45.6266],[0.4571,45.6266],[0.4582,45.6266],[0.4607,45.6271],[0.4621,45.6272],[0.4636,45.6269],[0.4628,45.6231],[0.464,45.6213],[0.4651,45.6185],[0.4646,45.6149]]]},"properties":{"id_ffco":"2481","nom":"Dolmen","_dept":"16","numero":"1987-D16-08","commune":"Feuillade","echelle":"1/5000","surface":"1.03 km²","format":"A4","annee":"1987","cartographes":"Maryse Beaumatin,Marcel Beaumatin","proprietaire":"1601 - CHARENTE ORIENTATION FEUILLADE - C-O-F","niveau":"Départemental","specialite":"CO à pied","latitude":"45.6208661318","longitude":"0.458898897381","valide":"Oui","ppo":"Non","type_carte":"Nouvelle carte","fond":"Cadastre","obsolete":true}},{"type":"Feature","geometry":{"type":"Polygon","coordinates":[[[0.4802,45.608],[0.4799,45.6097],[0.4797,45.6111],[0.4809,45.6135],[0.4833,45.6133],[0.4844,45.6128],[0.4865,45.6134],[0.4905,45.6138],[0.4925,45.6113],[0.4938,45.6085],[0.4873,45.6078],[0.4802,45.608]]]},"properties":{"id_ffco":"2480","nom":"L'Essartat","_dept":"16","numero":"1987-D16-07","commune":"Feuillade","echelle":"1/5000","surface":"0.58 km²","format":"A4","annee":"1987","cartographes":"Marcel Beaumatin","proprietaire":"1601 - CHARENTE ORIENTATION FEUILLADE - C-O-F","niveau":"Départemental","specialite":"CO à pied","latitude":"45.6105884164","longitude":"0.486332055057","valide":"Oui","ppo":"Non","type_carte":"Nouvelle carte","fond":"Cadastre","obsolete":true}},{"type":"Feature","geometry":{"type":"Polygon","coordinates":[[[0.2981,45.7049],[0.298,45.7062],[0.3012,45.7067],[0.3025,45.7083],[0.3024,45.7139],[0.3025,45.7143],[0.3008,45.7151],[0.2934,45.7118],[0.2936,45.7048],[0.2981,45.7048],[0.2981,45.7049]]]},"properties":{"id_ffco":"2477","nom":"Lac des Pins","_dept":"16","numero":"1984-D16-06","commune":"Mornac","echelle":"1/5000","surface":"0.61 km²","format":"A4","annee":"1984","proprietaire":"1604","niveau":"Départemental","specialite":"CO à pied","latitude":"45.7097226498","longitude":"0.297971370175","valide":"Oui","ppo":"Non","type_carte":"Nouvelle carte","fond":"Cadastre","obsolete":true}},{"type":"Feature","geometry":{"type":"Polygon","coordinates":[[[-0.3224,45.6996],[-0.3195,45.7011],[-0.318,45.7018],[-0.3174,45.7051],[-0.3168,45.706],[-0.3154,45.7074],[-0.3141,45.7086],[-0.3152,45.7094],[-0.3164,45.7098],[-0.3183,45.71],[-0.3194,45.7101],[-0.3236,45.7063],[-0.3272,45.7019],[-0.3271,45.7013],[-0.3224,45.6996]]]},"properties":{"id_ffco":"2476","nom":"Parc François 1er","_dept":"16","numero":"1983-D16-05","commune":"Cognac","echelle":"1/5000","surface":"0.6 km²","format":"A4","annee":"1983","cartographes":"Lazarowicz,Bestel,Penalva,Tronci","proprietaire":"1603","niveau":"Départemental","specialite":"CO à pied","latitude":"45.7048034041","longitude":"-0.320740346775","valide":"Non","ppo":"Non","type_carte":"Nouvelle carte","fond":"Cadastre","obsolete":true}},{"type":"Feature","geometry":{"type":"Polygon","coordinates":[[[0.3263,45.7385],[0.321,45.7383],[0.3208,45.7376],[0.3189,45.7377],[0.3178,45.7368],[0.315,45.7367],[0.3098,45.7359],[0.3042,45.735],[0.3042,45.7356],[0.3036,45.7362],[0.3025,45.7368],[0.3017,45.7372],[0.3013,45.7377],[0.3012,45.7382],[0.3015,45.7387],[0.302,45.7392],[0.3022,45.7402],[0.3022,45.7417],[0.302,45.7429],[0.3025,45.7447],[0.3025,45.7461],[0.3028,45.7473],[0.3034,45.749],[0.302,45.7494],[0.301,45.7509],[0.2991,45.753],[0.2986,45.754],[0.2968,45.7549],[0.2968,45.756],[0.2976,45.757],[0.2971,45.7583],[0.2977,45.7596],[0.3059,45.7586],[0.3132,45.7576],[0.32,45.7567],[0.3255,45.756],[0.3284,45.7553],[0.3291,45.7553],[0.3298,45.7553],[0.3318,45.7551],[0.332,45.7513],[0.3334,45.7513],[0.3322,45.7483],[0.3318,45.7465],[0.3321,45.7439],[0.3354,45.7404],[0.3346,45.7385],[0.3263,45.7385]]]},"properties":{"id_ffco":"802","nom":"Lac Noir","_dept":"16","numero":"1981-D16-04","commune":"Saint-Projet-Saint-Constant","echelle":"1/15000","surface":"5.55 km²","format":"A3","annee":"1981","cartographes":"Maryse Beaumatin,Marcel Beaumatin","proprietaire":"1601 - CHARENTE ORIENTATION FEUILLADE - C-O-F","niveau":"Départemental","specialite":"CO à pied","latitude":"45.7474062266","longitude":"0.315633262841","valide":"Oui","ppo":"Non","type_carte":"Nouvelle carte","fond":"Cadastre","obsolete":true}},{"type":"Feature","geometry":{"type":"Polygon","coordinates":[[[0.3129,45.7466],[0.3123,45.7399],[0.312,45.7364],[0.3095,45.7359],[0.3045,45.7352],[0.3044,45.7358],[0.304,45.7362],[0.3029,45.7367],[0.3019,45.7373],[0.3011,45.738],[0.3013,45.7384],[0.302,45.7391],[0.3023,45.7402],[0.3026,45.7411],[0.3021,45.7432],[0.3024,45.7445],[0.3026,45.747],[0.303,45.7478],[0.3013,45.7503],[0.2997,45.753],[0.2986,45.7543],[0.2968,45.7555],[0.2983,45.757],[0.2974,45.7584],[0.298,45.7596],[0.317,45.7571],[0.3187,45.748],[0.3131,45.7479],[0.3129,45.7466]]]},"properties":{"id_ffco":"2479","nom":"Gros Fayant","_dept":"16","numero":"1979-D16-03","commune":"Saint-Projet-Saint-Constant","echelle":"1/15000","surface":"2.7 km²","format":"A4","annee":"1979","cartographes":"Maryse Beaumatin,Marcel Beaumatin","proprietaire":"1601 - CHARENTE ORIENTATION FEUILLADE - C-O-F","niveau":"Régional","specialite":"CO à pied","latitude":"45.7488537199","longitude":"0.307860982552","valide":"Oui","ppo":"Non","type_carte":"Nouvelle carte","fond":"Cadastre","obsolete":true}},{"type":"Feature","geometry":{"type":"Polygon","coordinates":[[[0.623,45.5477],[0.6036,45.5473],[0.5929,45.5543],[0.5936,45.5619],[0.5965,45.5638],[0.5978,45.5642],[0.5998,45.5636],[0.6011,45.5638],[0.6035,45.5656],[0.6047,45.566],[0.6047,45.5672],[0.6054,45.5679],[0.6055,45.5684],[0.6067,45.5693],[0.6062,45.5701],[0.6083,45.5724],[0.6098,45.5727],[0.6113,45.5732],[0.6126,45.5725],[0.6143,45.5715],[0.6171,45.5704],[0.6198,45.5689],[0.622,45.5686],[0.6235,45.568],[0.6256,45.5682],[0.6287,45.5667],[0.6326,45.5665],[0.635,45.5658],[0.6347,45.5481],[0.623,45.5477]]]},"properties":{"id_ffco":"9023","nom":"Saint Martin le Pin","_dept":"16","numero":"1977-D16-02","commune":"Saint Martin le Pin","echelle":"1/15000","surface":"6.98 km²","format":"A3","annee":"1977","cartographes":"Maryse Beaumatin,Marcel Beaumatin","proprietaire":"1601 - CHARENTE ORIENTATION FEUILLADE - C-O-F","niveau":"Départemental","specialite":"CO à pied","latitude":"45.5582948302","longitude":"0.615220261724","date_saisie":"13/12/2015","valide":"Non","ppo":"Non","type_carte":"Nouvelle carte","fond":"Cadastre","obsolete":true}},{"type":"Feature","geometry":{"type":"Polygon","coordinates":[[[0.484,45.6082],[0.4801,45.6082],[0.4804,45.6097],[0.4797,45.6109],[0.4809,45.6134],[0.4819,45.6134],[0.4845,45.6127],[0.4866,45.6134],[0.4897,45.6136],[0.491,45.6135],[0.4935,45.6084],[0.4907,45.607],[0.4875,45.6077],[0.484,45.6082]]]},"properties":{"id_ffco":"2478","nom":"L'Essartat","_dept":"16","numero":"1977-D16-01","commune":"Feuillade","echelle":"1/5000","surface":"0.58 km²","format":"A4","annee":"1977","cartographes":"Maryse Beaumatin,M. Beaumatin","proprietaire":"1601 - CHARENTE ORIENTATION FEUILLADE - C-O-F","niveau":"Départemental","specialite":"CO à pied","latitude":"45.6104555411","longitude":"0.486614278721","valide":"Oui","ppo":"Non","type_carte":"Nouvelle carte","fond":"Cadastre","obsolete":true}}]}