{"type":"FeatureCollection","features":[{"type":"Feature","geometry":{"type":"Polygon","coordinates":[[[-0.9582,45.9409],[-0.9566,45.9416],[-0.9557,45.9421],[-0.9541,45.942],[-0.9542,45.94],[-0.9551,45.9374],[-0.956,45.9367],[-0.9554,45.9355],[-0.9575,45.9346],[-0.9586,45.9351],[-0.9583,45.937],[-0.958,45.9397],[-0.9582,45.9409]]]},"properties":{"id_ffco":"8569","nom":"La Corderie Royale","_dept":"17","numero":"2001-D17-26","commune":"rochefort","echelle":"1/3000","surface":"0.19 km²","format":"A4","annee":"2001","cartographes":"Didier HASSMANN","proprietaire":"1705 - CHARENTE-MARITIME ORIENTATION","niveau":"Départemental","specialite":"CO à pied","latitude":"45.9385986253","longitude":"-0.95645625684","date_saisie":"01/09/2015","date_depot":"16/12/2015","valide":"Oui","ppo":"Non","type_carte":"Nouvelle carte","fond":"Cadastre","obsolete":true}},{"type":"Feature","geometry":{"type":"Polygon","coordinates":[[[-0.6949,45.8057],[-0.6903,45.8031],[-0.6888,45.799],[-0.6863,45.7967],[-0.6839,45.7981],[-0.6782,45.7963],[-0.6742,45.799],[-0.6706,45.8017],[-0.6664,45.8043],[-0.6641,45.8049],[-0.6631,45.8083],[-0.6664,45.8092],[-0.6678,45.8104],[-0.6679,45.8122],[-0.664,45.8148],[-0.668,45.8166],[-0.6668,45.8186],[-0.6712,45.8242],[-0.673,45.8265],[-0.6792,45.8279],[-0.6809,45.8255],[-0.6833,45.8233],[-0.6867,45.8225],[-0.6893,45.8193],[-0.6904,45.8165],[-0.6909,45.8139],[-0.6902,45.8115],[-0.6916,45.8082],[-0.6949,45.8057]]]},"properties":{"id_ffco":"2487","nom":"Le Tumulus","_dept":"17","numero":"1991-D17-17","commune":"Ecurrat","echelle":"1/15000","surface":"5.33 km²","format":"A4","annee":"1991","cartographes":"Malatray Dominique","proprietaire":"1705 - CHARENTE-MARITIME ORIENTATION","niveau":"Régional","specialite":"CO à pied","latitude":"45.8113104004","longitude":"-0.678764981888","date_depot":"16/12/2015","valide":"Oui","ppo":"Non","type_carte":"Nouvelle carte","fond":"Cadastre","obsolete":true}},{"type":"Feature","geometry":{"type":"Polygon","coordinates":[[[-1.2124,45.726],[-1.213,45.7125],[-1.2132,45.6982],[-1.2057,45.6994],[-1.1964,45.6979],[-1.1952,45.697],[-1.1892,45.7008],[-1.1883,45.7056],[-1.1861,45.7085],[-1.1801,45.717],[-1.1796,45.7233],[-1.1796,45.7297],[-1.1856,45.7286],[-1.19,45.7292],[-1.1936,45.7293],[-1.2002,45.7305],[-1.2058,45.729],[-1.2124,45.726]]]},"properties":{"id_ffco":"1421","nom":"ENCLAVE","_dept":"17","numero":"1984-D17-12","commune":"RONCE BAINS","echelle":"1/15000","surface":"7.73 km²","format":"A4","annee":"1984","cartographes":"stages","proprietaire":"1705 - CHARENTE-MARITIME ORIENTATION","niveau":"Interrégional","specialite":"CO à pied","latitude":"45.7148773926","longitude":"-1.19778200507","valide":"Non","ppo":"Non","fond":"Cadastre","obsolete":true}},{"type":"Feature","geometry":{"type":"Polygon","coordinates":[[[-1.2244,45.7266],[-1.2269,45.7233],[-1.2288,45.7203],[-1.2306,45.7155],[-1.2318,45.7103],[-1.2326,45.7083],[-1.2039,45.7044],[-1.2029,45.7214],[-1.2024,45.7305],[-1.2098,45.7272],[-1.2125,45.7256],[-1.2244,45.7266]]]},"properties":{"id_ffco":"2485","nom":"CHAPELLE","_dept":"17","numero":"1991-D17-10","commune":"RONCE BAINS","echelle":"1/10000","surface":"4.71 km²","format":"A4","annee":"1991","proprietaire":"1705 - CHARENTE-MARITIME ORIENTATION","niveau":"Interrégional","specialite":"CO à pied","latitude":"45.7162566414","longitude":"-1.21571482662","valide":"Non","ppo":"Non","fond":"Cadastre","obsolete":true}}]}