{"type":"FeatureCollection","features":[{"type":"Feature","geometry":null,"properties":{"id_ffco":"4117","nom":"BOURGES Le Lac d'Auron ouest","_dept":"18","numero":"2005-D18-17","commune":"Bourges","echelle":"1/7000","surface":"0.45 km²","annee":"2005","cartographes":"E Brunel,D Folkeringa","proprietaire":"1805 - BOURGES ORIENTATION 18","niveau":"Départemental","specialite":"CO à pied","latitude":"47.082892","longitude":"2.3965788","date_saisie":"13/10/2005","date_depot":"25/10/2005","valide":"Non","ppo":"Non","obsolete":true}},{"type":"Feature","geometry":null,"properties":{"id_ffco":"3930","nom":"CREPS de Bourges","_dept":"18","numero":"2004-D18-15","commune":"Bourges","echelle":"1/1500","surface":"0.04 km²","annee":"2004","cartographes":"E Brunel","proprietaire":"1805 - BOURGES ORIENTATION 18","specialite":"CO à pied","latitude":"47.082892","longitude":"2.3965788","date_saisie":"23/06/2005","date_depot":"13/07/2005","valide":"Non","ppo":"Non","obsolete":true}},{"type":"Feature","geometry":null,"properties":{"id_ffco":"3345","nom":"AVORD LE FOXONNET","_dept":"18","numero":"1999-D18-010","commune":"Avord","echelle":"1/3750","surface":"0.5 km²","annee":"1999","proprietaire":"18 - Cher","specialite":"CO à pied","latitude":"47.0320414","longitude":"2.6535382","valide":"Non","ppo":"Non","obsolete":true}},{"type":"Feature","geometry":null,"properties":{"id_ffco":"3190","nom":"LA FONTAINE DU VERDIER","_dept":"18","numero":"1997-D18-009","commune":"ALLOGNY","echelle":"1/15000","surface":"13.0 km²","annee":"1997","proprietaire":"18 - Cher","niveau":"National, International","specialite":"CO à pied","latitude":"47.2250993","longitude":"2.3196264","valide":"Non","ppo":"Non","obsolete":true}},{"type":"Feature","geometry":null,"properties":{"id_ffco":"660","nom":"VIERZON - LA BAUGE COLBERT","_dept":"18","numero":"1975-D18-008","commune":"VIERZON","echelle":"1/15000","surface":"7.8 km²","annee":"1975","proprietaire":"18 - Cher","specialite":"CO à pied","latitude":"47.2230013","longitude":"2.0659806","valide":"Non","ppo":"Non","obsolete":true}},{"type":"Feature","geometry":null,"properties":{"id_ffco":"659","nom":"ALLOGNY - BOIS BLIN","_dept":"18","numero":"1975-D18-007","commune":"ALLOGNY","echelle":"1/15000","surface":"7.7 km²","annee":"1975","proprietaire":"18 - Cher","specialite":"CO à pied","latitude":"47.2250993","longitude":"2.3196264","valide":"Non","ppo":"Non","obsolete":true}},{"type":"Feature","geometry":null,"properties":{"id_ffco":"1140","nom":"LONG LAC","_dept":"18","numero":"1982-D18-006","commune":"ALLOGNY","echelle":"1/15000","surface":"13.0 km²","annee":"1982","proprietaire":"18 - Cher","niveau":"Interrégional","specialite":"CO à pied","latitude":"47.2250993","longitude":"2.3196264","valide":"Non","ppo":"Non","obsolete":true}},{"type":"Feature","geometry":null,"properties":{"id_ffco":"1139","nom":"ALLOGNY ETANG","_dept":"18","numero":"1982-D18-005","commune":"SALBRIS","echelle":"1/15000","surface":"5.8 km²","annee":"1982","proprietaire":"1801 - CSA DES ECOLES MILITAIRES DE BOURGES","niveau":"Interrégional","specialite":"CO à pied","latitude":"47.4266908","longitude":"2.0521294","valide":"Non","ppo":"Non","obsolete":true}},{"type":"Feature","geometry":null,"properties":{"id_ffco":"1138","nom":"BAUGE COLBERT","_dept":"18","numero":"1982-D18-004","commune":"VIERZON","echelle":"1/15000","surface":"4.3 km²","annee":"1982","proprietaire":"1801 - CSA DES ECOLES MILITAIRES DE BOURGES","niveau":"Interrégional","specialite":"CO à pied","latitude":"47.2230013","longitude":"2.0659806","valide":"Non","ppo":"Non","obsolete":true}},{"type":"Feature","geometry":null,"properties":{"id_ffco":"1137","nom":"CHENE BRULE","_dept":"18","numero":"1982-D18-003","commune":"ST MARTIN D'AUXIGNY","echelle":"1/15000","surface":"5.0 km²","annee":"1982","proprietaire":"18 - Cher","niveau":"Interrégional","specialite":"CO à pied","latitude":"47.2034773","longitude":"2.4161345","valide":"Non","ppo":"Non","obsolete":true}},{"type":"Feature","geometry":null,"properties":{"id_ffco":"2043","nom":"ALLOGNY","_dept":"18","numero":"1989-D18-001","commune":"Salbris","echelle":"1/10000","surface":"2.2 km²","annee":"1989","proprietaire":"1801 - CSA DES ECOLES MILITAIRES DE BOURGES","specialite":"CO à pied","latitude":"47.4266908","longitude":"2.0521294","valide":"Non","ppo":"Non","obsolete":true}},{"type":"Feature","geometry":null,"properties":{"id_ffco":"95","nom":"La balade du Mont de Mars","_dept":"18","numero":"????-D18-","commune":"Clémont","surface":"None km²","proprietaire":"18 - Cher","latitude":"47.5687474","longitude":"2.3049127","valide":"Non","ppo":"Oui","observations":"Chemins de randonnée (A vérifier)","obsolete":true}},{"type":"Feature","geometry":null,"properties":{"id_ffco":"95","nom":"Le Bois d'Auch","_dept":"18","numero":"????-D18-","commune":"Auch","surface":"None km²","proprietaire":"18 - Cher","latitude":"46.954005","longitude":"2.4671908","valide":"Non","ppo":"Oui","obsolete":true}},{"type":"Feature","geometry":null,"properties":{"id_ffco":"95","nom":"Parcours CO","_dept":"18","numero":"????-D18-","commune":"Allogny","surface":"None km²","proprietaire":"18 - Cher","latitude":"47.2250993","longitude":"2.3196264","valide":"Non","ppo":"Oui","obsolete":true}}]}