{"type":"FeatureCollection","features":[{"type":"Feature","geometry":{"type":"Polygon","coordinates":[[[2.05,45.407],[2.0459,45.4084],[2.0445,45.4087],[2.0435,45.4084],[2.038,45.4082],[2.0375,45.4069],[2.0373,45.4024],[2.038,45.4012],[2.0392,45.4008],[2.0405,45.4016],[2.0421,45.402],[2.0435,45.4016],[2.0451,45.4018],[2.0466,45.4026],[2.0511,45.4035],[2.0501,45.4049],[2.0514,45.406],[2.0503,45.407],[2.05,45.407]]]},"properties":{"id_ffco":"2016-D19-99","nom":"Egletons - Ville","_dept":"19","numero":"2016-D19-99","commune":"Egletons","echelle":"1/4000","surface":"0.69 km²","format":"A4","annee":"2016","cartographes":"Bruno Marchegay","proprietaire":"19 - Corrèze","niveau":"National, International","specialite":"CO à pied","contacts":"Marchegay Bruno, 23 sajueix, 19130, Voutezac, marchegay@aol.com, http://www.correze-co.fr/","latitude":"45.4050383374","longitude":"2.04348066482","date_saisie":"12/10/2016","valide":"Non","ppo":"Non","type_carte":"Nouvelle carte","fond":"Cadastre","obsolete":false}},{"type":"Feature","geometry":{"type":"Polygon","coordinates":[[[1.5831,45.4037],[1.5848,45.404],[1.5857,45.4018],[1.5851,45.4018],[1.5831,45.4037]]]},"properties":{"id_ffco":"2016-D19-98","nom":"ARBORETUM -ESPARTIGNAC","_dept":"19","numero":"2016-D19-98","commune":"ESPARTIGNAC","echelle":"1/2000","surface":"0.02 km²","format":"A4","annee":"2016","cartographes":"B MARCHEGAY","proprietaire":"MAIRIE ESPARTIGNAC","niveau":"O+","specialite":"CO à pied","latitude":"45.4029697723","longitude":"1.58456628604","date_saisie":"13/02/2016","valide":"Non","ppo":"Non","type_carte":"Nouvelle carte","fond":"Ortho","obsolete":false}},{"type":"Feature","geometry":{"type":"Polygon","coordinates":[[[1.5425,45.1674],[1.5427,45.1673],[1.5454,45.1677],[1.5452,45.1687],[1.544,45.1689],[1.5433,45.1682],[1.5428,45.1678],[1.5425,45.1674]]]},"properties":{"id_ffco":"2015-D19-96","nom":"COLLEGE JEAN LURCAT","_dept":"19","numero":"2015-D19-96","commune":"BRIVE","echelle":"1/1000","surface":"0.02 km²","format":"A4","annee":"2015","cartographes":"B MARCHEGAY","proprietaire":"COLLEGE J LURCAT","niveau":"Initiation, Scolaire","specialite":"CO à pied","latitude":"45.1680451337","longitude":"1.5440918409","date_saisie":"13/02/2016","valide":"Non","ppo":"Non","type_carte":"Nouvelle carte","fond":"Ortho","obsolete":false}},{"type":"Feature","geometry":{"type":"Polygon","coordinates":[[[1.5538,45.2158],[1.5539,45.2189],[1.5571,45.2213],[1.5592,45.2247],[1.5626,45.223],[1.5635,45.224],[1.5668,45.2251],[1.5702,45.2232],[1.5722,45.2246],[1.5771,45.2257],[1.5799,45.2254],[1.5827,45.2248],[1.5833,45.2231],[1.5834,45.2203],[1.5813,45.2179],[1.5774,45.2182],[1.5745,45.2141],[1.5721,45.2115],[1.5709,45.21],[1.569,45.2103],[1.5661,45.2077],[1.5653,45.2052],[1.5666,45.2024],[1.56,45.2005],[1.5545,45.202],[1.5502,45.2043],[1.5519,45.2065],[1.5525,45.2083],[1.5547,45.2076],[1.5555,45.2115],[1.5538,45.2158]]]},"properties":{"id_ffco":"2015-D19-95","nom":"FORET DES SAULIERES","_dept":"19","numero":"2015-D19-95","commune":"Ste Féréole","echelle":"1/10000","surface":"3.91 km²","format":"A4","annee":"2015","cartographes":"Marian COTIRTA, Ionut ZINCA, Bruno MARCHEGAY","proprietaire":"19 - Corrèze","niveau":"National, International","specialite":"CO à pied","latitude":"45.2147155431","longitude":"1.56536335489","date_saisie":"13/02/2016","valide":"Non","ppo":"Non","type_carte":"Nouvelle carte","fond":"Ortho","obsolete":false}},{"type":"Feature","geometry":{"type":"Polygon","coordinates":[[[1.4128,45.0902],[1.4099,45.0895],[1.4065,45.0886],[1.4042,45.0886],[1.4009,45.0875],[1.3975,45.0885],[1.3937,45.0914],[1.3939,45.0942],[1.3942,45.0959],[1.3939,45.0978],[1.3949,45.0988],[1.3986,45.0997],[1.4024,45.1008],[1.4059,45.1021],[1.4088,45.103],[1.4105,45.1017],[1.4121,45.0978],[1.4128,45.0902]]]},"properties":{"id_ffco":"2015-D19-94","nom":"BOIS DE VERRIERES","_dept":"19","numero":"2015-D19-94","commune":"St Cernin de Larche","echelle":"1/10000","surface":"1.9 km²","format":"A4","annee":"2015","cartographes":"Marian COTIRTA","proprietaire":"19 - Corrèze","niveau":"National, International","specialite":"CO à pied","latitude":"45.0947842761","longitude":"1.40355457976","date_saisie":"15/02/2016","valide":"Non","ppo":"Non","type_carte":"Nouvelle carte","fond":"Ortho","obsolete":false}},{"type":"Feature","geometry":{"type":"Polygon","coordinates":[[[1.4102,45.0761],[1.4143,45.0764],[1.4176,45.0768],[1.4177,45.0758],[1.4184,45.0747],[1.4229,45.0736],[1.4279,45.0759],[1.4307,45.0765],[1.4307,45.0782],[1.4278,45.0794],[1.4262,45.0812],[1.4255,45.0835],[1.4247,45.086],[1.4291,45.0876],[1.4301,45.0874],[1.4311,45.0891],[1.4292,45.0908],[1.4273,45.0918],[1.4255,45.0922],[1.4225,45.0904],[1.4226,45.0893],[1.4227,45.087],[1.4184,45.0868],[1.4181,45.0877],[1.4186,45.0909],[1.4181,45.0927],[1.4175,45.0928],[1.4132,45.0927],[1.4125,45.0927],[1.4128,45.0911],[1.4125,45.0901],[1.4117,45.0861],[1.4111,45.0829],[1.4112,45.0809],[1.4101,45.0788],[1.4102,45.0761]]]},"properties":{"id_ffco":"2015-D19-93","nom":"Les Dolmens","_dept":"19","numero":"2015-D19-93","commune":"St Cernin de Larche","echelle":"1/10000","surface":"2.25 km²","format":"A4","annee":"2015","cartographes":"Marian COTIRTA, BRUNO MARCHEGAY","proprietaire":"19 - Corrèze","niveau":"National, International","specialite":"CO à pied","latitude":"45.0829532199","longitude":"1.41983452723","date_saisie":"15/02/2016","valide":"Non","ppo":"Non","type_carte":"Nouvelle carte","fond":"Ortho","obsolete":false}},{"type":"Feature","geometry":{"type":"Polygon","coordinates":[[[1.7105,45.1814],[1.7112,45.1832],[1.7119,45.184],[1.7127,45.1846],[1.7126,45.1853],[1.7135,45.1851],[1.7149,45.1841],[1.7162,45.1855],[1.716,45.1867],[1.7156,45.1871],[1.7143,45.1873],[1.7126,45.1876],[1.7114,45.1872],[1.7108,45.1876],[1.7116,45.1891],[1.7124,45.1898],[1.7119,45.1912],[1.7099,45.1929],[1.7084,45.1939],[1.7058,45.1958],[1.7044,45.1952],[1.7032,45.1943],[1.7028,45.1928],[1.7032,45.1916],[1.7033,45.1903],[1.703,45.1884],[1.7022,45.1869],[1.7024,45.186],[1.7036,45.1841],[1.7045,45.1829],[1.7054,45.1817],[1.7059,45.1805],[1.707,45.1806],[1.708,45.1814],[1.7094,45.1818],[1.7105,45.1814]]]},"properties":{"id_ffco":"2014-D19-92","nom":"Le Coiroux","_dept":"19","numero":"2014-D19-92","commune":"Le Coiroux","echelle":"1/7500","surface":"1.03 km²","format":"A4","annee":"2014","cartographes":"Tamas BOGYA","proprietaire":"19 - Corrèze","niveau":"Régional","specialite":"CO à pied","latitude":"45.1878633412","longitude":"1.70782399479","date_saisie":"16/02/2016","valide":"Non","ppo":"Non","type_carte":"Nouvelle carte","fond":"Ortho","obsolete":false}},{"type":"Feature","geometry":{"type":"Polygon","coordinates":[[[1.4332,45.2911],[1.4326,45.2957],[1.4274,45.2982],[1.424,45.3004],[1.4206,45.3002],[1.4143,45.3065],[1.411,45.3095],[1.4075,45.312],[1.4106,45.3121],[1.4125,45.3122],[1.4112,45.3143],[1.4095,45.3178],[1.4088,45.3195],[1.4089,45.3212],[1.4058,45.3241],[1.4116,45.3272],[1.4152,45.3281],[1.4131,45.3306],[1.4156,45.3309],[1.4167,45.3322],[1.4195,45.3315],[1.4212,45.3306],[1.4223,45.3317],[1.4241,45.3331],[1.4247,45.3344],[1.4267,45.3359],[1.4262,45.3373],[1.4257,45.3382],[1.426,45.3395],[1.426,45.3401],[1.425,45.34],[1.4246,45.3404],[1.4258,45.341],[1.427,45.3412],[1.4282,45.3416],[1.4305,45.3428],[1.4324,45.3435],[1.4332,45.3439],[1.4348,45.3445],[1.4356,45.3437],[1.4368,45.3443],[1.4386,45.3448],[1.4397,45.3454],[1.4419,45.345],[1.442,45.3441],[1.4432,45.3434],[1.4429,45.3429],[1.4443,45.3425],[1.4454,45.3425],[1.4464,45.3391],[1.4469,45.3368],[1.4478,45.3342],[1.4454,45.3334],[1.4427,45.3316],[1.4431,45.3308],[1.4428,45.3298],[1.4433,45.3275],[1.4443,45.326],[1.4436,45.3251],[1.4444,45.324],[1.446,45.3227],[1.4467,45.321],[1.4483,45.3201],[1.4502,45.3188],[1.4492,45.317],[1.4499,45.314],[1.4494,45.3126],[1.449,45.3077],[1.449,45.3048],[1.4497,45.3036],[1.4526,45.3021],[1.4551,45.3001],[1.457,45.2972],[1.4578,45.2962],[1.4577,45.2947],[1.4574,45.2931],[1.4581,45.2915],[1.4601,45.2899],[1.4593,45.2872],[1.4596,45.286],[1.4581,45.2856],[1.4572,45.2862],[1.456,45.2862],[1.4551,45.2852],[1.4535,45.2854],[1.4507,45.2863],[1.4498,45.2843],[1.4493,45.2833],[1.4471,45.2841],[1.4461,45.2847],[1.4457,45.2859],[1.4454,45.2874],[1.4442,45.287],[1.4419,45.288],[1.4403,45.289],[1.4384,45.2897],[1.4368,45.2903],[1.4341,45.2897],[1.4322,45.2894],[1.4319,45.29],[1.4322,45.2909],[1.4332,45.2911]]]},"properties":{"id_ffco":"2014-D19-91","nom":"Grand Vaysse","_dept":"19","numero":"2014-D19-91","commune":"voutezac","echelle":"1/15000","surface":"15.03 km²","format":"A3","annee":"2014","cartographes":"Marian COTIRTA, Ionut ZINCA, Tamas BOGYA, Bruno MARCHEGAY","proprietaire":"19 - Corrèze","niveau":"Régional","specialite":"CO à pied","latitude":"45.3142541842","longitude":"1.43392555927","date_saisie":"16/02/2016","valide":"Non","ppo":"Non","type_carte":"Nouvelle carte","fond":"Ortho","obsolete":false}},{"type":"Feature","geometry":{"type":"Polygon","coordinates":[[[1.711,45.58],[1.7108,45.5792],[1.7112,45.5782],[1.7119,45.577],[1.713,45.5762],[1.7126,45.5757],[1.7119,45.5755],[1.7105,45.5761],[1.7097,45.5768],[1.7086,45.5767],[1.7079,45.5782],[1.707,45.578],[1.7063,45.5791],[1.708,45.5799],[1.7069,45.5815],[1.7097,45.5825],[1.7106,45.5813],[1.7111,45.5805],[1.711,45.58]]]},"properties":{"id_ffco":"2014-D19-90","nom":"Stade-Piscine","_dept":"19","numero":"2014-D19-90","commune":"Chamberet","echelle":"1/2500","surface":"0.19 km²","format":"A4","annee":"2014","cartographes":"Bruno Marchegay","proprietaire":"19 - Corrèze","niveau":"Initiation, Scolaire","specialite":"CO à pied","latitude":"45.5790101461","longitude":"1.7094887126","date_saisie":"17/02/2016","valide":"Non","ppo":"Non","type_carte":"Nouvelle carte","fond":"Ortho","obsolete":false}},{"type":"Feature","geometry":{"type":"Polygon","coordinates":[[[1.7234,45.5873],[1.7218,45.5872],[1.7209,45.5862],[1.7203,45.5856],[1.7186,45.5858],[1.7166,45.5862],[1.7153,45.5862],[1.7137,45.5858],[1.711,45.5855],[1.7111,45.5848],[1.7138,45.5839],[1.7157,45.5827],[1.7171,45.5821],[1.7182,45.5824],[1.7188,45.5814],[1.7193,45.5804],[1.72,45.5797],[1.7218,45.5782],[1.7231,45.5792],[1.7254,45.5793],[1.7252,45.5809],[1.7245,45.5823],[1.7243,45.5835],[1.7254,45.5849],[1.7245,45.5868],[1.7234,45.5873]]]},"properties":{"id_ffco":"2014-D19-89","nom":"Chamberet ville","_dept":"19","numero":"2014-D19-89","commune":"Chamberet","echelle":"1/5000","surface":"0.56 km²","format":"A4","annee":"2014","cartographes":"Ionut Zinca","proprietaire":"19 - Corrèze","niveau":"Régional","specialite":"CO à pied","latitude":"45.5833695113","longitude":"1.72009065099","date_saisie":"17/02/2016","valide":"Non","ppo":"Non","type_carte":"Nouvelle carte","fond":"Ortho","obsolete":false}},{"type":"Feature","geometry":{"type":"Polygon","coordinates":[[[1.4395,45.0697],[1.4405,45.0738],[1.4399,45.0767],[1.4418,45.0779],[1.4383,45.0808],[1.4383,45.0828],[1.4356,45.0867],[1.4402,45.0889],[1.4466,45.0906],[1.4508,45.0926],[1.4556,45.0935],[1.4594,45.0924],[1.4615,45.0867],[1.4623,45.0829],[1.4632,45.0804],[1.4639,45.0767],[1.4616,45.0746],[1.4579,45.073],[1.4549,45.0715],[1.4503,45.072],[1.4459,45.0705],[1.4432,45.0701],[1.4415,45.068],[1.4395,45.0697]]]},"properties":{"id_ffco":"2014-D19-88","nom":"Forêt de Couzage","_dept":"19","numero":"2014-D19-88","commune":"Chartrier Ferriere","echelle":"1/15000","surface":"4.05 km²","format":"A3","annee":"2014","cartographes":"Marian COTIRTA, Ionut ZINCA, Bruno MARCHEGAY","proprietaire":"19 - Corrèze","niveau":"National, International","specialite":"CO à pied","latitude":"45.0815278173","longitude":"1.45044371937","date_saisie":"13/02/2016","valide":"Non","ppo":"Non","type_carte":"Nouvelle carte","fond":"Ortho","obsolete":false}},{"type":"Feature","geometry":{"type":"Polygon","coordinates":[[[1.5603,45.1443],[1.5622,45.1449],[1.5636,45.1455],[1.5654,45.1438],[1.5656,45.142],[1.5671,45.1404],[1.5712,45.1392],[1.5702,45.1356],[1.57,45.1348],[1.5696,45.1332],[1.5657,45.1333],[1.565,45.1349],[1.5603,45.1343],[1.5582,45.1346],[1.5569,45.1374],[1.5562,45.14],[1.5559,45.1423],[1.5545,45.1449],[1.5566,45.1446],[1.5592,45.1439],[1.5603,45.1443]]]},"properties":{"id_ffco":"2014-D19-87","nom":"Seichepierre","_dept":"19","numero":"2014-D19-87","commune":"Brive","echelle":"1/10000","surface":"1.1 km²","format":"A4","annee":"2014","cartographes":"Marian COTIRTA","proprietaire":"126 RI de Brive","niveau":"Régional","specialite":"CO à pied","latitude":"45.1390431756","longitude":"1.56285143241","date_saisie":"17/02/2016","valide":"Non","ppo":"Non","type_carte":"Nouvelle carte","fond":"Ortho","obsolete":false}},{"type":"Feature","geometry":{"type":"Polygon","coordinates":[[[1.9582,45.1117],[1.9603,45.1126],[1.9606,45.1138],[1.9603,45.1154],[1.9608,45.1182],[1.9634,45.1188],[1.9658,45.1196],[1.967,45.1195],[1.9675,45.121],[1.9669,45.1221],[1.9661,45.1233],[1.9666,45.1237],[1.9693,45.1232],[1.9742,45.1255],[1.9775,45.1237],[1.9784,45.1226],[1.9783,45.1203],[1.9793,45.1182],[1.98,45.1161],[1.9779,45.1149],[1.976,45.1144],[1.9702,45.1151],[1.9681,45.1147],[1.9658,45.1134],[1.9654,45.1124],[1.966,45.1116],[1.9648,45.1102],[1.9617,45.1093],[1.9591,45.1094],[1.9575,45.1097],[1.9575,45.1104],[1.9582,45.1117]]]},"properties":{"id_ffco":"2014-D19-86","nom":"St Martial","_dept":"19","numero":"2014-D19-86","commune":"St Martial","echelle":"1/10000","surface":"1.52 km²","format":"A4","annee":"2014","cartographes":"Marian COTIRTA","proprietaire":"19 - Corrèze","niveau":"Régional","specialite":"CO à pied","latitude":"45.1175405769","longitude":"1.96945153102","date_saisie":"17/02/2016","valide":"Non","ppo":"Non","type_carte":"Nouvelle carte","fond":"Ortho","obsolete":false}},{"type":"Feature","geometry":null,"properties":{"id_ffco":"2005-D19-14","nom":"Le Saillant","_dept":"19","numero":"2005-D19-14","commune":"Voutezac","echelle":"1/10000","surface":"3.5 km²","annee":"2005","cartographes":"B Marchegay","proprietaire":"1905 - BRIVE LIMOUSIN COURSE D'ORIENTATION","niveau":"Interrégional","specialite":"CO à pied","latitude":"45.2927315","longitude":"1.4382037","date_saisie":"14/12/2005","date_depot":"16/01/2006","valide":"Non","ppo":"Non","obsolete":false}},{"type":"Feature","geometry":null,"properties":{"id_ffco":"2005-D19-13","nom":"Le Saillant - Sud Ouest","_dept":"19","numero":"2005-D19-13","commune":"Lissac","echelle":"1/10000","surface":"2.0 km²","annee":"2005","cartographes":"B Marchegay","proprietaire":"1905 - BRIVE LIMOUSIN COURSE D'ORIENTATION","niveau":"Régional","specialite":"CO à pied","latitude":"45.103069","longitude":"1.4609832","date_saisie":"14/12/2005","date_depot":"16/01/2006","valide":"Non","ppo":"Non","obsolete":false}},{"type":"Feature","geometry":{"type":"Polygon","coordinates":[[[1.8807,45.586],[1.8798,45.5838],[1.8792,45.5836],[1.8738,45.5798],[1.8759,45.5791],[1.8765,45.5793],[1.8792,45.578],[1.8783,45.576],[1.8787,45.5746],[1.8781,45.5736],[1.8801,45.5678],[1.8788,45.5651],[1.8771,45.5641],[1.8767,45.5632],[1.8733,45.5615],[1.8719,45.5614],[1.8699,45.562],[1.8686,45.5639],[1.8673,45.5694],[1.8655,45.5694],[1.8645,45.5693],[1.8639,45.568],[1.8627,45.5685],[1.8616,45.5684],[1.8598,45.5666],[1.8599,45.5657],[1.8583,45.5658],[1.8573,45.5663],[1.8549,45.5652],[1.8532,45.566],[1.8518,45.5676],[1.8485,45.5683],[1.847,45.5701],[1.8479,45.5707],[1.8463,45.5724],[1.8446,45.5724],[1.8422,45.574],[1.8423,45.5764],[1.8439,45.5778],[1.8467,45.5783],[1.8494,45.5784],[1.8509,45.5777],[1.851,45.5754],[1.8529,45.575],[1.854,45.5759],[1.8565,45.576],[1.8591,45.5745],[1.8604,45.5787],[1.8635,45.581],[1.8643,45.5829],[1.866,45.5836],[1.8663,45.585],[1.8703,45.5851],[1.8715,45.586],[1.8734,45.5863],[1.8745,45.5875],[1.8777,45.5865],[1.8793,45.5868],[1.8807,45.586]]]},"properties":{"id_ffco":"2025-D19-128","nom":"Forêt de Viam","_dept":"19","numero":"2025-D19-128","commune":"Viam","echelle":"1/15000","surface":"4.36 km²","format":"A4","annee":"2025","cartographes":"Bruno MARCHEGAY","proprietaire":"1905 - BRIVE LIMOUSIN COURSE D'ORIENTATION","niveau":"National, International","specialite":"CO à pied","latitude":"45.5738937274","longitude":"1.86526981868","date_saisie":"29/06/2025","date_depot":"17/09/2025","valide":"Oui","ppo":"Non","type_carte":"Nouvelle carte","fond":"IGN","obsolete":false}},{"type":"Feature","geometry":{"type":"Polygon","coordinates":[[[2.0154,45.6938],[2.0186,45.6944],[2.021,45.6926],[2.0222,45.6908],[2.0212,45.6867],[2.0197,45.6852],[2.0185,45.6863],[2.0151,45.6865],[2.0149,45.6855],[2.0159,45.6835],[2.0146,45.6826],[2.0144,45.6815],[2.0105,45.6796],[2.0084,45.6797],[2.0077,45.6789],[2.0065,45.6788],[2.0056,45.6795],[1.9988,45.6786],[1.9946,45.6819],[1.9965,45.6838],[1.9963,45.6853],[1.9951,45.6858],[1.9936,45.6872],[1.9951,45.6905],[1.9975,45.6897],[1.9994,45.6903],[1.9999,45.6893],[2.0018,45.6897],[2.0019,45.6912],[2.0042,45.6907],[2.0058,45.6912],[2.0088,45.689],[2.0118,45.6931],[2.0134,45.6925],[2.0146,45.6928],[2.0154,45.6938]]]},"properties":{"id_ffco":"2025-D19-127","nom":"Forêt de Chamboux","_dept":"19","numero":"2025-D19-127","commune":"Peyrelevade","echelle":"1/10000","surface":"2.36 km²","format":"A4","annee":"2025","cartographes":"Bruno MARCHEGAY","proprietaire":"1905 - BRIVE LIMOUSIN COURSE D'ORIENTATION","niveau":"National, International","specialite":"CO à pied","latitude":"45.6861626632","longitude":"2.00767172956","date_saisie":"29/06/2025","date_depot":"17/09/2025","valide":"Oui","ppo":"Non","type_carte":"Nouvelle carte","fond":"IGN","obsolete":false}},{"type":"Feature","geometry":{"type":"Polygon","coordinates":[[[2.1428,45.5364],[2.1432,45.5345],[2.1428,45.5325],[2.1451,45.5322],[2.1507,45.5334],[2.1511,45.5341],[2.1522,45.5345],[2.153,45.5357],[2.1517,45.5372],[2.1491,45.5381],[2.1453,45.5381],[2.1428,45.5364]]]},"properties":{"id_ffco":"2025-D19-126","nom":"Meymac","_dept":"19","numero":"2025-D19-126","commune":"Meymac","echelle":"1/4000","surface":"0.39 km²","format":"A4","annee":"2025","cartographes":"Bruno MARCHEGAY","proprietaire":"1905 - BRIVE LIMOUSIN COURSE D'ORIENTATION","niveau":"National, International","specialite":"CO à pied","latitude":"45.5352829906","longitude":"2.14737772165","date_saisie":"29/06/2025","date_depot":"17/09/2025","valide":"Oui","ppo":"Non","type_carte":"Nouvelle carte","fond":"IGN","obsolete":false}},{"type":"Feature","geometry":{"type":"Polygon","coordinates":[[[1.925,45.6015],[1.9249,45.6027],[1.924,45.6041],[1.9249,45.6048],[1.9268,45.6049],[1.9279,45.6055],[1.9268,45.6065],[1.9265,45.608],[1.9238,45.6084],[1.9244,45.61],[1.9238,45.6108],[1.9285,45.6131],[1.9394,45.6163],[1.9445,45.6124],[1.9488,45.6112],[1.9485,45.6103],[1.9495,45.6099],[1.9463,45.6083],[1.9408,45.6078],[1.9395,45.6071],[1.939,45.6063],[1.9336,45.6033],[1.9356,45.6006],[1.9349,45.5991],[1.9326,45.5995],[1.9295,45.6021],[1.925,45.6015]]]},"properties":{"id_ffco":"2025-D19-125","nom":"Bugeat - Bois de Chaleix","_dept":"19","numero":"2025-D19-125","commune":"Bugeat","echelle":"1/10000","surface":"1.85 km²","format":"A4","annee":"2025","cartographes":"Bruno MARCHEGAY","proprietaire":"1905 - BRIVE LIMOUSIN COURSE D'ORIENTATION","niveau":"National, International","specialite":"CO à pied","latitude":"45.6087441665","longitude":"1.93465579121","date_saisie":"29/06/2025","date_depot":"17/09/2025","valide":"Oui","ppo":"Non","type_carte":"Reprise","base":"2023-D19-123 Bois de Chaleix","fond":"IGN","obsolete":false}},{"type":"Feature","geometry":{"type":"Polygon","coordinates":[[[1.9286,45.6058],[1.9331,45.6057],[1.9331,45.6037],[1.9351,45.6009],[1.9337,45.5989],[1.9328,45.5991],[1.9302,45.5968],[1.9298,45.5952],[1.9296,45.5949],[1.9275,45.5954],[1.9251,45.5979],[1.9243,45.5989],[1.9248,45.6007],[1.9249,45.6021],[1.9263,45.6033],[1.9286,45.6058]]]},"properties":{"id_ffco":"2023-D19-124","nom":"La Ganette","_dept":"19","numero":"2023-D19-124","commune":"Bugeat","echelle":"1/4000","surface":"0.64 km²","format":"A4","annee":"2023","cartographes":"Bruno MARCHEGAY, Yannick BEAUVIR","proprietaire":"1905 - BRIVE LIMOUSIN COURSE D'ORIENTATION","niveau":"National, International","specialite":"CO à pied","latitude":"45.6007987587","longitude":"1.92941936646","date_saisie":"17/12/2023","date_depot":"28/02/2024","valide":"Oui","ppo":"Non","type_carte":"Nouvelle carte","fond":"IGN","obsolete":false}},{"type":"Feature","geometry":{"type":"Polygon","coordinates":[[[1.9249,45.6019],[1.9286,45.6023],[1.9344,45.6021],[1.9362,45.6048],[1.9385,45.6064],[1.9405,45.6085],[1.9435,45.6098],[1.9478,45.611],[1.9425,45.6139],[1.9389,45.6164],[1.9326,45.6143],[1.9281,45.6129],[1.9252,45.6112],[1.9241,45.6106],[1.9243,45.6096],[1.9241,45.6082],[1.9268,45.6072],[1.9276,45.6058],[1.9264,45.6049],[1.9238,45.6046],[1.9236,45.6043],[1.9249,45.6019]]]},"properties":{"id_ffco":"2023-D19-123","nom":"Bois de Chaleix","_dept":"19","numero":"2023-D19-123","commune":"Bugeat","echelle":"1/10000","surface":"1.64 km²","format":"A4","annee":"2023","cartographes":"Bruno MARCHEGAY","proprietaire":"1905 - BRIVE LIMOUSIN COURSE D'ORIENTATION","niveau":"National, International","specialite":"CO à pied","latitude":"45.6091540043","longitude":"1.93390034709","date_saisie":"17/12/2023","date_depot":"28/02/2024","valide":"Oui","ppo":"Non","type_carte":"Reprise","base":"2008-D19-032 BUGEAT - Bois de Chaleix","fond":"IGN","obsolete":false}},{"type":"Feature","geometry":{"type":"Polygon","coordinates":[[[1.5614,45.4213],[1.5617,45.4229],[1.5604,45.424],[1.5605,45.4246],[1.5605,45.4257],[1.5636,45.4278],[1.5656,45.4284],[1.5659,45.429],[1.5683,45.4291],[1.5688,45.4279],[1.5694,45.4275],[1.57,45.4246],[1.5689,45.4246],[1.568,45.4245],[1.5669,45.4237],[1.5666,45.4232],[1.5667,45.4226],[1.5672,45.422],[1.5679,45.4215],[1.5693,45.4212],[1.57,45.4212],[1.5701,45.4198],[1.5666,45.4197],[1.5662,45.4208],[1.5614,45.4213]]]},"properties":{"id_ffco":"2023-D19-122","nom":"Uzerche","_dept":"19","numero":"2023-D19-122","commune":"Uzerche","echelle":"1/4000","surface":"0.5 km²","format":"A4","annee":"2023","cartographes":"Bruno MARCHEGAY, Yannick BEAUVIR","proprietaire":"1905 - BRIVE LIMOUSIN COURSE D'ORIENTATION","niveau":"Régional","specialite":"CO à pied","latitude":"45.4245182562","longitude":"1.56540544643","date_saisie":"06/07/2023","date_depot":"23/08/2023","valide":"Oui","ppo":"Non","type_carte":"Nouvelle carte","fond":"IGN","obsolete":false}},{"type":"Feature","geometry":{"type":"Polygon","coordinates":[[[1.5586,45.2013],[1.5535,45.2023],[1.5534,45.2081],[1.5553,45.2075],[1.5549,45.2095],[1.5556,45.2115],[1.5549,45.2122],[1.5537,45.2159],[1.5575,45.2228],[1.5613,45.2213],[1.5634,45.2204],[1.5663,45.2215],[1.5712,45.2238],[1.5782,45.2237],[1.5787,45.2233],[1.5792,45.2181],[1.5781,45.2181],[1.5768,45.2177],[1.5721,45.2113],[1.5716,45.2105],[1.5686,45.21],[1.5668,45.2081],[1.5664,45.2064],[1.5654,45.2053],[1.5595,45.2027],[1.5586,45.2013]]]},"properties":{"id_ffco":"2023-D19-121","nom":"Sainte Féréole - Forêt des Saulières","_dept":"19","numero":"2023-D19-121","commune":"Sainte Féréole","echelle":"1/10000","surface":"3.02 km²","format":"A4","annee":"2023","cartographes":"Bruno MARCHEGAY","proprietaire":"1905 - BRIVE LIMOUSIN COURSE D'ORIENTATION","niveau":"Régional","specialite":"CO à pied","latitude":"45.2140672173","longitude":"1.56444997059","date_saisie":"06/07/2023","date_depot":"23/08/2023","valide":"Oui","ppo":"Non","type_carte":"Nouvelle carte","fond":"IGN","obsolete":false}},{"type":"Feature","geometry":{"type":"Polygon","coordinates":[[[1.5221,45.1523],[1.5147,45.1492],[1.5141,45.1483],[1.5156,45.1475],[1.5171,45.1466],[1.5222,45.1479],[1.5242,45.1503],[1.5221,45.1523]]]},"properties":{"id_ffco":"2022-D19-120","nom":"Parc des Perrières","_dept":"19","numero":"2022-D19-120","commune":"Brive la gaillarde","echelle":"1/4000","surface":"0.27 km²","format":"A4","annee":"2022","cartographes":"Bruno MARCHEGAY","proprietaire":"19 - Corrèze","niveau":"Régional","specialite":"CO à pied","latitude":"45.1492546624","longitude":"1.5194680041","date_saisie":"16/11/2022","valide":"Non","ppo":"Non","type_carte":"Nouvelle carte","fond":"IGN","obsolete":false}},{"type":"Feature","geometry":null,"properties":{"id_ffco":"2005-D19-12","nom":"Lac du Causse","_dept":"19","numero":"2005-D19-12","commune":"Lissac","echelle":"1/7500","surface":"1.6 km²","annee":"2005","cartographes":"V Debretsov","proprietaire":"1905 - BRIVE LIMOUSIN COURSE D'ORIENTATION","niveau":"Interrégional","specialite":"CO à pied","latitude":"45.103069","longitude":"1.4609832","date_saisie":"14/12/2005","date_depot":"16/01/2006","valide":"Non","ppo":"Non","obsolete":false}},{"type":"Feature","geometry":{"type":"Polygon","coordinates":[[[2.1458,45.1431],[2.1493,45.1425],[2.153,45.1437],[2.1548,45.1418],[2.1553,45.1386],[2.1562,45.1373],[2.1583,45.1383],[2.1629,45.1381],[2.1664,45.1368],[2.1663,45.1378],[2.1682,45.1382],[2.1737,45.1397],[2.1741,45.1402],[2.1715,45.1422],[2.1705,45.1453],[2.1705,45.1481],[2.17,45.1487],[2.166,45.1504],[2.1635,45.1508],[2.1617,45.1507],[2.1601,45.1524],[2.1587,45.1527],[2.1575,45.1511],[2.1568,45.1511],[2.1558,45.1527],[2.1544,45.1533],[2.1548,45.1552],[2.1527,45.1554],[2.1509,45.1537],[2.1508,45.1524],[2.1511,45.1509],[2.1506,45.1499],[2.1492,45.1501],[2.1446,45.1499],[2.1458,45.1431]]]},"properties":{"id_ffco":"2022-D19-119","nom":"Puy Pinsac","_dept":"19","numero":"2022-D19-119","commune":"Saint Julien aux Bois","echelle":"1/10000","surface":"2.6 km²","format":"A4","annee":"2022","cartographes":"Bruno MARCHEGAY","proprietaire":"19 - Corrèze","niveau":"National, International","specialite":"CO à pied","latitude":"45.1453778869","longitude":"2.15914695263","date_saisie":"05/05/2022","date_depot":"20/07/2022","valide":"Oui","ppo":"Non","type_carte":"Nouvelle carte","fond":"IGN","obsolete":false}},{"type":"Feature","geometry":{"type":"Polygon","coordinates":[[[1.9434,45.1032],[1.9454,45.1028],[1.945,45.0993],[1.9443,45.0971],[1.9437,45.0957],[1.9435,45.0933],[1.9429,45.0929],[1.9398,45.0918],[1.9331,45.0901],[1.9318,45.0922],[1.9328,45.0947],[1.9336,45.0951],[1.936,45.096],[1.9383,45.0954],[1.9396,45.099],[1.9406,45.1012],[1.941,45.1019],[1.9434,45.1032]]]},"properties":{"id_ffco":"2022-D19-118","nom":"Argentat / Dordogne","_dept":"19","numero":"2022-D19-118","commune":"Argentat sur Dordogne","echelle":"1/4000","surface":"0.71 km²","format":"A4","annee":"2022","cartographes":"Bruno MARCHEGAY","proprietaire":"19 - Corrèze","niveau":"National, International","specialite":"CO à pied","latitude":"45.0958760736","longitude":"1.93951299808","date_saisie":"13/04/2022","valide":"Non","ppo":"Non","type_carte":"Reprise","base":"2006-D19-023 Argentat","fond":"IGN","obsolete":false}},{"type":"Feature","geometry":{"type":"Polygon","coordinates":[[[2.1663,45.1369],[2.1672,45.1381],[2.1721,45.1394],[2.1748,45.1396],[2.1756,45.1402],[2.1714,45.1424],[2.1704,45.1453],[2.1685,45.1453],[2.1671,45.147],[2.1667,45.1485],[2.1673,45.1501],[2.1649,45.1556],[2.1593,45.1548],[2.1537,45.1523],[2.1549,45.1478],[2.156,45.1471],[2.1574,45.1399],[2.1645,45.1388],[2.1663,45.1369]]]},"properties":{"id_ffco":"2022-D19-117","nom":"Saint Julien aux Bois","_dept":"19","numero":"2022-D19-117","commune":"St Julien aux Bois","echelle":"1/10000","surface":"1.84 km²","format":"A4","annee":"2022","cartographes":"Marian Cotirta, Bruno Marchegay","proprietaire":"19 - Corrèze","niveau":"Interrégional","specialite":"CO à pied","contacts":"CDCO 19, 19, 19130, VOUTEZAC, marchegaybruno@gmail.com","latitude":"45.1461638538","longitude":"2.16287558766","date_saisie":"28/02/2022","valide":"Non","ppo":"Non","type_carte":"Nouvelle carte","fond":"Ortho","obsolete":false}},{"type":"Feature","geometry":{"type":"Polygon","coordinates":[[[2.1559,45.2053],[2.1594,45.205],[2.1616,45.2061],[2.1641,45.206],[2.1648,45.207],[2.1652,45.2089],[2.1654,45.2103],[2.1666,45.2115],[2.1666,45.2122],[2.1673,45.2147],[2.1675,45.2173],[2.1668,45.2181],[2.165,45.2183],[2.1619,45.2198],[2.1593,45.2218],[2.156,45.2203],[2.1549,45.2185],[2.1572,45.2145],[2.1564,45.2138],[2.1572,45.2129],[2.156,45.2109],[2.1556,45.209],[2.1551,45.2077],[2.1558,45.2058],[2.1559,45.2053]]]},"properties":{"id_ffco":"2022-D19-116","nom":"Longuechaux","_dept":"19","numero":"2022-D19-116","commune":"Auriac","echelle":"1/10000","surface":"1.29 km²","format":"A4","annee":"2022","cartographes":"Bruno MARCHEGAY","proprietaire":"19 - Corrèze","niveau":"National, International","specialite":"CO à pied","contacts":"CDCO 19, 19, 19130, VOUTEZAC, marchegaybruno@gmail.com","latitude":"45.2131358965","longitude":"2.16084316818","date_saisie":"28/02/2022","date_depot":"20/07/2022","valide":"Oui","ppo":"Non","type_carte":"Nouvelle carte","fond":"Ortho","obsolete":false}},{"type":"Feature","geometry":{"type":"Polygon","coordinates":[[[2.1464,45.2036],[2.1442,45.202],[2.1412,45.202],[2.1402,45.2016],[2.1372,45.2025],[2.1342,45.2027],[2.1328,45.2038],[2.1282,45.2052],[2.1253,45.2021],[2.1242,45.1997],[2.1201,45.1997],[2.1214,45.197],[2.1247,45.1949],[2.1281,45.1941],[2.1304,45.1937],[2.1336,45.1928],[2.1349,45.1904],[2.1381,45.1882],[2.1427,45.19],[2.1469,45.1888],[2.1493,45.1917],[2.1497,45.1939],[2.1509,45.1959],[2.1501,45.1984],[2.1499,45.1999],[2.1504,45.2022],[2.1503,45.2057],[2.1477,45.2061],[2.145,45.2046],[2.1454,45.2038],[2.1464,45.2036]]]},"properties":{"id_ffco":"2022-D19-115","nom":"Auriac - Sothys","_dept":"19","numero":"2022-D19-115","commune":"Auriac","echelle":"1/10000","surface":"2.86 km²","format":"A4","annee":"2022","cartographes":"Bruno MARCHEGAY","proprietaire":"19 - Corrèze","niveau":"National, International","specialite":"CO à pied","contacts":"BRUNO MARCHEGAY, 19, 19130, VOUTEZAC, marchegaybruno@gmail.com","latitude":"45.1972799785","longitude":"2.13788740574","date_saisie":"28/02/2022","date_depot":"20/07/2022","valide":"Oui","ppo":"Oui (30 postes)","type_carte":"Nouvelle carte","fond":"Ortho","obsolete":false}},{"type":"Feature","geometry":{"type":"Polygon","coordinates":[[[1.5438,45.5526],[1.5473,45.555],[1.5522,45.5572],[1.5553,45.5598],[1.5609,45.5581],[1.5681,45.561],[1.5753,45.5563],[1.583,45.5498],[1.5795,45.5483],[1.5767,45.5442],[1.5695,45.5425],[1.5681,45.54],[1.567,45.5373],[1.5617,45.5374],[1.5558,45.5389],[1.5509,45.5394],[1.5468,45.5407],[1.5455,45.5415],[1.5402,45.5415],[1.5404,45.5466],[1.5438,45.5526]]]},"properties":{"id_ffco":"2021-D19-114","nom":"Masseret - Lamongerie","_dept":"19","numero":"2021-D19-114","commune":"Masseret","echelle":"1/15000","surface":"5.6 km²","format":"A4","annee":"2021","cartographes":"Bruno MARCHEGAY","proprietaire":"19 - Corrèze","niveau":"National, International","specialite":"CO à pied","latitude":"45.5488202767","longitude":"1.56043889984","date_saisie":"14/09/2021","valide":"Non","ppo":"Non","type_carte":"Nouvelle carte","fond":"Ortho","obsolete":false}},{"type":"Feature","geometry":{"type":"Polygon","coordinates":[[[1.7386,45.4686],[1.7395,45.471],[1.7414,45.4724],[1.7432,45.4743],[1.7452,45.4768],[1.7444,45.4775],[1.7495,45.4827],[1.7507,45.4837],[1.7567,45.4841],[1.7581,45.4838],[1.758,45.4814],[1.7581,45.4801],[1.7607,45.4782],[1.7611,45.477],[1.7588,45.4754],[1.7557,45.4737],[1.7539,45.4718],[1.7444,45.4694],[1.7401,45.4683],[1.7386,45.4686]]]},"properties":{"id_ffco":"2021-D19-113","nom":"Le Lonzac","_dept":"19","numero":"2021-D19-113","commune":"Le Lonzac","echelle":"1/10000","surface":"1.56 km²","format":"A4","annee":"2021","cartographes":"Bruno MARCHEGAY","proprietaire":"1905 - BRIVE LIMOUSIN COURSE D'ORIENTATION","niveau":"Régional","specialite":"CO à pied","latitude":"45.4763382352","longitude":"1.75059780351","date_saisie":"06/07/2023","date_depot":"23/08/2023","valide":"Oui","ppo":"Non","type_carte":"Nouvelle carte","fond":"IGN","obsolete":false}},{"type":"Feature","geometry":null,"properties":{"id_ffco":"2005-D19-11","nom":"CROCHET Lac du Causse","_dept":"19","numero":"2005-D19-11","commune":"Lissac","echelle":"1/10000","surface":"3.4 km²","annee":"2005","cartographes":"B Marchegay","proprietaire":"1905 - BRIVE LIMOUSIN COURSE D'ORIENTATION","niveau":"National, International","specialite":"CO à pied","latitude":"45.103069","longitude":"1.4609832","date_saisie":"14/12/2005","date_depot":"16/01/2006","valide":"Non","ppo":"Non","obsolete":false}},{"type":"Feature","geometry":{"type":"Polygon","coordinates":[[[1.2615,45.1658],[1.2641,45.1663],[1.2667,45.1665],[1.2694,45.1665],[1.2737,45.166],[1.2785,45.1656],[1.2799,45.1655],[1.2814,45.1657],[1.2822,45.1649],[1.2831,45.164],[1.2837,45.1642],[1.2841,45.1643],[1.2854,45.1639],[1.2865,45.1634],[1.2865,45.1627],[1.2855,45.1623],[1.2852,45.1616],[1.2856,45.1599],[1.2841,45.1604],[1.2828,45.1609],[1.2815,45.1606],[1.2775,45.1607],[1.2731,45.1601],[1.2717,45.1596],[1.2692,45.159],[1.267,45.1585],[1.264,45.1576],[1.2626,45.157],[1.2619,45.1564],[1.2612,45.1561],[1.2614,45.1538],[1.2598,45.1535],[1.2592,45.1539],[1.2588,45.1545],[1.2582,45.1549],[1.2579,45.1555],[1.2574,45.156],[1.2581,45.1565],[1.259,45.1568],[1.2605,45.157],[1.2611,45.1577],[1.261,45.1586],[1.2616,45.1596],[1.262,45.1605],[1.2628,45.1609],[1.263,45.1619],[1.263,45.1628],[1.2625,45.1637],[1.2613,45.1646],[1.2612,45.1657],[1.2615,45.1658]]]},"properties":{"id_ffco":"2018-D19-105","nom":"Le Bois des Faux","_dept":"19","numero":"2018-D19-105","commune":"Cublac","echelle":"1/10000","surface":"1.37 km²","format":"A4","annee":"2018","cartographes":"Grégory Blot","proprietaire":"2407 - PERIGORD ORIENTATION PLAISIR","niveau":"Départemental","specialite":"CO à pied","latitude":"45.1621076141","longitude":"1.27113942264","date_saisie":"15/06/2018","date_depot":"03/04/2019","valide":"Oui","ppo":"Non","type_carte":"Nouvelle carte","fond":"Ortho","obsolete":false}},{"type":"Feature","geometry":{"type":"Polygon","coordinates":[[[2.0798,45.4276],[2.0774,45.4288],[2.0764,45.4303],[2.0723,45.4289],[2.0637,45.4299],[2.0629,45.4277],[2.0608,45.4265],[2.0608,45.4253],[2.058,45.426],[2.057,45.4258],[2.0567,45.4229],[2.0562,45.4217],[2.0575,45.4211],[2.0583,45.4198],[2.0592,45.4173],[2.0614,45.4183],[2.0662,45.4188],[2.0712,45.4197],[2.073,45.4204],[2.0783,45.4251],[2.0798,45.4276]]]},"properties":{"id_ffco":"2016-D19-101","nom":"Egletons - Le Lac","_dept":"19","numero":"2016-D19-101","commune":"Egletons","echelle":"1/10000","surface":"1.62 km²","format":"A4","annee":"2016","cartographes":"Bruno Marchegay","proprietaire":"19 - Corrèze","niveau":"Régional","specialite":"CO à pied","latitude":"45.4241801615","longitude":"2.0675189702","date_saisie":"12/10/2016","valide":"Non","ppo":"Non","type_carte":"Nouvelle carte","fond":"Ortho","obsolete":false}},{"type":"Feature","geometry":{"type":"Polygon","coordinates":[[[1.9502,45.3035],[1.9414,45.3],[1.94,45.2979],[1.9391,45.2972],[1.9366,45.2986],[1.9345,45.2998],[1.9322,45.2972],[1.9315,45.2956],[1.9333,45.2923],[1.9357,45.2914],[1.9355,45.2882],[1.94,45.2848],[1.9416,45.2839],[1.9451,45.2848],[1.9488,45.2833],[1.9508,45.2833],[1.9554,45.2847],[1.9571,45.2851],[1.9576,45.2871],[1.9574,45.2887],[1.9585,45.2891],[1.9588,45.2899],[1.96,45.2898],[1.9625,45.2896],[1.9671,45.2895],[1.9644,45.2912],[1.9633,45.2935],[1.9626,45.2956],[1.962,45.2998],[1.9623,45.3009],[1.9612,45.3022],[1.9617,45.3032],[1.9595,45.3046],[1.9548,45.306],[1.9538,45.3044],[1.952,45.3046],[1.9502,45.3035]]]},"properties":{"id_ffco":"2016-D19-100","nom":"Domaine de Sédières","_dept":"19","numero":"2016-D19-100","commune":"Clergoux","echelle":"1/10000","surface":"4.19 km²","format":"A3","annee":"2016","cartographes":"Bruno Marchegay","proprietaire":"19 - Corrèze","niveau":"National, International","specialite":"CO à pied","latitude":"45.2939626128","longitude":"1.94913687622","date_saisie":"12/10/2016","valide":"Non","ppo":"Non","type_carte":"Nouvelle carte","fond":"Ortho","obsolete":false}},{"type":"Feature","geometry":{"type":"Polygon","coordinates":[[[1.4555,45.1],[1.4559,45.102],[1.4603,45.1031],[1.4618,45.1042],[1.4674,45.1051],[1.4718,45.1037],[1.4751,45.1027],[1.4776,45.1012],[1.478,45.0996],[1.4815,45.1001],[1.4841,45.1001],[1.487,45.1002],[1.4903,45.0985],[1.4947,45.0963],[1.4964,45.0949],[1.4988,45.0925],[1.5003,45.0895],[1.5002,45.0867],[1.4994,45.0857],[1.4961,45.0848],[1.4956,45.0832],[1.4922,45.0836],[1.4882,45.0837],[1.4843,45.0832],[1.4829,45.0806],[1.4807,45.0806],[1.4782,45.0815],[1.4745,45.0839],[1.4728,45.085],[1.4724,45.0864],[1.4713,45.0869],[1.4702,45.0888],[1.4705,45.0914],[1.4702,45.0926],[1.4695,45.0944],[1.4656,45.0943],[1.4643,45.0944],[1.4629,45.0962],[1.4629,45.0975],[1.4598,45.0989],[1.4558,45.0995],[1.4555,45.1]]]},"properties":{"id_ffco":"2005-D19-10","nom":"Lac du Causse","_dept":"19","numero":"2005-D19-10","commune":"Lissac/Couze","echelle":"1/10000","surface":"5.0 km²","format":"A3","annee":"2005","cartographes":"V Debretsov","proprietaire":"1905 - BRIVE LIMOUSIN COURSE D'ORIENTATION","niveau":"Interrégional","specialite":"CO à pied","latitude":"45.0931081558","longitude":"1.47997177062","date_saisie":"14/12/2005","date_depot":"16/01/2006","valide":"Non","ppo":"Non","fond":"Ortho","obsolete":false}},{"type":"Feature","geometry":null,"properties":{"id_ffco":"1998-D19-07","nom":"EYRIN LE CHATEAU DE SEDIERES","_dept":"19","numero":"1998-D19-07","commune":"EYREIN","echelle":"1/15000","surface":"17.0 km²","annee":"1998","proprietaire":"37 - Indre-et-Loire","niveau":"Interrégional","specialite":"CO à pied","latitude":"45.3347301","longitude":"1.9480569","valide":"Non","ppo":"Non","obsolete":false}},{"type":"Feature","geometry":null,"properties":{"id_ffco":"1983-D19-06","nom":"BOIS DES TREMBLES","_dept":"19","numero":"1983-D19-06","commune":"LA COURTINE","echelle":"1/15000","surface":"8.0 km²","annee":"1983","niveau":"Interrégional","specialite":"CO à pied","latitude":"45.7010934","longitude":"2.2635279","valide":"Non","ppo":"Non","obsolete":false}},{"type":"Feature","geometry":null,"properties":{"id_ffco":"1983-D19-05","nom":"CHATEAU DE SEDIERES","_dept":"19","numero":"1983-D19-05","commune":"EYRIEN","echelle":"1/15000","surface":"9.5 km²","annee":"1983","proprietaire":"1903","niveau":"Interrégional","specialite":"CO à pied","latitude":"45.4320081","longitude":"2.0195909","valide":"Non","ppo":"Non","obsolete":false}},{"type":"Feature","geometry":null,"properties":{"id_ffco":"1983-D19-04","nom":"ROCHER DE LA RISSIERE","_dept":"19","numero":"1983-D19-04","commune":"EYRIEN","echelle":"1/15000","surface":"8.9 km²","annee":"1983","proprietaire":"1903","niveau":"Interrégional","specialite":"CO à pied","latitude":"45.4320081","longitude":"2.0195909","valide":"Non","ppo":"Non","obsolete":false}},{"type":"Feature","geometry":null,"properties":{"id_ffco":"2008-D19-038","nom":"Stade de St Pantaléon de Larche","_dept":"19","numero":"2008-D19-038","commune":"St Pantaléon de Larche","echelle":"1/2500","surface":"0.12 km²","format":"A4","annee":"2008","cartographes":"PJ Manet","proprietaire":"19 - Corrèze","niveau":"Initiation, Scolaire","specialite":"CO à pied","latitude":"45.1404537","longitude":"1.4470412","date_saisie":"15/12/2009","date_depot":"22/12/2009","valide":"Non","ppo":"Non","obsolete":false}},{"type":"Feature","geometry":null,"properties":{"id_ffco":"2008-D19-037","nom":"St Priest - Voilco","_dept":"19","numero":"2008-D19-037","commune":"Gare de Corrèze","echelle":"1/2000","surface":"0.1 km²","format":"A4","annee":"2008","cartographes":"PJ Manet","proprietaire":"19 - Corrèze","niveau":"Initiation, Scolaire","specialite":"CO à pied","latitude":"45.3317615","longitude":"1.8795389","date_saisie":"15/12/2009","date_depot":"22/12/2009","valide":"Non","ppo":"Non","obsolete":false}},{"type":"Feature","geometry":null,"properties":{"id_ffco":"2008-D19-036","nom":"Voutezac - Bourg","_dept":"19","numero":"2008-D19-036","commune":"Voutezac","echelle":"1/2500","surface":"0.1 km²","format":"A4","annee":"2008","cartographes":"B Marchegay","proprietaire":"19 - Corrèze","niveau":"Initiation, Scolaire","specialite":"CO à pied","latitude":"45.2927315","longitude":"1.4382037","date_saisie":"15/12/2009","date_depot":"22/12/2009","valide":"Non","ppo":"Non","obsolete":false}},{"type":"Feature","geometry":null,"properties":{"id_ffco":"2008-D19-035","nom":"Le Chambon","_dept":"19","numero":"2008-D19-035","commune":"Tulle","echelle":"1/3000","surface":"0.15 km²","format":"A4","annee":"2008","cartographes":"B Marchegay","proprietaire":"19 - Corrèze","niveau":"Initiation, Scolaire","specialite":"CO à pied","latitude":"45.2646735","longitude":"1.7676143","date_saisie":"15/12/2009","date_depot":"22/12/2009","valide":"Non","ppo":"Non","obsolete":false}},{"type":"Feature","geometry":null,"properties":{"id_ffco":"2008-D19-034","nom":"Chamberet Arboretum","_dept":"19","numero":"2008-D19-034","commune":"Chamberet","echelle":"1/4000","surface":"0.35 km²","format":"A4","annee":"2008","cartographes":"B Marchegay","proprietaire":"19 - Corrèze","niveau":"Initiation, Scolaire","specialite":"CO à pied","latitude":"45.5826736","longitude":"1.7214608","date_saisie":"15/12/2009","date_depot":"22/12/2009","valide":"Non","ppo":"Non","obsolete":false}},{"type":"Feature","geometry":null,"properties":{"id_ffco":"2008-D19-033","nom":"Merlines","_dept":"19","numero":"2008-D19-033","commune":"Merlines","echelle":"1/7500","surface":"1.2 km²","format":"A4","annee":"2008","cartographes":"B Marchegay","proprietaire":"19 - Corrèze","niveau":"Départemental","specialite":"CO à pied","latitude":"45.6469845","longitude":"2.4599386","date_saisie":"15/12/2009","date_depot":"22/12/2009","valide":"Non","ppo":"Non","obsolete":false}},{"type":"Feature","geometry":null,"properties":{"id_ffco":"2008-D19-032","nom":"BUGEAT - Bois de Chaleix","_dept":"19","numero":"2008-D19-032","commune":"Bugeat","echelle":"1/7500","surface":"1.7 km²","format":"A4","annee":"2008","cartographes":"B Marchegay, J Lasouche","proprietaire":"19 - Corrèze","niveau":"National, International","specialite":"CO à pied","latitude":"45.5976204","longitude":"1.9276161","date_saisie":"15/12/2009","date_depot":"22/12/2009","valide":"Non","ppo":"Non","obsolete":false}},{"type":"Feature","geometry":null,"properties":{"id_ffco":"2007-D19-031","nom":"Etang Laborde","_dept":"19","numero":"2007-D19-031","commune":"La Roche Canillac","echelle":"1/10000","surface":"3.2 km²","format":"A4","annee":"2007","cartographes":"B Marchegay","proprietaire":"19 - Corrèze","niveau":"Régional","specialite":"CO à VTT","latitude":"45.1943326","longitude":"1.9730727","date_saisie":"15/12/2009","date_depot":"22/12/2009","valide":"Non","ppo":"Non","obsolete":false}},{"type":"Feature","geometry":null,"properties":{"id_ffco":"2007-D19-030","nom":"Etang de Laborde","_dept":"19","numero":"2007-D19-030","commune":"La Roche Canillac","echelle":"1/7500","surface":"1.7 km²","format":"A4","annee":"2007","cartographes":"B Marchegay","proprietaire":"19 - Corrèze","niveau":"Régional","specialite":"CO à pied","latitude":"45.1943326","longitude":"1.9730727","date_saisie":"15/12/2009","date_depot":"22/12/2009","valide":"Non","ppo":"Non","obsolete":false}},{"type":"Feature","geometry":null,"properties":{"id_ffco":"1990-D19-03","nom":"QUARTIER BACHELLERIE","_dept":"19","numero":"1990-D19-03","commune":"TULLE","echelle":"1/4000","surface":"0.2 km²","annee":"1990","proprietaire":"1903","specialite":"CO à pied","latitude":"45.2646735","longitude":"1.7676143","valide":"Non","ppo":"Non","obsolete":false}},{"type":"Feature","geometry":null,"properties":{"id_ffco":"2007-D19-029","nom":"Lycée Agricole Murat - Vtz","_dept":"19","numero":"2007-D19-029","commune":"Objat","echelle":"1/5000","surface":"0.5 km²","format":"A4","annee":"2007","cartographes":"B Marchegay","proprietaire":"19 - Corrèze","niveau":"Initiation, Scolaire","specialite":"CO à pied","latitude":"45.2627065","longitude":"1.4098269","date_saisie":"15/12/2009","date_depot":"22/12/2009","valide":"Non","ppo":"Non","obsolete":false}},{"type":"Feature","geometry":null,"properties":{"id_ffco":"2007-D19-028","nom":"Rouffignac","_dept":"19","numero":"2007-D19-028","commune":"Objat","echelle":"1/7500","surface":"1.2 km²","format":"A4","annee":"2007","cartographes":"B Marchegay","proprietaire":"19 - Corrèze","niveau":"Régional","specialite":"CO à pied","latitude":"45.2627065","longitude":"1.4098269","date_saisie":"15/12/2009","date_depot":"22/12/2009","valide":"Non","ppo":"Non","obsolete":false}},{"type":"Feature","geometry":null,"properties":{"id_ffco":"2006-D19-027","nom":"Le Mas","_dept":"19","numero":"2006-D19-027","commune":"Voutezac","echelle":"1/7500","surface":"1.4 km²","annee":"2006","cartographes":"B Marchegay","proprietaire":"1905 - BRIVE LIMOUSIN COURSE D'ORIENTATION","specialite":"CO à pied","latitude":"45.2927315","longitude":"1.4382037","date_saisie":"30/05/2007","date_depot":"30/05/2007","valide":"Non","ppo":"Non","obsolete":false}},{"type":"Feature","geometry":null,"properties":{"id_ffco":"2006-D19-026","nom":"Le Saillant Vieux","_dept":"19","numero":"2006-D19-026","commune":"Allasac","echelle":"1/6000","surface":"1.1 km²","annee":"2006","cartographes":"B Marchegay","proprietaire":"1905 - BRIVE LIMOUSIN COURSE D'ORIENTATION","specialite":"CO à pied","latitude":"45.2579665","longitude":"1.4756637","date_saisie":"30/05/2007","date_depot":"30/05/2007","valide":"Non","ppo":"Non","obsolete":false}},{"type":"Feature","geometry":null,"properties":{"id_ffco":"2006-D19-025","nom":"Treignac Centre","_dept":"19","numero":"2006-D19-025","commune":"Treignac","echelle":"1/2500","surface":"0.2 km²","annee":"2006","cartographes":"B Marchegay","proprietaire":"1905 - BRIVE LIMOUSIN COURSE D'ORIENTATION","specialite":"CO à pied","latitude":"45.5374359","longitude":"1.7944659","date_saisie":"30/05/2007","date_depot":"30/05/2007","valide":"Non","ppo":"Non","obsolete":false}},{"type":"Feature","geometry":null,"properties":{"id_ffco":"2006-D19-024","nom":"Rosiers D'Egletons - Stade","_dept":"19","numero":"2006-D19-024","commune":"Rosiers D'Egletons","echelle":"1/2000","surface":"0.1 km²","annee":"2006","cartographes":"B Marchegay","proprietaire":"1905 - BRIVE LIMOUSIN COURSE D'ORIENTATION","specialite":"CO à pied","latitude":"45.3770743","longitude":"2.0074696","date_saisie":"30/05/2007","date_depot":"30/05/2007","valide":"Non","ppo":"Non","obsolete":false}},{"type":"Feature","geometry":{"type":"Polygon","coordinates":[[[1.9269,45.0949],[1.9313,45.0993],[1.935,45.1004],[1.943,45.1032],[1.9461,45.1024],[1.9439,45.0935],[1.933,45.0896],[1.9308,45.093],[1.9269,45.0949]]]},"properties":{"id_ffco":"2006-D19-023","nom":"Argentat","_dept":"19","numero":"2006-D19-023","commune":"Argentat","echelle":"1/4000","surface":"1.29 km²","format":"A4","annee":"2006","cartographes":"B Marchegay","proprietaire":"19 - Corrèze","niveau":"National, International","specialite":"CO à pied","contacts":"BRUNO MARCHEGAY, 19, 19130, VOUTEZAC, 0607308207, marchegaybruno@gmail.com // CDCO 19, 19, 19130, VOUTEZAC, marchegaybruno@gmail.com","latitude":"45.0965453997","longitude":"1.93738533434","date_saisie":"30/05/2007","date_depot":"30/05/2007","valide":"Oui","ppo":"Non","type_carte":"Reprise","base":"2006-D19-023 Argentat","fond":"Ortho","obsolete":false}},{"type":"Feature","geometry":null,"properties":{"id_ffco":"2006-D19-022","nom":"Base Nautique Marcillac La Croisille","_dept":"19","numero":"2006-D19-022","commune":"Marcillac La Croisille","echelle":"1/5000","surface":"0.8 km²","annee":"2006","cartographes":"B Marchegay","proprietaire":"1905 - BRIVE LIMOUSIN COURSE D'ORIENTATION","specialite":"CO à pied","latitude":"45.2738638","longitude":"2.0324295","date_saisie":"30/05/2007","date_depot":"30/05/2007","valide":"Non","ppo":"Non","obsolete":false}},{"type":"Feature","geometry":{"type":"Polygon","coordinates":[[[1.9194,45.0958],[1.9225,45.0948],[1.9248,45.0934],[1.9258,45.092],[1.9268,45.0889],[1.928,45.0856],[1.9293,45.0825],[1.9305,45.0797],[1.931,45.0773],[1.9301,45.0769],[1.927,45.077],[1.9236,45.078],[1.9187,45.0776],[1.9166,45.0772],[1.9128,45.0766],[1.9105,45.0766],[1.9075,45.0758],[1.9061,45.0775],[1.9056,45.078],[1.9062,45.0792],[1.9065,45.0805],[1.9055,45.0816],[1.9047,45.0824],[1.9019,45.0823],[1.8994,45.0839],[1.8962,45.0843],[1.8962,45.0854],[1.8955,45.088],[1.8947,45.0899],[1.8937,45.0908],[1.8937,45.0926],[1.8943,45.0939],[1.8944,45.0949],[1.8953,45.0958],[1.8975,45.0953],[1.8993,45.0932],[1.9003,45.0926],[1.9037,45.0908],[1.9049,45.0899],[1.9071,45.0904],[1.9085,45.0914],[1.9104,45.0909],[1.9112,45.09],[1.9119,45.0901],[1.9123,45.091],[1.9154,45.0929],[1.9182,45.0949],[1.9194,45.0958]]]},"properties":{"id_ffco":"2015-D19-021","nom":"Puy Du Tour","_dept":"19","numero":"2015-D19-021","commune":"Monceaux/D","echelle":"1/10000","surface":"4.01 km²","format":"A4","annee":"2015","cartographes":"Marian COTIRTA, Ionut ZINCA","proprietaire":"19 - Corrèze","niveau":"Régional","specialite":"CO à pied","latitude":"45.0855770365","longitude":"1.91348311904","date_saisie":"30/05/2007","date_depot":"30/05/2007","valide":"Oui","ppo":"Non","type_carte":"Reprise","base":"2015-D19-021 Puy Du Tour","fond":"Ortho","obsolete":false}},{"type":"Feature","geometry":null,"properties":{"id_ffco":"2006-D19-020","nom":"Objat - Plan D'Eau","_dept":"19","numero":"2006-D19-020","echelle":"1/3000","surface":"0.3 km²","annee":"2006","cartographes":"B Marchegay","proprietaire":"1905 - BRIVE LIMOUSIN COURSE D'ORIENTATION","specialite":"CO à pied","latitude":"45.4320081","longitude":"2.0195909","date_saisie":"30/05/2007","date_depot":"30/05/2007","valide":"Non","ppo":"Non","obsolete":false}},{"type":"Feature","geometry":null,"properties":{"id_ffco":"2007-D19-019","nom":"SECHEMAILLES","_dept":"19","numero":"2007-D19-019","commune":"Meymac","echelle":"1/5000","surface":"1.2 km²","format":"A4","annee":"2007","cartographes":"B Midena","proprietaire":"19 - Corrèze","niveau":"Régional","specialite":"CO à pied","latitude":"45.535035","longitude":"2.1468248","date_saisie":"15/12/2009","date_depot":"22/12/2009","valide":"Non","ppo":"Non","obsolete":false}},{"type":"Feature","geometry":null,"properties":{"id_ffco":"2006-D19-017","nom":"Viam - Puy Gaillau","_dept":"19","numero":"2006-D19-017","commune":"Viam","surface":"0.25 km²","annee":"2006","cartographes":"B Midena","proprietaire":"1905 - BRIVE LIMOUSIN COURSE D'ORIENTATION","latitude":"45.6089128","longitude":"1.8843634","date_saisie":"30/05/2007","date_depot":"30/05/2007","valide":"Non","ppo":"Non","obsolete":false}},{"type":"Feature","geometry":null,"properties":{"id_ffco":"2006-D19-016","nom":"Domaine De Sédières","_dept":"19","numero":"2006-D19-016","commune":"Clergoux","echelle":"1/10000","surface":"None km²","annee":"2006","cartographes":"V Papon","proprietaire":"1905 - BRIVE LIMOUSIN COURSE D'ORIENTATION","specialite":"CO à pied","latitude":"45.2780831","longitude":"1.972211","date_saisie":"30/05/2007","date_depot":"30/05/2007","valide":"Non","ppo":"Non","obsolete":false}},{"type":"Feature","geometry":null,"properties":{"id_ffco":"2006-D19-015","nom":"Sédières Ii","_dept":"19","numero":"2006-D19-015","commune":"Clergoux","echelle":"1/10000","surface":"None km²","annee":"2006","cartographes":"V Papon","proprietaire":"1905 - BRIVE LIMOUSIN COURSE D'ORIENTATION","specialite":"CO à pied","latitude":"45.2780831","longitude":"1.972211","date_saisie":"30/05/2007","date_depot":"30/05/2007","valide":"Non","ppo":"Non","obsolete":false}},{"type":"Feature","geometry":null,"properties":{"id_ffco":"1977-D19-001","nom":"BOIS DES PERES","_dept":"19","numero":"1977-D19-001","echelle":"1/15000","surface":"9.0 km²","annee":"1977","proprietaire":"LI - Limousin","specialite":"CO à pied","latitude":"45.4320081","longitude":"2.0195909","valide":"Non","ppo":"Non","obsolete":false}},{"type":"Feature","geometry":null,"properties":{"id_ffco":"2009-D19-","nom":"Arboretum","_dept":"19","numero":"2009-D19-","commune":"Chamberet","echelle":"1/7500","surface":"0.3 km²","annee":"2009","contacts":"Commune Chamberet, marchegay@aol.com, http://www.correze-co.fr","latitude":"45.5826736","longitude":"1.7214608","valide":"Non","ppo":"Oui (25 postes)","obsolete":false}},{"type":"Feature","geometry":null,"properties":{"id_ffco":"2009-D19-","nom":"Merlines","_dept":"19","numero":"2009-D19-","commune":"Merlines","echelle":"1/5500","surface":"2.0 km²","annee":"2009","contacts":"Syndicat Abeille, marchegay@aol.com, http://www.correze-co.fr","latitude":"45.6469845","longitude":"2.4599386","valide":"Non","ppo":"Oui (35 postes)","obsolete":false}},{"type":"Feature","geometry":null,"properties":{"id_ffco":"????-D19-","nom":"Lignareix","_dept":"19","numero":"????-D19-","commune":"Ussel cedex","surface":"None km²","contacts":"A.D.C.U.","latitude":"45.5463304","longitude":"2.3084833","valide":"Non","ppo":"Oui","obsolete":false}},{"type":"Feature","geometry":null,"properties":{"id_ffco":"2010-D19-","nom":"Beaulieu","_dept":"19","numero":"2010-D19-","commune":"Beaulieu","echelle":"1/4000","surface":"0.5 km²","annee":"2010","contacts":"ADN CO 1907, 05 55 28 86 45, contact@adndordogne.org, http://www.correze-co.fr","latitude":"44.9790611","longitude":"1.8370422","valide":"Non","ppo":"Oui (25 postes)","obsolete":false}},{"type":"Feature","geometry":null,"properties":{"id_ffco":"2010-D19-","nom":"Bois Chaleix","_dept":"19","numero":"2010-D19-","commune":"Bugeat","echelle":"1/4000","surface":"2.0 km²","annee":"2010","contacts":"Com Com Bugeat Sornac, marchegay@aol.com, http://www.correze-co.fr","latitude":"45.5976204","longitude":"1.9276161","valide":"Non","ppo":"Oui (40 postes)","obsolete":false}},{"type":"Feature","geometry":null,"properties":{"id_ffco":"2007-D19-","nom":"Domaine de Sédières","_dept":"19","numero":"2007-D19-","commune":"Clergoux","echelle":"1/7500","surface":"2.3 km²","annee":"2007","contacts":"BRUNO MARCHEGAY, 19, 19130, VOUTEZAC, marchegaybruno@gmail.com","latitude":"45.2780831","longitude":"1.972211","valide":"Non","ppo":"Oui (60 postes)","obsolete":false}},{"type":"Feature","geometry":null,"properties":{"id_ffco":"2007-D19-","nom":"Etang Laborde","_dept":"19","numero":"2007-D19-","commune":"La Roche Canillac","echelle":"1/7500","surface":"1.6 km²","annee":"2007","contacts":"ADN CO 1907, 05 55 28 86 45, contact@adndordogne.org, http://www.correze-co.fr","latitude":"45.1943326","longitude":"1.9730727","valide":"Non","ppo":"Oui (40 postes)","obsolete":false}},{"type":"Feature","geometry":null,"properties":{"id_ffco":"2009-D19-","nom":"Lac de Ponty","_dept":"19","numero":"2009-D19-","commune":"Ussel","echelle":"1/5000","surface":"1.0 km²","annee":"2009","contacts":"Com Com Meymac-Ussel, marchegay@aol.com, http://www.correze-co.fr","latitude":"45.5463304","longitude":"2.3084833","valide":"Non","ppo":"Oui (40 postes)","obsolete":false}},{"type":"Feature","geometry":null,"properties":{"id_ffco":"2009-D19-","nom":"Lac de Séchemailles","_dept":"19","numero":"2009-D19-","commune":"Meymac","echelle":"1/7500","surface":"1.0 km²","annee":"2009","contacts":"Com Com Meymac-Ussel, marchegay@aol.com, http://www.correze-co.fr","latitude":"45.535035","longitude":"2.1468248","valide":"Non","ppo":"Oui (30 postes)","obsolete":false}},{"type":"Feature","geometry":null,"properties":{"id_ffco":"2010-D19-","nom":"Forêt Mirambelle","_dept":"19","numero":"2010-D19-","commune":"St Rémy","echelle":"1/7500","surface":"3.5 km²","annee":"2010","contacts":"Com Com Bugeat Sornac, marchegay@aol.com, http://www.correze-co.fr","latitude":"45.6547427","longitude":"2.271329","valide":"Non","ppo":"Oui (40 postes)","obsolete":false}},{"type":"Feature","geometry":null,"properties":{"id_ffco":"????-D19-","nom":"Bois de Liginiac Centre de Loisirs","_dept":"19","numero":"????-D19-","commune":"Liginiac","surface":"None km²","latitude":"45.4146406","longitude":"2.333448","valide":"Non","ppo":"Oui","obsolete":false}}]}