{"type":"FeatureCollection","features":[{"type":"Feature","geometry":{"type":"Polygon","coordinates":[[[1.5217,45.1638],[1.5314,45.165],[1.5421,45.1661],[1.5419,45.162],[1.5416,45.1573],[1.5406,45.1548],[1.5364,45.1529],[1.5302,45.1541],[1.5251,45.1558],[1.5237,45.1578],[1.5228,45.162],[1.5217,45.1638]]]},"properties":{"id_ffco":"12877","nom":"Brive Centre Ville","_dept":"19","numero":"2010-D19-57","commune":"Brive La Gaillarde","echelle":"1/4000","surface":"1.74 km²","format":"A4","annee":"2010","cartographes":"Bruno MARCHEGAY","proprietaire":"19 - Corrèze","niveau":"National, International","specialite":"Sprint (ISSOM)","latitude":"45.1598228701","longitude":"1.53303088896","date_saisie":"14/09/2021","valide":"Non","ppo":"Non","type_carte":"Nouvelle carte","fond":"Ortho","obsolete":true}}]}