{"type":"FeatureCollection","features":[{"type":"Feature","geometry":{"type":"Polygon","coordinates":[[[9.444,42.7107],[9.4507,42.7089],[9.4504,42.7058],[9.4431,42.7068],[9.444,42.7107]]]},"properties":{"id_ffco":"15214","nom":"Jardin de l'Annonciade - Bastia","_dept":"20","numero":"2025-D20-22","commune":"BASTIA","echelle":"1/2500","surface":"0.23 km²","format":"A4","annee":"2025","cartographes":"hervé Letteron","proprietaire":"UNSS CORSE","niveau":"Initiation, Scolaire","specialite":"CO à pied","contacts":"Service Régional UNSS Corse","latitude":"42.7080627076","longitude":"9.44689831609","date_saisie":"07/10/2025","valide":"Non","ppo":"Non","type_carte":"Nouvelle carte","fond":"Cadastre","obsolete":false}},{"type":"Feature","geometry":{"type":"Polygon","coordinates":[[[9.445,42.7009],[9.4546,42.6984],[9.4572,42.6916],[9.446,42.6895],[9.4475,42.7001],[9.4452,42.7007],[9.445,42.7009]]]},"properties":{"id_ffco":"15213","nom":"Citadelle - Bastia","_dept":"20","numero":"2025-D20-21","commune":"BASTIA","echelle":"1/4000","surface":"0.73 km²","format":"A4","annee":"2025","cartographes":"hervé Letteron","proprietaire":"UNSS CORSE","niveau":"Régional","specialite":"CO à pied","contacts":"Service Régional UNSS Corse","latitude":"42.6945814063","longitude":"9.45101504893","date_saisie":"07/10/2025","valide":"Non","ppo":"Non","type_carte":"Nouvelle carte","fond":"Cadastre","obsolete":false}},{"type":"Feature","geometry":{"type":"Polygon","coordinates":[[[9.5262,42.3745],[9.5335,42.3739],[9.5332,42.3709],[9.5267,42.3715],[9.5262,42.3745]]]},"properties":{"id_ffco":"15212","nom":"Parc Padulella - San Nicolao","_dept":"20","numero":"2025-D20-20","commune":"SAN NICOLAO","echelle":"1/2000","surface":"0.19 km²","format":"A4","annee":"2025","cartographes":"hervé Letteron","proprietaire":"UNSS CORSE","niveau":"Initiation, Scolaire","specialite":"CO à pied","latitude":"42.3727172619","longitude":"9.5298918771","date_saisie":"07/10/2025","valide":"Non","ppo":"Non","type_carte":"Nouvelle carte","fond":"Cadastre","obsolete":false}},{"type":"Feature","geometry":{"type":"Polygon","coordinates":[[[8.7123,42.5871],[8.7403,42.5871],[8.7326,42.5731],[8.7298,42.5657],[8.7645,42.5772],[8.7642,42.5609],[8.7177,42.5457],[8.7024,42.5713],[8.7123,42.5871]]]},"properties":{"id_ffco":"15211","nom":"La Revelatta - Calvi","_dept":"20","numero":"2025-D20-19","commune":"CALVI","echelle":"1/15000","surface":"13.64 km²","format":"A3","annee":"2025","cartographes":"hervé Letteron","proprietaire":"UNSS CORSE","niveau":"Départemental","specialite":"CO à VTT","contacts":"Service Régional UNSS Corse","latitude":"42.5673533511","longitude":"8.73032233311","date_saisie":"07/10/2025","valide":"Non","ppo":"Non","type_carte":"Nouvelle carte","fond":"Cadastre","obsolete":false}},{"type":"Feature","geometry":{"type":"Polygon","coordinates":[[[8.7534,42.563],[8.7576,42.5632],[8.7698,42.5561],[8.7594,42.5498],[8.7534,42.563]]]},"properties":{"id_ffco":"15210","nom":"La pinède - Calvi","_dept":"20","numero":"2025-D20-18","commune":"CALVI","echelle":"1/5000","surface":"0.94 km²","format":"A4","annee":"2025","cartographes":"hervé Letteron","proprietaire":"UNSS CORSE","niveau":"Initiation, Scolaire","specialite":"CO à pied","contacts":"Service Régional UNSS Corse","latitude":"42.5570142804","longitude":"8.76077429405","date_saisie":"07/10/2025","valide":"Non","ppo":"Non","type_carte":"Nouvelle carte","fond":"Cadastre","obsolete":false}},{"type":"Feature","geometry":{"type":"Polygon","coordinates":[[[8.7552,42.5695],[8.7642,42.5707],[8.7629,42.5654],[8.7541,42.5595],[8.7552,42.5695]]]},"properties":{"id_ffco":"15209","nom":"Citadelle - Calvi","_dept":"20","numero":"2025-D20-17","commune":"CALVI","echelle":"1/4000","surface":"0.58 km²","format":"A4","annee":"2025","cartographes":"hervé Letteron","proprietaire":"UNSS CORSE","niveau":"Départemental","specialite":"CO à pied","contacts":"Service Régional UNSS Corse","latitude":"42.566138373","longitude":"8.75864054997","date_saisie":"07/10/2025","valide":"Non","ppo":"Non","type_carte":"Nouvelle carte","fond":"Cadastre","obsolete":false}},{"type":"Feature","geometry":{"type":"Polygon","coordinates":[[[9.1589,42.2998],[9.1766,42.294],[9.1537,42.2921],[9.1589,42.2998]]]},"properties":{"id_ffco":"15208","nom":"Domaine Saint Jean 2","_dept":"20","numero":"2025-D20-16","commune":"CORTE","echelle":"1/5000","surface":"0.77 km²","format":"A4","annee":"2025","cartographes":"hervé Letteron","proprietaire":"UNSS CORSE","niveau":"Régional","specialite":"CO à pied","contacts":"Service Régional UNSS Corse","latitude":"42.2952994629","longitude":"9.16305541992","date_saisie":"07/10/2025","valide":"Non","ppo":"Non","type_carte":"Reprise","fond":"Cadastre","obsolete":false}},{"type":"Feature","geometry":{"type":"Polygon","coordinates":[[[8.7695,41.7719],[8.7668,41.771],[8.7559,41.7707],[8.7587,41.7772],[8.7627,41.809],[8.7737,41.8159],[8.7695,41.7719]]]},"properties":{"id_ffco":"13439","nom":"Forêt de Coti Chiavari","_dept":"20","numero":"2022-D20-15","commune":"Pietrosella","echelle":"1/8000","surface":"4.22 km²","format":"A3","annee":"2022","cartographes":"hervé Letteron","proprietaire":"UNSS CORSE","specialite":"CO à pied","latitude":"41.7911276024","longitude":"8.7658863669","date_saisie":"01/07/2022","date_depot":"20/07/2022","valide":"Non","ppo":"Non","type_carte":"Nouvelle carte","fond":"IGN","obsolete":false}},{"type":"Feature","geometry":{"type":"Polygon","coordinates":[[[9.2644,41.5924],[9.2652,41.5907],[9.2675,41.5906],[9.2687,41.5918],[9.2702,41.5929],[9.2703,41.5934],[9.2696,41.5946],[9.2676,41.5977],[9.2643,41.5925],[9.2644,41.5924]]]},"properties":{"id_ffco":"13438","nom":"Complexe Sportif du Prunello","_dept":"20","numero":"2022-D20-14","commune":"Porto Vecchio","echelle":"1/2500","surface":"0.22 km²","format":"A4","annee":"2022","cartographes":"hervé Letteron","proprietaire":"UNSS CORSE","specialite":"CO à pied","latitude":"41.5935126108","longitude":"9.26727921429","date_saisie":"01/07/2022","date_depot":"20/07/2022","valide":"Non","ppo":"Non","type_carte":"Nouvelle carte","fond":"Cadastre","obsolete":false}},{"type":"Feature","geometry":{"type":"Polygon","coordinates":[[[8.7189,41.94],[8.7185,41.9387],[8.7174,41.9371],[8.7194,41.9354],[8.7226,41.936],[8.7193,41.94],[8.7189,41.94]]]},"properties":{"id_ffco":"13437","nom":"Parc Milelli","_dept":"20","numero":"2022-D20-13","commune":"Ajaccio","echelle":"1/2500","surface":"0.11 km²","format":"A4","annee":"2022","cartographes":"hervé Letteron","proprietaire":"UNSS CORSE","specialite":"CO à pied","latitude":"41.9373169673","longitude":"8.7197893589","date_saisie":"01/07/2022","date_depot":"20/07/2022","valide":"Non","ppo":"Non","type_carte":"Nouvelle carte","fond":"IGN","obsolete":false}},{"type":"Feature","geometry":{"type":"Polygon","coordinates":[[[9.1814,42.295],[9.1821,42.2939],[9.1821,42.2932],[9.1815,42.2934],[9.1776,42.2913],[9.1748,42.2916],[9.1716,42.29],[9.1552,42.2873],[9.1543,42.2968],[9.1583,42.3003],[9.1814,42.295]]]},"properties":{"id_ffco":"13436","nom":"Domaine St Jean","_dept":"20","numero":"2021-D20-12","commune":"Corte","echelle":"1/5000","surface":"1.97 km²","format":"A4","annee":"2021","cartographes":"hervé Letteron","proprietaire":"UNSS CORSE","specialite":"CO à pied","latitude":"42.2937499612","longitude":"9.16533044923","date_saisie":"01/07/2022","date_depot":"20/07/2022","valide":"Non","ppo":"Non","type_carte":"Nouvelle carte","fond":"IGN","obsolete":false}},{"type":"Feature","geometry":{"type":"Polygon","coordinates":[[[8.7256,41.9128],[8.7228,41.9168],[8.7266,41.9189],[8.7269,41.9205],[8.7277,41.92],[8.7288,41.9204],[8.7301,41.9212],[8.7306,41.9226],[8.7287,41.9263],[8.7329,41.9281],[8.7334,41.9297],[8.7349,41.9302],[8.7355,41.931],[8.7373,41.9308],[8.7389,41.9311],[8.7404,41.9306],[8.7403,41.9282],[8.7415,41.9277],[8.7428,41.9281],[8.7431,41.9296],[8.7403,41.9257],[8.7401,41.9243],[8.7421,41.9258],[8.7415,41.924],[8.7427,41.9222],[8.7408,41.9206],[8.7432,41.9203],[8.7442,41.9192],[8.7436,41.918],[8.7416,41.9171],[8.7396,41.9176],[8.7385,41.9162],[8.7365,41.917],[8.7343,41.9174],[8.7317,41.9168],[8.7306,41.9157],[8.7293,41.9126],[8.7276,41.9122],[8.7256,41.9128]]]},"properties":{"id_ffco":"13435","nom":"Ajaccio","_dept":"20","numero":"2021-D20-11","commune":"Ajaccio","echelle":"1/4000","surface":"1.77 km²","format":"A3","annee":"2021","cartographes":"hervé Letteron","proprietaire":"UNSS CORSE","specialite":"CO à pied","latitude":"41.9216432107","longitude":"8.73423956715","date_saisie":"01/07/2022","date_depot":"20/07/2022","valide":"Non","ppo":"Non","type_carte":"Nouvelle carte","fond":"Cadastre","obsolete":false}},{"type":"Feature","geometry":null,"properties":{"id_ffco":"3518","nom":"DOMAINE DE SAINT JEAN","_dept":"20","numero":"2002-D20-09","commune":"Corte","echelle":"1/10000","surface":"4.5 km²","annee":"2002","proprietaire":"20 - Corse","specialite":"CO à pied","latitude":"42.3058052","longitude":"9.1509139","date_saisie":"04/07/2002","date_depot":"04/07/2002","valide":"Non","ppo":"Non","obsolete":false}},{"type":"Feature","geometry":null,"properties":{"id_ffco":"2086","nom":"VIZZAVONA","_dept":"20","numero":"1989-D20-03","echelle":"1/15000","surface":"4.8 km²","annee":"1989","proprietaire":"FLFCCOO","specialite":"CO à pied","latitude":"42.0396042","longitude":"9.0128926","valide":"Non","ppo":"Non","obsolete":false}},{"type":"Feature","geometry":null,"properties":{"id_ffco":"2086","nom":"SOLENZARA","_dept":"20","numero":"1989-D20-03","echelle":"1/5000","surface":"0.6 km²","annee":"1989","proprietaire":"FLFCCOO","specialite":"CO à pied","latitude":"42.0396042","longitude":"9.0128926","valide":"Non","ppo":"Non","obsolete":false}},{"type":"Feature","geometry":null,"properties":{"id_ffco":"2084","nom":"BAVELLA","_dept":"20","numero":"1989-D20-02","echelle":"1/10000","surface":"2.7 km²","annee":"1989","proprietaire":"FLFCCOO","specialite":"CO à pied","latitude":"42.0396042","longitude":"9.0128926","valide":"Non","ppo":"Non","obsolete":false}},{"type":"Feature","geometry":null,"properties":{"id_ffco":"110","nom":"In Terra Corsa","_dept":"20","numero":"????-D20-","commune":"Ajaccio","surface":"None km²","contacts":"In Terra Corsa, 04 95 47 69 48, itcinfo@orange.fr","latitude":"41.9186476","longitude":"8.7368794","valide":"Non","ppo":"Oui","obsolete":false}},{"type":"Feature","geometry":{"type":"Polygon","coordinates":[[[8.9403,42.1276],[8.9401,42.1237],[8.941,42.1232],[8.9427,42.1225],[8.9455,42.121],[8.9474,42.1205],[8.9486,42.1205],[8.9494,42.1207],[8.9537,42.1229],[8.9537,42.1249],[8.9528,42.1264],[8.9515,42.1289],[8.9498,42.1289],[8.9476,42.1296],[8.9424,42.1293],[8.9403,42.1276]]]},"properties":{"id_ffco":"111","nom":"Village de Rezza","_dept":"20","numero":"2005-D20-","commune":"Rezza","echelle":"1/5000","surface":"0.88 km²","annee":"2005","contacts":"04 95 51 79 22, http://www.rezza.fr/publi.html?rbk=1 // 06 12 08 54 25","latitude":"42.1252305624","longitude":"8.94685919045","valide":"Non","ppo":"Oui (70 postes)","url":"http://www.rezza.fr/publi.html?rbk=2","obsolete":false}}]}