{"type":"FeatureCollection","features":[{"type":"Feature","geometry":{"type":"Polygon","coordinates":[[[-3.2634,48.3423],[-3.2634,48.3696],[-3.2471,48.3696],[-3.2471,48.3423],[-3.2634,48.3423]]]},"properties":{"id_ffco":"2011-D22-99","nom":"KERNE UHEL","_dept":"22","numero":"2011-D22-99","commune":"TREMARGAT","echelle":"1/10000","surface":"3.66 km²","format":"A4","annee":"2011","cartographes":"EVEN G","proprietaire":"22 - Côtes-d'Armor","niveau":"Régional","specialite":"CO à VTT","latitude":"48.355962034","longitude":"-3.25521469116","date_saisie":"22/10/2017","date_depot":"21/11/2017","valide":"Oui","ppo":"Non","type_carte":"Nouvelle carte","fond":"IGN","obsolete":false}},{"type":"Feature","geometry":{"type":"Polygon","coordinates":[[[-3.267,48.3555],[-3.2661,48.3555],[-3.2654,48.3554],[-3.2648,48.3553],[-3.2623,48.355],[-3.2588,48.3551],[-3.257,48.355],[-3.255,48.3548],[-3.254,48.3549],[-3.2538,48.3537],[-3.2537,48.3522],[-3.2537,48.3517],[-3.2537,48.3507],[-3.2534,48.35],[-3.2533,48.3495],[-3.2517,48.3495],[-3.2506,48.3491],[-3.2507,48.3467],[-3.248,48.3466],[-3.2464,48.3465],[-3.246,48.3465],[-3.2455,48.346],[-3.2458,48.3431],[-3.2478,48.3427],[-3.2505,48.3423],[-3.2536,48.3421],[-3.2559,48.3426],[-3.2578,48.3429],[-3.2578,48.3454],[-3.2578,48.3463],[-3.267,48.3555]]]},"properties":{"id_ffco":"2011-D22-98","nom":"BARRAGE DE KERNE UHEL","_dept":"22","numero":"2011-D22-98","commune":"TREMARGAT","echelle":"1/7500","surface":"1.09 km²","format":"A4","annee":"2011","cartographes":"EVEN G","proprietaire":"22 - Côtes-d'Armor","niveau":"Départemental","specialite":"CO à pied","contacts":"cdco22, 33rue ville bedel, 33rue ville bedel, 22190, plerin, 0677038777, 0677038777, cdco22@wanadoo.fr","latitude":"48.3486628945","longitude":"-3.25557472237","date_saisie":"22/10/2017","date_depot":"21/11/2017","valide":"Oui","ppo":"Non","type_carte":"Nouvelle carte","fond":"IGN","obsolete":false}},{"type":"Feature","geometry":{"type":"Polygon","coordinates":[[[-3.2576,48.3434],[-3.2576,48.3481],[-3.2471,48.3481],[-3.2471,48.3434],[-3.2576,48.3434]]]},"properties":{"id_ffco":"2011-D22-97","nom":"SAINT ANTOINE TREMARGAT","_dept":"22","numero":"2011-D22-97","commune":"TREMARGAT","echelle":"1/5000","surface":"0.41 km²","format":"A4","annee":"2011","cartographes":"EVEN G","proprietaire":"22 - Côtes-d'Armor","niveau":"Initiation, Scolaire","specialite":"CO à pied","latitude":"48.3457535939","longitude":"-3.25232863426","date_saisie":"22/10/2017","date_depot":"22/11/2017","valide":"Oui","ppo":"Non","type_carte":"Nouvelle carte","fond":"IGN","obsolete":false}},{"type":"Feature","geometry":{"type":"Polygon","coordinates":[[[-3.259,48.3446],[-3.259,48.3484],[-3.2488,48.3484],[-3.2488,48.3446],[-3.259,48.3446]]]},"properties":{"id_ffco":"2011-D22-96","nom":"BASE NAUTIQUE TREMARGAT","_dept":"22","numero":"2011-D22-96","commune":"TREMARGAT","echelle":"1/5000","surface":"0.32 km²","format":"A4","annee":"2011","cartographes":"EVEN G","proprietaire":"22 - Côtes-d'Armor","niveau":"Initiation, Scolaire","specialite":"CO à pied","latitude":"48.3464952066","longitude":"-3.25392723083","date_saisie":"22/10/2017","date_depot":"22/11/2017","valide":"Oui","ppo":"Non","type_carte":"Nouvelle carte","fond":"IGN","obsolete":false}},{"type":"Feature","geometry":{"type":"Polygon","coordinates":[[[-3.491,48.8258],[-3.5018,48.8235],[-3.5105,48.8264],[-3.5114,48.8351],[-3.5059,48.8393],[-3.5047,48.8407],[-3.4959,48.8384],[-3.4962,48.8323],[-3.4928,48.8319],[-3.4915,48.8285],[-3.4906,48.8273],[-3.491,48.8258]]]},"properties":{"id_ffco":"2017-D22-92","nom":"trégastel ILE RENOTE","_dept":"22","numero":"2017-D22-92","commune":"tregastel","echelle":"1/7500","surface":"1.99 km²","format":"A4","annee":"2017","proprietaire":"22 - Côtes-d'Armor","niveau":"Régional","specialite":"CO à pied","contacts":"cdco22, 33rue ville bedel, 22190, plerin, 0677038777, cdco22@wanadoo.fr","latitude":"48.8313900164","longitude":"-3.50192457512","date_saisie":"23/05/2017","date_depot":"31/07/2017","valide":"Oui","ppo":"Non","type_carte":"Nouvelle carte","fond":"IGN","obsolete":false}},{"type":"Feature","geometry":{"type":"Polygon","coordinates":[[[-2.9066,48.402],[-2.9084,48.3992],[-2.9116,48.3985],[-2.913,48.3991],[-2.9096,48.4021],[-2.9066,48.402]]]},"properties":{"id_ffco":"2016-D22-89","nom":"ETANG DE QUINTIN","_dept":"22","numero":"2016-D22-89","commune":"QUINTIN","echelle":"1/2500","surface":"0.1 km²","format":"A4","annee":"2016","cartographes":"LE GUEN","proprietaire":"22 - Côtes-d'Armor","niveau":"Initiation, Scolaire","specialite":"CO à pied","latitude":"48.4003004199","longitude":"-2.90966915884","date_saisie":"30/05/2017","date_depot":"31/07/2017","valide":"Oui","ppo":"Non","type_carte":"Nouvelle carte","fond":"Cadastre","obsolete":false}},{"type":"Feature","geometry":{"type":"Polygon","coordinates":[[[-2.9027,48.4121],[-2.8887,48.4121],[-2.8819,48.4113],[-2.8841,48.4088],[-2.9017,48.4084],[-2.9027,48.4121]]]},"properties":{"id_ffco":"2015-D22-88","nom":"BOIS DE LA PERCHE","_dept":"22","numero":"2015-D22-88","commune":"QUITIN","echelle":"1/5000","surface":"0.54 km²","format":"A4","annee":"2015","cartographes":"LE GUEN","proprietaire":"22 - Côtes-d'Armor","niveau":"Départemental","specialite":"CO à pied","latitude":"48.410318217","longitude":"-2.8930657701","date_saisie":"23/05/2017","date_depot":"31/07/2017","valide":"Oui","ppo":"Non","type_carte":"Nouvelle carte","fond":"IGN","obsolete":false}},{"type":"Feature","geometry":null,"properties":{"id_ffco":"2009-D22-83","nom":"Le Tertre","_dept":"22","numero":"2009-D22-83","commune":"St Carné","echelle":"1/1250","surface":"None km²","format":"A4","annee":"2009","cartographes":"Gaby Even","proprietaire":"22 - Côtes-d'Armor","niveau":"Initiation, Scolaire","specialite":"CO à pied","date_saisie":"22/01/2012","valide":"Non","ppo":"Non","obsolete":false}},{"type":"Feature","geometry":null,"properties":{"id_ffco":"2005-D22-62","nom":"Bois de Mézières - Brusvilly","_dept":"22","numero":"2005-D22-62","commune":"Dinan","echelle":"1/4000","surface":"0.4 km²","annee":"2005","cartographes":"G Even","proprietaire":"2206 - CERCLE D'EDUCATION PHYSIQUE ET SPORTIVE DE DINAN","niveau":"Départemental","specialite":"CO à pied","latitude":"48.4538208","longitude":"-2.0459361","date_saisie":"19/01/2006","date_depot":"15/02/2006","valide":"Non","ppo":"Non","obsolete":false}},{"type":"Feature","geometry":null,"properties":{"id_ffco":"2005-D22-62","nom":"Bois de Mezières Bobital","_dept":"22","numero":"2005-D22-62","commune":"Dinan","echelle":"1/4000","surface":"0.4 km²","annee":"2005","cartographes":"G Even","proprietaire":"2206 - CERCLE D'EDUCATION PHYSIQUE ET SPORTIVE DE DINAN","niveau":"Départemental","specialite":"CO à pied","latitude":"48.4538208","longitude":"-2.0459361","date_saisie":"19/01/2006","date_depot":"15/02/2006","valide":"Non","ppo":"Non","obsolete":false}},{"type":"Feature","geometry":{"type":"Polygon","coordinates":[[[-3.0696,48.4777],[-3.0732,48.4787],[-3.0746,48.48],[-3.0717,48.4832],[-3.0716,48.4837],[-3.0728,48.4853],[-3.0702,48.485],[-3.0676,48.4846],[-3.0666,48.4844],[-3.0624,48.4836],[-3.0603,48.4833],[-3.0578,48.4828],[-3.0573,48.4837],[-3.0569,48.4839],[-3.0562,48.484],[-3.0549,48.4838],[-3.0532,48.4841],[-3.0501,48.4842],[-3.0493,48.4843],[-3.049,48.4836],[-3.0477,48.4837],[-3.0467,48.4825],[-3.0462,48.482],[-3.045,48.4817],[-3.0457,48.4814],[-3.0461,48.4805],[-3.0473,48.4799],[-3.0477,48.4796],[-3.0503,48.4761],[-3.051,48.475],[-3.0528,48.4736],[-3.053,48.4732],[-3.057,48.4741],[-3.0593,48.4742],[-3.0619,48.4749],[-3.0633,48.4747],[-3.0644,48.4758],[-3.0637,48.4764],[-3.0636,48.4767],[-3.0666,48.4779],[-3.0684,48.4766],[-3.0696,48.4777]]]},"properties":{"id_ffco":"2025-D22-169","nom":"La Carrière du Bois Meurs","_dept":"22","numero":"2025-D22-169","commune":"Lanrodec","echelle":"1/10000","surface":"1.75 km²","format":"A4","annee":"2025","cartographes":"Eric BOULET","proprietaire":"2208 - SAINT-BRIEUC ORIENTATION","niveau":"Interrégional","specialite":"CO à pied","contacts":"Saint-Brieuc Orientation","latitude":"48.4797658432","longitude":"-3.05962709709","date_saisie":"21/12/2025","valide":"Non","ppo":"Non","type_carte":"Reprise","base":"2017-D22-124 FERME ET CARRIERE DU BOIS MEUR","fond":"Laser","obsolete":false}},{"type":"Feature","geometry":{"type":"Polygon","coordinates":[[[-2.7434,48.4529],[-2.7486,48.4519],[-2.7487,48.4514],[-2.752,48.4508],[-2.7529,48.453],[-2.7524,48.4556],[-2.7516,48.4568],[-2.75,48.4565],[-2.7497,48.46],[-2.75,48.4605],[-2.7503,48.4609],[-2.7492,48.4611],[-2.7473,48.4611],[-2.7459,48.4612],[-2.7459,48.4606],[-2.745,48.4603],[-2.7424,48.4601],[-2.7412,48.4606],[-2.7404,48.4604],[-2.7297,48.4621],[-2.7287,48.4622],[-2.7277,48.462],[-2.7271,48.4617],[-2.7264,48.4609],[-2.7247,48.4613],[-2.724,48.4612],[-2.7236,48.461],[-2.7215,48.4586],[-2.7221,48.4576],[-2.7237,48.4562],[-2.7249,48.4565],[-2.7278,48.4571],[-2.728,48.4569],[-2.7292,48.4575],[-2.7298,48.4575],[-2.7312,48.4569],[-2.7332,48.4563],[-2.7355,48.457],[-2.736,48.4567],[-2.7367,48.456],[-2.7375,48.4555],[-2.7382,48.4548],[-2.7383,48.4542],[-2.7417,48.4533],[-2.7434,48.4529]]]},"properties":{"id_ffco":"2025-D22-168","nom":"Bois de Plédran 2","_dept":"22","numero":"2025-D22-168","commune":"Plédran","echelle":"1/10000","surface":"1.49 km²","format":"A4","annee":"2025","cartographes":"Eric BOULET","proprietaire":"2208 - SAINT-BRIEUC ORIENTATION","niveau":"Régional","specialite":"CO à pied","contacts":"Saint-Brieuc Orientation","latitude":"48.4574063098","longitude":"-2.73918012535","date_saisie":"21/12/2025","valide":"Non","ppo":"Non","type_carte":"Reprise","base":"2016-D22-123 BOIS DE PLEDRAN","fond":"Ortho","obsolete":false}},{"type":"Feature","geometry":{"type":"Polygon","coordinates":[[[-3.075,48.4856],[-3.0785,48.4854],[-3.0851,48.4852],[-3.0908,48.4843],[-3.0982,48.482],[-3.1001,48.4815],[-3.1013,48.4815],[-3.1021,48.4823],[-3.1049,48.4826],[-3.1069,48.4846],[-3.1067,48.4859],[-3.1057,48.4867],[-3.1039,48.4875],[-3.1036,48.4877],[-3.1037,48.4886],[-3.1045,48.4886],[-3.1074,48.4891],[-3.1083,48.4895],[-3.1086,48.49],[-3.1085,48.4911],[-3.1104,48.4953],[-3.1106,48.496],[-3.1094,48.4962],[-3.109,48.4966],[-3.1084,48.4977],[-3.1066,48.4983],[-3.1053,48.499],[-3.1041,48.4991],[-3.0822,48.5005],[-3.0815,48.4983],[-3.0832,48.4988],[-3.0835,48.4975],[-3.0819,48.4956],[-3.0812,48.4957],[-3.0787,48.4945],[-3.0772,48.494],[-3.0754,48.4938],[-3.0754,48.4929],[-3.0777,48.4922],[-3.078,48.4911],[-3.0789,48.4905],[-3.079,48.4901],[-3.0796,48.4898],[-3.0797,48.4892],[-3.0762,48.489],[-3.0736,48.4899],[-3.0737,48.4889],[-3.0723,48.4889],[-3.0719,48.4878],[-3.0707,48.4877],[-3.0697,48.4864],[-3.0704,48.486],[-3.0703,48.485],[-3.0728,48.4853],[-3.075,48.4856]]]},"properties":{"id_ffco":"2025-D22-167","nom":"Le Ruisseau d'Avaugour","_dept":"22","numero":"2025-D22-167","commune":"Saint-Pever","echelle":"1/10000","surface":"3.96 km²","format":"A4","annee":"2025","cartographes":"Daniel GASTARD","proprietaire":"2208 - SAINT-BRIEUC ORIENTATION","niveau":"Interrégional","specialite":"CO à pied","contacts":"Saint-Brieuc Orientation","latitude":"48.4913621312","longitude":"-3.09276980789","date_saisie":"17/12/2025","valide":"Non","ppo":"Non","type_carte":"Nouvelle carte","fond":"Ortho","obsolete":false}},{"type":"Feature","geometry":{"type":"Polygon","coordinates":[[[-2.7479,48.5239],[-2.7442,48.5243],[-2.7406,48.5241],[-2.738,48.5246],[-2.7374,48.5176],[-2.74,48.5167],[-2.7445,48.5165],[-2.7449,48.5154],[-2.7571,48.5156],[-2.7598,48.5177],[-2.7586,48.5199],[-2.7565,48.5219],[-2.7544,48.522],[-2.7519,48.5221],[-2.7487,48.5219],[-2.7479,48.5239]]]},"properties":{"id_ffco":"2025-D22-166","nom":"Saint-Brieuc - La Villa Rohannec'h","_dept":"22","numero":"2025-D22-166","commune":"Saint-Brieuc","echelle":"1/4000","surface":"1.22 km²","format":"A3","annee":"2025","proprietaire":"2208 - SAINT-BRIEUC ORIENTATION","niveau":"Régional","specialite":"CO à pied","contacts":"Saint-Brieuc Orientation","latitude":"48.5195312392","longitude":"-2.74767159591","date_saisie":"09/03/2025","valide":"Non","ppo":"Non","type_carte":"Nouvelle carte","fond":"Cadastre","obsolete":false}},{"type":"Feature","geometry":{"type":"Polygon","coordinates":[[[-2.7328,48.5185],[-2.7329,48.5208],[-2.7308,48.5233],[-2.7286,48.5242],[-2.7237,48.5272],[-2.7189,48.5267],[-2.7102,48.52],[-2.7109,48.5161],[-2.7156,48.5174],[-2.7167,48.5171],[-2.7176,48.5165],[-2.7191,48.5163],[-2.7217,48.5157],[-2.7237,48.5158],[-2.7255,48.5158],[-2.728,48.5153],[-2.7298,48.5156],[-2.7328,48.5185]]]},"properties":{"id_ffco":"2025-D22-165","nom":"Saint-Brieuc Le viaduc du Dovenant","_dept":"22","numero":"2025-D22-165","commune":"Saint-Brieuc","echelle":"1/4000","surface":"1.53 km²","format":"A3","annee":"2025","proprietaire":"2208 - SAINT-BRIEUC ORIENTATION","niveau":"Initiation, Scolaire","specialite":"Rand'O","contacts":"Saint-Brieuc Orientation","latitude":"48.5206706654","longitude":"-2.722063024","date_saisie":"09/03/2025","valide":"Non","ppo":"Non","type_carte":"Nouvelle carte","fond":"Ortho","obsolete":false}},{"type":"Feature","geometry":{"type":"Polygon","coordinates":[[[-2.7217,48.5269],[-2.719,48.5285],[-2.7159,48.5291],[-2.7135,48.5231],[-2.7048,48.5158],[-2.7065,48.5144],[-2.711,48.516],[-2.715,48.5173],[-2.7164,48.5174],[-2.7177,48.5166],[-2.721,48.5156],[-2.7217,48.5269]]]},"properties":{"id_ffco":"2025-D22-164","nom":"Saint Brieuc - La grève des Courses","_dept":"22","numero":"2025-D22-164","commune":"Saint-Brieuc","echelle":"1/4000","surface":"0.99 km²","format":"A3","annee":"2025","proprietaire":"2208 - SAINT-BRIEUC ORIENTATION","niveau":"Initiation, Scolaire","specialite":"Rand'O","contacts":"Saint-Brieuc Orientation","latitude":"48.5210919077","longitude":"-2.71551787733","date_saisie":"09/03/2025","valide":"Non","ppo":"Non","type_carte":"Nouvelle carte","fond":"Ortho","obsolete":false}},{"type":"Feature","geometry":{"type":"Polygon","coordinates":[[[-2.7553,48.5119],[-2.7553,48.5109],[-2.7567,48.5101],[-2.7599,48.5107],[-2.7628,48.5108],[-2.7672,48.5117],[-2.7684,48.5126],[-2.7653,48.5137],[-2.7652,48.5148],[-2.7666,48.515],[-2.7662,48.5157],[-2.7649,48.5156],[-2.7646,48.5154],[-2.7619,48.5153],[-2.7584,48.5161],[-2.758,48.5165],[-2.7555,48.5171],[-2.7538,48.5136],[-2.7542,48.5132],[-2.7541,48.5126],[-2.7538,48.5122],[-2.7553,48.5122],[-2.7553,48.5119]]]},"properties":{"id_ffco":"2025-D22-163","nom":"Saint-Brieuc Centre","_dept":"22","numero":"2025-D22-163","commune":"Saint-Brieuc","echelle":"1/4000","surface":"0.5 km²","format":"A4","annee":"2025","proprietaire":"2208 - SAINT-BRIEUC ORIENTATION","niveau":"Régional","specialite":"CO à pied","contacts":"Saint-Brieuc Orientation","latitude":"48.5133420636","longitude":"-2.76003456363","date_saisie":"09/03/2025","valide":"Non","ppo":"Non","type_carte":"Nouvelle carte","fond":"Cadastre","obsolete":false}},{"type":"Feature","geometry":{"type":"Polygon","coordinates":[[[-2.7371,48.5201],[-2.737,48.5238],[-2.7369,48.5267],[-2.7358,48.5277],[-2.7341,48.5279],[-2.7316,48.5277],[-2.7275,48.5279],[-2.7256,48.5285],[-2.7166,48.5281],[-2.7167,48.5268],[-2.7154,48.5261],[-2.717,48.5248],[-2.7161,48.5239],[-2.7139,48.523],[-2.713,48.5223],[-2.7151,48.521],[-2.7175,48.5209],[-2.7195,48.5195],[-2.7231,48.5185],[-2.7248,48.5183],[-2.7295,48.5187],[-2.734,48.518],[-2.7371,48.5201]]]},"properties":{"id_ffco":"2025-D22-162","nom":"Saint-Brieuc - Cesson","_dept":"22","numero":"2025-D22-162","commune":"Saint-Brieuc","echelle":"1/4000","surface":"1.6 km²","format":"A3","annee":"2025","proprietaire":"2208 - SAINT-BRIEUC ORIENTATION","niveau":"Départemental","specialite":"CO à pied","contacts":"Saint-Brieuc Orientation","latitude":"48.5234250711","longitude":"-2.72643594965","date_saisie":"09/03/2025","valide":"Non","ppo":"Non","type_carte":"Nouvelle carte","fond":"Cadastre","obsolete":false}},{"type":"Feature","geometry":{"type":"Polygon","coordinates":[[[-3.3271,48.2195],[-3.3288,48.22],[-3.3303,48.2201],[-3.3315,48.22],[-3.3318,48.2198],[-3.3334,48.2196],[-3.3362,48.2203],[-3.3361,48.221],[-3.3354,48.2216],[-3.3354,48.2217],[-3.3362,48.2216],[-3.3362,48.2227],[-3.337,48.2231],[-3.3368,48.2261],[-3.3359,48.2272],[-3.3312,48.2284],[-3.327,48.2265],[-3.3233,48.2263],[-3.3233,48.2228],[-3.3242,48.2216],[-3.3271,48.2195]]]},"properties":{"id_ffco":"2025-D22-161","nom":"Kerberscond","_dept":"22","numero":"2025-D22-161","commune":"Rostrenen","echelle":"1/10000","surface":"0.77 km²","format":"A5","annee":"2025","cartographes":"Marian Cotirta","proprietaire":"22 - Côtes-d'Armor","niveau":"Régional","specialite":"CO à pied","contacts":"CDCO22, 33rue ville bedel, 33rue ville bedel, 22190, plerin, 0677038777, 0677038777, cdco22@wanadoo.fr // CDCO29","latitude":"48.2237835814","longitude":"-3.33036574525","date_saisie":"09/03/2025","valide":"Non","ppo":"Non","type_carte":"Nouvelle carte","fond":"IGN","obsolete":false}},{"type":"Feature","geometry":{"type":"Polygon","coordinates":[[[-3.322,48.2354],[-3.3229,48.2367],[-3.3228,48.2382],[-3.3216,48.2386],[-3.3149,48.2392],[-3.3126,48.2392],[-3.3116,48.237],[-3.3103,48.2371],[-3.3099,48.236],[-3.3121,48.235],[-3.3134,48.234],[-3.3134,48.2335],[-3.3152,48.2333],[-3.3198,48.2341],[-3.3222,48.2355],[-3.322,48.2354]]]},"properties":{"id_ffco":"2025-D22-160","nom":"Rostrenen bourg","_dept":"22","numero":"2025-D22-160","commune":"Rostrenen","echelle":"1/4000","surface":"0.45 km²","format":"A4","annee":"2025","cartographes":"Noé Pécourt","proprietaire":"22 - Côtes-d'Armor","niveau":"Régional","specialite":"Sprint (ISSOM)","contacts":"cdco22, 33rue ville bedel, 22190, plerin, 0677038777, cdco22@wanadoo.fr","latitude":"48.2364420946","longitude":"-3.31668173826","date_saisie":"09/03/2025","valide":"Non","ppo":"Non","type_carte":"Nouvelle carte","fond":"Cadastre","obsolete":false}},{"type":"Feature","geometry":{"type":"Polygon","coordinates":[[[-2.3778,48.451],[-2.3777,48.4519],[-2.3817,48.4556],[-2.3809,48.4568],[-2.3815,48.4573],[-2.3786,48.4595],[-2.3787,48.4599],[-2.3783,48.4608],[-2.3771,48.4619],[-2.3798,48.4637],[-2.3791,48.4645],[-2.3757,48.4665],[-2.3773,48.4673],[-2.3811,48.4656],[-2.3812,48.4664],[-2.3839,48.4659],[-2.3838,48.4654],[-2.3848,48.4653],[-2.386,48.4668],[-2.388,48.4666],[-2.3876,48.4663],[-2.3897,48.465],[-2.3915,48.4661],[-2.3881,48.4689],[-2.3899,48.4704],[-2.3889,48.4704],[-2.3873,48.4711],[-2.3861,48.4722],[-2.3833,48.472],[-2.3812,48.4726],[-2.3784,48.474],[-2.3734,48.4756],[-2.3685,48.4776],[-2.3679,48.4786],[-2.3624,48.4689],[-2.3611,48.4655],[-2.3636,48.463],[-2.3642,48.4603],[-2.3624,48.4592],[-2.3655,48.4597],[-2.3661,48.4567],[-2.3614,48.4562],[-2.3621,48.4548],[-2.3627,48.4548],[-2.3632,48.4546],[-2.3634,48.4537],[-2.3643,48.4537],[-2.3685,48.4522],[-2.3685,48.4508],[-2.3718,48.4504],[-2.3718,48.4511],[-2.3771,48.451],[-2.3775,48.4511],[-2.3778,48.451]]]},"properties":{"id_ffco":"2024-D22-159","nom":"L'étang du Pont Graveloup","_dept":"22","numero":"2024-D22-159","commune":"Plédéliac","echelle":"1/10000","surface":"3.61 km²","format":"A3","annee":"2024","cartographes":"Karine BOULET, Eric BOULET","proprietaire":"2209 - DINAN COURSE D'ORIENTATION","niveau":"Régional","specialite":"CO à pied","contacts":"Dinan Course d'Orientation, secretariat@dinan-course-orientation.fr, http://www.dinan-course-orientation.fr/","latitude":"48.4643335506","longitude":"-2.37313803545","date_saisie":"26/12/2024","valide":"Non","ppo":"Non","type_carte":"Reprise","base":"2017-D22-122 Les Beaumains","fond":"Ortho","obsolete":false}},{"type":"Feature","geometry":{"type":"Polygon","coordinates":[[[-2.0434,48.4495],[-2.0452,48.4495],[-2.0464,48.4528],[-2.0488,48.4538],[-2.0496,48.4563],[-2.0494,48.4583],[-2.0486,48.4589],[-2.0449,48.4587],[-2.0439,48.4602],[-2.0385,48.4588],[-2.0382,48.4561],[-2.0385,48.4545],[-2.0389,48.4539],[-2.0384,48.4528],[-2.039,48.4518],[-2.042,48.4501],[-2.0434,48.4495]]]},"properties":{"id_ffco":"2024-D22-158","nom":"Dinan Intra-muros","_dept":"22","numero":"2024-D22-158","commune":"Dinan","echelle":"1/4000","surface":"0.71 km²","format":"A4","annee":"2024","cartographes":"Eric BOULET, Karine BOULET","proprietaire":"2209 - DINAN COURSE D'ORIENTATION","niveau":"Régional","specialite":"CO à pied","contacts":"Eric BOULET, 15 rue Paul Chenu, 35400, Saint Malo, 0604497015, boulet-eric@ogeo-france.com, http://www.ogeo-france.com/","latitude":"48.4551433079","longitude":"-2.04351668177","date_saisie":"12/09/2024","valide":"Non","ppo":"Non","type_carte":"Reprise","base":"2017-D22-131 Dinan intra-muros","fond":"Cadastre","obsolete":false}},{"type":"Feature","geometry":{"type":"Polygon","coordinates":[[[-2.0492,48.4586],[-2.0405,48.4662],[-2.04,48.467],[-2.0396,48.4674],[-2.0387,48.4671],[-2.0377,48.4671],[-2.037,48.4657],[-2.0373,48.4642],[-2.0383,48.4615],[-2.039,48.4605],[-2.0408,48.4592],[-2.0419,48.4579],[-2.0431,48.4575],[-2.0443,48.4578],[-2.045,48.4582],[-2.0477,48.4583],[-2.0489,48.4582],[-2.0492,48.4586]]]},"properties":{"id_ffco":"2024-D22-157","nom":"Le Connétable","_dept":"22","numero":"2024-D22-157","commune":"Dinan","echelle":"1/4000","surface":"0.46 km²","format":"A4","annee":"2024","cartographes":"Karine BOULET","proprietaire":"2209 - DINAN COURSE D'ORIENTATION","niveau":"Interrégional","specialite":"Sprint (ISSOM)","contacts":"Dinan Course d'Orientation, secretariat@dinan-course-orientation.fr, http://www.dinan-course-orientation.fr/","latitude":"48.4619120239","longitude":"-2.041988913","date_saisie":"15/07/2024","valide":"Non","ppo":"Non","type_carte":"Nouvelle carte","fond":"Cadastre","obsolete":false}},{"type":"Feature","geometry":{"type":"Polygon","coordinates":[[[-1.8684,48.4824],[-1.8676,48.4937],[-1.8643,48.4935],[-1.8627,48.4948],[-1.8631,48.4956],[-1.8566,48.493],[-1.8529,48.492],[-1.852,48.4913],[-1.8509,48.4898],[-1.8487,48.4864],[-1.8572,48.486],[-1.8684,48.4824]]]},"properties":{"id_ffco":"2024-D22-156","nom":"La Lande David","_dept":"22","numero":"2024-D22-156","commune":"Le Tronchet","echelle":"1/10000","surface":"1.21 km²","format":"A4","annee":"2024","cartographes":"Eric BOULET","proprietaire":"2209 - DINAN COURSE D'ORIENTATION","niveau":"Régional","specialite":"CO à pied","contacts":"Dinan Course d'Orientation, secretariat@dinan-course-orientation.fr, http://www.dinan-course-orientation.fr/","latitude":"48.4890608373","longitude":"-1.86038592508","date_saisie":"29/03/2024","date_depot":"09/07/2024","valide":"Oui","ppo":"Non","type_carte":"Nouvelle carte","fond":"Ortho","obsolete":false}},{"type":"Feature","geometry":{"type":"Polygon","coordinates":[[[-2.1688,48.5934],[-2.1711,48.5962],[-2.1686,48.5967],[-2.1665,48.6041],[-2.1642,48.6044],[-2.1644,48.6068],[-2.1527,48.6106],[-2.1528,48.6155],[-2.1533,48.6185],[-2.1534,48.6201],[-2.1453,48.6199],[-2.1442,48.6176],[-2.142,48.6168],[-2.1421,48.6146],[-2.1428,48.6119],[-2.1422,48.6107],[-2.1398,48.6103],[-2.1353,48.609],[-2.1292,48.6054],[-2.1241,48.6035],[-2.1256,48.5987],[-2.1311,48.5978],[-2.1347,48.5965],[-2.143,48.5971],[-2.1463,48.5955],[-2.1503,48.595],[-2.1491,48.594],[-2.1688,48.5934]]]},"properties":{"id_ffco":"2023-D22-155","nom":"L'Islet","_dept":"22","numero":"2023-D22-155","commune":"Lancieux","echelle":"1/10000","surface":"5.31 km²","format":"A3","annee":"2023","cartographes":"Eric BOULET","proprietaire":"Eric BOULET","niveau":"Départemental","specialite":"Rand'O","contacts":"Eric BOULET, 15 rue Paul Chenu, 35400, Saint Malo, 0604497015, boulet-eric@ogeo-france.com, http://www.ogeo-france.com/","latitude":"48.6038662351","longitude":"-2.14828003644","date_saisie":"18/04/2023","valide":"Non","ppo":"Non","type_carte":"Nouvelle carte","fond":"Ortho","obsolete":false}},{"type":"Feature","geometry":{"type":"Polygon","coordinates":[[[-2.2744,48.6311],[-2.2796,48.635],[-2.278,48.636],[-2.2772,48.6372],[-2.2748,48.6374],[-2.2739,48.638],[-2.2737,48.6388],[-2.2745,48.6394],[-2.2747,48.6402],[-2.2733,48.641],[-2.2714,48.6417],[-2.2699,48.6415],[-2.2683,48.6415],[-2.2664,48.6423],[-2.2626,48.6453],[-2.2599,48.6459],[-2.2581,48.6459],[-2.2566,48.6454],[-2.2548,48.6457],[-2.2534,48.6457],[-2.2518,48.6456],[-2.2507,48.6459],[-2.2494,48.646],[-2.2471,48.6466],[-2.2456,48.6466],[-2.2446,48.6461],[-2.2437,48.6456],[-2.2423,48.6453],[-2.2418,48.6449],[-2.242,48.6441],[-2.2427,48.6434],[-2.2431,48.6426],[-2.2433,48.6413],[-2.2453,48.6404],[-2.2515,48.6379],[-2.2532,48.6366],[-2.2552,48.636],[-2.2555,48.6351],[-2.2542,48.6321],[-2.2519,48.6295],[-2.2494,48.6276],[-2.2462,48.6255],[-2.2436,48.6242],[-2.2425,48.6241],[-2.2414,48.6243],[-2.2401,48.6251],[-2.2391,48.626],[-2.2381,48.6264],[-2.2374,48.6264],[-2.2372,48.626],[-2.2376,48.6253],[-2.2385,48.6241],[-2.2418,48.6215],[-2.2428,48.621],[-2.2434,48.62],[-2.244,48.6193],[-2.2437,48.6187],[-2.2439,48.6183],[-2.2445,48.618],[-2.2485,48.6217],[-2.2519,48.6216],[-2.2521,48.6233],[-2.2539,48.6264],[-2.2567,48.6257],[-2.2578,48.6256],[-2.2581,48.6253],[-2.2586,48.6246],[-2.2593,48.6235],[-2.2597,48.623],[-2.2602,48.6226],[-2.2608,48.6223],[-2.2621,48.6231],[-2.264,48.625],[-2.2662,48.626],[-2.2666,48.6272],[-2.2678,48.6281],[-2.2694,48.6286],[-2.2715,48.6288],[-2.2724,48.6297],[-2.273,48.63],[-2.274,48.6301],[-2.2748,48.63],[-2.2747,48.6306],[-2.2744,48.6311]]]},"properties":{"id_ffco":"2022-D22-153","nom":"Saint Cast","_dept":"22","numero":"2022-D22-153","commune":"Saint Cast","echelle":"1/10000","surface":"4.31 km²","format":"A3","annee":"2022","cartographes":"Eric BOULET","proprietaire":"2209 - DINAN COURSE D'ORIENTATION","niveau":"Départemental","specialite":"Rand'O","contacts":"Dinan Course d'Orientation, secretariat@dinan-course-orientation.fr, http://www.dinan-course-orientation.fr/ // Eric BOULET, 15 rue Paul Chenu, 35400, Saint Malo, 0604497015, boulet-eric@ogeo-france.com, http://www.ogeo-france.com/","latitude":"48.6344384376","longitude":"-2.2590817899","date_saisie":"02/09/2022","valide":"Non","ppo":"Non","type_carte":"Nouvelle carte","fond":"Ortho","obsolete":false}},{"type":"Feature","geometry":{"type":"Polygon","coordinates":[[[-2.254,48.631],[-2.2576,48.6299],[-2.2601,48.6321],[-2.2585,48.6331],[-2.26,48.6363],[-2.2601,48.6385],[-2.2595,48.6395],[-2.2526,48.639],[-2.2528,48.6383],[-2.2533,48.6377],[-2.2538,48.6372],[-2.2548,48.6367],[-2.2551,48.6364],[-2.256,48.6363],[-2.2562,48.636],[-2.2562,48.6354],[-2.2555,48.634],[-2.2537,48.6311],[-2.254,48.631]]]},"properties":{"id_ffco":"2022-D22-152","nom":"Les mielles","_dept":"22","numero":"2022-D22-152","commune":"Saint Cast le Guildo","echelle":"1/4000","surface":"0.36 km²","format":"A4","annee":"2022","cartographes":"Eric BOULET","proprietaire":"2209 - DINAN COURSE D'ORIENTATION","niveau":"Régional","specialite":"Sprint (ISSOM)","contacts":"Dinan Course d'Orientation, secretariat@dinan-course-orientation.fr, http://www.dinan-course-orientation.fr/ // Eric BOULET, 15 rue Paul Chenu, 35400, Saint Malo, 0604497015, boulet-eric@ogeo-france.com, http://www.ogeo-france.com/","latitude":"48.6352009912","longitude":"-2.25699731195","date_saisie":"02/09/2022","valide":"Non","ppo":"Non","type_carte":"Nouvelle carte","fond":"Cadastre","obsolete":false}},{"type":"Feature","geometry":{"type":"Polygon","coordinates":[[[-3.4898,48.4955],[-3.5159,48.4929],[-3.5163,48.479],[-3.4954,48.4792],[-3.4915,48.4792],[-3.489,48.4781],[-3.4878,48.4816],[-3.4873,48.4837],[-3.487,48.4873],[-3.4837,48.4879],[-3.4801,48.4889],[-3.4809,48.4924],[-3.4898,48.4955]]]},"properties":{"id_ffco":"2022-D22-151","nom":"le pavé de BEFFOU","_dept":"22","numero":"2022-D22-151","commune":"LOGUIVY PLOUGRAS","echelle":"1/10000","surface":"3.88 km²","format":"A4","annee":"2022","cartographes":"GASTARD DANIEL, PERRAULT GUILLAUME","niveau":"Régional","specialite":"CO à pied","latitude":"48.4870434211","longitude":"-3.49997369944","date_saisie":"26/02/2023","valide":"Non","ppo":"Non","type_carte":"Nouvelle carte","fond":"Ortho","obsolete":false}},{"type":"Feature","geometry":null,"properties":{"id_ffco":"2019-D22-146","nom":"quintin","_dept":"22","numero":"2019-D22-146","surface":"None km²","annee":"2019","date_saisie":"20/11/2019","valide":"Non","ppo":"Non","obsolete":false}},{"type":"Feature","geometry":{"type":"Polygon","coordinates":[[[-2.4165,48.6415],[-2.4062,48.6413],[-2.4002,48.6417],[-2.3989,48.6422],[-2.3929,48.6407],[-2.3894,48.6389],[-2.3891,48.6376],[-2.39,48.6369],[-2.3937,48.6358],[-2.398,48.634],[-2.4016,48.6367],[-2.4048,48.6374],[-2.4065,48.6371],[-2.4086,48.6355],[-2.4099,48.6343],[-2.413,48.635],[-2.4135,48.6369],[-2.4135,48.6378],[-2.4141,48.6387],[-2.4167,48.6408],[-2.4165,48.6415]]]},"properties":{"id_ffco":"2019-D22-145","nom":"Sables d'or les pins","_dept":"22","numero":"2019-D22-145","commune":"Fréhel","echelle":"1/4000","surface":"1.12 km²","format":"A3","annee":"2019","cartographes":"Eric Boulet","proprietaire":"2209 - DINAN COURSE D'ORIENTATION","niveau":"Régional","specialite":"Sprint (ISSOM)","contacts":"Dinan Course d'Orientation, secretariat@dinan-course-orientation.fr, http://www.dinan-course-orientation.fr/","latitude":"48.6385494229","longitude":"-2.40267921109","date_saisie":"18/10/2019","date_depot":"02/09/2020","valide":"Oui","ppo":"Non","type_carte":"Nouvelle carte","fond":"Laser","obsolete":false}},{"type":"Feature","geometry":{"type":"Polygon","coordinates":[[[-2.047,48.4564],[-2.0468,48.4561],[-2.0457,48.4562],[-2.0458,48.4566],[-2.047,48.4564]]]},"properties":{"id_ffco":"2019-D22-144","nom":"Ecole de la Garaye","_dept":"22","numero":"2019-D22-144","commune":"Dinan","echelle":"1/500","surface":"0.0 km²","format":"A4","annee":"2019","cartographes":"Eric Boulet","proprietaire":"Ogéo France","niveau":"Initiation, Scolaire","specialite":"Sprint (ISSOM)","latitude":"48.4563399871","longitude":"-2.04631637224","date_saisie":"18/10/2019","date_depot":"02/09/2020","valide":"Oui","ppo":"Non","type_carte":"Nouvelle carte","fond":"Cadastre","obsolete":false}},{"type":"Feature","geometry":{"type":"Polygon","coordinates":[[[-2.0452,48.4416],[-2.0437,48.4419],[-2.0417,48.4414],[-2.0423,48.4397],[-2.0392,48.4392],[-2.0387,48.4403],[-2.0373,48.4413],[-2.0366,48.4424],[-2.0378,48.4433],[-2.0392,48.4441],[-2.0394,48.4456],[-2.0385,48.4469],[-2.0378,48.4482],[-2.0382,48.4489],[-2.0405,48.4495],[-2.0398,48.4503],[-2.038,48.4512],[-2.0355,48.4519],[-2.0349,48.4523],[-2.0349,48.4531],[-2.0356,48.454],[-2.0364,48.4543],[-2.0379,48.4545],[-2.0379,48.4561],[-2.0373,48.4577],[-2.0365,48.4587],[-2.035,48.4599],[-2.032,48.4614],[-2.0326,48.4623],[-2.0322,48.4631],[-2.0338,48.4648],[-2.0338,48.467],[-2.035,48.4677],[-2.0394,48.4682],[-2.0432,48.4666],[-2.0449,48.4643],[-2.0451,48.4633],[-2.0492,48.4635],[-2.0497,48.4643],[-2.0508,48.4643],[-2.0521,48.4643],[-2.0562,48.4627],[-2.0576,48.4607],[-2.0575,48.4603],[-2.0552,48.4585],[-2.0544,48.4578],[-2.0528,48.4572],[-2.052,48.4566],[-2.0496,48.4562],[-2.0488,48.4547],[-2.0486,48.4537],[-2.0477,48.451],[-2.048,48.4502],[-2.0484,48.4495],[-2.0536,48.4479],[-2.0545,48.4474],[-2.0548,48.4466],[-2.0559,48.446],[-2.0556,48.4448],[-2.0554,48.4435],[-2.0535,48.4435],[-2.05,48.4429],[-2.0473,48.4422],[-2.0452,48.4416]]]},"properties":{"id_ffco":"2019-D22-143","nom":"Dinan","_dept":"22","numero":"2019-D22-143","commune":"Dinan","echelle":"1/5000","surface":"3.24 km²","format":"+","annee":"2019","cartographes":"Eric Boulet","proprietaire":"2209 - DINAN COURSE D'ORIENTATION","niveau":"Départemental","specialite":"Raid'O","contacts":"Dinan Course d'Orientation, secretariat@dinan-course-orientation.fr, http://www.dinan-course-orientation.fr/","latitude":"48.4548052684","longitude":"-2.04412747583","date_saisie":"18/10/2019","valide":"Non","ppo":"Non","type_carte":"Nouvelle carte","fond":"Cadastre","obsolete":false}},{"type":"Feature","geometry":{"type":"Polygon","coordinates":[[[-2.7847,48.4302],[-2.7851,48.4301],[-2.7857,48.4297],[-2.7876,48.4284],[-2.7884,48.4279],[-2.789,48.4274],[-2.7903,48.4266],[-2.7909,48.4261],[-2.7902,48.4249],[-2.7894,48.4246],[-2.7885,48.4244],[-2.7878,48.4242],[-2.787,48.4245],[-2.7866,48.4249],[-2.7855,48.426],[-2.7848,48.4273],[-2.7849,48.4291],[-2.7848,48.4296],[-2.7847,48.4302]]]},"properties":{"id_ffco":"2019-D22-142","nom":"le rocher Margot","_dept":"22","numero":"2019-D22-142","commune":"plaintel 22000","echelle":"1/7500","surface":"0.16 km²","format":"A4","annee":"2019","cartographes":"GASTARD , PERRAULT","proprietaire":"22 - Côtes-d'Armor","niveau":"Régional","specialite":"CO à pied","latitude":"48.4267554825","longitude":"-2.78740406565","date_saisie":"20/11/2019","valide":"Non","ppo":"Non","type_carte":"Nouvelle carte","fond":"IGN","obsolete":false}},{"type":"Feature","geometry":{"type":"Polygon","coordinates":[[[-2.1252,48.4565],[-2.1256,48.4551],[-2.1256,48.4535],[-2.1272,48.4527],[-2.1276,48.4517],[-2.1264,48.4495],[-2.1249,48.4491],[-2.1235,48.4488],[-2.1226,48.4488],[-2.1216,48.4509],[-2.1222,48.4529],[-2.1194,48.4556],[-2.123,48.4564],[-2.1252,48.4565]]]},"properties":{"id_ffco":"2019-D22-141","nom":"Ruisseau du Vaux du moulin","_dept":"22","numero":"2019-D22-141","commune":"Aucaleuc","echelle":"1/5000","surface":"0.3 km²","format":"A4","annee":"2019","cartographes":"Eric Boulet","proprietaire":"2209 - DINAN COURSE D'ORIENTATION","niveau":"Initiation, Scolaire","specialite":"CO à pied","contacts":"Dinan Course d'Orientation, secretariat@dinan-course-orientation.fr, http://www.dinan-course-orientation.fr/","latitude":"48.4527544289","longitude":"-2.12388428461","date_saisie":"27/03/2019","date_depot":"02/09/2020","valide":"Oui","ppo":"Non","type_carte":"Nouvelle carte","fond":"Cadastre","obsolete":false}},{"type":"Feature","geometry":{"type":"Polygon","coordinates":[[[-2.2422,48.5156],[-2.2451,48.5138],[-2.2448,48.5128],[-2.2429,48.5074],[-2.2371,48.5074],[-2.2359,48.5051],[-2.2315,48.5023],[-2.2268,48.5049],[-2.2261,48.506],[-2.2264,48.5083],[-2.2255,48.5106],[-2.2258,48.5113],[-2.2256,48.5148],[-2.2252,48.5162],[-2.2252,48.5173],[-2.2267,48.5183],[-2.227,48.5192],[-2.2299,48.5203],[-2.2318,48.5192],[-2.2339,48.5188],[-2.2351,48.5175],[-2.2354,48.5167],[-2.2371,48.5167],[-2.2403,48.5154],[-2.2422,48.5156]]]},"properties":{"id_ffco":"2018-D22-140","nom":"Tertre Brandefer","_dept":"22","numero":"2018-D22-140","commune":"Plancoët","echelle":"1/7500","surface":"1.83 km²","format":"A4","annee":"2018","cartographes":"Eric Boulet","proprietaire":"2209 - DINAN COURSE D'ORIENTATION","niveau":"Départemental","specialite":"CO à pied","contacts":"Dinan Course d'Orientation, secretariat@dinan-course-orientation.fr, http://www.dinan-course-orientation.fr/","latitude":"48.5115518965","longitude":"-2.23362512526","date_saisie":"11/10/2018","date_depot":"28/11/2018","valide":"Oui","ppo":"Non","type_carte":"Nouvelle carte","fond":"Cadastre","obsolete":false}},{"type":"Feature","geometry":{"type":"Polygon","coordinates":[[[-2.2457,48.526],[-2.2464,48.5245],[-2.2442,48.5181],[-2.2415,48.5151],[-2.2397,48.514],[-2.2257,48.5143],[-2.225,48.5162],[-2.2232,48.5162],[-2.2206,48.5179],[-2.2204,48.5233],[-2.221,48.5243],[-2.228,48.5267],[-2.2461,48.5257],[-2.2457,48.526]]]},"properties":{"id_ffco":"2018-D22-139","nom":"Plancoet","_dept":"22","numero":"2018-D22-139","commune":"Plancoët","echelle":"1/5000","surface":"2.22 km²","format":"A3","annee":"2018","cartographes":"eric Boulet","proprietaire":"2209 - DINAN COURSE D'ORIENTATION","niveau":"Régional","specialite":"Sprint (ISSOM)","contacts":"Dinan Course d'Orientation, secretariat@dinan-course-orientation.fr, http://www.dinan-course-orientation.fr/","latitude":"48.5205081835","longitude":"-2.23312398188","date_saisie":"11/10/2018","date_depot":"28/11/2018","valide":"Oui","ppo":"Non","type_carte":"Nouvelle carte","fond":"Cadastre","obsolete":false}},{"type":"Feature","geometry":{"type":"Polygon","coordinates":[[[-2.2353,48.5208],[-2.2355,48.5204],[-2.2356,48.5201],[-2.2354,48.5199],[-2.2353,48.5198],[-2.2348,48.5196],[-2.2343,48.5195],[-2.2341,48.5193],[-2.234,48.5192],[-2.2338,48.519],[-2.2337,48.519],[-2.2335,48.5194],[-2.2334,48.5197],[-2.2333,48.5198],[-2.2332,48.5199],[-2.2326,48.5199],[-2.232,48.52],[-2.232,48.5202],[-2.232,48.5204],[-2.2318,48.5207],[-2.2315,48.5209],[-2.2313,48.5211],[-2.2313,48.5212],[-2.2319,48.5213],[-2.232,48.5214],[-2.2321,48.5215],[-2.2321,48.5216],[-2.232,48.5216],[-2.232,48.5217],[-2.2322,48.5218],[-2.2329,48.5218],[-2.2334,48.5219],[-2.2337,48.5219],[-2.234,48.5218],[-2.2347,48.5213],[-2.2351,48.521],[-2.2353,48.5208]]]},"properties":{"id_ffco":"2018-D22-138","nom":"Le Pré Rolland","_dept":"22","numero":"2018-D22-138","commune":"Plancoët","echelle":"1/2000","surface":"0.06 km²","format":"A4","annee":"2018","cartographes":"Eric Boulet","proprietaire":"2209 - DINAN COURSE D'ORIENTATION","niveau":"Initiation, Scolaire","specialite":"CO à pied","contacts":"Dinan Course d'Orientation, secretariat@dinan-course-orientation.fr, http://www.dinan-course-orientation.fr/","latitude":"48.5206479457","longitude":"-2.23355874325","date_saisie":"06/09/2018","date_depot":"28/11/2018","valide":"Oui","ppo":"Non","type_carte":"Nouvelle carte","fond":"Cadastre","obsolete":false}},{"type":"Feature","geometry":{"type":"Polygon","coordinates":[[[-2.1631,48.5914],[-2.1597,48.5929],[-2.149,48.5943],[-2.149,48.5981],[-2.1473,48.5983],[-2.1427,48.5991],[-2.1394,48.5984],[-2.1357,48.5993],[-2.1366,48.602],[-2.14,48.6036],[-2.1411,48.6038],[-2.1416,48.6047],[-2.1436,48.605],[-2.1443,48.6057],[-2.1434,48.606],[-2.1456,48.6092],[-2.1466,48.611],[-2.1528,48.6106],[-2.1531,48.6098],[-2.1546,48.6091],[-2.1593,48.6079],[-2.1616,48.6074],[-2.1626,48.6077],[-2.164,48.6079],[-2.1654,48.6075],[-2.1655,48.6068],[-2.1652,48.606],[-2.1649,48.6057],[-2.1664,48.6046],[-2.1678,48.6044],[-2.1673,48.6039],[-2.1678,48.6021],[-2.168,48.6007],[-2.17,48.5993],[-2.1724,48.5981],[-2.173,48.5966],[-2.1727,48.5949],[-2.1712,48.5932],[-2.169,48.5919],[-2.1663,48.5919],[-2.1643,48.5915],[-2.1631,48.5914]]]},"properties":{"id_ffco":"2018-D22-137","nom":"Les Briantais","_dept":"22","numero":"2018-D22-137","commune":"Lancieux","echelle":"1/10000","surface":"3.41 km²","format":"A4","annee":"2018","cartographes":"Eric Boulet","proprietaire":"2209 - DINAN COURSE D'ORIENTATION","niveau":"Initiation, Scolaire","specialite":"Rand'O","contacts":"Dinan Course d'Orientation, secretariat@dinan-course-orientation.fr, http://www.dinan-course-orientation.fr/","latitude":"48.6008592788","longitude":"-2.15583163696","date_saisie":"19/04/2018","date_depot":"20/06/2018","valide":"Oui","ppo":"Non","type_carte":"Nouvelle carte","fond":"Cadastre","obsolete":false}},{"type":"Feature","geometry":{"type":"Polygon","coordinates":[[[-3.1247,48.1572],[-3.1142,48.1529],[-3.0819,48.1517],[-3.0732,48.1515],[-3.0678,48.1538],[-3.0682,48.1573],[-3.0629,48.1618],[-3.0612,48.1667],[-3.0636,48.1727],[-3.0672,48.1764],[-3.0702,48.1774],[-3.0824,48.1787],[-3.0948,48.1757],[-3.0987,48.1688],[-3.114,48.1652],[-3.1204,48.1591],[-3.1223,48.1582],[-3.1247,48.1572]]]},"properties":{"id_ffco":"2017-D22-136","nom":"Quénécan Sainte Brigitte","_dept":"22","numero":"2017-D22-136","commune":"Saint Brigitte","echelle":"1/15000","surface":"9.33 km²","format":"A3","annee":"2017","cartographes":"Daniel Gastard, Arcanis, Gaby Even","proprietaire":"22 - Côtes-d'Armor","niveau":"National, International","specialite":"CO à pied","contacts":"cdco22, 33rue ville bedel, 22190, plerin, 0677038777, cdco22@wanadoo.fr","latitude":"48.1634653103","longitude":"-3.08789825622","date_saisie":"17/05/2018","date_depot":"20/06/2018","valide":"Oui","ppo":"Non","type_carte":"Reprise","base":"2008-D22-075 Le Breuil","fond":"Ortho","obsolete":false}},{"type":"Feature","geometry":{"type":"Polygon","coordinates":[[[-3.1623,48.3114],[-3.1654,48.3107],[-3.166,48.3109],[-3.1668,48.313],[-3.1673,48.3153],[-3.1689,48.3155],[-3.1675,48.3176],[-3.1668,48.3176],[-3.1659,48.3163],[-3.1614,48.3183],[-3.1605,48.3184],[-3.1603,48.317],[-3.1594,48.3161],[-3.1595,48.3153],[-3.1597,48.3139],[-3.1599,48.313],[-3.1609,48.3118],[-3.1623,48.3114]]]},"properties":{"id_ffco":"2017-D22-134","nom":"Saint Nicolas du Pélèm","_dept":"22","numero":"2017-D22-134","commune":"Saint Nicolas du Pélèm","echelle":"1/4000","surface":"0.38 km²","format":"A4","annee":"2017","cartographes":"Jo LeGuen, Eric Boulet","proprietaire":"22 - Côtes-d'Armor","niveau":"Départemental","specialite":"CO à pied","contacts":"cdco22, 33rue ville bedel, 22190, plerin, 0677038777, cdco22@wanadoo.fr","latitude":"48.3145706157","longitude":"-3.16354350308","date_saisie":"17/05/2018","date_depot":"20/06/2018","valide":"Oui","ppo":"Non","type_carte":"Nouvelle carte","fond":"Cadastre","obsolete":false}},{"type":"Feature","geometry":{"type":"Polygon","coordinates":[[[-3.1531,48.3222],[-3.1529,48.3234],[-3.1494,48.3269],[-3.1482,48.3296],[-3.1479,48.3319],[-3.1463,48.3345],[-3.1394,48.3336],[-3.1391,48.3346],[-3.1376,48.3353],[-3.1362,48.335],[-3.1334,48.3351],[-3.1325,48.335],[-3.1337,48.3335],[-3.1336,48.3319],[-3.1355,48.3304],[-3.1356,48.3284],[-3.1378,48.3271],[-3.1401,48.3256],[-3.1424,48.324],[-3.1474,48.3226],[-3.1506,48.3221],[-3.1531,48.3222]]]},"properties":{"id_ffco":"2018-D22-133","nom":"Bois de Beaucours","_dept":"22","numero":"2018-D22-133","commune":"Saint Nicolas du Pélèm","echelle":"1/10000","surface":"1.18 km²","format":"A4","annee":"2018","cartographes":"Daniel Gastard","proprietaire":"22 - Côtes-d'Armor","niveau":"Régional","specialite":"CO à pied","contacts":"cdco22, 33rue ville bedel, 22190, plerin, 0677038777, cdco22@wanadoo.fr","latitude":"48.3289676562","longitude":"-3.14287339924","date_saisie":"17/05/2018","date_depot":"20/06/2018","valide":"Oui","ppo":"Non","type_carte":"Nouvelle carte","fond":"Ortho","obsolete":false}},{"type":"Feature","geometry":{"type":"Polygon","coordinates":[[[-1.9668,48.447],[-1.9481,48.4469],[-1.9443,48.4497],[-1.944,48.4532],[-1.9387,48.4562],[-1.9335,48.457],[-1.932,48.4586],[-1.9266,48.4593],[-1.9251,48.4611],[-1.928,48.4681],[-1.9354,48.4704],[-1.9417,48.4694],[-1.94,48.4658],[-1.9459,48.4613],[-1.956,48.4614],[-1.9563,48.4589],[-1.9591,48.4586],[-1.9646,48.4543],[-1.9665,48.4525],[-1.968,48.4487],[-1.9668,48.447]]]},"properties":{"id_ffco":"2017-D22-130","nom":"Coëtquen","_dept":"22","numero":"2017-D22-130","commune":"Saint Helen","echelle":"1/10000","surface":"3.93 km²","format":"A4","annee":"2017","cartographes":"Barranger David","proprietaire":"2209 - DINAN COURSE D'ORIENTATION","niveau":"National, International","specialite":"CO à pied","contacts":"Dinan Course d'Orientation, secretariat@dinan-course-orientation.fr, http://www.dinan-course-orientation.fr/","latitude":"48.4573650486","longitude":"-1.94629277714","date_saisie":"07/09/2017","date_depot":"20/06/2018","valide":"Oui","ppo":"Non","type_carte":"Reprise","base":"1997-D22-40 COUETQUEN","fond":"Ortho","obsolete":false}},{"type":"Feature","geometry":{"type":"Polygon","coordinates":[[[-2.2129,48.5719],[-2.2062,48.5797],[-2.2013,48.5843],[-2.1906,48.5942],[-2.1834,48.5938],[-2.1816,48.5912],[-2.1757,48.5751],[-2.178,48.5722],[-2.189,48.5651],[-2.2057,48.5671],[-2.2102,48.5689],[-2.2129,48.5719]]]},"properties":{"id_ffco":"2016-D22-129","nom":"Le Moulin de la ville Manuel","_dept":"22","numero":"2016-D22-129","commune":"Saint Jacut de la Mer","echelle":"1/10000","surface":"5.51 km²","format":"A3","annee":"2016","cartographes":"Boulet","proprietaire":"2209 - DINAN COURSE D'ORIENTATION","niveau":"Initiation, Scolaire","specialite":"CO à pied","contacts":"Dinan Course d'Orientation, secretariat@dinan-course-orientation.fr, http://www.dinan-course-orientation.fr/","latitude":"48.5780304872","longitude":"-2.19248248871","date_saisie":"28/03/2017","date_depot":"20/06/2018","valide":"Oui","ppo":"Non","type_carte":"Nouvelle carte","fond":"Cadastre","obsolete":false}},{"type":"Feature","geometry":{"type":"Polygon","coordinates":[[[-2.197,48.6105],[-2.1943,48.6105],[-2.1833,48.6058],[-2.1816,48.6024],[-2.1814,48.5982],[-2.1829,48.593],[-2.1931,48.5928],[-2.194,48.5954],[-2.196,48.5986],[-2.1955,48.6007],[-2.1936,48.6033],[-2.194,48.6053],[-2.1961,48.6069],[-2.197,48.6105]]]},"properties":{"id_ffco":"2016-D22-128","nom":"Saint Jacut de la Mer","_dept":"22","numero":"2016-D22-128","commune":"Saint Jacut de la mer","echelle":"1/5000","surface":"1.61 km²","format":"A3","annee":"2016","cartographes":"Boulet","proprietaire":"2209 - DINAN COURSE D'ORIENTATION","niveau":"Régional","specialite":"Sprint (ISSOM)","contacts":"Dinan Course d'Orientation, secretariat@dinan-course-orientation.fr, http://www.dinan-course-orientation.fr/","latitude":"48.6008579078","longitude":"-2.18892830134","date_saisie":"28/03/2017","date_depot":"20/06/2018","valide":"Oui","ppo":"Non","type_carte":"Nouvelle carte","fond":"Cadastre","obsolete":false}},{"type":"Feature","geometry":{"type":"Polygon","coordinates":[[[-2.0965,48.393],[-2.0998,48.3922],[-2.1007,48.3935],[-2.1026,48.393],[-2.1027,48.3938],[-2.1013,48.3966],[-2.1026,48.3973],[-2.1023,48.3983],[-2.1032,48.3986],[-2.103,48.3993],[-2.1064,48.4028],[-2.1063,48.4035],[-2.1089,48.4056],[-2.1096,48.4056],[-2.1098,48.4066],[-2.105,48.4083],[-2.1021,48.406],[-2.0998,48.4059],[-2.0982,48.4056],[-2.0979,48.4015],[-2.0981,48.4004],[-2.0979,48.3994],[-2.0986,48.3986],[-2.0981,48.3977],[-2.0968,48.3969],[-2.0976,48.3958],[-2.0959,48.3932],[-2.0965,48.393]]]},"properties":{"id_ffco":"2016-D22-126","nom":"Bois des Mézières","_dept":"22","numero":"2016-D22-126","commune":"Bobital","echelle":"1/5000","surface":"0.79 km²","format":"A4","annee":"2016","cartographes":"Even","proprietaire":"22 - Côtes-d'Armor","niveau":"Régional","specialite":"CO à pied","contacts":"Dinan Course d'Orientation, secretariat@dinan-course-orientation.fr, http://www.dinan-course-orientation.fr/","latitude":"48.4009826982","longitude":"-2.10180520874","date_saisie":"28/03/2017","date_depot":"19/06/2018","valide":"Oui","ppo":"Non","type_carte":"Reprise","base":"2005-D22-62 Bois de Mezières Bobital","fond":"Cadastre","obsolete":false}},{"type":"Feature","geometry":{"type":"Polygon","coordinates":[[[-3.1049,48.1889],[-3.0868,48.1876],[-3.0776,48.189],[-3.0615,48.1838],[-3.0685,48.1774],[-3.0771,48.1743],[-3.0833,48.1728],[-3.0899,48.1736],[-3.0942,48.1764],[-3.1048,48.1892],[-3.1049,48.1889]]]},"properties":{"id_ffco":"2016-D22-125","nom":"LES 2 CHAPELLES","_dept":"22","numero":"2016-D22-125","commune":"MUR DE BRETAGNE","echelle":"1/10000","surface":"3.6 km²","format":"A4","annee":"2016","cartographes":"GASTARD D","proprietaire":"22 - Côtes-d'Armor","niveau":"Régional","specialite":"CO à pied","contacts":"cdco22, 33rue ville bedel, 33rue ville bedel, 22190, plerin, 0677038777, 0677038777, cdco22@wanadoo.fr","latitude":"48.1816801168","longitude":"-3.08296099611","date_saisie":"24/10/2017","date_depot":"21/11/2017","valide":"Oui","ppo":"Non","type_carte":"Nouvelle carte","fond":"Ortho","obsolete":false}},{"type":"Feature","geometry":{"type":"Polygon","coordinates":[[[-2.832,48.4573],[-2.8208,48.4537],[-2.8156,48.4463],[-2.824,48.4447],[-2.8374,48.4375],[-2.8403,48.4392],[-2.8384,48.4446],[-2.8337,48.4504],[-2.832,48.4573]]]},"properties":{"id_ffco":"2017-D22-121","nom":"LES CHAOS DU GOUET","_dept":"22","numero":"2017-D22-121","commune":"SAINT JULLIEN PLOUFRAGAN","echelle":"1/10000","surface":"1.9 km²","format":"A4","annee":"2017","cartographes":"GASTARD","proprietaire":"22 - Côtes-d'Armor","niveau":"Régional","specialite":"CO à pied","latitude":"48.4476288685","longitude":"-2.82888250301","date_saisie":"23/05/2017","date_depot":"31/07/2017","valide":"Oui","ppo":"Non","type_carte":"Nouvelle carte","fond":"IGN","obsolete":false}},{"type":"Feature","geometry":{"type":"Polygon","coordinates":[[[-3.2383,48.7901],[-3.2359,48.7822],[-3.2324,48.7811],[-3.2274,48.7827],[-3.2252,48.7835],[-3.2231,48.7847],[-3.2219,48.7854],[-3.2237,48.7884],[-3.2253,48.7902],[-3.227,48.7913],[-3.228,48.7917],[-3.2327,48.7901],[-3.2383,48.7901]]]},"properties":{"id_ffco":"2015-D22-120","nom":"VILLE DE TREGUIER","_dept":"22","numero":"2015-D22-120","commune":"TREGUIER","echelle":"1/5000","surface":"0.93 km²","format":"A4","annee":"2015","cartographes":"LE GUEN J","proprietaire":"22 - Côtes-d'Armor","niveau":"Régional","specialite":"CO à pied","contacts":"CDCO22, 33rue ville bedel, 33rue ville bedel, 22190, plerin, 0677038777, 0677038777, cdco22@wanadoo.fr","latitude":"48.7864565175","longitude":"-3.23044297512","date_saisie":"28/10/2017","date_depot":"21/11/2017","valide":"Oui","ppo":"Non","type_carte":"Nouvelle carte","fond":"Ortho","obsolete":false}},{"type":"Feature","geometry":{"type":"Polygon","coordinates":[[[-3.4755,48.6086],[-3.4755,48.6105],[-3.4708,48.6105],[-3.4708,48.6086],[-3.4755,48.6086]]]},"properties":{"id_ffco":"2013-D22-119","nom":"CLLEGE PLOUARET","_dept":"22","numero":"2013-D22-119","commune":"PLOUARET LANNION","echelle":"1/2500","surface":"0.07 km²","format":"A4","annee":"2013","cartographes":"LE GUEN J","proprietaire":"22 - Côtes-d'Armor","niveau":"Initiation, Scolaire","specialite":"CO à pied","latitude":"48.6095506674","longitude":"-3.4731388092","date_saisie":"24/10/2017","date_depot":"21/11/2017","valide":"Oui","ppo":"Non","type_carte":"Nouvelle carte","fond":"IGN","obsolete":false}},{"type":"Feature","geometry":{"type":"Polygon","coordinates":[[[-3.4671,48.6101],[-3.4653,48.6092],[-3.4649,48.609],[-3.4654,48.6086],[-3.4661,48.6084],[-3.4664,48.6083],[-3.4675,48.6086],[-3.4681,48.609],[-3.4681,48.6094],[-3.4677,48.6097],[-3.4671,48.6101]]]},"properties":{"id_ffco":"2013-D22-118","nom":"LE STADE PLOUARET","_dept":"22","numero":"2013-D22-118","commune":"PLOUARET LANNION","echelle":"1/2000","surface":"0.03 km²","format":"A4","annee":"2013","cartographes":"LE GUEN J","proprietaire":"22 - Côtes-d'Armor","niveau":"Initiation, Scolaire","specialite":"CO à pied","latitude":"48.6091237732","longitude":"-3.46667878598","date_saisie":"24/10/2017","date_depot":"21/11/2017","valide":"Oui","ppo":"Non","type_carte":"Nouvelle carte","fond":"Cadastre","obsolete":false}},{"type":"Feature","geometry":{"type":"Polygon","coordinates":[[[-3.2443,48.7454],[-3.2427,48.7447],[-3.2417,48.744],[-3.2406,48.7431],[-3.2395,48.7421],[-3.2388,48.7409],[-3.2386,48.7402],[-3.2392,48.74],[-3.2404,48.7399],[-3.242,48.7393],[-3.2458,48.7411],[-3.2473,48.7433],[-3.2452,48.7454],[-3.2443,48.7454]]]},"properties":{"id_ffco":"2014-D22-117","nom":"lycée pommerit jaudy","_dept":"22","numero":"2014-D22-117","commune":"POMMERIT JAUDY","echelle":"1/3000","surface":"0.25 km²","format":"A4","annee":"2014","cartographes":"le guen j","proprietaire":"22 - Côtes-d'Armor","niveau":"Initiation, Scolaire","specialite":"CO à pied","latitude":"48.7422609528","longitude":"-3.24306341307","date_saisie":"24/10/2017","date_depot":"21/11/2017","valide":"Oui","ppo":"Non","type_carte":"Nouvelle carte","fond":"Cadastre","obsolete":false}},{"type":"Feature","geometry":{"type":"Polygon","coordinates":[[[-3.2221,48.751],[-3.2212,48.751],[-3.2181,48.7491],[-3.2154,48.747],[-3.2134,48.7453],[-3.2137,48.7449],[-3.2153,48.7445],[-3.2171,48.7442],[-3.2186,48.7441],[-3.2198,48.744],[-3.2208,48.7438],[-3.2216,48.7435],[-3.2228,48.7442],[-3.2241,48.7452],[-3.2252,48.7457],[-3.2241,48.747],[-3.2237,48.7484],[-3.2234,48.7495],[-3.2229,48.7504],[-3.2221,48.751]]]},"properties":{"id_ffco":"2014-D22-116","nom":"BOIS DE LAUNAY","_dept":"22","numero":"2014-D22-116","commune":"POMMERIT JAUDY","echelle":"1/5000","surface":"0.41 km²","format":"A4","annee":"2014","cartographes":"le guen j","proprietaire":"COMMUNAUTE DE COMMUNE HAUT TREGOR","niveau":"Initiation, Scolaire","specialite":"CO à pied","latitude":"48.7468114732","longitude":"-3.2199051162","date_saisie":"22/10/2017","date_depot":"21/11/2017","valide":"Oui","ppo":"Non","type_carte":"Nouvelle carte","fond":"IGN","obsolete":false}},{"type":"Feature","geometry":{"type":"Polygon","coordinates":[[[-2.7445,48.4953],[-2.7445,48.4964],[-2.7409,48.4964],[-2.7409,48.4953],[-2.7445,48.4953]]]},"properties":{"id_ffco":"2014-D22-115","nom":"PARC DE LA VILLE OGER","_dept":"22","numero":"2014-D22-115","commune":"SAINT BRIEUC","echelle":"1/2500","surface":"0.03 km²","format":"A4","annee":"2014","cartographes":"GASTARD D","proprietaire":"22 - Côtes-d'Armor","niveau":"Initiation, Scolaire","specialite":"CO à pied","contacts":"cdco22, 33rue ville bedel, 33rue ville bedel, 22190, plerin, 0677038777, 0677038777, cdco22@wanadoo.fr","latitude":"48.4958624213","longitude":"-2.7426981926","date_saisie":"22/10/2017","date_depot":"21/11/2017","valide":"Oui","ppo":"Non","type_carte":"Nouvelle carte","fond":"Cadastre","obsolete":false}},{"type":"Feature","geometry":{"type":"Polygon","coordinates":[[[-3.5363,48.7694],[-3.5332,48.7695],[-3.5304,48.7703],[-3.5281,48.7711],[-3.526,48.7715],[-3.5243,48.7719],[-3.5211,48.7709],[-3.5196,48.7698],[-3.5175,48.7695],[-3.5152,48.7687],[-3.5144,48.7683],[-3.5141,48.7678],[-3.5128,48.7667],[-3.5115,48.7657],[-3.512,48.7646],[-3.5135,48.7637],[-3.514,48.7616],[-3.5157,48.7601],[-3.5188,48.7594],[-3.5217,48.7589],[-3.5287,48.7603],[-3.5323,48.7603],[-3.5359,48.7595],[-3.5406,48.7613],[-3.5427,48.7631],[-3.5405,48.7671],[-3.5386,48.7689],[-3.5363,48.7694]]]},"properties":{"id_ffco":"2016-D22-114","nom":"LANN AR WAREM","_dept":"22","numero":"2016-D22-114","commune":"PLEUMEUR BODOU","echelle":"1/8000","surface":"2.29 km²","format":"A4","annee":"2016","cartographes":"GASTARD","proprietaire":"22 - Côtes-d'Armor","niveau":"Initiation, Scolaire","specialite":"CO à pied","contacts":"cdco22, 33rue ville bedel, 33rue ville bedel, 22190, plerin, 0677038777, 0677038777, cdco22@wanadoo.fr","latitude":"48.7649868894","longitude":"-3.52692600277","date_saisie":"22/11/2017","date_depot":"14/12/2017","valide":"Oui","ppo":"Non","type_carte":"Reprise","base":"????-D22-20 Bois de Lann Ar Waremm","fond":"Cadastre","obsolete":false}},{"type":"Feature","geometry":{"type":"Polygon","coordinates":[[[-3.0619,48.7837],[-3.0592,48.7835],[-3.0579,48.783],[-3.0566,48.782],[-3.0562,48.7813],[-3.0601,48.7807],[-3.0625,48.7804],[-3.0639,48.7806],[-3.0643,48.7817],[-3.0638,48.7824],[-3.0619,48.7837]]]},"properties":{"id_ffco":"2014-D22-112","nom":"PARC DE KERRAOUL","_dept":"22","numero":"2014-D22-112","commune":"PAIMPÖL","echelle":"1/2500","surface":"0.15 km²","format":"A4","annee":"2014","cartographes":"LE GUEN J","proprietaire":"22 - Côtes-d'Armor","niveau":"Initiation, Scolaire","specialite":"CO à pied","latitude":"48.7819905577","longitude":"-3.06060948113","date_saisie":"27/10/2017","date_depot":"21/11/2017","valide":"Oui","ppo":"Non","type_carte":"Nouvelle carte","fond":"Cadastre","obsolete":false}},{"type":"Feature","geometry":{"type":"Polygon","coordinates":[[[-3.0013,48.6189],[-2.9963,48.618],[-2.9948,48.6175],[-2.9952,48.6159],[-2.9916,48.6165],[-2.9907,48.6229],[-2.996,48.624],[-3.0013,48.6189]]]},"properties":{"id_ffco":"2014-D22-111","nom":"MOULIN DE BLANCHARDEAU","_dept":"22","numero":"2014-D22-111","commune":"LANVOLLON","echelle":"1/5000","surface":"0.41 km²","format":"A4","annee":"2014","cartographes":"LE GUEN J","proprietaire":"22 - Côtes-d'Armor","niveau":"Initiation, Scolaire","specialite":"CO à pied","latitude":"48.620160546","longitude":"-2.99494490671","date_saisie":"27/10/2017","date_depot":"21/11/2017","valide":"Oui","ppo":"Non","type_carte":"Nouvelle carte","fond":"IGN","obsolete":false}},{"type":"Feature","geometry":{"type":"Polygon","coordinates":[[[-2.8116,48.5705],[-2.8087,48.5704],[-2.8102,48.5668],[-2.8127,48.5659],[-2.8137,48.5676],[-2.8136,48.5683],[-2.812,48.5683],[-2.8114,48.5703],[-2.8116,48.5705]]]},"properties":{"id_ffco":"2012-D22-104","nom":"BOIS DE LA CHESNAIE","_dept":"22","numero":"2012-D22-104","commune":"PORDIC","echelle":"1/2500","surface":"0.1 km²","format":"A4","annee":"2012","cartographes":"GASTARD","niveau":"Initiation, Scolaire","specialite":"CO à pied","contacts":"cdco22, 33rue ville bedel, 33rue ville bedel, 22190, plerin, 0677038777, 0677038777, cdco22@wanadoo.fr","latitude":"48.5682578237","longitude":"-2.81115530825","date_saisie":"23/05/2017","valide":"Non","ppo":"Non","type_carte":"Nouvelle carte","fond":"IGN","obsolete":false}},{"type":"Feature","geometry":null,"properties":{"id_ffco":"2008-D22-073","nom":"Ile Grande","_dept":"22","numero":"2008-D22-073","commune":"Trebeurden","echelle":"1/10000","surface":"None km²","annee":"2008","proprietaire":"22 - Côtes-d'Armor","niveau":"National, International","specialite":"CO à pied","latitude":"48.8006051013","longitude":"-3.57772903422","date_saisie":"05/02/2012","valide":"Non","ppo":"Non","obsolete":false}}]}