{"type":"FeatureCollection","features":[{"type":"Feature","geometry":{"type":"Polygon","coordinates":[[[-2.2651,48.3129],[-2.2651,48.3156],[-2.2613,48.3156],[-2.2613,48.3129],[-2.2651,48.3129]]]},"properties":{"id_ffco":"10395","nom":"BROONS LE CHALET","_dept":"22","numero":"2011-D22-95","commune":"BROONS","echelle":"1/1500","surface":"0.09 km²","format":"A4","annee":"2011","cartographes":"EVEN G","proprietaire":"22 - Côtes-d'Armor","niveau":"Initiation, Scolaire","specialite":"CO à pied","latitude":"48.3142545179","longitude":"-2.26318359375","date_saisie":"22/10/2017","date_depot":"22/11/2017","valide":"Non","ppo":"Non","type_carte":"Nouvelle carte","fond":"Cadastre","obsolete":true}},{"type":"Feature","geometry":{"type":"Polygon","coordinates":[[[-2.2751,48.3151],[-2.2751,48.3166],[-2.2718,48.3166],[-2.2718,48.3151],[-2.2751,48.3151]]]},"properties":{"id_ffco":"10394","nom":"BROONS LA PLANCHETTE","_dept":"22","numero":"2011-D22-94","commune":"BROONS","echelle":"1/2000","surface":"0.04 km²","format":"A4","annee":"2011","cartographes":"EVEN G","proprietaire":"22 - Côtes-d'Armor","niveau":"Initiation, Scolaire","specialite":"CO à pied","contacts":"COLLEGE BROONS, 22000, BROONS","latitude":"48.3158456456","longitude":"-2.27348327637","date_saisie":"22/10/2017","date_depot":"21/11/2017","valide":"Non","ppo":"Non","type_carte":"Nouvelle carte","fond":"Cadastre","obsolete":true}},{"type":"Feature","geometry":{"type":"Polygon","coordinates":[[[-2.61,48.4328],[-2.61,48.4367],[-2.6039,48.4367],[-2.6039,48.4328],[-2.61,48.4328]]]},"properties":{"id_ffco":"10393","nom":"LA LANDE DU GRAS","_dept":"22","numero":"2011-D22-93","commune":"LAMBALLE/ MESLIN","echelle":"1/2500","surface":"0.19 km²","format":"A4","annee":"2011","cartographes":"LE GUEN J","proprietaire":"2208 - SAINT-BRIEUC ORIENTATION","niveau":"Initiation, Scolaire","specialite":"CO à pied","latitude":"48.4347530876","longitude":"-2.60697841644","date_saisie":"22/10/2017","date_depot":"21/11/2017","valide":"Oui","ppo":"Non","type_carte":"Nouvelle carte","fond":"IGN","obsolete":true}},{"type":"Feature","geometry":null,"properties":{"id_ffco":"1893","nom":"GUENROC","_dept":"22","numero":"1988-D22-9","commune":"GUENROC","echelle":"1/10000","surface":"1.2 km²","annee":"1988","specialite":"CO à pied","latitude":"48.3176344","longitude":"-2.0761636","valide":"Non","ppo":"Non","obsolete":true}},{"type":"Feature","geometry":null,"properties":{"id_ffco":"5264","nom":"Complexe Sportif Lanvallay","_dept":"22","numero":"2009-D22-87","commune":"Lanvallay","echelle":"1/2000","surface":"None km²","format":"A4","annee":"2009","cartographes":"Gaby Even","proprietaire":"2206 - CERCLE D'EDUCATION PHYSIQUE ET SPORTIVE DE DINAN","niveau":"Initiation, Scolaire","specialite":"CO à pied","latitude":"48.4547825646","longitude":"-2.02985839829","date_saisie":"22/01/2012","valide":"Non","ppo":"Non","obsolete":true}},{"type":"Feature","geometry":null,"properties":{"id_ffco":"5263","nom":"Trelivan","_dept":"22","numero":"2009-D22-86","commune":"Trelivan","echelle":"1/2500","surface":"None km²","format":"A4","annee":"2009","cartographes":"Gaby Even","proprietaire":"22 - Côtes-d'Armor","niveau":"Initiation, Scolaire","specialite":"CO à pied","latitude":"48.4256291883","longitude":"-2.10607604965","date_saisie":"22/01/2012","valide":"Non","ppo":"Non","obsolete":true}},{"type":"Feature","geometry":null,"properties":{"id_ffco":"5262","nom":"Les Cordiers","_dept":"22","numero":"2009-D22-85","echelle":"1/2800","surface":"None km²","format":"A4","annee":"2009","cartographes":"Gaby Even","proprietaire":"22 - Côtes-d'Armor","niveau":"Initiation, Scolaire","specialite":"CO à pied","date_saisie":"22/01/2012","valide":"Non","ppo":"Non","obsolete":true}},{"type":"Feature","geometry":null,"properties":{"id_ffco":"5258","nom":"Complexe Sportif de Caulnes","_dept":"22","numero":"2009-D22-81","echelle":"1/2000","surface":"None km²","format":"A4","annee":"2009","cartographes":"Gaby Even","proprietaire":"2206 - CERCLE D'EDUCATION PHYSIQUE ET SPORTIVE DE DINAN","niveau":"Initiation, Scolaire","specialite":"CO à pied","contacts":"Mairie de Caulnes","date_saisie":"22/01/2012","valide":"Non","ppo":"Non","obsolete":true}},{"type":"Feature","geometry":null,"properties":{"id_ffco":"5257","nom":"Calorgen","_dept":"22","numero":"2009-D22-80","commune":"Calorgen","echelle":"1/1250","surface":"None km²","format":"A4","annee":"2009","cartographes":"Gaby Even","proprietaire":"2206 - CERCLE D'EDUCATION PHYSIQUE ET SPORTIVE DE DINAN","niveau":"Initiation, Scolaire","specialite":"CO à pied","latitude":"48.4027275064","longitude":"-2.02831344589","date_saisie":"22/01/2012","valide":"Non","ppo":"Non","obsolete":true}},{"type":"Feature","geometry":{"type":"Polygon","coordinates":[[[-3.0957,48.2019],[-3.1001,48.1961],[-3.0996,48.1948],[-3.0887,48.1937],[-3.0888,48.1944],[-3.0894,48.196],[-3.086,48.1968],[-3.0821,48.198],[-3.0831,48.1955],[-3.083,48.1947],[-3.0805,48.1935],[-3.0768,48.1926],[-3.075,48.1942],[-3.0748,48.1958],[-3.0743,48.1969],[-3.072,48.1975],[-3.0702,48.1995],[-3.0688,48.2025],[-3.0695,48.2039],[-3.0714,48.2044],[-3.0737,48.205],[-3.0761,48.2064],[-3.0784,48.2088],[-3.0787,48.2096],[-3.0792,48.209],[-3.0827,48.2086],[-3.084,48.2079],[-3.0848,48.2065],[-3.0849,48.206],[-3.0841,48.2056],[-3.0844,48.2041],[-3.0862,48.2028],[-3.0887,48.2017],[-3.0902,48.2015],[-3.0912,48.2012],[-3.0925,48.2013],[-3.0944,48.2012],[-3.0957,48.2019]]]},"properties":{"id_ffco":"7364","nom":"Malvran","_dept":"22","numero":"2007-D22-68","commune":"Cleguerec","echelle":"1/10000","surface":"2.19 km²","format":"A4","annee":"2007","cartographes":"Gaby Even,Daniel Gastard","proprietaire":"22 - Côtes-d'Armor","niveau":"Régional","specialite":"CO à pied","latitude":"48.2000352895","longitude":"-3.08290973577","date_saisie":"22/04/2014","valide":"Non","ppo":"Non","type_carte":"Nouvelle carte","fond":"IGN","ref_ign":"Guerlédan","obsolete":true}},{"type":"Feature","geometry":null,"properties":{"id_ffco":"3678","nom":"La Motte-Forêt Nord","_dept":"22","numero":"2003-D22-55","commune":"La Motte","echelle":"1/10000","surface":"10.0 km²","format":"A3","annee":"2003","proprietaire":"22 - Côtes-d'Armor","specialite":"CO à pied","latitude":"48.2358991","longitude":"-2.7327888","date_saisie":"04/09/2003","date_depot":"05/09/2003","valide":"Non","ppo":"Non","obsolete":true}},{"type":"Feature","geometry":null,"properties":{"id_ffco":"3679","nom":"BUTTE DE SAINT GUILLAUME","_dept":"22","numero":"2003-D22-54","commune":"Loudéac","echelle":"1/10000","surface":"3.5 km²","format":"A4","annee":"2003","proprietaire":"22 - Côtes-d'Armor","specialite":"CO à pied","latitude":"48.1764809","longitude":"-2.7527953","date_saisie":"04/09/2003","date_depot":"05/09/2003","valide":"Non","ppo":"Non","obsolete":true}},{"type":"Feature","geometry":null,"properties":{"id_ffco":"3572","nom":"LORGE","_dept":"22","numero":"2002-D22-53","commune":"Hermitage-Lorge","echelle":"1/10000","surface":"5.0 km²","annee":"2002","proprietaire":"2205 - SAINT-BRIEUC ATHLETIQUE CLUB","specialite":"CO à pied","latitude":"48.3310637","longitude":"-2.8301049","date_saisie":"06/11/2002","date_depot":"07/11/2002","valide":"Non","ppo":"Non","obsolete":true}},{"type":"Feature","geometry":{"type":"Polygon","coordinates":[[[-3.4941,48.4907],[-3.4926,48.4845],[-3.4746,48.4854],[-3.4728,48.4961],[-3.4841,48.4976],[-3.4935,48.4955],[-3.4941,48.4907]]]},"properties":{"id_ffco":"10255","nom":"forêt de beffou","_dept":"22","numero":"2016-D22-48","commune":"loguivy plougras lannion","echelle":"1/10000","surface":"1.92 km²","format":"A4","annee":"2016","cartographes":"GASTARD","proprietaire":"22 - Côtes-d'Armor","niveau":"Régional","specialite":"CO à pied","contacts":"cdco22, 33rue ville bedel, 33rue ville bedel, 22190, plerin, 0677038777, 0677038777, cdco22@wanadoo.fr","latitude":"48.4909400122","longitude":"-3.48368708482","date_saisie":"18/07/2017","date_depot":"31/07/2017","valide":"Oui","ppo":"Non","type_carte":"Reprise","base":"2016-D22-48 forêt de beffou","fond":"IGN","obsolete":true}},{"type":"Feature","geometry":null,"properties":{"id_ffco":"3365","nom":"COETQUEN NORD","_dept":"22","numero":"1999-D22-41","commune":"SAINT HELEN","echelle":"1/10000","surface":"4.0 km²","annee":"1999","proprietaire":"2201 - CLUB ORIENTATION DE CAULNES","specialite":"CO à pied","latitude":"48.472065","longitude":"-1.9586152","date_saisie":"20/11/2001","date_depot":"06/12/2001","valide":"Non","ppo":"Non","obsolete":true}},{"type":"Feature","geometry":null,"properties":{"id_ffco":"2983","nom":"COUETQUEN","_dept":"22","numero":"1997-D22-40","echelle":"1/10000","surface":"3.25 km²","annee":"1997","proprietaire":"2201 - CLUB ORIENTATION DE CAULNES","niveau":"National, International","specialite":"CO à pied","latitude":"48.5108101","longitude":"-3.3263676","valide":"Non","ppo":"Non","obsolete":true}},{"type":"Feature","geometry":null,"properties":{"id_ffco":"3020","nom":"FREHEREL - LE PONT DE L'ETANG","_dept":"22","numero":"1998-D22-39","commune":"FREHEL","echelle":"1/5000","surface":"0.8 km²","annee":"1998","proprietaire":"2201 - CLUB ORIENTATION DE CAULNES","specialite":"CO à pied","latitude":"48.6282978","longitude":"-2.3652441","valide":"Non","ppo":"Non","obsolete":true}},{"type":"Feature","geometry":null,"properties":{"id_ffco":"3019","nom":"FREHEL - LE PONT - LES GREVES","_dept":"22","numero":"1998-D22-38","commune":"FREHEL","echelle":"1/10000","surface":"2.5 km²","annee":"1998","proprietaire":"2201 - CLUB ORIENTATION DE CAULNES","niveau":"Interrégional","specialite":"CO à pied","latitude":"48.6282978","longitude":"-2.3652441","valide":"Non","ppo":"Non","obsolete":true}},{"type":"Feature","geometry":null,"properties":{"id_ffco":"1080","nom":"LANN AR WARREN","_dept":"22","numero":"1981-D22-29","commune":"PLEUMEUR BOUDOU","echelle":"1/10000","surface":"5.0 km²","annee":"1981","proprietaire":"2205 - SAINT-BRIEUC ATHLETIQUE CLUB","niveau":"Interrégional","specialite":"CO à pied","latitude":"48.7735644","longitude":"-3.5176708","valide":"Non","ppo":"Non","obsolete":true}},{"type":"Feature","geometry":null,"properties":{"id_ffco":"1902","nom":"COAT PLEUMEUR","_dept":"22","numero":"1988-D22-28","commune":"PLEUMEUR BOUDOU","echelle":"1/5000","surface":"0.4 km²","annee":"1988","proprietaire":"2205 - SAINT-BRIEUC ATHLETIQUE CLUB","specialite":"CO à pied","latitude":"48.7735644","longitude":"-3.5176708","valide":"Non","ppo":"Non","obsolete":true}},{"type":"Feature","geometry":null,"properties":{"id_ffco":"1901","nom":"COAT AR SALL","_dept":"22","numero":"1988-D22-27","commune":"PLEUMEUR BOUDOU","echelle":"1/5000","surface":"0.4 km²","annee":"1988","proprietaire":"2205 - SAINT-BRIEUC ATHLETIQUE CLUB","specialite":"CO à pied","latitude":"48.7735644","longitude":"-3.5176708","valide":"Non","ppo":"Non","obsolete":true}},{"type":"Feature","geometry":null,"properties":{"id_ffco":"1900","nom":"CHENAIE ROUGE","_dept":"22","numero":"1988-D22-26","commune":"PLEUMEUR BOUDOU","echelle":"1/2500","surface":"0.2 km²","annee":"1988","proprietaire":"2205 - SAINT-BRIEUC ATHLETIQUE CLUB","specialite":"CO à pied","latitude":"48.7735644","longitude":"-3.5176708","valide":"Non","ppo":"Non","obsolete":true}},{"type":"Feature","geometry":null,"properties":{"id_ffco":"1899","nom":"POT AN DUC","_dept":"22","numero":"1988-D22-25","commune":"PLEUMEUR BOUDOU","echelle":"1/2500","surface":"0.2 km²","annee":"1988","proprietaire":"2205 - SAINT-BRIEUC ATHLETIQUE CLUB","specialite":"CO à pied","latitude":"48.7735644","longitude":"-3.5176708","valide":"Non","ppo":"Non","obsolete":true}},{"type":"Feature","geometry":null,"properties":{"id_ffco":"1898","nom":"BOIS BOISSEL","_dept":"22","numero":"1988-D22-24","commune":"ST BRIEUC","echelle":"1/5000","surface":"1.25 km²","annee":"1988","specialite":"CO à pied","latitude":"48.5139819","longitude":"-2.7626027","valide":"Non","ppo":"Non","obsolete":true}},{"type":"Feature","geometry":null,"properties":{"id_ffco":"114","nom":"Bois de Plédran","_dept":"22","numero":"????-D22-23","commune":"Pledran","surface":"None km²","latitude":"48.4453841","longitude":"-2.7460191","valide":"Non","ppo":"Oui","obsolete":true}},{"type":"Feature","geometry":null,"properties":{"id_ffco":"115","nom":"Bois de Lann Ar Waremm","_dept":"22","numero":"????-D22-20","commune":"Ploemeur-Bodou","surface":"None km²","latitude":"48.7735644","longitude":"-3.5176708","valide":"Non","ppo":"Oui","obsolete":true}},{"type":"Feature","geometry":null,"properties":{"id_ffco":"1897","nom":"V.V.GUITTE","_dept":"22","numero":"1988-D22-19","commune":"GUITTE","echelle":"1/5000","surface":"1.0 km²","annee":"1988","proprietaire":"2201 - CLUB ORIENTATION DE CAULNES","specialite":"CO à pied","latitude":"48.2970581","longitude":"-2.0956277","valide":"Non","ppo":"Non","obsolete":true}},{"type":"Feature","geometry":null,"properties":{"id_ffco":"5261","nom":"Erea","_dept":"22","numero":"2009-D22-18","commune":"Taden","echelle":"1/1500","surface":"None km²","format":"A4","annee":"2009","cartographes":"Gaby Even","proprietaire":"22 - Côtes-d'Armor","niveau":"Initiation, Scolaire","specialite":"CO à pied","latitude":"48.4752710148","longitude":"-2.01440887436","date_saisie":"22/01/2012","valide":"Non","ppo":"Non","obsolete":true}},{"type":"Feature","geometry":null,"properties":{"id_ffco":"1896","nom":"VALLEE GOUEDIC","_dept":"22","numero":"1988-D22-17","commune":"SAINT BRIEUC","echelle":"1/10000","surface":"1.0 km²","annee":"1988","proprietaire":"2202","specialite":"CO à pied","latitude":"48.5139819","longitude":"-2.7626027","valide":"Non","ppo":"Non","obsolete":true}},{"type":"Feature","geometry":{"type":"Polygon","coordinates":[[[-2.7536,48.514],[-2.7536,48.5242],[-2.7348,48.5242],[-2.7348,48.514],[-2.7536,48.514]]]},"properties":{"id_ffco":"10201","nom":"VALLEE DU GOUEDIC","_dept":"22","numero":"2016-D22-16","commune":"SAINT BRIEUC","echelle":"1/5000","surface":"1.57 km²","format":"A4","annee":"2016","cartographes":"GASTARD","proprietaire":"22 - Côtes-d'Armor","niveau":"Initiation, Scolaire","specialite":"CO à pied","latitude":"48.5190914182","longitude":"-2.7441573143","date_saisie":"23/05/2017","date_depot":"31/07/2017","valide":"Oui","ppo":"Non","type_carte":"Reprise","base":"2016-D22-16 VALLEE DU GOUEDIC","fond":"IGN","obsolete":true}},{"type":"Feature","geometry":null,"properties":{"id_ffco":"13853","nom":"le pavé de BEFFOU","_dept":"22","numero":"2022-D22-154","surface":"None km²","annee":"2022","date_saisie":"26/02/2023","valide":"Non","ppo":"Non","obsolete":true}},{"type":"Feature","geometry":null,"properties":{"id_ffco":"1895","nom":"BROONS 1","_dept":"22","numero":"1988-D22-15","commune":"BROONS","echelle":"1/10000","surface":"2.2 km²","annee":"1988","proprietaire":"BR - Bretagne","specialite":"CO à pied","latitude":"48.3174462","longitude":"-2.2613354","valide":"Non","ppo":"Non","obsolete":true}},{"type":"Feature","geometry":{"type":"Polygon","coordinates":[[[-2.9169,48.4057],[-2.9139,48.4068],[-2.9119,48.4078],[-2.9102,48.4088],[-2.9088,48.4095],[-2.9054,48.4088],[-2.9033,48.404],[-2.9007,48.4027],[-2.8992,48.402],[-2.8974,48.4018],[-2.8971,48.3999],[-2.8977,48.3987],[-2.9004,48.3979],[-2.9217,48.4031],[-2.9224,48.4049],[-2.9219,48.4061],[-2.9208,48.4082],[-2.9179,48.4067],[-2.9169,48.4057]]]},"properties":{"id_ffco":"11770","nom":"quintin","_dept":"22","numero":"2019-D22-147","commune":"quitin saint brieuc","echelle":"1/4000","surface":"1.24 km²","format":"A4","annee":"2019","cartographes":"perrault g","proprietaire":"22 - Côtes-d'Armor","niveau":"Régional","specialite":"CO à pied","contacts":"gastard, 33 rue de la ville au bedel, 22190, Plérin, 0679038777, cdco22@wanadoo.fr","latitude":"48.4035743675","longitude":"-2.90946120677","date_saisie":"20/11/2019","valide":"Non","ppo":"Non","type_carte":"Nouvelle carte","fond":"Ortho","obsolete":true}},{"type":"Feature","geometry":null,"properties":{"id_ffco":"113","nom":"Le val de Landrouet","_dept":"22","numero":"????-D22-14","commune":"Merdrignac","surface":"None km²","latitude":"48.1925626","longitude":"-2.4146846","valide":"Non","ppo":"Oui","obsolete":true}},{"type":"Feature","geometry":{"type":"Polygon","coordinates":[[[-2.0592,48.3079],[-2.0601,48.3078],[-2.0606,48.3075],[-2.0611,48.3072],[-2.0613,48.3065],[-2.0619,48.3056],[-2.0629,48.3044],[-2.0638,48.3039],[-2.0647,48.3037],[-2.0659,48.3035],[-2.0642,48.3007],[-2.065,48.3002],[-2.0648,48.2999],[-2.0625,48.3002],[-2.0605,48.2997],[-2.0588,48.2997],[-2.0586,48.3018],[-2.0594,48.303],[-2.059,48.3034],[-2.0571,48.3037],[-2.0557,48.3031],[-2.0553,48.3036],[-2.0562,48.3041],[-2.0572,48.3056],[-2.0573,48.3064],[-2.0568,48.3076],[-2.057,48.3081],[-2.0575,48.3085],[-2.0585,48.3081],[-2.0592,48.3079]]]},"properties":{"id_ffco":"10348","nom":"Ker Al Lann","_dept":"22","numero":"2017-D22-132","commune":"Guitté","echelle":"1/4000","surface":"0.38 km²","format":"A4","annee":"2017","cartographes":"Gaby Even","proprietaire":"2209 - DINAN COURSE D'ORIENTATION","niveau":"Régional","specialite":"CO à pied","contacts":"Dinan Course d'Orientation, secretariat@dinan-course-orientation.fr, http://www.dinan-course-orientation.fr/","latitude":"48.303644966","longitude":"-2.06061971319","date_saisie":"26/09/2017","date_depot":"20/06/2018","valide":"Oui","ppo":"Non","type_carte":"Reprise","base":"1988-D22-19 V.V.GUITTE","fond":"Cadastre","obsolete":true}},{"type":"Feature","geometry":{"type":"Polygon","coordinates":[[[-2.0493,48.4562],[-2.0486,48.4541],[-2.0482,48.4534],[-2.0468,48.4527],[-2.0456,48.4493],[-2.0423,48.4496],[-2.0385,48.4523],[-2.0393,48.455],[-2.0397,48.4564],[-2.0449,48.4575],[-2.049,48.4568],[-2.0493,48.4562]]]},"properties":{"id_ffco":"10309","nom":"Dinan intra-muros","_dept":"22","numero":"2017-D22-131","commune":"Dinan","echelle":"1/4000","surface":"0.49 km²","format":"A4","annee":"2017","cartographes":"Eric Boulet","proprietaire":"2209 - DINAN COURSE D'ORIENTATION","niveau":"Régional","specialite":"Sprint (ISSOM)","contacts":"Dinan Course d'Orientation, secretariat@dinan-course-orientation.fr, http://www.dinan-course-orientation.fr/","latitude":"48.4537435802","longitude":"-2.04374820131","date_saisie":"07/09/2017","date_depot":"20/06/2018","valide":"Oui","ppo":"Non","type_carte":"Nouvelle carte","fond":"Cadastre","obsolete":true}},{"type":"Feature","geometry":null,"properties":{"id_ffco":"116","nom":"Bois de Boissel","_dept":"22","numero":"????-D22-13","commune":"UEFR STAPS St. Brieuc","surface":"None km²","latitude":"48.5139819","longitude":"-2.7626027","valide":"Non","ppo":"Oui","obsolete":true}},{"type":"Feature","geometry":{"type":"Polygon","coordinates":[[[-2.0215,48.5327],[-2.0226,48.5337],[-2.033,48.5322],[-2.0375,48.532],[-2.0411,48.5249],[-2.0365,48.5242],[-2.0341,48.5266],[-2.0298,48.5291],[-2.0253,48.5311],[-2.0215,48.5327]]]},"properties":{"id_ffco":"10130","nom":"Le Rocher Lesmond","_dept":"22","numero":"2016-D22-127","commune":"Plouer sur Rance","echelle":"1/5000","surface":"0.62 km²","format":"A4","annee":"2016","cartographes":"Even","proprietaire":"22 - Côtes-d'Armor","niveau":"Départemental","specialite":"CO à pied","contacts":"Dinan Course d'Orientation, secretariat@dinan-course-orientation.fr, http://www.dinan-course-orientation.fr/","latitude":"48.5294341999","longitude":"-2.03317710443","date_saisie":"28/03/2017","date_depot":"20/06/2018","valide":"Oui","ppo":"Non","type_carte":"Nouvelle carte","base":"2016-D22-127 Le Rocher Lesmond","fond":"Ortho","obsolete":true}},{"type":"Feature","geometry":{"type":"Polygon","coordinates":[[[-3.0687,48.4778],[-3.0716,48.4809],[-3.0699,48.4845],[-3.0569,48.4895],[-3.0388,48.4825],[-3.0327,48.4817],[-3.0344,48.4792],[-3.0452,48.476],[-3.0687,48.4778]]]},"properties":{"id_ffco":"10569","nom":"FERME ET CARRIERE DU BOIS MEUR","_dept":"22","numero":"2017-D22-124","commune":"SAINT PEVER- LANRODEC","echelle":"1/7500","surface":"2.61 km²","format":"A4","annee":"2017","cartographes":"gastard le guen","proprietaire":"22 - Côtes-d'Armor","niveau":"Régional","specialite":"CO à pied","contacts":"cdco22, 33rue ville bedel, 33rue ville bedel, 22190, plerin, 0677038777, 0677038777, cdco22@wanadoo.fr","latitude":"48.4817796156","longitude":"-3.05398120483","date_saisie":"01/12/2017","date_depot":"14/12/2017","valide":"Oui","ppo":"Non","type_carte":"Nouvelle carte","fond":"IGN","obsolete":true}},{"type":"Feature","geometry":{"type":"Polygon","coordinates":[[[-2.7505,48.4608],[-2.7468,48.4612],[-2.7441,48.4605],[-2.7411,48.4603],[-2.7348,48.4612],[-2.7307,48.4619],[-2.7277,48.4621],[-2.7253,48.4614],[-2.723,48.4601],[-2.722,48.4586],[-2.7224,48.4573],[-2.7238,48.4563],[-2.728,48.4568],[-2.7277,48.4549],[-2.7303,48.4552],[-2.7318,48.4567],[-2.7335,48.458],[-2.7384,48.4544],[-2.7432,48.4528],[-2.7487,48.4519],[-2.7526,48.4508],[-2.7528,48.4549],[-2.7516,48.4578],[-2.7505,48.4608]]]},"properties":{"id_ffco":"10536","nom":"BOIS DE PLEDRAN","_dept":"22","numero":"2016-D22-123","commune":"PLEDRAN- SAINT BRIEUC","echelle":"1/8000","surface":"1.58 km²","format":"A4","annee":"2016","cartographes":"GASTARD","proprietaire":"22 - Côtes-d'Armor","niveau":"Régional","specialite":"CO à pied","contacts":"cdco22, 33rue ville bedel, 22190, plerin, 0677038777, cdco22@wanadoo.fr // GASTARD, cdco22@wanadoo.fr","latitude":"48.4574126641","longitude":"-2.73933546339","date_saisie":"22/11/2017","date_depot":"14/12/2017","valide":"Oui","ppo":"Non","type_carte":"Nouvelle carte","fond":"IGN","obsolete":true}},{"type":"Feature","geometry":{"type":"Polygon","coordinates":[[[-2.3719,48.4506],[-2.3784,48.4499],[-2.3814,48.4542],[-2.3814,48.4573],[-2.3772,48.4614],[-2.3799,48.4635],[-2.3792,48.4647],[-2.3803,48.4658],[-2.3847,48.4659],[-2.387,48.4646],[-2.3882,48.4656],[-2.3903,48.465],[-2.3916,48.466],[-2.3873,48.47],[-2.3887,48.4709],[-2.3855,48.4728],[-2.3813,48.4728],[-2.3738,48.4755],[-2.3676,48.4781],[-2.361,48.466],[-2.359,48.4609],[-2.3633,48.4603],[-2.3626,48.4591],[-2.3658,48.4591],[-2.3654,48.4564],[-2.3615,48.4565],[-2.3616,48.454],[-2.367,48.4525],[-2.3671,48.4511],[-2.3719,48.4506]]]},"properties":{"id_ffco":"10128","nom":"Les Beaumains","_dept":"22","numero":"2017-D22-122","commune":"Plédéliac","echelle":"1/10000","surface":"4.01 km²","format":"A3","annee":"2017","cartographes":"Le Gallais,GASTARD,Boulet","proprietaire":"22 - Côtes-d'Armor","niveau":"Régional","specialite":"CO à pied","contacts":"Dinan Course d'Orientation, secretariat@dinan-course-orientation.fr, http://www.dinan-course-orientation.fr/","latitude":"48.4639001771","longitude":"-2.37302233681","date_saisie":"28/03/2017","date_depot":"19/06/2018","valide":"Oui","ppo":"Non","type_carte":"Nouvelle carte","fond":"Ortho","obsolete":true}},{"type":"Feature","geometry":null,"properties":{"id_ffco":"1894","nom":"GUENROC 2","_dept":"22","numero":"1988-D22-12","commune":"ST MADEN","echelle":"1/10000","surface":"1.9 km²","annee":"1988","proprietaire":"2201 - CLUB ORIENTATION DE CAULNES","specialite":"CO à pied","latitude":"48.3303507","longitude":"-2.0782254","valide":"Non","ppo":"Non","obsolete":true}},{"type":"Feature","geometry":null,"properties":{"id_ffco":"1892","nom":"COAT AN DOACH","_dept":"22","numero":"1988-D22-11","commune":"ST BRIEUC","echelle":"1/7500","surface":"1.3 km²","annee":"1988","proprietaire":"2204","specialite":"CO à pied","latitude":"48.5139819","longitude":"-2.7626027","valide":"Non","ppo":"Non","obsolete":true}},{"type":"Feature","geometry":null,"properties":{"id_ffco":"14535","nom":"A supprimer","_dept":"22","numero":"2024-D22-1000001","surface":"None km²","annee":"2024","date_saisie":"15/07/2024","valide":"Non","ppo":"Non","obsolete":true}},{"type":"Feature","geometry":{"type":"Polygon","coordinates":[[[4.782,45.7094],[4.7949,45.7211],[4.8136,45.7099],[4.8061,45.7005],[4.7867,45.6913],[4.782,45.7094]]]},"properties":{"id_ffco":"11413","nom":"A supprimer","_dept":"22","numero":"2019-D22-1000000","surface":"4.55 km²","annee":"2019","latitude":"45.7066584945","longitude":"4.79591841189","date_saisie":"28/02/2019","valide":"Non","ppo":"Non","obsolete":true}},{"type":"Feature","geometry":null,"properties":{"id_ffco":"1891","nom":"JEAN BOSCO","_dept":"22","numero":"1988-D22-10","commune":"ST BRIEUC","echelle":"1/5000","surface":"0.8 km²","annee":"1988","proprietaire":"2204","specialite":"CO à pied","latitude":"48.5139819","longitude":"-2.7626027","valide":"Non","ppo":"Non","obsolete":true}},{"type":"Feature","geometry":null,"properties":{"id_ffco":"5259","nom":"La Vicomté/Rance","_dept":"22","numero":"2009-D22-082","echelle":"1/1250","surface":"None km²","format":"A4","annee":"2009","cartographes":"Gaby Even","proprietaire":"22 - Côtes-d'Armor","niveau":"Initiation, Scolaire","specialite":"CO à pied","date_saisie":"22/01/2012","valide":"Non","ppo":"Non","obsolete":true}},{"type":"Feature","geometry":null,"properties":{"id_ffco":"1890","nom":"COUELLAN","_dept":"22","numero":"1988-D22-08","commune":"CAULNES","echelle":"1/7500","surface":"2.0 km²","annee":"1988","specialite":"CO à pied","latitude":"48.2885017","longitude":"-2.1546216","valide":"Non","ppo":"Non","obsolete":true}},{"type":"Feature","geometry":null,"properties":{"id_ffco":"5313","nom":"Le Chateau des Forges","_dept":"22","numero":"2008-D22-077","commune":"Ste Brigitte","echelle":"1/15000","surface":"None km²","format":"A3","annee":"2008","cartographes":"Le Saffre PM,Even Gabriel","proprietaire":"22 - Côtes-d'Armor","niveau":"National, International","specialite":"CO à pied","latitude":"48.2064453788","longitude":"-3.15836029033","date_saisie":"05/02/2012","valide":"Non","ppo":"Non","obsolete":true}},{"type":"Feature","geometry":null,"properties":{"id_ffco":"5314","nom":"Le Breuil","_dept":"22","numero":"2008-D22-075","commune":"St Aignan","echelle":"1/7500","surface":"None km²","annee":"2008","proprietaire":"22 - Côtes-d'Armor","niveau":"National, International","specialite":"CO à pied","latitude":"48.1649404687","longitude":"-3.10363769519","date_saisie":"05/02/2012","valide":"Non","ppo":"Non","obsolete":true}},{"type":"Feature","geometry":null,"properties":{"id_ffco":"5317","nom":"Mur de Bretagne","_dept":"22","numero":"2008-D22-072","commune":"Mur de bretagne","echelle":"1/4000","surface":"None km²","format":"A4","annee":"2008","cartographes":"Even Gabriel","proprietaire":"22 - Côtes-d'Armor","niveau":"National, International","specialite":"CO à pied","latitude":"48.198665351","longitude":"-2.98944549541","date_saisie":"05/02/2012","valide":"Non","ppo":"Non","obsolete":true}},{"type":"Feature","geometry":null,"properties":{"id_ffco":"5315","nom":"La Croisée de la Branche","_dept":"22","numero":"2008-D22-071","commune":"querrien","echelle":"1/10000","surface":"None km²","format":"A3","annee":"2008","cartographes":"Milhorat Patrick,Olivier FRANGEUL,BEAUVIR Yannick,Daniel Gastard","proprietaire":"22 - Côtes-d'Armor","niveau":"National, International","specialite":"CO à pied","latitude":"48.2284061379","longitude":"-2.65642242415","date_saisie":"05/02/2012","valide":"Non","ppo":"Non","obsolete":true}},{"type":"Feature","geometry":null,"properties":{"id_ffco":"5318","nom":"Le Bois du Cornec","_dept":"22","numero":"2008-D22-070","commune":"St Aignan","echelle":"1/5000","surface":"None km²","format":"A4","annee":"2008","cartographes":"Daniel Gastard","proprietaire":"22 - Côtes-d'Armor","niveau":"National, International","specialite":"CO à pied","date_saisie":"05/02/2012","valide":"Non","ppo":"Non","obsolete":true}},{"type":"Feature","geometry":null,"properties":{"id_ffco":"1079","nom":"LORGE","_dept":"22","numero":"1981-D22-07","commune":"LORGE","echelle":"1/15000","surface":"8.0 km²","annee":"1981","proprietaire":"BR - Bretagne","niveau":"Interrégional","specialite":"CO à pied","latitude":"48.4077542","longitude":"-2.9061651","valide":"Non","ppo":"Non","obsolete":true}},{"type":"Feature","geometry":null,"properties":{"id_ffco":"4256","nom":"La Nourais","_dept":"22","numero":"2006-D22-064","commune":"Dinan","echelle":"1/2500","surface":"0.05 km²","annee":"2006","cartographes":"EVEN G","proprietaire":"2206 - CERCLE D'EDUCATION PHYSIQUE ET SPORTIVE DE DINAN","niveau":"Initiation, Scolaire","specialite":"CO à pied","latitude":"48.4538208","longitude":"-2.0459361","date_saisie":"12/06/2006","valide":"Non","ppo":"Non","obsolete":true}},{"type":"Feature","geometry":null,"properties":{"id_ffco":"1078","nom":"YVIGNAC","_dept":"22","numero":"1981-D22-06","commune":"YVIGNAC","echelle":"1/15000","surface":"8.0 km²","annee":"1981","proprietaire":"2201 - CLUB ORIENTATION DE CAULNES","niveau":"Interrégional","specialite":"CO à pied","latitude":"48.3485896","longitude":"-2.1764547","valide":"Non","ppo":"Non","obsolete":true}},{"type":"Feature","geometry":null,"properties":{"id_ffco":"4255","nom":"LA CROISEE ROUGE","_dept":"22","numero":"2006-D22-059","commune":"Loudéac","echelle":"1/6000","surface":"0.94 km²","annee":"2006","cartographes":"GASTARD D,EVEN G","proprietaire":"2205 - SAINT-BRIEUC ATHLETIQUE CLUB","niveau":"Départemental","specialite":"CO à pied","latitude":"48.1764809","longitude":"-2.7527953","date_saisie":"12/06/2006","valide":"Non","ppo":"Non","obsolete":true}},{"type":"Feature","geometry":null,"properties":{"id_ffco":"1889","nom":"BOIS D'ASTERIX","_dept":"22","numero":"1988-D22-04","commune":"GOMENE","echelle":"1/5000","surface":"1.0 km²","format":"A4","annee":"1988","cartographes":"GASTARD D","proprietaire":"2202","niveau":"Départemental","specialite":"CO à pied","latitude":"48.1740827","longitude":"-2.4868193","valide":"Non","ppo":"Non","type_carte":"Nouvelle carte","base":"1988-D22-04 BOIS D'ASTERIX","fond":"IGN","obsolete":true}},{"type":"Feature","geometry":null,"properties":{"id_ffco":"1888","nom":"BOIS DE LA HAIE","_dept":"22","numero":"1988-D22-03","commune":"CAULNES","echelle":"1/10000","surface":"1.5 km²","annee":"1988","proprietaire":"2201 - CLUB ORIENTATION DE CAULNES","specialite":"CO à pied","latitude":"48.2885017","longitude":"-2.1546216","valide":"Non","ppo":"Non","obsolete":true}},{"type":"Feature","geometry":null,"properties":{"id_ffco":"627","nom":"CAUREL","_dept":"22","numero":"1973-D22-022","commune":"MUR DE BRETAGNE","echelle":"1/10000","surface":"3.4 km²","annee":"1973","proprietaire":"2205 - SAINT-BRIEUC ATHLETIQUE CLUB","specialite":"CO à pied","latitude":"48.2010863","longitude":"-2.9863829","valide":"Non","ppo":"Non","obsolete":true}},{"type":"Feature","geometry":null,"properties":{"id_ffco":"626","nom":"YVIGNAC","_dept":"22","numero":"1973-D22-021","commune":"YVIGNAC 2","echelle":"1/15000","surface":"8.0 km²","annee":"1973","proprietaire":"2201 - CLUB ORIENTATION DE CAULNES","specialite":"CO à pied","latitude":"48.3485553","longitude":"-2.1752375","valide":"Non","ppo":"Non","obsolete":true}},{"type":"Feature","geometry":null,"properties":{"id_ffco":"1077","nom":"BOIS DE GUENROC","_dept":"22","numero":"1981-D22-02","commune":"CAULNES","echelle":"1/12500","surface":"3.8 km²","annee":"1981","proprietaire":"2201 - CLUB ORIENTATION DE CAULNES","niveau":"Interrégional","specialite":"CO à pied","latitude":"48.2885017","longitude":"-2.1546216","valide":"Non","ppo":"Non","obsolete":true}},{"type":"Feature","geometry":null,"properties":{"id_ffco":"1887","nom":"BOIS DE COUELLAN","_dept":"22","numero":"1988-D22-01","commune":"CAULNES","echelle":"1/8000","surface":"1.5 km²","annee":"1988","proprietaire":"2201 - CLUB ORIENTATION DE CAULNES","specialite":"CO à pied","latitude":"48.2885017","longitude":"-2.1546216","valide":"Non","ppo":"Non","obsolete":true}}]}