{"type":"FeatureCollection","features":[{"type":"Feature","geometry":{"type":"Polygon","coordinates":[[[1.8663,46.1443],[1.8671,46.1437],[1.8687,46.1431],[1.8695,46.1429],[1.8702,46.1429],[1.872,46.1432],[1.8724,46.1436],[1.8733,46.1438],[1.8745,46.1437],[1.8754,46.1431],[1.8761,46.1426],[1.8778,46.1424],[1.8785,46.142],[1.8787,46.141],[1.8802,46.1396],[1.8817,46.1394],[1.8827,46.1394],[1.884,46.1395],[1.8858,46.1393],[1.8882,46.1398],[1.8893,46.1399],[1.8905,46.14],[1.8913,46.1397],[1.8925,46.1397],[1.8941,46.1397],[1.8951,46.1398],[1.8958,46.1398],[1.8984,46.1408],[1.8991,46.1415],[1.8996,46.1423],[1.9002,46.1425],[1.9015,46.1435],[1.9024,46.1447],[1.9015,46.1457],[1.9011,46.1467],[1.9002,46.1472],[1.8993,46.1487],[1.8988,46.1495],[1.8979,46.1499],[1.897,46.1507],[1.8936,46.1528],[1.8923,46.1538],[1.8915,46.1548],[1.8913,46.1553],[1.8908,46.1558],[1.89,46.1564],[1.8896,46.1572],[1.8888,46.1578],[1.8875,46.1583],[1.8861,46.1591],[1.8846,46.1601],[1.8836,46.1599],[1.883,46.1597],[1.8825,46.1591],[1.8817,46.1584],[1.8799,46.1566],[1.8792,46.1561],[1.8769,46.1542],[1.8757,46.1532],[1.8754,46.1518],[1.8745,46.1529],[1.874,46.1534],[1.8733,46.1533],[1.8731,46.1537],[1.872,46.1539],[1.8706,46.1543],[1.8689,46.1546],[1.8678,46.1549],[1.8662,46.1533],[1.8656,46.1522],[1.8658,46.1498],[1.8659,46.1483],[1.8659,46.1479],[1.8662,46.1461],[1.8665,46.1454],[1.8663,46.1443]]]},"properties":{"id_ffco":"9280","nom":"PUY de GAUDY","_dept":"23","numero":"2010-D23-9","commune":"SAINTE FEYRE","echelle":"1/10000","surface":"4.07 km²","format":"A3","annee":"2010","cartographes":"David BARANGER,BARTHELEMY Matthieu","proprietaire":"23 - Creuse","niveau":"Régional","specialite":"CO à pied","latitude":"46.1481763145","longitude":"1.88362100282","date_saisie":"18/02/2016","date_depot":"16/03/2016","valide":"Oui","ppo":"Non","type_carte":"Nouvelle carte","fond":"Ortho","obsolete":false}},{"type":"Feature","geometry":{"type":"Polygon","coordinates":[[[2.1696,45.951],[2.1706,45.9505],[2.1718,45.9503],[2.1733,45.9505],[2.1742,45.9514],[2.1749,45.9527],[2.1735,45.9528],[2.1736,45.9536],[2.1734,45.9543],[2.1737,45.955],[2.1744,45.9543],[2.1751,45.9557],[2.1759,45.9565],[2.1768,45.9565],[2.177,45.9571],[2.1765,45.9574],[2.1748,45.9573],[2.1743,45.9579],[2.1739,45.9587],[2.1735,45.9594],[2.1739,45.961],[2.1728,45.9613],[2.172,45.9607],[2.1719,45.9597],[2.1716,45.9589],[2.1705,45.958],[2.1693,45.9576],[2.1689,45.9577],[2.168,45.9575],[2.1672,45.9582],[2.1657,45.9582],[2.165,45.9581],[2.1639,45.958],[2.1633,45.9582],[2.1628,45.9586],[2.1623,45.9587],[2.1614,45.9588],[2.1612,45.9591],[2.1601,45.9583],[2.1595,45.9581],[2.1592,45.9571],[2.1601,45.9568],[2.1604,45.9551],[2.1608,45.9539],[2.1612,45.9534],[2.1625,45.9538],[2.1642,45.9541],[2.1647,45.9538],[2.1654,45.9529],[2.1664,45.9523],[2.169,45.9512],[2.1696,45.951]]]},"properties":{"id_ffco":"9279","nom":"AUBUSSON","_dept":"23","numero":"2011-D23-8","commune":"AUBUSSON","echelle":"1/5000","surface":"0.81 km²","format":"A3","annee":"2011","cartographes":"Guy PETINON","proprietaire":"2301 - CREUSE OXYGENE","niveau":"Régional","specialite":"Sprint (ISSOM)","latitude":"45.9553850088","longitude":"2.16846860566","date_saisie":"18/02/2016","date_depot":"16/03/2016","valide":"Oui","ppo":"Non","type_carte":"Nouvelle carte","fond":"Cadastre","obsolete":false}},{"type":"Feature","geometry":{"type":"Polygon","coordinates":[[[2.1796,45.8965],[2.1809,45.8966],[2.1814,45.896],[2.1819,45.8951],[2.183,45.8941],[2.1838,45.893],[2.1836,45.892],[2.183,45.891],[2.1822,45.8904],[2.1811,45.89],[2.18,45.8901],[2.1792,45.8902],[2.1767,45.8891],[2.1756,45.8882],[2.1765,45.888],[2.1778,45.8881],[2.1779,45.8859],[2.1794,45.8856],[2.1807,45.8858],[2.1822,45.8849],[2.1809,45.8834],[2.1806,45.8836],[2.1803,45.8832],[2.1799,45.8819],[2.1785,45.8816],[2.1765,45.8805],[2.1757,45.8802],[2.1736,45.88],[2.1731,45.8799],[2.1713,45.8788],[2.1708,45.8794],[2.1701,45.8806],[2.17,45.8814],[2.17,45.8819],[2.1691,45.8826],[2.169,45.8833],[2.1683,45.8849],[2.1689,45.8853],[2.1691,45.8867],[2.17,45.8875],[2.1706,45.888],[2.1722,45.8883],[2.1729,45.8885],[2.1719,45.8891],[2.1713,45.8898],[2.1711,45.8908],[2.1713,45.8919],[2.1717,45.8928],[2.1727,45.8939],[2.1735,45.8938],[2.1742,45.8937],[2.1748,45.8934],[2.1756,45.8934],[2.176,45.8939],[2.176,45.8943],[2.1764,45.8949],[2.1767,45.8958],[2.1777,45.8965],[2.1796,45.8965]]]},"properties":{"id_ffco":"9277","nom":"FELLETIN","_dept":"23","numero":"2011-D23-7","commune":"FELLETIN","echelle":"1/5000","surface":"1.28 km²","format":"A3","annee":"2011","cartographes":"Guy PETINON","proprietaire":"2301 - CREUSE OXYGENE","niveau":"Régional","specialite":"Sprint (ISSOM)","latitude":"45.8877795962","longitude":"2.17575128637","date_saisie":"18/02/2016","date_depot":"16/03/2016","valide":"Oui","ppo":"Non","type_carte":"Nouvelle carte","fond":"Cadastre","obsolete":false}},{"type":"Feature","geometry":{"type":"Polygon","coordinates":[[[1.8672,46.1648],[1.8731,46.165],[1.8735,46.1676],[1.8743,46.1698],[1.8732,46.1734],[1.8722,46.1746],[1.8708,46.1745],[1.869,46.174],[1.8639,46.1734],[1.8616,46.172],[1.8616,46.1651],[1.8672,46.1648]]]},"properties":{"id_ffco":"9275","nom":"GUÉRET","_dept":"23","numero":"2014-D23-6","commune":"GUERET","echelle":"1/4000","surface":"0.91 km²","format":"A3","annee":"2014","cartographes":"Guy PETINON,Olivier TRUMEAU","proprietaire":"2301 - CREUSE OXYGENE","niveau":"Régional","specialite":"Sprint (ISSOM)","latitude":"46.1693654482","longitude":"1.86783580631","date_saisie":"18/02/2016","date_depot":"16/03/2016","valide":"Oui","ppo":"Non","type_carte":"Nouvelle carte","fond":"Cadastre","obsolete":false}},{"type":"Feature","geometry":{"type":"Polygon","coordinates":[[[1.8734,46.1838],[1.8729,46.1839],[1.8729,46.1843],[1.8725,46.1873],[1.8726,46.1878],[1.8731,46.1885],[1.8742,46.1882],[1.8749,46.1889],[1.8737,46.1894],[1.8744,46.1902],[1.875,46.1903],[1.8752,46.19],[1.8756,46.1899],[1.8769,46.1875],[1.8769,46.1873],[1.8745,46.1861],[1.8745,46.1856],[1.8745,46.1846],[1.8743,46.1842],[1.8734,46.1838]]]},"properties":{"id_ffco":"9274","nom":"CHER DU PRAT","_dept":"23","numero":"2021-D23-5","commune":"GUERET","echelle":"1/4000","surface":"0.12 km²","format":"A4","annee":"2021","cartographes":"Guy PETINON","proprietaire":"2301 - CREUSE OXYGENE","niveau":"Départemental","specialite":"CO à pied","contacts":"PETINON GUY, 42 VILLEPETOUT, 23000, SAINTE FEYRE, 0555519826, guy.petinon@orange.fr","latitude":"46.1871789711","longitude":"1.87439596051","date_saisie":"18/02/2016","date_depot":"16/03/2016","valide":"Oui","ppo":"Non","type_carte":"Reprise","base":"2021-D23-5 CHER DU PRAT","fond":"Ortho","obsolete":false}},{"type":"Feature","geometry":{"type":"Polygon","coordinates":[[[1.4828,46.2334],[1.4843,46.2332],[1.4851,46.2332],[1.4861,46.2336],[1.4888,46.2355],[1.4906,46.2367],[1.4916,46.2375],[1.4915,46.2382],[1.4933,46.2385],[1.4922,46.2401],[1.4902,46.2421],[1.489,46.2424],[1.4881,46.2435],[1.4873,46.2442],[1.4862,46.2449],[1.4855,46.2453],[1.4827,46.2461],[1.4814,46.2446],[1.481,46.2446],[1.4807,46.2443],[1.4807,46.244],[1.4799,46.2426],[1.4791,46.2408],[1.4786,46.2388],[1.4789,46.238],[1.4801,46.2363],[1.4814,46.2343],[1.482,46.2337],[1.4828,46.2334]]]},"properties":{"id_ffco":"9264","nom":"LA SOUTERRAINE","_dept":"23","numero":"2016-D23-4","commune":"LA SOUTERRAINE","echelle":"1/4000","surface":"1.0 km²","format":"A3","annee":"2016","cartographes":"Guy PETINON","proprietaire":"2301 - CREUSE OXYGENE","niveau":"Régional","specialite":"CO à pied","latitude":"46.2394177517","longitude":"1.48503102926","date_saisie":"15/02/2016","date_depot":"16/03/2016","valide":"Oui","ppo":"Non","type_carte":"Nouvelle carte","fond":"Ortho","obsolete":false}},{"type":"Feature","geometry":{"type":"Polygon","coordinates":[[[1.7513,46.2071],[1.7523,46.2074],[1.7542,46.2073],[1.7565,46.2073],[1.757,46.2075],[1.7597,46.207],[1.76,46.2062],[1.7606,46.2058],[1.7607,46.2046],[1.7609,46.2039],[1.7614,46.203],[1.7593,46.2026],[1.7574,46.2019],[1.7557,46.2013],[1.7545,46.2014],[1.754,46.2019],[1.7526,46.2032],[1.7519,46.2043],[1.7514,46.2056],[1.7513,46.2071]]]},"properties":{"id_ffco":"9258","nom":"SAINT VAURY","_dept":"23","numero":"2016-D23-3","commune":"SAINT VAURY","echelle":"1/4000","surface":"0.39 km²","format":"A4","annee":"2016","cartographes":"Guy PETINON","proprietaire":"2301 - CREUSE OXYGENE","niveau":"Régional","specialite":"CO à pied","latitude":"46.2046721132","longitude":"1.75615743859","date_saisie":"14/02/2016","date_depot":"16/03/2016","valide":"Oui","ppo":"Non","type_carte":"Nouvelle carte","base":"2016-D23-3 SAINT VAURY","fond":"Cadastre","obsolete":false}},{"type":"Feature","geometry":{"type":"Polygon","coordinates":[[[1.8212,46.1653],[1.8209,46.1683],[1.8219,46.1691],[1.8243,46.17],[1.8288,46.1706],[1.8319,46.1698],[1.8336,46.1693],[1.8338,46.1689],[1.8347,46.1685],[1.836,46.1684],[1.8367,46.1682],[1.838,46.1636],[1.8393,46.1604],[1.8389,46.1583],[1.8402,46.1561],[1.8402,46.1548],[1.8393,46.154],[1.8379,46.1519],[1.8352,46.1512],[1.8341,46.1509],[1.8332,46.15],[1.8296,46.1503],[1.8298,46.1516],[1.8286,46.1523],[1.8276,46.1534],[1.8271,46.1544],[1.8254,46.1558],[1.8249,46.1574],[1.8224,46.1584],[1.8213,46.1626],[1.8212,46.1653]]]},"properties":{"id_ffco":"14127","nom":"MAUPUY","_dept":"23","numero":"2023-D23-23","commune":"SAINT LEGER LE GUERETOIS","echelle":"1/10000","surface":"2.41 km²","format":"A4","annee":"2023","cartographes":"Jean-Louis PERISSAT","proprietaire":"23 - Creuse","niveau":"Régional","specialite":"CO à pied","contacts":"Perissat Jean Louis,  1  Balsac, 23320, BUSSIERE DUNOISE, 0555410389, perissatjl@orange.fr","latitude":"46.1609347261","longitude":"1.83063995622","date_saisie":"25/10/2023","date_depot":"07/02/2024","valide":"Oui","ppo":"Non","type_carte":"Nouvelle carte","fond":"Ortho","obsolete":false}},{"type":"Feature","geometry":{"type":"Polygon","coordinates":[[[1.8509,46.1198],[1.8472,46.1217],[1.8429,46.1224],[1.8406,46.1224],[1.8403,46.1255],[1.8424,46.1272],[1.8401,46.1301],[1.8341,46.1342],[1.8398,46.1423],[1.8468,46.142],[1.8494,46.1437],[1.8532,46.1438],[1.8544,46.1452],[1.8554,46.1468],[1.8576,46.1462],[1.8643,46.1434],[1.8638,46.1386],[1.8642,46.1327],[1.8606,46.1301],[1.8588,46.1238],[1.8509,46.1198]]]},"properties":{"id_ffco":"12924","nom":"Chabrières Pierre la Grosle","_dept":"23","numero":"2021-D23-22","commune":"Guéret","echelle":"1/10000","surface":"4.46 km²","format":"A3","annee":"2021","cartographes":"Jean-Louis PERISSAT","proprietaire":"JEAN LOUIS PERISSAT","niveau":"Régional","specialite":"CO à pied","latitude":"46.1336713335","longitude":"1.85076162173","date_saisie":"04/10/2021","date_depot":"25/11/2021","valide":"Oui","ppo":"Non","type_carte":"Nouvelle carte","fond":"Ortho","obsolete":false}},{"type":"Feature","geometry":{"type":"Polygon","coordinates":[[[1.6909,46.285],[1.6891,46.2854],[1.6882,46.2855],[1.6877,46.2859],[1.6863,46.286],[1.6846,46.2862],[1.6819,46.2859],[1.6801,46.286],[1.6794,46.2859],[1.6783,46.2863],[1.6763,46.2864],[1.6747,46.2858],[1.6728,46.2852],[1.672,46.2849],[1.6719,46.2846],[1.6717,46.284],[1.6709,46.2833],[1.6707,46.2823],[1.6703,46.2814],[1.6701,46.2804],[1.67,46.2798],[1.6716,46.2797],[1.6725,46.2796],[1.6734,46.2794],[1.6743,46.2793],[1.6746,46.2795],[1.6762,46.2794],[1.6768,46.2792],[1.677,46.2791],[1.6777,46.2793],[1.68,46.2798],[1.6812,46.2789],[1.6819,46.2774],[1.6827,46.2767],[1.6841,46.2765],[1.6854,46.2765],[1.6865,46.2762],[1.6878,46.2757],[1.6896,46.2765],[1.6903,46.2764],[1.6908,46.2758],[1.6927,46.2758],[1.6931,46.2761],[1.6946,46.2763],[1.6946,46.2775],[1.6922,46.2823],[1.6913,46.2839],[1.6909,46.285]]]},"properties":{"id_ffco":"9321","nom":"BOIS DE CHABANNE","_dept":"23","numero":"2021-D23-21","commune":"DUN LE PALESTEL","echelle":"1/10000","surface":"1.5 km²","format":"A4","annee":"2021","cartographes":"Jean-Louis PERISSAT","proprietaire":"23 - Creuse","niveau":"Régional","specialite":"CO à pied","contacts":"Perissat Jean Louis,  1  Balsac, 23320, BUSSIERE DUNOISE, 0555410389, perissatjl@orange.fr","latitude":"46.2814476094","longitude":"1.68304289498","date_saisie":"20/02/2016","date_depot":"16/03/2016","valide":"Oui","ppo":"Non","type_carte":"Reprise","base":"2021-D23-21 BOIS DE CHABANNE","fond":"Ortho","obsolete":false}},{"type":"Feature","geometry":{"type":"Polygon","coordinates":[[[2.2448,46.0377],[2.2448,46.0373],[2.2452,46.0371],[2.2461,46.0368],[2.2465,46.0366],[2.2468,46.0363],[2.2472,46.0361],[2.2476,46.0361],[2.2486,46.0362],[2.2497,46.0361],[2.2504,46.036],[2.2511,46.036],[2.2524,46.0364],[2.2541,46.0372],[2.2549,46.0369],[2.2553,46.0359],[2.2549,46.0345],[2.2545,46.0337],[2.2552,46.0309],[2.2544,46.0295],[2.2508,46.027],[2.2509,46.0254],[2.2507,46.0251],[2.2497,46.0249],[2.2488,46.0251],[2.2482,46.0252],[2.248,46.0254],[2.247,46.0257],[2.2469,46.0261],[2.2468,46.0262],[2.2451,46.0288],[2.2456,46.0289],[2.2454,46.0304],[2.2449,46.0314],[2.2442,46.0315],[2.2437,46.0321],[2.2439,46.0343],[2.2433,46.0344],[2.243,46.0354],[2.2433,46.0372],[2.2448,46.0377]]]},"properties":{"id_ffco":"9320","nom":"BOIS de MONTELLADONE","_dept":"23","numero":"2012-D23-20","commune":"CHAMPAGNAT","echelle":"1/7500","surface":"0.88 km²","format":"A4","annee":"2012","cartographes":"David Barranger","proprietaire":"23 - Creuse","niveau":"Régional","specialite":"CO à pied","latitude":"46.0319064645","longitude":"2.24929162385","date_saisie":"20/02/2016","date_depot":"02/06/2016","valide":"Oui","ppo":"Non","type_carte":"Nouvelle carte","fond":"Ortho","obsolete":false}},{"type":"Feature","geometry":{"type":"Polygon","coordinates":[[[2.2135,46.0004],[2.2158,45.9997],[2.2168,45.9992],[2.2176,45.9988],[2.2198,45.9982],[2.2219,45.9974],[2.2232,45.9972],[2.2238,45.9969],[2.2242,45.9969],[2.2276,45.9952],[2.2283,45.9944],[2.2288,45.9933],[2.23,45.992],[2.2301,45.9914],[2.2305,45.9915],[2.2311,45.9922],[2.2327,45.9926],[2.2349,45.9929],[2.2357,45.9933],[2.2364,45.9939],[2.2375,45.9945],[2.2385,45.9952],[2.2382,45.996],[2.2372,45.9962],[2.2371,45.9966],[2.2371,45.9972],[2.2367,45.9975],[2.2362,45.9977],[2.2358,45.9983],[2.2359,45.9988],[2.2367,45.9989],[2.2372,45.9994],[2.238,46.0005],[2.2382,46.0014],[2.2385,46.0025],[2.239,46.0033],[2.2389,46.0056],[2.2404,46.0072],[2.2398,46.0076],[2.2395,46.0079],[2.2387,46.0075],[2.2368,46.0089],[2.2363,46.0103],[2.2354,46.0113],[2.2345,46.012],[2.2337,46.0121],[2.2332,46.0126],[2.2316,46.0131],[2.2313,46.0134],[2.2306,46.0134],[2.2288,46.013],[2.2274,46.0135],[2.227,46.0136],[2.2261,46.0134],[2.2255,46.0134],[2.2249,46.0133],[2.2244,46.0137],[2.2238,46.0137],[2.2232,46.0136],[2.2226,46.0138],[2.2221,46.0141],[2.2216,46.0142],[2.2211,46.0142],[2.2204,46.0141],[2.2199,46.0137],[2.2182,46.0128],[2.217,46.0122],[2.2165,46.0121],[2.2162,46.0119],[2.2158,46.0119],[2.2155,46.0123],[2.2153,46.0129],[2.2146,46.0133],[2.2143,46.0136],[2.2139,46.0139],[2.2138,46.0123],[2.2135,46.0113],[2.2133,46.0097],[2.2124,46.0079],[2.2124,46.0069],[2.213,46.0063],[2.2132,46.005],[2.2138,46.0043],[2.2141,46.003],[2.2135,46.0004]]]},"properties":{"id_ffco":"9319","nom":"BOIS DE CROS","_dept":"23","numero":"2013-D23-19","commune":"SAINT MAIXANT","echelle":"1/10000","surface":"3.59 km²","format":"A3","annee":"2013","cartographes":"Liviu Tintar","proprietaire":"23 - Creuse","niveau":"Régional","specialite":"CO à pied","latitude":"46.0042583963","longitude":"2.22652345214","date_saisie":"20/02/2016","date_depot":"16/03/2016","valide":"Oui","ppo":"Non","type_carte":"Nouvelle carte","fond":"Ortho","obsolete":false}},{"type":"Feature","geometry":{"type":"Polygon","coordinates":[[[2.1904,45.9256],[2.1891,45.9254],[2.1867,45.9257],[2.1825,45.9265],[2.1816,45.9272],[2.1808,45.9281],[2.1793,45.93],[2.1775,45.9307],[2.1772,45.931],[2.1755,45.9313],[2.1762,45.9326],[2.1767,45.9338],[2.1762,45.9348],[2.1727,45.9367],[2.1709,45.9378],[2.1715,45.9389],[2.171,45.94],[2.1707,45.9411],[2.1706,45.9426],[2.1715,45.9438],[2.1725,45.945],[2.1743,45.9464],[2.1753,45.9481],[2.1753,45.9493],[2.1751,45.9497],[2.1738,45.9503],[2.1729,45.9502],[2.172,45.95],[2.1709,45.9505],[2.1715,45.9513],[2.1726,45.9524],[2.1775,45.9523],[2.1777,45.9513],[2.1789,45.9512],[2.1798,45.9515],[2.1806,45.9511],[2.183,45.951],[2.1836,45.9513],[2.1852,45.9511],[2.1861,45.9509],[2.1872,45.9511],[2.189,45.9517],[2.1905,45.9515],[2.1908,45.9527],[2.1914,45.9523],[2.1918,45.9522],[2.1926,45.9509],[2.1936,45.9502],[2.1952,45.9497],[2.1966,45.949],[2.197,45.9486],[2.1969,45.948],[2.1963,45.9469],[2.1948,45.9463],[2.193,45.9455],[2.1923,45.9444],[2.1924,45.9431],[2.1922,45.9422],[2.1915,45.9409],[2.1913,45.9399],[2.1919,45.9379],[2.1931,45.9366],[2.1937,45.9358],[2.1938,45.9349],[2.1935,45.9321],[2.193,45.9316],[2.1924,45.9312],[2.1913,45.931],[2.1904,45.9309],[2.19,45.9305],[2.1898,45.9296],[2.19,45.9272],[2.1901,45.9261],[2.1904,45.9256]]]},"properties":{"id_ffco":"9318","nom":"FOREST","_dept":"23","numero":"2013-D23-18","commune":"AUBUSSON","echelle":"1/10000","surface":"3.99 km²","format":"A4","annee":"2013","cartographes":"Liviu Tintar","proprietaire":"23 - Creuse","niveau":"Régional","specialite":"CO à pied","latitude":"45.9402938688","longitude":"2.18340443518","date_saisie":"20/02/2016","date_depot":"16/03/2016","valide":"Oui","ppo":"Non","type_carte":"Nouvelle carte","fond":"Ortho","obsolete":false}},{"type":"Feature","geometry":{"type":"Polygon","coordinates":[[[2.1482,45.9191],[2.1553,45.9267],[2.1578,45.9296],[2.161,45.9286],[2.1632,45.9299],[2.1645,45.9301],[2.1692,45.9319],[2.171,45.9318],[2.177,45.931],[2.177,45.9317],[2.1768,45.9327],[2.177,45.9341],[2.1765,45.9351],[2.175,45.9358],[2.1738,45.9366],[2.1729,45.9375],[2.1726,45.9389],[2.1721,45.9402],[2.1726,45.9419],[2.1743,45.9441],[2.1766,45.9472],[2.1767,45.9479],[2.1753,45.95],[2.1746,45.9507],[2.174,45.9509],[2.1731,45.9504],[2.1718,45.9503],[2.1714,45.9506],[2.1682,45.9507],[2.1594,45.9509],[2.1583,45.9498],[2.1571,45.9484],[2.1564,45.9474],[2.1551,45.9466],[2.1535,45.9466],[2.1525,45.9475],[2.152,45.9485],[2.1503,45.949],[2.1476,45.9489],[2.1479,45.9483],[2.1483,45.9481],[2.1483,45.9476],[2.148,45.9471],[2.1472,45.946],[2.1467,45.9436],[2.1476,45.9417],[2.1465,45.94],[2.1422,45.9402],[2.1374,45.9421],[2.1358,45.9403],[2.1338,45.9379],[2.1333,45.9367],[2.1327,45.9353],[2.1324,45.9337],[2.1318,45.9329],[2.1325,45.9326],[2.1324,45.9301],[2.1328,45.929],[2.1328,45.9276],[2.1338,45.9265],[2.1351,45.9261],[2.1351,45.9258],[2.1366,45.9248],[2.1377,45.924],[2.1388,45.9234],[2.14,45.9226],[2.1426,45.9204],[2.1435,45.9212],[2.144,45.9217],[2.1439,45.9222],[2.1444,45.9226],[2.146,45.92],[2.1482,45.9191]]]},"properties":{"id_ffco":"9317","nom":"Bois de la Lune","_dept":"23","numero":"2013-D23-17","commune":"AUBUSSON","echelle":"1/15000","surface":"7.29 km²","format":"A3","annee":"2013","cartographes":"Liviu,TINTAR","proprietaire":"23 - Creuse","niveau":"Régional","specialite":"CO à pied","latitude":"45.9364020156","longitude":"2.15434376836","date_saisie":"20/02/2016","date_depot":"16/03/2016","valide":"Oui","ppo":"Non","type_carte":"Nouvelle carte","fond":"Ortho","obsolete":false}},{"type":"Feature","geometry":{"type":"Polygon","coordinates":[[[2.1439,45.9827],[2.1439,45.9834],[2.1439,45.9845],[2.1446,45.9853],[2.1451,45.9863],[2.1459,45.9864],[2.1453,45.9871],[2.1448,45.987],[2.1444,45.9874],[2.1445,45.9883],[2.1451,45.9884],[2.1468,45.9889],[2.1471,45.9894],[2.1466,45.9897],[2.1454,45.9899],[2.1449,45.9896],[2.1445,45.9902],[2.1444,45.9905],[2.1452,45.9908],[2.1448,45.9914],[2.144,45.9911],[2.1435,45.9916],[2.1428,45.9915],[2.1405,45.9926],[2.1404,45.9934],[2.1396,45.9948],[2.1389,45.9951],[2.1383,45.997],[2.1386,45.9972],[2.1382,45.9979],[2.1368,45.9979],[2.1359,45.9978],[2.1354,45.9975],[2.1353,45.9963],[2.1344,45.9955],[2.1338,45.9952],[2.1341,45.995],[2.1325,45.9944],[2.1315,45.9938],[2.131,45.9932],[2.13,45.993],[2.1294,45.9913],[2.1286,45.9905],[2.1278,45.9903],[2.1273,45.9896],[2.1268,45.9892],[2.1254,45.9883],[2.1253,45.9873],[2.1249,45.9867],[2.124,45.9865],[2.1238,45.9862],[2.124,45.9856],[2.1239,45.9851],[2.1232,45.9848],[2.122,45.9849],[2.1229,45.9831],[2.1252,45.9835],[2.1274,45.9837],[2.1293,45.9835],[2.1307,45.983],[2.1317,45.9826],[2.1346,45.9824],[2.1362,45.9819],[2.1373,45.9826],[2.1387,45.9832],[2.1439,45.9827]]]},"properties":{"id_ffco":"9316","nom":"ALLEYRAT","_dept":"23","numero":"2013-D23-16","commune":"ALLEYRAT","echelle":"1/10000","surface":"1.81 km²","format":"A4","annee":"2013","cartographes":"Liviu Tintar","proprietaire":"23 - Creuse","niveau":"Régional","specialite":"CO à pied","latitude":"45.9884120357","longitude":"2.13531610593","date_saisie":"20/02/2016","date_depot":"16/03/2016","valide":"Oui","ppo":"Non","type_carte":"Nouvelle carte","fond":"Ortho","obsolete":false}},{"type":"Feature","geometry":{"type":"Polygon","coordinates":[[[2.1439,45.9846],[2.143,45.9843],[2.1425,45.9841],[2.1415,45.9842],[2.1408,45.9843],[2.1404,45.9845],[2.1401,45.9842],[2.1397,45.9838],[2.1392,45.9843],[2.1385,45.9849],[2.1374,45.9851],[2.1366,45.9849],[2.1354,45.9845],[2.136,45.9834],[2.1347,45.9828],[2.1328,45.9831],[2.1321,45.9832],[2.1313,45.9831],[2.1295,45.9838],[2.1287,45.9838],[2.1276,45.984],[2.1266,45.9841],[2.1261,45.9838],[2.1252,45.9838],[2.1247,45.9846],[2.124,45.9846],[2.1236,45.9849],[2.1209,45.9848],[2.1197,45.9846],[2.118,45.984],[2.1169,45.984],[2.1159,45.9836],[2.1151,45.9837],[2.113,45.982],[2.1115,45.9813],[2.109,45.9797],[2.1078,45.9806],[2.1071,45.9801],[2.1068,45.9789],[2.1074,45.9781],[2.1069,45.9764],[2.1066,45.9756],[2.1052,45.9741],[2.1046,45.973],[2.1031,45.973],[2.1021,45.9723],[2.1014,45.9723],[2.1013,45.9718],[2.101,45.9716],[2.1,45.9713],[2.0993,45.9711],[2.0989,45.9706],[2.0977,45.9708],[2.0969,45.971],[2.0973,45.9681],[2.098,45.9673],[2.0995,45.9668],[2.1026,45.9664],[2.1045,45.9647],[2.1071,45.9631],[2.1084,45.9625],[2.1101,45.9617],[2.1105,45.9603],[2.112,45.96],[2.1133,45.9603],[2.1154,45.9603],[2.1156,45.9597],[2.1167,45.9597],[2.1168,45.9603],[2.1178,45.9604],[2.119,45.96],[2.12,45.9599],[2.1219,45.96],[2.1237,45.9596],[2.1251,45.959],[2.1265,45.9582],[2.1276,45.9578],[2.1278,45.957],[2.1284,45.9563],[2.1298,45.956],[2.1313,45.9553],[2.1317,45.9547],[2.1323,45.9545],[2.1332,45.9547],[2.1345,45.9547],[2.1431,45.9561],[2.1514,45.9549],[2.1525,45.9549],[2.1545,45.9555],[2.1558,45.9556],[2.1572,45.956],[2.1579,45.9564],[2.16,45.9567],[2.1624,45.9558],[2.1628,45.9565],[2.1628,45.9571],[2.1634,45.957],[2.1637,45.9573],[2.1633,45.9574],[2.1636,45.958],[2.1626,45.9585],[2.1614,45.9588],[2.1607,45.9598],[2.1602,45.9608],[2.1594,45.9622],[2.159,45.9628],[2.1586,45.9636],[2.158,45.964],[2.1579,45.9645],[2.1584,45.9654],[2.1591,45.9659],[2.1576,45.9674],[2.1558,45.9668],[2.1541,45.9682],[2.1537,45.9687],[2.1537,45.9705],[2.1534,45.9719],[2.1511,45.9723],[2.1489,45.9718],[2.147,45.971],[2.1438,45.9699],[2.1429,45.9691],[2.1418,45.9679],[2.1395,45.9658],[2.1385,45.9653],[2.1377,45.9651],[2.1382,45.9668],[2.138,45.9684],[2.1351,45.968],[2.1338,45.968],[2.132,45.9682],[2.1312,45.9684],[2.1314,45.969],[2.1306,45.9693],[2.1314,45.9701],[2.1338,45.9725],[2.135,45.9732],[2.1385,45.9747],[2.1392,45.9757],[2.1386,45.9762],[2.138,45.9764],[2.1373,45.9766],[2.1371,45.9769],[2.1388,45.977],[2.1401,45.9773],[2.1401,45.9778],[2.1404,45.9784],[2.1414,45.9788],[2.1431,45.979],[2.1444,45.9805],[2.1449,45.9818],[2.1447,45.9821],[2.1442,45.9822],[2.1439,45.9825],[2.1441,45.9831],[2.1439,45.9846]]]},"properties":{"id_ffco":"9315","nom":"BLESSAC","_dept":"23","numero":"2013-D23-15","commune":"BLESSAC","echelle":"1/15000","surface":"9.82 km²","format":"A3","annee":"2013","cartographes":"Liviu Tintar","proprietaire":"23 - Creuse","niveau":"Régional","specialite":"CO à pied","latitude":"45.9688758126","longitude":"2.12946301529","date_saisie":"20/02/2016","date_depot":"16/03/2016","valide":"Oui","ppo":"Non","type_carte":"Nouvelle carte","fond":"Ortho","obsolete":false}},{"type":"Feature","geometry":{"type":"Polygon","coordinates":[[[1.4812,46.2445],[1.481,46.2446],[1.4803,46.2459],[1.479,46.2453],[1.4783,46.2451],[1.4774,46.245],[1.4768,46.2451],[1.478,46.2438],[1.4771,46.2435],[1.4767,46.2435],[1.4765,46.2427],[1.4771,46.2426],[1.477,46.2407],[1.4791,46.2408],[1.4797,46.242],[1.4805,46.2435],[1.4811,46.244],[1.4812,46.2445]]]},"properties":{"id_ffco":"9286","nom":"LA PARONDELLE","_dept":"23","numero":"2009-D23-14","commune":"LA SOUTERRAINE","echelle":"1/4000","surface":"0.12 km²","format":"A4","annee":"2009","cartographes":"Bruno MARCHEGAY","proprietaire":"23 - Creuse","niveau":"Départemental","specialite":"CO à pied","latitude":"46.243251163","longitude":"1.47876676662","date_saisie":"18/02/2016","date_depot":"16/03/2016","valide":"Oui","ppo":"Non","type_carte":"Nouvelle carte","fond":"Ortho","obsolete":false}},{"type":"Feature","geometry":{"type":"Polygon","coordinates":[[[1.5005,46.2477],[1.502,46.2489],[1.5051,46.2456],[1.5074,46.2457],[1.5091,46.2452],[1.5097,46.2446],[1.5132,46.2462],[1.5143,46.2464],[1.5162,46.2455],[1.5154,46.2436],[1.5148,46.2431],[1.5115,46.2436],[1.51,46.2438],[1.5071,46.2434],[1.5044,46.2423],[1.5039,46.2414],[1.5017,46.2413],[1.4996,46.2425],[1.5024,46.2439],[1.5005,46.2477]]]},"properties":{"id_ffco":"9285","nom":"ETANG DU CHEIX","_dept":"23","numero":"2009-D23-13","commune":"LA SOUTERRAINE","echelle":"1/5000","surface":"0.4 km²","format":"A4","annee":"2009","cartographes":"Bruno MARCHEGAY","proprietaire":"23 - Creuse","niveau":"Départemental","specialite":"CO à pied","latitude":"46.2445923973","longitude":"1.50675852861","date_saisie":"18/02/2016","date_depot":"16/03/2016","valide":"Oui","ppo":"Non","type_carte":"Nouvelle carte","fond":"Ortho","obsolete":false}},{"type":"Feature","geometry":{"type":"Polygon","coordinates":[[[1.8535,46.1568],[1.8532,46.1571],[1.8534,46.1577],[1.8546,46.1575],[1.8559,46.1576],[1.8572,46.1583],[1.8579,46.1598],[1.8592,46.16],[1.8601,46.1591],[1.8624,46.1596],[1.8629,46.1597],[1.8638,46.159],[1.8646,46.1587],[1.8654,46.1588],[1.8662,46.1587],[1.8675,46.1582],[1.8681,46.1575],[1.8685,46.1576],[1.8693,46.1592],[1.87,46.1606],[1.8706,46.1615],[1.869,46.1625],[1.8682,46.1635],[1.8681,46.1643],[1.8677,46.1648],[1.8694,46.1652],[1.869,46.1669],[1.8694,46.1684],[1.8672,46.1694],[1.8663,46.1695],[1.8652,46.1698],[1.8647,46.1704],[1.8644,46.1712],[1.8633,46.1716],[1.8623,46.1715],[1.8601,46.171],[1.8578,46.169],[1.8558,46.1675],[1.8538,46.1669],[1.8518,46.1667],[1.851,46.1653],[1.8519,46.1652],[1.852,46.165],[1.8523,46.1646],[1.8523,46.1622],[1.8521,46.1613],[1.8517,46.1609],[1.8519,46.1604],[1.8517,46.1596],[1.8518,46.159],[1.8525,46.1586],[1.8526,46.1576],[1.853,46.1569],[1.8535,46.1568]]]},"properties":{"id_ffco":"9284","nom":"COURTILLES","_dept":"23","numero":"2009-D23-12","commune":"GUERET","echelle":"1/10000","surface":"1.59 km²","format":"A4","annee":"2009","cartographes":"Taillebois Roger","proprietaire":"2301 - CREUSE OXYGENE","niveau":"Régional","specialite":"CO à pied","latitude":"46.1640259414","longitude":"1.86092993058","date_saisie":"18/02/2016","date_depot":"16/03/2016","valide":"Oui","ppo":"Non","type_carte":"Nouvelle carte","fond":"Ortho","obsolete":false}},{"type":"Feature","geometry":{"type":"Polygon","coordinates":[[[1.8527,46.1569],[1.8509,46.1568],[1.8497,46.1565],[1.8482,46.1553],[1.8463,46.1543],[1.8442,46.1536],[1.8418,46.1532],[1.8399,46.1527],[1.8376,46.1518],[1.8363,46.1516],[1.8339,46.1509],[1.8336,46.1507],[1.8335,46.1502],[1.8328,46.1501],[1.8249,46.1508],[1.8242,46.151],[1.8235,46.1515],[1.8227,46.1518],[1.8224,46.1516],[1.8225,46.1511],[1.8227,46.1508],[1.8223,46.1504],[1.822,46.1505],[1.8216,46.1508],[1.8209,46.1511],[1.8205,46.151],[1.8183,46.1493],[1.8177,46.1493],[1.8165,46.1499],[1.8153,46.1503],[1.8147,46.151],[1.8142,46.1518],[1.8126,46.1525],[1.8121,46.1529],[1.8113,46.1541],[1.8126,46.1558],[1.8121,46.1563],[1.8117,46.1572],[1.812,46.1582],[1.8118,46.159],[1.812,46.1596],[1.8122,46.1601],[1.8126,46.1603],[1.8136,46.1602],[1.8141,46.1602],[1.8152,46.1604],[1.8151,46.161],[1.8149,46.1619],[1.8142,46.163],[1.8135,46.1631],[1.8129,46.1633],[1.8122,46.1639],[1.8123,46.1649],[1.8134,46.1654],[1.8131,46.1661],[1.8123,46.1667],[1.8118,46.167],[1.8109,46.1667],[1.8101,46.1668],[1.8092,46.1671],[1.8072,46.1673],[1.8057,46.1684],[1.8054,46.1692],[1.8056,46.1706],[1.8054,46.1714],[1.807,46.1723],[1.808,46.1725],[1.8088,46.1724],[1.8094,46.1716],[1.8106,46.1714],[1.8117,46.1717],[1.8131,46.1726],[1.8174,46.1733],[1.8183,46.1731],[1.8188,46.1726],[1.8188,46.172],[1.8199,46.1716],[1.8206,46.1715],[1.8212,46.1715],[1.8221,46.1712],[1.8232,46.1713],[1.8245,46.1719],[1.8256,46.1725],[1.8269,46.1729],[1.8288,46.1731],[1.8297,46.1728],[1.8315,46.1726],[1.8338,46.1718],[1.836,46.1709],[1.8391,46.1703],[1.8422,46.1696],[1.8517,46.1666],[1.8509,46.1652],[1.8522,46.1652],[1.8521,46.1649],[1.8524,46.164],[1.8524,46.1623],[1.8518,46.161],[1.8519,46.1604],[1.8515,46.1594],[1.8521,46.159],[1.8525,46.1585],[1.8527,46.1578],[1.8527,46.1569]]]},"properties":{"id_ffco":"9283","nom":"LE MAUPUY","_dept":"23","numero":"2009-D23-11","commune":"GUERET","echelle":"1/10000","surface":"6.69 km²","format":"A3","annee":"2009","cartographes":"Taillebois Roger","proprietaire":"2301 - CREUSE OXYGENE","niveau":"Régional","specialite":"CO à pied","latitude":"46.1617546198","longitude":"1.82943983631","date_saisie":"18/02/2016","date_depot":"16/03/2016","valide":"Oui","ppo":"Non","type_carte":"Nouvelle carte","fond":"Ortho","obsolete":false}},{"type":"Feature","geometry":{"type":"Polygon","coordinates":[[[1.8763,46.1118],[1.8766,46.112],[1.8764,46.1122],[1.876,46.1125],[1.877,46.1136],[1.876,46.1143],[1.8753,46.115],[1.8749,46.1155],[1.8746,46.1165],[1.8754,46.1165],[1.8756,46.1164],[1.8765,46.1166],[1.8763,46.1171],[1.8771,46.1174],[1.8808,46.1184],[1.8809,46.1186],[1.8806,46.1195],[1.8807,46.1198],[1.881,46.1199],[1.8815,46.1204],[1.8822,46.1211],[1.8825,46.1214],[1.8821,46.1219],[1.8816,46.1228],[1.8811,46.1233],[1.8806,46.1236],[1.8805,46.124],[1.8822,46.1248],[1.8835,46.1252],[1.8843,46.1255],[1.8847,46.1258],[1.8858,46.1261],[1.8868,46.126],[1.8869,46.1251],[1.8862,46.1238],[1.8866,46.1234],[1.8866,46.1227],[1.887,46.1222],[1.8867,46.1212],[1.8858,46.1201],[1.8859,46.1186],[1.8868,46.1178],[1.8884,46.1175],[1.8912,46.1182],[1.8945,46.1191],[1.8967,46.1179],[1.8987,46.1172],[1.9006,46.1205],[1.902,46.1223],[1.9012,46.1237],[1.9005,46.1236],[1.8997,46.1243],[1.8992,46.1247],[1.898,46.1251],[1.8971,46.1253],[1.8963,46.1258],[1.8956,46.1265],[1.8957,46.1269],[1.8961,46.1273],[1.8964,46.1277],[1.8963,46.1281],[1.8967,46.1286],[1.8971,46.129],[1.897,46.1303],[1.8965,46.1314],[1.8958,46.1318],[1.8943,46.1322],[1.8932,46.1323],[1.8927,46.1326],[1.8914,46.1315],[1.8902,46.1319],[1.8901,46.1313],[1.8844,46.1334],[1.8835,46.1321],[1.8826,46.1318],[1.8818,46.1316],[1.8812,46.1309],[1.8807,46.1301],[1.8799,46.1287],[1.8795,46.1278],[1.8787,46.1295],[1.878,46.1311],[1.878,46.1319],[1.8772,46.1331],[1.877,46.1337],[1.8771,46.1342],[1.8777,46.1353],[1.8769,46.1354],[1.8763,46.1355],[1.8751,46.1366],[1.874,46.1374],[1.8733,46.1379],[1.8734,46.1388],[1.8731,46.1391],[1.8725,46.1392],[1.871,46.1393],[1.8699,46.1396],[1.8684,46.1407],[1.8678,46.1411],[1.8677,46.1423],[1.8672,46.1426],[1.867,46.1431],[1.8672,46.1436],[1.8665,46.1441],[1.8664,46.1437],[1.8654,46.1438],[1.8647,46.1443],[1.8642,46.1443],[1.8652,46.1431],[1.8653,46.1418],[1.8652,46.1407],[1.864,46.1383],[1.8637,46.1372],[1.8638,46.1359],[1.8644,46.1341],[1.8641,46.1328],[1.8635,46.132],[1.8619,46.131],[1.8607,46.1301],[1.8603,46.1294],[1.8603,46.1276],[1.8601,46.1248],[1.8596,46.1237],[1.8589,46.123],[1.8573,46.1226],[1.8556,46.1224],[1.8545,46.1222],[1.8526,46.1212],[1.8509,46.1198],[1.8512,46.1198],[1.852,46.1201],[1.8531,46.1203],[1.8537,46.1206],[1.8545,46.1204],[1.8553,46.1194],[1.8569,46.118],[1.8581,46.1165],[1.8587,46.1158],[1.8586,46.115],[1.8589,46.114],[1.8595,46.1141],[1.8598,46.1149],[1.8602,46.1149],[1.8613,46.1148],[1.8619,46.1141],[1.8634,46.1137],[1.8644,46.114],[1.8656,46.1136],[1.8673,46.1134],[1.8681,46.1136],[1.869,46.1138],[1.8698,46.1132],[1.8701,46.1127],[1.8706,46.1125],[1.871,46.1125],[1.8717,46.1121],[1.8721,46.112],[1.8739,46.1122],[1.8754,46.1122],[1.8763,46.1118]]]},"properties":{"id_ffco":"9282","nom":"CHABRIÈRE","_dept":"23","numero":"2012-D23-10","commune":"GUÉRET","echelle":"1/15000","surface":"6.01 km²","format":"A3","annee":"2012","cartographes":"Bruno MARCHEGAY,COTIRTA Marian,Ionut ZINCA","proprietaire":"23 - Creuse","niveau":"Régional","specialite":"CO à pied","latitude":"46.12527187","longitude":"1.8756134145","date_saisie":"18/02/2016","date_depot":"16/03/2016","valide":"Oui","ppo":"Non","type_carte":"Reprise","base":"1990-D23-01 CHABRIERES","fond":"Ortho","obsolete":false}},{"type":"Feature","geometry":null,"properties":{"id_ffco":"1288","nom":"CHATEAUVERT","_dept":"23","numero":"1983-D23-02","commune":"PERIGUEUX","echelle":"1/15000","surface":"8.5 km²","annee":"1983","niveau":"Interrégional","specialite":"CO à pied","latitude":"45.1874512","longitude":"0.6455041","valide":"Non","ppo":"Non","obsolete":false}},{"type":"Feature","geometry":null,"properties":{"id_ffco":"1288","nom":"CHABRIERES","_dept":"23","numero":"1983-D23-02","commune":"GUERET","echelle":"1/15000","surface":"11.0 km²","annee":"1983","proprietaire":"0301","niveau":"Interrégional","specialite":"CO à pied","latitude":"46.169224","longitude":"1.8685741","valide":"Non","ppo":"Non","obsolete":false}},{"type":"Feature","geometry":null,"properties":{"id_ffco":"2310","nom":"CHABRIERES","_dept":"23","numero":"1990-D23-01","commune":"GUERET","echelle":"1/10000","surface":"1.5 km²","annee":"1990","proprietaire":"0301","specialite":"CO à pied","latitude":"46.169224","longitude":"1.8685741","valide":"Non","ppo":"Non","obsolete":false}}]}