{"type":"FeatureCollection","features":[{"type":"Feature","geometry":{"type":"Polygon","coordinates":[[[4.774,44.5602],[4.7755,44.561],[4.7764,44.5614],[4.7775,44.5617],[4.7795,44.5617],[4.7819,44.5613],[4.7848,44.5605],[4.7858,44.5595],[4.7864,44.5583],[4.7863,44.5575],[4.7859,44.5563],[4.7847,44.5551],[4.7838,44.555],[4.7798,44.5556],[4.7758,44.5567],[4.7743,44.5573],[4.7731,44.5575],[4.7724,44.5574],[4.772,44.5572],[4.7702,44.5596],[4.7716,44.56],[4.7726,44.5604],[4.7733,44.5603],[4.774,44.5602],[4.774,44.5602]]]},"properties":{"id_ffco":"5988","nom":"LE BOIS DE LION - MONTELIMAR","_dept":"26","numero":"2005-D26-EN-33","commune":"MONTELIMAR","echelle":"1/5000","surface":"0.63 km²","format":"A4","annee":"2005","cartographes":"COUPAT Gerard","proprietaire":"26 - Drôme","specialite":"CO à pied","contacts":"CDCO 26, cdco26@free.fr, http://cdco26.free.fr/index.html","latitude":"44.55889","longitude":"4.77986","date_saisie":"19/07/2013","valide":"Non","ppo":"Non","obsolete":true}},{"type":"Feature","geometry":{"type":"Polygon","coordinates":[[[5.0611,45.0742],[5.0576,45.0739],[5.0546,45.0742],[5.0542,45.076],[5.053,45.0783],[5.053,45.0808],[5.0559,45.0808],[5.0553,45.0851],[5.0579,45.085],[5.0671,45.0846],[5.0671,45.0785],[5.0658,45.0763],[5.0611,45.0742]]]},"properties":{"id_ffco":"5970","nom":"LES SIX GROTTES- MOURS ST EUSEBE","_dept":"26","numero":"2004-D26-EN-23","commune":"MOURS-SAINT-EUSEBE","echelle":"1/5000","surface":"1.12 km²","format":"A4","annee":"2004","cartographes":"MANGUERO Denise","proprietaire":"2604 - CLUB DE ROMANS DE COURSE D'ORIENTATION","specialite":"CO à pied","contacts":"CLUB ROMANS ORIENTATION, coromans2604@gmail.com, http://romans.orientation.free.fr/","latitude":"45.07951","longitude":"5.0601","date_saisie":"19/07/2013","valide":"Non","ppo":"Non","obsolete":true}},{"type":"Feature","geometry":{"type":"Polygon","coordinates":[[[4.9907,45.1222],[4.9895,45.1238],[4.9886,45.1247],[4.986,45.1258],[4.9856,45.1252],[4.9853,45.1244],[4.9836,45.124],[4.9832,45.1246],[4.981,45.1243],[4.9809,45.1238],[4.9801,45.1231],[4.9792,45.1225],[4.9784,45.1221],[4.9783,45.1213],[4.9785,45.1208],[4.979,45.12],[4.9789,45.118],[4.98,45.1183],[4.9804,45.1172],[4.9822,45.1163],[4.984,45.1167],[4.9851,45.1167],[4.9861,45.1172],[4.9869,45.1174],[4.986,45.1185],[4.9871,45.1192],[4.9877,45.1191],[4.9876,45.1202],[4.9894,45.1209],[4.9904,45.1217],[4.9907,45.1222]]]},"properties":{"id_ffco":"6849","nom":"SAINT DONAT SUR HERBASSE","_dept":"26","numero":"2013-D26-84","commune":"SAINT DONAT SUR HERBASSE","echelle":"1/4000","surface":"0.62 km²","format":"A4","annee":"2013","cartographes":"DEROUX Benoit","proprietaire":"2604 - CLUB DE ROMANS DE COURSE D'ORIENTATION","niveau":"Régional","specialite":"Sprint (ISSOM)","contacts":"CLUB ROMANS ORIENTATION, coromans2604@gmail.com, http://romans.orientation.free.fr/","latitude":"45.12106","longitude":"4.98352","date_saisie":"19/07/2013","date_depot":"05/05/2015","valide":"Oui","ppo":"Non","type_carte":"Nouvelle carte","fond":"Cadastre","obsolete":true}},{"type":"Feature","geometry":{"type":"Polygon","coordinates":[[[5.2115,44.9107],[5.2166,44.9109],[5.2201,44.9126],[5.2216,44.9127],[5.2254,44.9143],[5.2272,44.914],[5.2279,44.9127],[5.2268,44.9103],[5.2275,44.9081],[5.2266,44.9046],[5.2255,44.9024],[5.224,44.9007],[5.2245,44.8998],[5.2265,44.8991],[5.2263,44.8985],[5.2133,44.8977],[5.21,44.8975],[5.2088,44.898],[5.2087,44.9028],[5.2071,44.907],[5.2115,44.9107]]]},"properties":{"id_ffco":"5749","nom":"LEONCEL PISSENIBLE","_dept":"26","numero":"2010-D26-71","commune":"LEONCEL","echelle":"1/10000","surface":"2.18 km²","format":"A4","annee":"2010","cartographes":"ANTOINE Alain","proprietaire":"26 - Drôme","niveau":"National, International","specialite":"CO à pied","contacts":"CDCO 26, cdco26@free.fr, http://cdco26.free.fr/index.html","latitude":"44.90589","longitude":"5.21752","date_saisie":"19/07/2013","date_depot":"05/05/2015","valide":"Non","ppo":"Non","type_carte":"Reprise","base":"1998-D26-15 LEONCEL GRAND ECHALLON","fond":"Cadastre","obsolete":true}},{"type":"Feature","geometry":{"type":"Polygon","coordinates":[[[5.4163,44.9706],[5.3758,44.9663],[5.3497,44.9675],[5.3315,44.9658],[5.3205,44.9471],[5.3219,44.9381],[5.3215,44.9286],[5.3163,44.9259],[5.3119,44.9308],[5.3047,44.931],[5.2951,44.9286],[5.2947,44.9208],[5.2985,44.9096],[5.305,44.8984],[5.3188,44.8894],[5.3239,44.8802],[5.3342,44.8783],[5.3418,44.8778],[5.351,44.8894],[5.3606,44.9072],[5.3678,44.9196],[5.3733,44.9276],[5.3802,44.9461],[5.3878,44.9539],[5.3974,44.9485],[5.4046,44.9546],[5.4094,44.9609],[5.4214,44.9585],[5.4228,44.9655],[5.4163,44.9706]]]},"properties":{"id_ffco":"5748","nom":"VERCORS DROMOIS","_dept":"26","numero":"2010-D26-70","commune":"LA CHAPELLE EN VERCORS","echelle":"1/20000","surface":"46.99 km²","format":"+","annee":"2010","cartographes":"COTIRTA Marian","proprietaire":"26 - Drôme","niveau":"National, International","specialite":"Raid'O","contacts":"CDCO 26, cdco26@free.fr, http://cdco26.free.fr/index.html","latitude":"44.9242","longitude":"5.35875","date_saisie":"19/07/2013","date_depot":"22/05/2010","valide":"Oui","ppo":"Non","type_carte":"Nouvelle carte","fond":"IGN","obsolete":true}},{"type":"Feature","geometry":{"type":"Polygon","coordinates":[[[5.0415,45.0446],[5.042,45.0441],[5.0431,45.0436],[5.0449,45.0435],[5.0459,45.0431],[5.0465,45.0427],[5.0465,45.0422],[5.046,45.0418],[5.0443,45.0412],[5.0442,45.0415],[5.043,45.0422],[5.043,45.0427],[5.0424,45.0431],[5.0417,45.0436],[5.041,45.0442],[5.041,45.0445],[5.0415,45.0446],[5.0415,45.0446]]]},"properties":{"id_ffco":"6513","nom":"PARC F MITTERAND - ROMANS SUR ISERE","_dept":"26","numero":"2008-D26-64","commune":"ROMANS-SUR-ISERE","echelle":"1/1500","surface":"0.06 km²","format":"A4","annee":"2008","cartographes":"DEROUX Benoit","proprietaire":"26 - Drôme","niveau":"Régional","specialite":"CO à pied","contacts":"CDCO 26, cdco26@free.fr, http://cdco26.free.fr/index.html","latitude":"45.04288","longitude":"5.04376","date_saisie":"19/07/2013","date_depot":"05/05/2015","valide":"Oui","ppo":"Non","type_carte":"Nouvelle carte","fond":"Cadastre","obsolete":true}},{"type":"Feature","geometry":{"type":"Polygon","coordinates":[[[5.0442,45.0411],[5.0436,45.0409],[5.043,45.0413],[5.0432,45.0424],[5.0431,45.0427],[5.0424,45.0431],[5.0425,45.0439],[5.0433,45.0444],[5.0435,45.0449],[5.0465,45.0455],[5.0489,45.0457],[5.0515,45.0456],[5.0539,45.0454],[5.0548,45.0454],[5.0568,45.0449],[5.0586,45.0444],[5.0584,45.0433],[5.0577,45.0415],[5.0548,45.0419],[5.0498,45.0423],[5.0471,45.0421],[5.0458,45.0417],[5.045,45.0414],[5.0442,45.0411],[5.0442,45.0411]]]},"properties":{"id_ffco":"6512","nom":"ROMANS S/ISERE","_dept":"26","numero":"2008-D26-63","commune":"ROMANS-SUR-ISERE","echelle":"1/4000","surface":"0.47 km²","format":"A4","annee":"2008","cartographes":"DEROUX Benoit","proprietaire":"26 - Drôme","niveau":"Régional","specialite":"Sprint (ISSOM)","contacts":"CDCO 26, cdco26@free.fr, http://cdco26.free.fr/index.html","latitude":"45.04326","longitude":"5.05053","date_saisie":"19/07/2013","date_depot":"04/05/2015","valide":"Oui","ppo":"Non","type_carte":"Nouvelle carte","fond":"Cadastre","obsolete":true}},{"type":"Feature","geometry":{"type":"Polygon","coordinates":[[[5.0589,45.0844],[5.0601,45.0844],[5.0611,45.0845],[5.0619,45.0844],[5.0632,45.0843],[5.0643,45.0844],[5.0658,45.0852],[5.0667,45.0845],[5.0671,45.0842],[5.0671,45.0834],[5.0669,45.0822],[5.0671,45.0793],[5.0661,45.076],[5.0635,45.0746],[5.0605,45.0741],[5.0575,45.0742],[5.0551,45.075],[5.0547,45.0769],[5.0545,45.0795],[5.0553,45.0806],[5.0573,45.0805],[5.0571,45.0811],[5.0567,45.0813],[5.0568,45.0819],[5.056,45.0845],[5.0561,45.0855],[5.0569,45.0849],[5.058,45.0849],[5.0591,45.0845],[5.0589,45.0844],[5.0589,45.0844]]]},"properties":{"id_ffco":"6473","nom":"LES SIX GROTTES IV","_dept":"26","numero":"2007-D26-55","commune":"MOURS-SAINT-EUSEBE","echelle":"1/5000","surface":"0.98 km²","annee":"2007","cartographes":"MANGUERO Denise","proprietaire":"CONSEIL GENERAL DROME","specialite":"CO à pied","contacts":"CONSEIL GENERAL DROME, 04 75 79 26 26","latitude":"45.07748","longitude":"5.05983","date_saisie":"19/07/2013","valide":"Non","ppo":"Non","obsolete":true}},{"type":"Feature","geometry":{"type":"Polygon","coordinates":[[[4.8973,44.934],[4.8963,44.9325],[4.8955,44.9305],[4.895,44.9303],[4.8923,44.9303],[4.8906,44.9303],[4.8878,44.9306],[4.8853,44.9313],[4.8854,44.9319],[4.8883,44.9314],[4.889,44.9321],[4.8895,44.9328],[4.8895,44.9337],[4.8894,44.9343],[4.8896,44.935],[4.8899,44.9354],[4.8905,44.9361],[4.8915,44.9359],[4.8923,44.9361],[4.8929,44.9362],[4.8944,44.9358],[4.8962,44.9354],[4.8967,44.9351],[4.8968,44.9346],[4.8973,44.934],[4.8973,44.934]]]},"properties":{"id_ffco":"5823","nom":"VALENCE VIEILLE VILLE","_dept":"26","numero":"2006-D26-48","commune":"VALENCE","echelle":"1/3500","surface":"0.37 km²","format":"A4","annee":"2006","cartographes":"MERCIER Bruno","proprietaire":"2605 - VALENCE SPORTS ORIENTATION","specialite":"CO à pied","contacts":"CLUB VALENCE SPORT ORIENTATION, 04 75 59 20 81, vso.2605@free.fr, http://www.valence-sports-orientation.fr/","latitude":"44.93267","longitude":"4.89347","date_saisie":"19/07/2013","valide":"Non","ppo":"Non","type_carte":"Nouvelle carte","fond":"Cadastre","obsolete":true}},{"type":"Feature","geometry":{"type":"Polygon","coordinates":[[[4.9073,44.9372],[4.9061,44.9376],[4.905,44.9393],[4.906,44.9395],[4.9074,44.9397],[4.9079,44.9399],[4.908,44.9387],[4.9085,44.9384],[4.9085,44.938],[4.9081,44.9374],[4.9073,44.9372],[4.9073,44.9372]]]},"properties":{"id_ffco":"5881","nom":"PARC DU POLYGONE - VALENCE","_dept":"26","numero":"2006-D26-47","commune":"VALENCE","echelle":"1/1500","surface":"0.05 km²","format":"A4","annee":"2006","cartographes":"MERCIER Bruno","proprietaire":"2605 - VALENCE SPORTS ORIENTATION","specialite":"CO à pied","contacts":"CLUB VALENCE SPORT ORIENTATION, 04 75 59 20 81, vso.2605@free.fr, http://www.valence-sports-orientation.fr/","latitude":"44.93853","longitude":"4.90685","date_saisie":"19/07/2013","valide":"Non","ppo":"Non","type_carte":"Nouvelle carte","obsolete":true}},{"type":"Feature","geometry":{"type":"Polygon","coordinates":[[[4.8833,44.9197],[4.8816,44.9198],[4.881,44.9201],[4.8817,44.9206],[4.8823,44.9218],[4.8832,44.9226],[4.8835,44.9237],[4.8841,44.9247],[4.8847,44.9255],[4.885,44.9261],[4.8858,44.9263],[4.8862,44.926],[4.8855,44.9247],[4.8851,44.9229],[4.8849,44.9212],[4.8846,44.9205],[4.8842,44.9197],[4.8833,44.9197],[4.8833,44.9197]]]},"properties":{"id_ffco":"5879","nom":"PARC DES TRINITAIRES - VALENCE","_dept":"26","numero":"2006-D26-46","commune":"VALENCE","echelle":"1/2500","surface":"0.12 km²","format":"A4","annee":"2006","cartographes":"MERCIER Bruno","proprietaire":"2605 - VALENCE SPORTS ORIENTATION","niveau":"Initiation, Scolaire","specialite":"CO à pied","contacts":"CLUB VALENCE SPORT ORIENTATION, 04 75 59 20 81, vso.2605@free.fr, http://www.valence-sports-orientation.fr/","latitude":"44.92278","longitude":"4.88418","date_saisie":"19/07/2013","valide":"Non","ppo":"Non","type_carte":"Nouvelle carte","fond":"Cadastre","obsolete":true}},{"type":"Feature","geometry":{"type":"Polygon","coordinates":[[[4.6974,44.5586],[4.698,44.5583],[4.698,44.5581],[4.6983,44.558],[4.6993,44.5576],[4.6999,44.5575],[4.7012,44.5577],[4.7016,44.558],[4.7023,44.5586],[4.7027,44.5588],[4.7038,44.5583],[4.7038,44.5581],[4.7045,44.5585],[4.706,44.5576],[4.7055,44.5573],[4.7039,44.5545],[4.703,44.5518],[4.696,44.551],[4.6955,44.551],[4.6946,44.5511],[4.6943,44.5513],[4.6941,44.5515],[4.6939,44.5518],[4.6938,44.5523],[4.6943,44.5543],[4.695,44.5562],[4.6956,44.5573],[4.6964,44.5575],[4.6966,44.5579],[4.697,44.5585],[4.6974,44.5586],[4.6974,44.5586]]]},"properties":{"id_ffco":"5756","nom":"BASE DE LOISIR DE MONTELIMAR","_dept":"26","numero":"2004-D26-43","commune":"MONTELIMAR","echelle":"1/4000","surface":"0.57 km²","format":"A4","annee":"2004","cartographes":"COUPAT Gerard","proprietaire":"26 - Drôme","niveau":"Initiation, Scolaire","specialite":"CO à pied","contacts":"CDCO 26, cdco26@free.fr, http://cdco26.free.fr/index.html","latitude":"44.55482","longitude":"4.70031","date_saisie":"19/07/2013","valide":"Non","ppo":"Oui (15 postes)","type_carte":"Nouvelle carte","fond":"IGN","url":"http://editions-sportsnature.ladrome.fr/pdf/d-pliant-a4-base-de-loisirs-de-montmeillan.pdf","obsolete":true}},{"type":"Feature","geometry":{"type":"Polygon","coordinates":[[[5.0512,44.8679],[5.0507,44.8689],[5.0506,44.8698],[5.0506,44.87],[5.0519,44.8699],[5.0532,44.8695],[5.0546,44.8707],[5.0546,44.8717],[5.0547,44.8726],[5.0557,44.8742],[5.057,44.8747],[5.058,44.8748],[5.0597,44.8751],[5.0602,44.8756],[5.061,44.8759],[5.0621,44.8759],[5.0626,44.8754],[5.0638,44.8754],[5.0645,44.8754],[5.065,44.8758],[5.0664,44.8755],[5.068,44.8746],[5.069,44.8734],[5.0692,44.872],[5.0705,44.8719],[5.0695,44.8703],[5.0697,44.8692],[5.0698,44.8676],[5.0703,44.8669],[5.0708,44.8655],[5.0703,44.8634],[5.0705,44.8622],[5.0697,44.8617],[5.0686,44.8617],[5.0679,44.8606],[5.0672,44.8587],[5.0677,44.856],[5.0679,44.8544],[5.0679,44.853],[5.0653,44.8517],[5.0629,44.8508],[5.0622,44.8506],[5.0602,44.8513],[5.0581,44.851],[5.0562,44.8514],[5.0549,44.8513],[5.0543,44.8505],[5.0536,44.85],[5.0515,44.85],[5.0503,44.8506],[5.0491,44.8515],[5.0475,44.852],[5.0484,44.8527],[5.0492,44.854],[5.0494,44.8545],[5.0493,44.8557],[5.0484,44.8568],[5.0463,44.8581],[5.0478,44.8598],[5.0487,44.8612],[5.0494,44.8619],[5.0496,44.8629],[5.0498,44.8649],[5.0509,44.8669],[5.0512,44.8674],[5.0512,44.8679],[5.0512,44.8679]]]},"properties":{"id_ffco":"5760","nom":"LA TOUR","_dept":"26","numero":"2003-D26-40","commune":"BARCELONNE","echelle":"1/10000","surface":"3.92 km²","format":"A4","annee":"2003","cartographes":"MERCIER Bruno","proprietaire":"2605 - VALENCE SPORTS ORIENTATION","niveau":"Départemental","specialite":"CO à pied","contacts":"CLUB VALENCE SPORT ORIENTATION, 04 75 59 20 81, vso.2605@free.fr, http://www.valence-sports-orientation.fr/","latitude":"44.86294","longitude":"5.05854","date_saisie":"19/07/2013","valide":"Non","ppo":"Non","type_carte":"Nouvelle carte","fond":"Ortho","obsolete":true}},{"type":"Feature","geometry":null,"properties":{"id_ffco":"5780","nom":"FORET DOMANIALE CHAMOUSSE","_dept":"26","numero":"2003-D26-39","commune":"BARRET-DE-LIOURE","echelle":"1/10000","surface":"1.2 km²","annee":"2003","cartographes":"ANTOINE Alain","proprietaire":"26 - Drôme","specialite":"CO à pied","contacts":"CDCO 26, cdco26@free.fr, http://cdco26.free.fr/index.html","latitude":"44.19935","longitude":"5.49472","date_saisie":"19/07/2013","valide":"Non","ppo":"Non","obsolete":true}},{"type":"Feature","geometry":{"type":"Polygon","coordinates":[[[4.8342,44.4558],[4.8318,44.4569],[4.8312,44.4577],[4.8295,44.4573],[4.828,44.4574],[4.8266,44.4566],[4.8252,44.4566],[4.8232,44.4581],[4.8232,44.4591],[4.8238,44.4614],[4.8241,44.4638],[4.8237,44.4654],[4.8234,44.4671],[4.8224,44.4683],[4.822,44.4697],[4.8223,44.4709],[4.8231,44.4731],[4.8226,44.4736],[4.8199,44.4729],[4.8176,44.4727],[4.8153,44.4728],[4.8159,44.4737],[4.8201,44.4757],[4.8217,44.4772],[4.8231,44.4787],[4.8234,44.4796],[4.8232,44.4807],[4.8234,44.4826],[4.8225,44.4841],[4.8214,44.485],[4.821,44.4859],[4.8212,44.4884],[4.821,44.4899],[4.821,44.4911],[4.8207,44.4919],[4.8208,44.493],[4.8212,44.4946],[4.822,44.4964],[4.8222,44.4982],[4.8222,44.4982],[4.8223,44.4992],[4.8217,44.5003],[4.8222,44.5014],[4.8227,44.5033],[4.8237,44.5047],[4.8246,44.5061],[4.8247,44.5074],[4.825,44.5089],[4.8269,44.5098],[4.8298,44.5098],[4.8324,44.5098],[4.835,44.5078],[4.8369,44.5061],[4.8436,44.5028],[4.8492,44.5005],[4.8558,44.4982],[4.8632,44.4957],[4.8693,44.4942],[4.8747,44.4933],[4.8788,44.493],[4.884,44.4918],[4.8883,44.4926],[4.8901,44.4914],[4.8921,44.4887],[4.8919,44.4878],[4.8961,44.4859],[4.9011,44.4847],[4.9059,44.4828],[4.9054,44.481],[4.9062,44.48],[4.9066,44.4788],[4.905,44.4773],[4.9054,44.4757],[4.9053,44.474],[4.9051,44.4726],[4.9073,44.4717],[4.9055,44.4704],[4.8931,44.4701],[4.89,44.4689],[4.8895,44.4678],[4.8883,44.4655],[4.8849,44.4634],[4.8783,44.4627],[4.8761,44.4632],[4.8715,44.463],[4.8654,44.462],[4.8584,44.4614],[4.8532,44.4606],[4.8508,44.4599],[4.8342,44.4558],[4.8342,44.4558]]]},"properties":{"id_ffco":"6129","nom":"MONTJOYER","_dept":"26","numero":"2003-D26-37","commune":"GRIGNAN","echelle":"1/20000","surface":"25.57 km²","format":"A3","annee":"2003","cartographes":"BASTARD Robert","proprietaire":"2606 - LOISIR ORIENTATION UNION PIERRELATTINE","niveau":"National, International","specialite":"CO à VTT","contacts":"CLUB L.O.U.PIERRELATTE, 04 75 52 58 23, 06 86 40 42 35, laure.coupat@free.fr, http://loup.segustero.com/","latitude":"44.48284","longitude":"4.8613","date_saisie":"19/07/2013","valide":"Non","ppo":"Non","type_carte":"Nouvelle carte","fond":"Ortho","obsolete":true}},{"type":"Feature","geometry":{"type":"Polygon","coordinates":[[[5.1554,44.5324],[5.1575,44.5333],[5.1585,44.5345],[5.1594,44.5355],[5.1612,44.5359],[5.1623,44.5369],[5.1629,44.5387],[5.1628,44.5407],[5.162,44.5422],[5.1604,44.5436],[5.1586,44.5436],[5.1577,44.5434],[5.1581,44.5423],[5.1552,44.5408],[5.1542,44.5403],[5.1541,44.5389],[5.1547,44.5384],[5.1524,44.5372],[5.1526,44.5357],[5.154,44.5343],[5.1554,44.5324]]]},"properties":{"id_ffco":"5815","nom":"DOMAINE DE DAMIAN","_dept":"26","numero":"2003-D26-35","commune":"VESC","echelle":"1/4000","surface":"0.62 km²","annee":"2003","cartographes":"MERCIER Bruno","proprietaire":"26 - Drôme","specialite":"CO à pied","contacts":"CDCO 26, cdco26@free.fr, http://cdco26.free.fr/index.html","latitude":"44.53803","longitude":"5.15767","date_saisie":"19/07/2013","valide":"Non","ppo":"Non","obsolete":true}},{"type":"Feature","geometry":{"type":"Polygon","coordinates":[[[5.0103,45.1327],[5.0071,45.1314],[5.005,45.1309],[5.0037,45.1295],[5.0028,45.1267],[5.0012,45.126],[5.0003,45.126],[4.9996,45.1258],[4.9983,45.1249],[4.9961,45.1241],[4.9947,45.1233],[4.9927,45.1225],[4.9907,45.122],[4.9871,45.1218],[4.983,45.1213],[4.9809,45.1221],[4.9798,45.1232],[4.981,45.1248],[4.9821,45.1261],[4.9826,45.1277],[4.983,45.129],[4.9831,45.1308],[4.9826,45.1368],[4.9805,45.1416],[4.9794,45.1453],[4.9787,45.1489],[4.9781,45.1508],[4.9792,45.1529],[4.9797,45.1544],[4.9797,45.1552],[4.9787,45.1581],[4.9811,45.159],[4.9819,45.1592],[4.9838,45.1602],[4.9853,45.1615],[4.9866,45.1622],[4.9879,45.1636],[4.9881,45.1649],[4.9892,45.1674],[4.9905,45.1683],[4.9923,45.169],[4.9938,45.1692],[4.9943,45.1695],[4.9953,45.1701],[4.9987,45.1702],[5.0019,45.1703],[5.0062,45.1701],[5.0097,45.1688],[5.0126,45.1604],[5.0108,45.1591],[5.0116,45.1584],[5.0117,45.1553],[5.0118,45.1536],[5.0117,45.1511],[5.013,45.1479],[5.0131,45.1459],[5.0108,45.1439],[5.0099,45.1413],[5.0084,45.1393],[5.0074,45.1373],[5.0077,45.1367],[5.0101,45.1358],[5.0122,45.1348],[5.0103,45.1327],[5.0103,45.1327]]]},"properties":{"id_ffco":"5910","nom":"ST DONAT S/L'HERBASSE","_dept":"26","numero":"2003-D26-34","commune":"ST DONAT S/L'HERBASSE","echelle":"1/20000","surface":"11.15 km²","format":"A3","annee":"2003","cartographes":"MERCIER Bruno","proprietaire":"2605 - VALENCE SPORTS ORIENTATION","niveau":"Départemental","specialite":"Rand'O","contacts":"CLUB VALENCE SPORT ORIENTATION, 04 75 59 20 81, vso.2605@free.fr, http://www.valence-sports-orientation.fr/","latitude":"45.14582","longitude":"4.99558","date_saisie":"19/07/2013","valide":"Non","ppo":"Non","type_carte":"Nouvelle carte","fond":"IGN","obsolete":true}},{"type":"Feature","geometry":{"type":"Polygon","coordinates":[[[4.889,44.9276],[4.8891,44.9278],[4.8868,44.9281],[4.8852,44.9288],[4.8843,44.9289],[4.8835,44.9291],[4.8835,44.9292],[4.8837,44.9297],[4.8853,44.9314],[4.889,44.9306],[4.8906,44.9305],[4.889,44.9276],[4.889,44.9276]]]},"properties":{"id_ffco":"6125","nom":"PARC JOUVET / KIOSQUE PEYNET","_dept":"26","numero":"2002-D26-33","commune":"VALENCE","echelle":"1/2000","surface":"0.13 km²","format":"A4","annee":"2002","cartographes":"PLEYVEL Benoît","proprietaire":"2605 - VALENCE SPORTS ORIENTATION","specialite":"CO à pied","contacts":"CLUB VALENCE SPORT ORIENTATION, 04 75 59 20 81, vso.2605@free.fr, http://www.valence-sports-orientation.fr/","latitude":"44.92968","longitude":"4.88693","date_saisie":"19/07/2013","valide":"Non","ppo":"Non","obsolete":true}},{"type":"Feature","geometry":{"type":"Polygon","coordinates":[[[5.7769,44.6917],[5.7794,44.6917],[5.779,44.6864],[5.7778,44.6866],[5.7766,44.6862],[5.7754,44.6854],[5.7734,44.6844],[5.7729,44.6838],[5.7727,44.6831],[5.7733,44.6827],[5.7732,44.6825],[5.7722,44.682],[5.7721,44.6814],[5.7711,44.681],[5.7712,44.6806],[5.7714,44.6801],[5.7705,44.68],[5.7703,44.6796],[5.7708,44.6788],[5.7712,44.6782],[5.7709,44.6781],[5.7703,44.6781],[5.7697,44.6788],[5.7694,44.6792],[5.7683,44.6793],[5.7669,44.6787],[5.7655,44.6788],[5.7657,44.6833],[5.7671,44.6846],[5.7679,44.6854],[5.7688,44.6861],[5.7691,44.6866],[5.77,44.687],[5.7706,44.688],[5.7692,44.6904],[5.7699,44.6905],[5.7725,44.6908],[5.7743,44.6918],[5.7743,44.6918],[5.7769,44.6917],[5.7769,44.6917]]]},"properties":{"id_ffco":"5880","nom":"LA JARJATTE II","_dept":"26","numero":"2002-D26-32","commune":"LUS-LA-CROIX-HAUTE","echelle":"1/5000","surface":"0.84 km²","format":"A4","annee":"2002","cartographes":"MERCIER Bruno","proprietaire":"26 - Drôme","niveau":"Départemental","specialite":"CO à pied","contacts":"CDCO 26, cdco26@free.fr, http://cdco26.free.fr/index.html","latitude":"44.68613","longitude":"5.77279","date_saisie":"19/07/2013","valide":"Non","ppo":"Non","type_carte":"Nouvelle carte","fond":"IGN","obsolete":true}},{"type":"Feature","geometry":{"type":"Polygon","coordinates":[[[5.3342,44.9021],[5.3311,44.9022],[5.3285,44.9044],[5.3276,44.9048],[5.3275,44.9059],[5.3278,44.91],[5.3285,44.9106],[5.3312,44.9113],[5.3322,44.911],[5.3326,44.9103],[5.3335,44.91],[5.3338,44.9092],[5.3346,44.9089],[5.3352,44.9081],[5.3359,44.9076],[5.3359,44.9063],[5.3364,44.9059],[5.3364,44.9058],[5.3363,44.9055],[5.3357,44.9046],[5.3356,44.9044],[5.336,44.9039],[5.3361,44.903],[5.3352,44.9027],[5.3346,44.9024],[5.3342,44.9021],[5.3342,44.9021]]]},"properties":{"id_ffco":"6158","nom":"LA CLAIRIERE/CHAUD CLAPIER","_dept":"26","numero":"2002-D26-31","commune":"BOUVANTE","echelle":"1/3500","surface":"0.53 km²","format":"A4","annee":"2002","cartographes":"MERCIER Bruno","proprietaire":"26 - Drôme","specialite":"CO à pied","contacts":"CDCO 26, cdco26@free.fr, http://cdco26.free.fr/index.html","latitude":"44.90664","longitude":"5.33235","date_saisie":"19/07/2013","valide":"Non","ppo":"Non","obsolete":true}},{"type":"Feature","geometry":{"type":"Polygon","coordinates":[[[5.3216,44.8974],[5.3217,44.8973],[5.3191,44.8981],[5.3193,44.9001],[5.3167,44.9034],[5.3135,44.9054],[5.313,44.9089],[5.3147,44.9115],[5.3243,44.9154],[5.3245,44.9158],[5.3245,44.9154],[5.3248,44.9156],[5.3251,44.9159],[5.3249,44.9164],[5.3254,44.9167],[5.3259,44.9157],[5.3263,44.9143],[5.3259,44.9134],[5.3259,44.913],[5.3261,44.9104],[5.3262,44.9103],[5.3267,44.91],[5.3275,44.9098],[5.3277,44.9099],[5.3286,44.9106],[5.3296,44.9108],[5.3311,44.9113],[5.3322,44.911],[5.3325,44.9103],[5.3334,44.9101],[5.3337,44.9092],[5.3351,44.9083],[5.336,44.9076],[5.336,44.9067],[5.336,44.9061],[5.337,44.9059],[5.3362,44.9053],[5.3357,44.9049],[5.3355,44.9045],[5.336,44.9039],[5.3361,44.903],[5.3347,44.9026],[5.3339,44.902],[5.3328,44.9013],[5.3313,44.901],[5.3305,44.9009],[5.3297,44.9009],[5.3292,44.9009],[5.3289,44.9008],[5.3285,44.9006],[5.3273,44.8996],[5.3266,44.8993],[5.3259,44.8989],[5.3246,44.8988],[5.3236,44.8981],[5.3227,44.8979],[5.3216,44.8974],[5.3216,44.8974]]]},"properties":{"id_ffco":"5963","nom":"CHAUD CLAPIER","_dept":"26","numero":"2002-D26-30","commune":"BOUVANTE","echelle":"1/10000","surface":"2.24 km²","format":"A4","annee":"2002","cartographes":"MERCIER Bruno","proprietaire":"26 - Drôme","specialite":"CO à pied","contacts":"CDCO 26, cdco26@free.fr, http://cdco26.free.fr/index.html","latitude":"44.907","longitude":"5.32503","date_saisie":"19/07/2013","valide":"Non","ppo":"Non","obsolete":true}},{"type":"Feature","geometry":{"type":"Polygon","coordinates":[[[5.2171,44.9098],[5.2172,44.9097],[5.2152,44.908],[5.2139,44.9087],[5.2118,44.9082],[5.2108,44.9086],[5.2098,44.9087],[5.205,44.9102],[5.2048,44.9122],[5.2058,44.9143],[5.2072,44.9153],[5.2102,44.9152],[5.2135,44.9153],[5.2142,44.9159],[5.215,44.9164],[5.2154,44.9167],[5.2164,44.9155],[5.2169,44.9149],[5.217,44.9143],[5.2166,44.9136],[5.2165,44.9133],[5.2166,44.9121],[5.2173,44.9115],[5.2171,44.9098],[5.2171,44.9098]]]},"properties":{"id_ffco":"5962","nom":"LE GRAND ECHAILLON","_dept":"26","numero":"2001-D26-29","commune":"LEONCEL","echelle":"1/5000","surface":"0.67 km²","format":"A4","annee":"2001","cartographes":"Régis ANTOINE","proprietaire":"26 - Drôme","niveau":"Régional","specialite":"CO à pied","contacts":"CDCO 26, cdco26@free.fr, http://cdco26.free.fr/index.html","latitude":"44.91237","longitude":"5.21104","date_saisie":"19/07/2013","valide":"Non","ppo":"Non","type_carte":"Nouvelle carte","fond":"IGN","obsolete":true}},{"type":"Feature","geometry":{"type":"Polygon","coordinates":[[[5.4033,44.8367],[5.4021,44.8377],[5.4007,44.8395],[5.4016,44.8404],[5.4028,44.8419],[5.4058,44.8426],[5.4072,44.8427],[5.4084,44.8432],[5.4103,44.8433],[5.4122,44.8431],[5.4136,44.8429],[5.4229,44.843],[5.4249,44.8429],[5.426,44.8414],[5.4258,44.8327],[5.4255,44.829],[5.4157,44.8291],[5.4144,44.8312],[5.4124,44.8321],[5.4101,44.8314],[5.4078,44.8311],[5.4049,44.8319],[5.4041,44.8335],[5.4031,44.8366],[5.4032,44.8365],[5.4032,44.8365],[5.4033,44.8367],[5.4029,44.8371],[5.4028,44.837],[5.4033,44.8367]]]},"properties":{"id_ffco":"5869","nom":"COL DU ROUSSET","_dept":"26","numero":"2002-D26-27","commune":"SAINT AGNAN EN VERCORS","echelle":"1/5000","surface":"2.52 km²","format":"A3","annee":"2002","cartographes":"PLOCKYN Daniel","proprietaire":"26 - Drôme","specialite":"CO à pied","contacts":"CDCO 26, cdco26@free.fr, http://cdco26.free.fr/index.html","latitude":"44.83613","longitude":"5.41334","date_saisie":"19/07/2013","valide":"Non","ppo":"Non","obsolete":true}},{"type":"Feature","geometry":{"type":"Polygon","coordinates":[[[5.4033,44.8367],[5.4021,44.8377],[5.4007,44.8395],[5.4016,44.8404],[5.4028,44.8419],[5.4058,44.8426],[5.4072,44.8427],[5.4084,44.8432],[5.4085,44.8447],[5.4104,44.8484],[5.4127,44.8525],[5.4154,44.8564],[5.4169,44.8579],[5.4191,44.8579],[5.4207,44.8573],[5.4219,44.8543],[5.4227,44.8535],[5.4232,44.855],[5.4248,44.8565],[5.427,44.8567],[5.4309,44.8561],[5.4333,44.8539],[5.4376,44.8506],[5.4421,44.8451],[5.4457,44.8413],[5.4506,44.8348],[5.4527,44.8305],[5.4528,44.8283],[5.4488,44.8293],[5.4447,44.8291],[5.4401,44.827],[5.4336,44.8275],[5.4289,44.8272],[5.4222,44.8268],[5.4204,44.8267],[5.4177,44.8268],[5.4157,44.8291],[5.4144,44.8312],[5.4124,44.8321],[5.4101,44.8314],[5.4078,44.8311],[5.4049,44.8319],[5.4041,44.8335],[5.4028,44.8367],[5.4018,44.8374],[5.4033,44.8367],[5.4033,44.8367]]]},"properties":{"id_ffco":"5883","nom":"PLATEAU DE BEURE COL DU ROUSSET","_dept":"26","numero":"2002-D26-26","commune":"SAINT-AGNAN-EN-VERCORS","echelle":"1/15000","surface":"8.98 km²","format":"A3","annee":"2002","cartographes":"PLOCKYN Daniel","proprietaire":"26 - Drôme","niveau":"National, International","specialite":"CO à pied","contacts":"CDCO 26, cdco26@free.fr, http://cdco26.free.fr/index.html","latitude":"44.84228","longitude":"5.42676","date_saisie":"19/07/2013","valide":"Oui","ppo":"Oui (25 postes)","type_carte":"Nouvelle carte","fond":"IGN","obsolete":true}},{"type":"Feature","geometry":{"type":"Polygon","coordinates":[[[5.3952,44.8815],[5.3935,44.882],[5.3905,44.8824],[5.3896,44.8841],[5.3907,44.8873],[5.394,44.8903],[5.3964,44.8918],[5.4003,44.8947],[5.402,44.8953],[5.4052,44.8946],[5.4057,44.8973],[5.4066,44.9],[5.4089,44.9031],[5.4092,44.9041],[5.4094,44.9063],[5.4137,44.9064],[5.4182,44.9067],[5.4172,44.8996],[5.4165,44.8931],[5.4155,44.8916],[5.4149,44.889],[5.4131,44.8865],[5.4125,44.885],[5.4127,44.8812],[5.4125,44.8792],[5.4112,44.8757],[5.4093,44.8717],[5.4059,44.8721],[5.4045,44.8743],[5.4027,44.874],[5.4013,44.874],[5.3991,44.8745],[5.399,44.8746],[5.3952,44.8815],[5.3952,44.8815]]]},"properties":{"id_ffco":"5778","nom":"LA TROMPE","_dept":"26","numero":"2002-D26-25","commune":"VASSIEUX-EN-VERCORS","echelle":"1/10000","surface":"4.54 km²","format":"A3","annee":"2002","cartographes":"PLOCKYN Daniel","proprietaire":"26 - Drôme","niveau":"National, International","specialite":"CO à pied","contacts":"CDCO 26, cdco26@free.fr, http://cdco26.free.fr/index.html","latitude":"44.8892","longitude":"5.40391","date_saisie":"19/07/2013","valide":"Oui","ppo":"Oui (25 postes)","type_carte":"Nouvelle carte","fond":"Ortho","obsolete":true}},{"type":"Feature","geometry":{"type":"Polygon","coordinates":[[[5.606,44.4841],[5.6108,44.4818],[5.613,44.4852],[5.6191,44.4858],[5.6224,44.4884],[5.6241,44.4888],[5.6251,44.4854],[5.6209,44.482],[5.6196,44.4778],[5.6169,44.4727],[5.614,44.4713],[5.6112,44.4693],[5.6059,44.4674],[5.6018,44.4691],[5.6005,44.4719],[5.6009,44.4787],[5.6024,44.482],[5.606,44.4841]]]},"properties":{"id_ffco":"5984","nom":"HAUTOURE","_dept":"26","numero":"2001-D26-22","commune":"VALDROME","echelle":"1/10000","surface":"2.47 km²","format":"A4","annee":"2001","cartographes":"MERCIER Bruno","proprietaire":"26 - Drôme","specialite":"CO à pied","contacts":"CDCO 26, cdco26@free.fr, http://cdco26.free.fr/index.html","latitude":"44.47967","longitude":"5.61289","date_saisie":"19/07/2013","valide":"Non","ppo":"Non","obsolete":true}},{"type":"Feature","geometry":null,"properties":{"id_ffco":"6902","nom":"LES 6 GROTTES","_dept":"26","numero":"2001-D26-21","commune":"MOURS SAINT EUSEBE","echelle":"1/5000","surface":"None km²","annee":"2001","cartographes":"MANGUERO Denise","proprietaire":"2604 - CLUB DE ROMANS DE COURSE D'ORIENTATION","specialite":"CO à pied","contacts":"CLUB ROMANS ORIENTATION, coromans2604@gmail.com, http://romans.orientation.free.fr/","date_saisie":"19/07/2013","valide":"Non","ppo":"Non","obsolete":true}},{"type":"Feature","geometry":{"type":"Polygon","coordinates":[[[4.8313,44.291],[4.8345,44.2914],[4.8377,44.2912],[4.8384,44.2911],[4.8389,44.2891],[4.8387,44.2883],[4.8361,44.2859],[4.8342,44.2855],[4.8324,44.2855],[4.8305,44.286],[4.8313,44.291]]]},"properties":{"id_ffco":"6134","nom":"LA GARENNE","_dept":"26","numero":"1999-D26-20","commune":"SUZE-LA-ROUSSE","echelle":"1/3300","surface":"0.35 km²","format":"A4","annee":"1999","cartographes":"COUPAT Gerard","proprietaire":"2606 - LOISIR ORIENTATION UNION PIERRELATTINE","niveau":"Initiation, Scolaire","specialite":"CO à pied","contacts":"CLUB L.O.U.PIERRELATTE, 04 75 52 58 23, 06 86 40 42 35, laure.coupat@free.fr, http://loup.segustero.com/","latitude":"44.28846","longitude":"4.83541","date_saisie":"19/07/2013","valide":"Non","ppo":"Non","type_carte":"Nouvelle carte","fond":"Ortho","obsolete":true}},{"type":"Feature","geometry":null,"properties":{"id_ffco":"6175","nom":"LA RONCERAIE","_dept":"26","numero":"1998-D26-18","commune":"LAVEYRON","echelle":"1/2500","surface":"0.15 km²","annee":"1998","cartographes":"COUPAT Gerard","proprietaire":"2606 - LOISIR ORIENTATION UNION PIERRELATTINE","specialite":"CO à pied","contacts":"CLUB L.O.U.PIERRELATTE, 04 75 52 58 23, 06 86 40 42 35, laure.coupat@free.fr, http://loup.segustero.com/","latitude":"45.1985","longitude":"4.81273","date_saisie":"19/07/2013","valide":"Non","ppo":"Non","obsolete":true}},{"type":"Feature","geometry":null,"properties":{"id_ffco":"6222","nom":"ENSEMBLE SPORTIF D JAUME","_dept":"26","numero":"1998-D26-17","commune":"PIERRELATTE","echelle":"1/1500","surface":"0.06 km²","annee":"1998","cartographes":"COUPAT Gerard","proprietaire":"2606 - LOISIR ORIENTATION UNION PIERRELATTINE","specialite":"CO à pied","contacts":"CLUB L.O.U.PIERRELATTE, 04 75 52 58 23, 06 86 40 42 35, laure.coupat@free.fr, http://loup.segustero.com/","latitude":"44.36885","longitude":"4.69688","date_saisie":"19/07/2013","valide":"Non","ppo":"Non","obsolete":true}},{"type":"Feature","geometry":{"type":"Polygon","coordinates":[[[4.8158,45.1785],[4.8172,45.179],[4.8187,45.1782],[4.8206,45.1779],[4.8217,45.1779],[4.8225,45.1775],[4.8228,45.177],[4.8231,45.176],[4.8237,45.1752],[4.8242,45.1748],[4.8246,45.1747],[4.8251,45.1747],[4.8261,45.1749],[4.8269,45.1747],[4.827,45.1745],[4.826,45.1745],[4.8254,45.1743],[4.8234,45.1735],[4.8229,45.1735],[4.8228,45.1738],[4.8223,45.1762],[4.8218,45.1771],[4.8206,45.1774],[4.8187,45.1775],[4.8169,45.1776],[4.8162,45.1779],[4.8157,45.1782],[4.8158,45.1785]]]},"properties":{"id_ffco":"12954","nom":"Les jardins de la Galaure (St Vallier)","_dept":"26","numero":"2021-D26-164","commune":"SAINT VALLIER","echelle":"1/3000","surface":"0.09 km²","format":"A4","annee":"2021","cartographes":"Nicolas RIO","proprietaire":"26 - Drôme","niveau":"Initiation, Scolaire","specialite":"Sprint (ISSOM)","contacts":"CDCO 26, cdco.drome@gmail.com, http://cdco26.fr/","latitude":"45.1764381928","longitude":"4.82122129752","date_saisie":"15/10/2021","date_depot":"07/03/2022","valide":"Oui","ppo":"Non","type_carte":"Nouvelle carte","fond":"Ortho","obsolete":true}},{"type":"Feature","geometry":null,"properties":{"id_ffco":"5966","nom":"LE CENTRE AERE","_dept":"26","numero":"1998-D26-16","commune":"LA GARDE ADHEMAR","echelle":"1/4000","surface":"0.16 km²","annee":"1998","cartographes":"COUPAT Gerard","proprietaire":"2606 - LOISIR ORIENTATION UNION PIERRELATTINE","specialite":"CO à pied","contacts":"CLUB L.O.U.PIERRELATTE, 04 75 52 58 23, 06 86 40 42 35, laure.coupat@free.fr, http://loup.segustero.com/","latitude":"44.40102","longitude":"4.77907","date_saisie":"19/07/2013","valide":"Non","ppo":"Non","obsolete":true}},{"type":"Feature","geometry":{"type":"Polygon","coordinates":[[[5.0949,44.6543],[5.0944,44.6546],[5.0951,44.6556],[5.095,44.6577],[5.0933,44.6586],[5.0906,44.659],[5.0915,44.6616],[5.0937,44.6632],[5.0927,44.6654],[5.0964,44.6653],[5.1009,44.665],[5.1032,44.6633],[5.1043,44.6631],[5.1072,44.6617],[5.1097,44.6594],[5.1174,44.6565],[5.1174,44.655],[5.116,44.6551],[5.1109,44.6561],[5.1072,44.6563],[5.104,44.6564],[5.1011,44.6562],[5.0989,44.6563],[5.0962,44.6548],[5.0949,44.6543]]]},"properties":{"id_ffco":"12117","nom":"Forêt de Saou","_dept":"26","numero":"2020-D26-153","commune":"SAOU","echelle":"1/7500","surface":"1.31 km²","format":"A4","annee":"2020","cartographes":"Rémi LEQUINT","proprietaire":"26 - Drôme","niveau":"Départemental","specialite":"CO à pied","latitude":"44.6597584695","longitude":"5.10157772257","date_saisie":"09/09/2020","valide":"Non","ppo":"Oui (15 postes)","type_carte":"Reprise","base":"2010-D26-1061 FORET DEPARTEMENTALE DE SAOU (LA PRADE)","fond":"Cadastre","obsolete":true}},{"type":"Feature","geometry":{"type":"Polygon","coordinates":[[[5.2311,44.8989],[5.2146,44.8903],[5.2109,44.8903],[5.209,44.8981],[5.2068,44.9053],[5.2046,44.9087],[5.2076,44.9132],[5.2111,44.9143],[5.2135,44.9158],[5.2189,44.9182],[5.2204,44.9183],[5.222,44.9164],[5.2233,44.9162],[5.2243,44.9174],[5.2251,44.9188],[5.2293,44.9194],[5.2329,44.9189],[5.2351,44.9173],[5.2384,44.9141],[5.2412,44.9123],[5.2364,44.9057],[5.2326,44.9013],[5.2311,44.8989]]]},"properties":{"id_ffco":"6176","nom":"LEONCEL GRAND ECHALLON","_dept":"26","numero":"1998-D26-15","commune":"LEONCEL","echelle":"1/15000","surface":"5.75 km²","format":"A3","annee":"1998","cartographes":"SHO Cart","proprietaire":"2605 - VALENCE SPORTS ORIENTATION","niveau":"National, International","specialite":"CO à pied","contacts":"CLUB VALENCE SPORT ORIENTATION, 04 75 59 20 81, vso.2605@free.fr, http://www.valence-sports-orientation.fr/","latitude":"44.90912","longitude":"5.21561","date_saisie":"19/07/2013","valide":"Non","ppo":"Non","type_carte":"Nouvelle carte","fond":"IGN","obsolete":true}},{"type":"Feature","geometry":{"type":"Polygon","coordinates":[[[5.4198,44.9629],[5.4042,44.963],[5.4026,44.9735],[5.4039,44.9761],[5.4044,44.9793],[5.4059,44.981],[5.4066,44.9813],[5.4078,44.9825],[5.4097,44.9854],[5.4119,44.9873],[5.413,44.9888],[5.4138,44.9894],[5.416,44.9891],[5.4171,44.9891],[5.418,44.9879],[5.4185,44.9872],[5.4215,44.9887],[5.4221,44.9876],[5.4244,44.9874],[5.4255,44.9877],[5.4268,44.9868],[5.4271,44.9854],[5.4276,44.9845],[5.4272,44.9826],[5.4273,44.9817],[5.4269,44.9812],[5.4262,44.9811],[5.4262,44.9806],[5.4271,44.9787],[5.4272,44.9775],[5.4278,44.9773],[5.4275,44.9764],[5.4281,44.9746],[5.4281,44.9735],[5.4285,44.9723],[5.4292,44.9715],[5.4294,44.971],[5.4293,44.9692],[5.4283,44.968],[5.4274,44.9668],[5.4253,44.9655],[5.4241,44.9651],[5.4226,44.964],[5.422,44.9642],[5.4219,44.9648],[5.4199,44.9655],[5.4193,44.9658],[5.4196,44.964],[5.4198,44.9629]]]},"properties":{"id_ffco":"11495","nom":"Les Bruyères de la Chapelle","_dept":"26","numero":"2019-D26-140","commune":"LA CHAPELLE EN VERCORS","echelle":"1/10000","surface":"4.79 km²","format":"A4","annee":"2019","cartographes":"B. Mercier,G. Buridan","proprietaire":"2605 - VALENCE SPORTS ORIENTATION","niveau":"National, International","specialite":"CO à pied","contacts":"CLUB VALENCE SPORT ORIENTATION, 04 75 59 20 81, vso.2605@free.fr, http://www.valence-sports-orientation.fr/","latitude":"44.9750505926","longitude":"5.41599744681","date_saisie":"09/05/2019","date_depot":"02/04/2021","valide":"Oui","ppo":"Non","type_carte":"Reprise","base":"2006-D26-10 LES BRUYERES","fond":"Ortho","obsolete":true}},{"type":"Feature","geometry":null,"properties":{"id_ffco":"5870","nom":"PARC VALENCE LE HAUT","_dept":"26","numero":"1996-D26-14","commune":"VALENCE","echelle":"1/5000","surface":"None km²","annee":"1996","cartographes":"ANTOINE Alain","proprietaire":"2605 - VALENCE SPORTS ORIENTATION","specialite":"CO à pied","contacts":"CLUB VALENCE SPORT ORIENTATION, 04 75 59 20 81, vso.2605@free.fr, http://www.valence-sports-orientation.fr/","latitude":"44.93554","longitude":"4.92451","date_saisie":"19/07/2013","valide":"Non","ppo":"Non","obsolete":true}},{"type":"Feature","geometry":{"type":"Polygon","coordinates":[[[4.9085,44.9307],[4.9107,44.931],[4.9109,44.9301],[4.9112,44.9293],[4.9112,44.9291],[4.9102,44.9292],[4.9096,44.9293],[4.9096,44.9295],[4.9088,44.9296],[4.9084,44.9298],[4.9085,44.9307]]]},"properties":{"id_ffco":"11258","nom":"IND Valence","_dept":"26","numero":"2018-D26-136","commune":"VALENCE","echelle":"1/1000","surface":"0.03 km²","format":"A4","annee":"2018","cartographes":"Gil BURIDAN","proprietaire":"26 - Drôme","niveau":"Initiation, Scolaire","specialite":"CO à pied","latitude":"44.9300621456","longitude":"4.90982994268","date_saisie":"09/12/2018","valide":"Non","ppo":"Non","type_carte":"Reprise","base":"2008-D26-1046 INSTITUTION NOTRE DAME - VALENCE","fond":"Ortho","obsolete":true}},{"type":"Feature","geometry":{"type":"Polygon","coordinates":[[[5.0178,44.7284],[5.0164,44.7302],[5.0181,44.7309],[5.0206,44.7297],[5.022,44.7309],[5.0255,44.7303],[5.0275,44.7298],[5.0274,44.7284],[5.0244,44.7276],[5.0216,44.7273],[5.0178,44.7284]]]},"properties":{"id_ffco":"10322","nom":"Ville de Crest","_dept":"26","numero":"2017-D26-130","commune":"CREST","echelle":"1/4000","surface":"0.24 km²","format":"A4","annee":"2017","cartographes":"Renaud GRANSART","proprietaire":"2604 - CLUB DE ROMANS DE COURSE D'ORIENTATION","niveau":"Régional","specialite":"Sprint (ISSOM)","contacts":"CLUB ROMANS ORIENTATION, coromans2604@gmail.com, http://romans.orientation.free.fr/","latitude":"44.7291129349","longitude":"5.02220742576","date_saisie":"18/09/2017","valide":"Non","ppo":"Non","type_carte":"Nouvelle carte","fond":"Cadastre","obsolete":true}},{"type":"Feature","geometry":null,"properties":{"id_ffco":"6901","nom":"LES 6 GROTTES","_dept":"26","numero":"1995-D26-13","commune":"MOURS SAINT EUSEBE","echelle":"1/7500","surface":"None km²","annee":"1995","cartographes":"MANGUERO Denise","proprietaire":"2604 - CLUB DE ROMANS DE COURSE D'ORIENTATION","specialite":"CO à pied","contacts":"CLUB ROMANS ORIENTATION, coromans2604@gmail.com, http://romans.orientation.free.fr/","date_saisie":"19/07/2013","valide":"Non","ppo":"Non","obsolete":true}},{"type":"Feature","geometry":{"type":"Polygon","coordinates":[[[5.0202,44.9039],[5.0225,44.903],[5.0223,44.9024],[5.0231,44.902],[5.0225,44.9],[5.023,44.8997],[5.0232,44.8984],[5.024,44.8974],[5.0245,44.8966],[5.0222,44.8962],[5.021,44.8966],[5.0211,44.8973],[5.0203,44.8977],[5.0177,44.8979],[5.017,44.8985],[5.0162,44.8989],[5.0166,44.8998],[5.0186,44.8994],[5.0184,44.8999],[5.019,44.9017],[5.0202,44.9039]]]},"properties":{"id_ffco":"10133","nom":"Chabeuil - Centre ville","_dept":"26","numero":"2017-D26-124","commune":"CHABEUIL","echelle":"1/4000","surface":"0.26 km²","format":"A4","annee":"2017","cartographes":"DEROUX Benoit,Gwenaël FAURE,Jean LE PENNEC","proprietaire":"26 - Drôme","niveau":"Départemental","specialite":"Sprint (ISSOM)","contacts":"CDCO 26, cdco.drome@gmail.com, http://cdco26.fr/","latitude":"44.8997085577","longitude":"5.02076192585","date_saisie":"29/03/2017","date_depot":"01/03/2018","valide":"Oui","ppo":"Non","type_carte":"Nouvelle carte","fond":"Cadastre","obsolete":true}},{"type":"Feature","geometry":{"type":"Polygon","coordinates":[[[5.0064,45.1375],[5.0064,45.1365],[5.0124,45.1344],[5.0084,45.1319],[5.0066,45.1313],[5.0048,45.131],[5.0039,45.1299],[5.0027,45.1302],[5.0033,45.1317],[5.0034,45.1335],[5.0046,45.1352],[5.0048,45.1363],[5.006,45.1375],[5.0064,45.1375]]]},"properties":{"id_ffco":"9575","nom":"Lac de Champos","_dept":"26","numero":"2016-D26-117","commune":"Charmes sur Herbasse","echelle":"1/3500","surface":"0.29 km²","format":"A4","annee":"2016","cartographes":"B. Deroux","proprietaire":"2604 - CLUB DE ROMANS DE COURSE D'ORIENTATION","niveau":"Initiation, Scolaire","specialite":"CO à pied","contacts":"CLUB ROMANS CO - CROCO, coromans2604@gmail.com","latitude":"45.1336477408","longitude":"5.00673883752","date_saisie":"15/05/2016","date_depot":"01/02/2017","valide":"Oui","ppo":"Non","type_carte":"Nouvelle carte","fond":"Ortho","obsolete":true}},{"type":"Feature","geometry":null,"properties":{"id_ffco":"12145","nom":"X","_dept":"26","numero":"2020-D26-1076","surface":"None km²","annee":"2020","date_saisie":"24/09/2020","valide":"Non","ppo":"Non","obsolete":true}},{"type":"Feature","geometry":null,"properties":{"id_ffco":"12144","nom":"co","_dept":"26","numero":"2020-D26-1075","surface":"None km²","annee":"2020","date_saisie":"24/09/2020","valide":"Non","ppo":"Oui (1 postes)","obsolete":true}},{"type":"Feature","geometry":null,"properties":{"id_ffco":"12143","nom":"xx","_dept":"26","numero":"2020-D26-1074","surface":"None km²","annee":"2020","date_saisie":"24/09/2020","valide":"Non","ppo":"Non","obsolete":true}},{"type":"Feature","geometry":null,"properties":{"id_ffco":"12137","nom":"xxxx","_dept":"26","numero":"2020-D26-1073","surface":"None km²","annee":"2020","date_saisie":"24/09/2020","valide":"Non","ppo":"Non","obsolete":true}},{"type":"Feature","geometry":null,"properties":{"id_ffco":"12134","nom":"xxx","_dept":"26","numero":"2020-D26-1072","surface":"None km²","annee":"2020","date_saisie":"23/09/2020","valide":"Non","ppo":"Non","obsolete":true}},{"type":"Feature","geometry":null,"properties":{"id_ffco":"12133","nom":"xxx","_dept":"26","numero":"2020-D26-1071","surface":"None km²","annee":"2020","date_saisie":"23/09/2020","valide":"Non","ppo":"Non","obsolete":true}},{"type":"Feature","geometry":{"type":"Polygon","coordinates":[[[5.0607,45.0724],[5.0594,45.0721],[5.0566,45.0728],[5.0564,45.074],[5.0546,45.0758],[5.054,45.0767],[5.0538,45.0777],[5.0535,45.0793],[5.0538,45.0804],[5.0575,45.0801],[5.0585,45.0811],[5.0581,45.0822],[5.0594,45.0822],[5.06,45.0823],[5.0613,45.0832],[5.0618,45.084],[5.0637,45.0844],[5.0645,45.0843],[5.0649,45.0827],[5.0643,45.0817],[5.0639,45.0815],[5.0639,45.0807],[5.0641,45.0795],[5.0636,45.079],[5.0635,45.0781],[5.0636,45.0772],[5.0637,45.0763],[5.0637,45.0757],[5.0631,45.0751],[5.0623,45.0748],[5.061,45.0742],[5.0603,45.0739],[5.0607,45.0724]]]},"properties":{"id_ffco":"6758","nom":"LES 6 GROTTES SUD - MOURS ST EUSEBE","_dept":"26","numero":"2012-D26-1069","commune":"MOURS SAINT EUSEBE","echelle":"1/5000","surface":"0.72 km²","format":"A4","annee":"2012","cartographes":"COTIRTA Marian","proprietaire":"26 - Drôme","niveau":"Régional","specialite":"CO à pied","contacts":"CDCO 26, cdco26@free.fr, http://cdco26.free.fr/index.html","latitude":"45.07825","longitude":"5.05922","date_saisie":"19/07/2013","date_depot":"06/05/2015","valide":"Non","ppo":"Non","type_carte":"Reprise","base":"1995-D26-13 LES 6 GROTTES","fond":"Cadastre","obsolete":true}},{"type":"Feature","geometry":{"type":"Polygon","coordinates":[[[4.9042,44.9339],[4.8987,44.9327],[4.8972,44.9362],[4.8986,44.9365],[4.8988,44.9369],[4.9031,44.9378],[4.9032,44.9375],[4.9044,44.9376],[4.9046,44.9369],[4.9061,44.9362],[4.9042,44.9339]]]},"properties":{"id_ffco":"6757","nom":"PARC SPORTIF COLETTE BESSON - VALENCE","_dept":"26","numero":"2012-D26-1068","commune":"VALENCE","echelle":"1/3000","surface":"0.25 km²","format":"A4","annee":"2012","cartographes":"Gil BURIDAN","proprietaire":"26 - Drôme","niveau":"Initiation, Scolaire","specialite":"CO à pied","contacts":"CDCO 26, cdco26@free.fr, http://cdco26.free.fr/index.html","latitude":"44.93522","longitude":"4.90164","date_saisie":"19/07/2013","date_depot":"06/05/2015","valide":"Oui","ppo":"Non","type_carte":"Nouvelle carte","fond":"Cadastre","obsolete":true}},{"type":"Feature","geometry":{"type":"Polygon","coordinates":[[[4.8881,44.879],[4.8892,44.8786],[4.8897,44.878],[4.8896,44.8769],[4.8902,44.8769],[4.8897,44.8758],[4.8894,44.8744],[4.889,44.8731],[4.8889,44.8717],[4.8887,44.8712],[4.8889,44.8706],[4.8885,44.8696],[4.8878,44.8696],[4.8874,44.8708],[4.887,44.8722],[4.8873,44.8734],[4.8866,44.8734],[4.8865,44.8742],[4.8876,44.8742],[4.888,44.8759],[4.8872,44.8759],[4.8881,44.879]]]},"properties":{"id_ffco":"6754","nom":"BOIS DE LA CHIFFE - PORTES LES VALENCE","_dept":"26","numero":"2011-D26-1065","commune":"PORTES LES VALENCE","echelle":"1/2000","surface":"0.15 km²","format":"A4","annee":"2011","cartographes":"DUDOIGNON Ludovic","proprietaire":"MAIRIE DE PORTES LES VALENCE","niveau":"Initiation, Scolaire","specialite":"CO à pied","contacts":"MAIRIE DE PORTES LES VALENCE, 04 75 57 95 00","latitude":"44.87426","longitude":"4.88836","date_saisie":"19/07/2013","date_depot":"06/05/2015","valide":"Oui","ppo":"Non","type_carte":"Nouvelle carte","fond":"Cadastre","obsolete":true}},{"type":"Feature","geometry":{"type":"Polygon","coordinates":[[[4.9,44.877],[4.9014,44.878],[4.9032,44.8789],[4.9043,44.8778],[4.9048,44.8779],[4.9056,44.8784],[4.904,44.8742],[4.8989,44.8749],[4.8996,44.8761],[4.8972,44.8756],[4.8979,44.8762],[4.899,44.8767],[4.9,44.877]]]},"properties":{"id_ffco":"6753","nom":"CENTRE AERE - PORTES LES VALENCE","_dept":"26","numero":"2011-D26-1064","commune":"PORTES LES VALENCE","echelle":"1/2000","surface":"0.17 km²","format":"A4","annee":"2011","cartographes":"DUDOIGNON Ludovic","proprietaire":"MAIRIE DE PORTES LES VALENCE","niveau":"Initiation, Scolaire","specialite":"CO à pied","contacts":"MAIRIE DE PORTES LES VALENCE, 04 75 57 95 00","latitude":"44.87654","longitude":"4.90142","date_saisie":"19/07/2013","date_depot":"06/05/2015","valide":"Oui","ppo":"Non","type_carte":"Nouvelle carte","fond":"Cadastre","obsolete":true}},{"type":"Feature","geometry":{"type":"Polygon","coordinates":[[[5.1181,44.6575],[5.1177,44.6545],[5.1109,44.6563],[5.1021,44.6561],[5.0996,44.6561],[5.0954,44.6549],[5.0945,44.6553],[5.0946,44.6574],[5.0929,44.6586],[5.093,44.6632],[5.0925,44.666],[5.0952,44.6662],[5.1007,44.6654],[5.1035,44.664],[5.1059,44.662],[5.1106,44.6605],[5.1181,44.6575]]]},"properties":{"id_ffco":"6742","nom":"FORET DEPARTEMENTALE DE SAOU (LA PRADE)","_dept":"26","numero":"2010-D26-1061","commune":"SAOU","echelle":"1/5000","surface":"1.47 km²","format":"A4","annee":"2010","cartographes":"MANGUERO Laure","proprietaire":"26 - Drôme","niveau":"Départemental","specialite":"CO à pied","contacts":"CDCO 26, cdco26@free.fr, http://cdco26.free.fr/index.html","latitude":"44.66032","longitude":"5.1053","date_saisie":"19/07/2013","date_depot":"06/05/2015","valide":"Oui","ppo":"Non","type_carte":"Nouvelle carte","fond":"IGN","obsolete":true}},{"type":"Feature","geometry":{"type":"Polygon","coordinates":[[[5.4164,44.9657],[5.41,44.969],[5.4076,44.969],[5.4059,44.9701],[5.4023,44.9732],[5.4057,44.9797],[5.4082,44.9837],[5.4108,44.986],[5.4274,44.9861],[5.4278,44.9787],[5.4234,44.9667],[5.4215,44.9646],[5.4164,44.9657]]]},"properties":{"id_ffco":"6670","nom":"LES BRUYERES II - La Chapelle en Vercors","_dept":"26","numero":"2009-D26-1056","commune":"LA CHAPELLE EN VERCORS","echelle":"1/7500","surface":"3.48 km²","format":"A4","annee":"2009","cartographes":"MERCIER Bruno","proprietaire":"2605 - VALENCE SPORTS ORIENTATION","niveau":"Régional","specialite":"CO à pied","contacts":"CLUB VALENCE SPORT ORIENTATION, 04 75 59 20 81, vso.2605@free.fr, http://www.valence-sports-orientation.fr/","latitude":"44.97536","longitude":"5.41502","date_saisie":"19/07/2013","date_depot":"06/05/2015","valide":"Oui","ppo":"Non","type_carte":"Reprise","base":"2006-D26-10 LES BRUYERES","fond":"IGN","obsolete":true}},{"type":"Feature","geometry":{"type":"Polygon","coordinates":[[[5.0545,44.5241],[5.0536,44.5232],[5.0522,44.5224],[5.0502,44.5218],[5.0491,44.5222],[5.0472,44.5228],[5.0477,44.5243],[5.0503,44.5248],[5.05,44.5264],[5.0515,44.5279],[5.0528,44.5286],[5.054,44.5292],[5.0553,44.5291],[5.0557,44.5281],[5.055,44.5268],[5.0557,44.5259],[5.0559,44.5248],[5.0554,44.5244],[5.0545,44.5241]]]},"properties":{"id_ffco":"6530","nom":"DOMAINE DE REJAUBERT ZONE OUEST -DIEULEFIT","_dept":"26","numero":"2008-D26-1053","commune":"DIEULEFIT","echelle":"1/2500","surface":"0.31 km²","format":"A4","annee":"2008","cartographes":"BENOIT Patrice","proprietaire":"26 - Drôme","niveau":"Initiation, Scolaire","specialite":"CO à pied","contacts":"CDCO 26, cdco26@free.fr, http://cdco26.free.fr/index.html","latitude":"44.52549","longitude":"5.05153","date_saisie":"19/07/2013","date_depot":"05/05/2015","valide":"Oui","ppo":"Non","type_carte":"Extrait","base":"2008-D26-1051 DOMAINE DE REJAUBERT - DIEULEFIT","fond":"Cadastre","obsolete":true}},{"type":"Feature","geometry":{"type":"Polygon","coordinates":[[[5.0548,44.5214],[5.0522,44.5228],[5.054,44.5239],[5.0545,44.5245],[5.0546,44.5251],[5.0549,44.5259],[5.0543,44.5268],[5.0549,44.5274],[5.0563,44.5268],[5.0585,44.526],[5.0604,44.5252],[5.0584,44.5237],[5.0576,44.5228],[5.0585,44.5221],[5.0558,44.5218],[5.0548,44.5214]]]},"properties":{"id_ffco":"6529","nom":"DOMAINE DE REJAUBERT ZONE EST - DIEULEFIT","_dept":"26","numero":"2008-D26-1052","commune":"DIEULEFIT","echelle":"1/2500","surface":"0.21 km²","format":"A4","annee":"2008","cartographes":"BENOIT Patrice","proprietaire":"26 - Drôme","niveau":"Initiation, Scolaire","specialite":"CO à pied","contacts":"CDCO 26, cdco26@free.fr, http://cdco26.free.fr/index.html","latitude":"44.52443","longitude":"5.05629","date_saisie":"19/07/2013","date_depot":"29/07/2015","valide":"Oui","ppo":"Non","type_carte":"Extrait","base":"2008-D26-1051 DOMAINE DE REJAUBERT - DIEULEFIT","fond":"Cadastre","obsolete":true}},{"type":"Feature","geometry":{"type":"Polygon","coordinates":[[[5.0909,44.5205],[5.091,44.521],[5.0913,44.522],[5.0912,44.5225],[5.0909,44.5236],[5.0909,44.5242],[5.091,44.5249],[5.0915,44.5247],[5.0924,44.5246],[5.0928,44.5249],[5.0938,44.5257],[5.096,44.5255],[5.0973,44.5233],[5.0983,44.5211],[5.0966,44.5215],[5.095,44.5215],[5.0936,44.5213],[5.093,44.5213],[5.0926,44.5207],[5.0916,44.5204],[5.0912,44.5204],[5.0909,44.5205],[5.0909,44.5205]]]},"properties":{"id_ffco":"6526","nom":"BEAU-VALLON - DIEULEFIT","_dept":"26","numero":"2008-D26-1049","commune":"DIEULEFIT","echelle":"1/2500","surface":"0.22 km²","format":"A4","annee":"2008","cartographes":"MERCIER Bruno","proprietaire":"CONSEIL GENERAL DROME","niveau":"Initiation, Scolaire","specialite":"CO à pied","contacts":"CONSEIL GENERAL DROME, 04 75 79 26 26","latitude":"44.52302","longitude":"5.09457","date_saisie":"19/07/2013","date_depot":"05/05/2015","valide":"Oui","ppo":"Non","type_carte":"Nouvelle carte","fond":"Cadastre","obsolete":true}},{"type":"Feature","geometry":{"type":"Polygon","coordinates":[[[4.8133,45.2022],[4.8139,45.2005],[4.8151,45.2002],[4.8151,45.1988],[4.8152,45.197],[4.815,45.1954],[4.8108,45.1957],[4.8106,45.1972],[4.8103,45.1987],[4.8114,45.2002],[4.8115,45.2009],[4.8133,45.2022],[4.8133,45.2022]]]},"properties":{"id_ffco":"6525","nom":"LA RONCERAIE - LAVEYRON","_dept":"26","numero":"2008-D26-1048","commune":"LAVEYRON","echelle":"1/2500","surface":"0.21 km²","format":"A4","annee":"2008","cartographes":"MIDENA Benjamin","proprietaire":"CONSEIL GENERAL DROME","niveau":"Initiation, Scolaire","specialite":"CO à pied","contacts":"CONSEIL GENERAL DROME, 04 75 79 26 26","latitude":"45.1988","longitude":"4.81274","date_saisie":"19/07/2013","date_depot":"05/05/2015","valide":"Oui","ppo":"Oui (20 postes)","type_carte":"Nouvelle carte","fond":"Cadastre","obsolete":true}},{"type":"Feature","geometry":{"type":"Polygon","coordinates":[[[4.9092,44.9308],[4.91,44.931],[4.9104,44.931],[4.9113,44.9285],[4.9104,44.9287],[4.9102,44.9293],[4.9084,44.9295],[4.9083,44.9308],[4.9092,44.9308],[4.9092,44.9308]]]},"properties":{"id_ffco":"6523","nom":"INSTITUTION NOTRE DAME - VALENCE","_dept":"26","numero":"2008-D26-1046","commune":"VALENCE","echelle":"1/2000","surface":"0.04 km²","format":"A4","annee":"2008","cartographes":"MIDENA Benjamin","proprietaire":"CONSEIL GENERAL DROME","niveau":"Initiation, Scolaire","specialite":"CO à pied","contacts":"CONSEIL GENERAL DROME, 04 75 79 26 26","latitude":"44.9299","longitude":"4.90979","date_saisie":"19/07/2013","date_depot":"05/05/2015","valide":"Oui","ppo":"Non","type_carte":"Nouvelle carte","fond":"Cadastre","obsolete":true}},{"type":"Feature","geometry":{"type":"Polygon","coordinates":[[[4.9561,45.2344],[4.9564,45.2338],[4.9565,45.233],[4.9562,45.2328],[4.9559,45.2325],[4.9556,45.2321],[4.9554,45.2318],[4.9549,45.2313],[4.9544,45.2312],[4.9538,45.2312],[4.9533,45.2313],[4.9531,45.232],[4.953,45.2325],[4.9529,45.2329],[4.9528,45.2331],[4.9523,45.2333],[4.9516,45.2333],[4.951,45.2333],[4.9506,45.2334],[4.9508,45.2338],[4.9524,45.2342],[4.9528,45.2346],[4.9531,45.2349],[4.9536,45.2352],[4.9542,45.2357],[4.9547,45.2362],[4.9549,45.2364],[4.9554,45.2364],[4.9559,45.2362],[4.956,45.236],[4.956,45.2355],[4.9559,45.2347],[4.9561,45.2344],[4.9561,45.2344]]]},"properties":{"id_ffco":"6519","nom":"LA CHARITE COLLEGE JEUNES FILLES - CHATEAUNEUF DE GALAURE","_dept":"26","numero":"2008-D26-1040","commune":"CHATEAUNEUF-DE-GALAURE","echelle":"1/2000","surface":"0.14 km²","format":"A4","annee":"2008","cartographes":"MERCIER Bruno","proprietaire":"CONSEIL GENERAL DROME","niveau":"Initiation, Scolaire","specialite":"CO à pied","contacts":"CONSEIL GENERAL DROME, 04 75 79 26 26","latitude":"45.23379","longitude":"4.95355","date_saisie":"19/07/2013","date_depot":"05/05/2015","valide":"Oui","ppo":"Non","type_carte":"Nouvelle carte","fond":"Cadastre","obsolete":true}},{"type":"Feature","geometry":{"type":"Polygon","coordinates":[[[4.9058,44.9515],[4.903,44.9518],[4.903,44.9519],[4.9067,44.9532],[4.9084,44.9536],[4.909,44.9537],[4.9085,44.952],[4.9083,44.9515],[4.907,44.9515],[4.9058,44.9515]]]},"properties":{"id_ffco":"6518","nom":"COLLEGE G GAUD - BOURG LES VALENCE","_dept":"26","numero":"2008-D26-1039","commune":"BOURG-LES-VALENCE","echelle":"1/1500","surface":"0.06 km²","format":"A4","annee":"2008","cartographes":"MERCIER Bruno","proprietaire":"26 - Drôme","niveau":"Initiation, Scolaire","specialite":"CO à pied","contacts":"CDCO 26, cdco26@free.fr, http://cdco26.free.fr/index.html","latitude":"44.95258","longitude":"4.90601","date_saisie":"19/07/2013","date_depot":"05/05/2015","valide":"Oui","ppo":"Non","type_carte":"Nouvelle carte","fond":"Cadastre","obsolete":true}},{"type":"Feature","geometry":{"type":"Polygon","coordinates":[[[4.6735,44.3663],[4.6736,44.3685],[4.6808,44.3681],[4.6804,44.3663],[4.681,44.3658],[4.6817,44.3658],[4.6823,44.368],[4.686,44.3676],[4.6859,44.3672],[4.6861,44.3665],[4.6859,44.3657],[4.6816,44.3625],[4.6769,44.3635],[4.677,44.3647],[4.676,44.3649],[4.674,44.365],[4.6734,44.3652],[4.6734,44.3663],[4.6735,44.3663]]]},"properties":{"id_ffco":"6489","nom":"LA PIGNEDOREE - PIERRELATTE","_dept":"26","numero":"2007-D26-1038","commune":"PIERRELATTE","echelle":"1/3500","surface":"0.43 km²","format":"A4","annee":"2007","cartographes":"COUPAT Gerard","proprietaire":"2606 - LOISIR ORIENTATION UNION PIERRELATTINE","niveau":"Initiation, Scolaire","specialite":"CO à pied","contacts":"CLUB L.O.U.PIERRELATTE, 04 75 52 58 23, 06 86 40 42 35, laure.coupat@free.fr, http://loup.segustero.com/","latitude":"44.36553","longitude":"4.67973","date_saisie":"19/07/2013","date_depot":"05/05/2015","valide":"Oui","ppo":"Oui (25 postes)","type_carte":"Nouvelle carte","fond":"Cadastre","obsolete":true}},{"type":"Feature","geometry":{"type":"Polygon","coordinates":[[[4.9223,44.8687],[4.9223,44.8683],[4.9223,44.8679],[4.9225,44.8676],[4.9227,44.8672],[4.923,44.8664],[4.9233,44.8659],[4.9233,44.8656],[4.923,44.865],[4.9229,44.8647],[4.923,44.8644],[4.9232,44.8643],[4.9233,44.8642],[4.9234,44.8641],[4.9229,44.8639],[4.9226,44.8637],[4.9221,44.8634],[4.9217,44.8632],[4.9212,44.8633],[4.9206,44.8635],[4.9198,44.8638],[4.9195,44.8637],[4.919,44.8637],[4.9181,44.8634],[4.9176,44.8637],[4.9174,44.8642],[4.9169,44.8652],[4.9168,44.8655],[4.9169,44.8657],[4.9171,44.8666],[4.9191,44.8671],[4.9194,44.8677],[4.9196,44.8678],[4.9204,44.8681],[4.9206,44.8684],[4.9211,44.8684],[4.9216,44.8685],[4.922,44.8685],[4.922,44.8685],[4.922,44.8687],[4.9223,44.8686],[4.9223,44.8687],[4.9223,44.8687]]]},"properties":{"id_ffco":"5965","nom":"DOMAINE DE LORIENT - MONTELEGER","_dept":"26","numero":"2005-D26-1034","commune":"MONTELEGER","echelle":"1/2500","surface":"0.21 km²","format":"A4","annee":"2005","cartographes":"COUPAT Gerard","proprietaire":"26 - Drôme","niveau":"Initiation, Scolaire","specialite":"CO à pied","contacts":"CDCO 26, cdco26@free.fr, http://cdco26.free.fr/index.html","latitude":"44.86543","longitude":"4.91967","date_saisie":"19/07/2013","valide":"Non","ppo":"Oui (20 postes)","type_carte":"Nouvelle carte","fond":"Cadastre","obsolete":true}},{"type":"Feature","geometry":{"type":"Polygon","coordinates":[[[4.9523,45.291],[4.9521,45.291],[4.9523,45.291],[4.9514,45.2908],[4.9508,45.2907],[4.9505,45.2907],[4.9505,45.2896],[4.9506,45.2892],[4.9495,45.2892],[4.9484,45.2892],[4.9473,45.2893],[4.9473,45.2895],[4.9473,45.2901],[4.9473,45.2907],[4.9472,45.2914],[4.9475,45.2916],[4.948,45.2917],[4.9484,45.2918],[4.9492,45.2918],[4.9498,45.2919],[4.9511,45.2918],[4.9521,45.291],[4.9522,45.291],[4.9522,45.291],[4.9523,45.291]]]},"properties":{"id_ffco":"6038","nom":"PLATEAU SPORTIF COLLEGE BRUNET - ST SORLIN EN VALLOIRE","_dept":"26","numero":"2004-D26-1032","commune":"SAINT-SORLIN-EN-VALLOIRE","echelle":"1/1500","surface":"0.08 km²","format":"A4","annee":"2004","cartographes":"PLOCKYN Daniel","proprietaire":"CONSEIL GENERAL DROME","specialite":"CO à pied","contacts":"CONSEIL GENERAL DROME, 04 75 79 26 26","latitude":"45.29052","longitude":"4.94975","date_saisie":"19/07/2013","valide":"Non","ppo":"Non","type_carte":"Nouvelle carte","obsolete":true}},{"type":"Feature","geometry":{"type":"Polygon","coordinates":[[[5.0096,44.728],[5.009,44.726],[5.0073,44.7263],[5.0084,44.7284],[5.0097,44.7283],[5.0096,44.728],[5.0096,44.728]]]},"properties":{"id_ffco":"5792","nom":"COLLEGE REVESZ-LONG - CREST","_dept":"26","numero":"2004-D26-1029","commune":"CREST","echelle":"1/1000","surface":"0.03 km²","format":"A4","annee":"2004","cartographes":"COUPAT Gerard","proprietaire":"CONSEIL GENERAL DROME","specialite":"CO à pied","contacts":"CONSEIL GENERAL DROME, 04 75 79 26 26","latitude":"44.72722","longitude":"5.00853","date_saisie":"19/07/2013","valide":"Non","ppo":"Non","fond":"Cadastre","obsolete":true}},{"type":"Feature","geometry":{"type":"Polygon","coordinates":[[[4.7435,44.5429],[4.7431,44.5419],[4.7429,44.5415],[4.7428,44.5411],[4.7431,44.541],[4.7428,44.5403],[4.7425,44.5402],[4.7417,44.5404],[4.7411,44.5406],[4.7415,44.5413],[4.7421,44.5425],[4.7424,44.543],[4.7425,44.5431],[4.7432,44.543],[4.7435,44.5429],[4.7435,44.5429]]]},"properties":{"id_ffco":"6105","nom":"COLLEGE G.MONOD","_dept":"26","numero":"2002-D26-1022","commune":"MONTELIMAR","echelle":"1/1200","surface":"0.03 km²","format":"A4","annee":"2002","cartographes":"COUPAT Gerard","proprietaire":"CONSEIL GENERAL DROME","specialite":"CO à pied","contacts":"CONSEIL GENERAL DROME, 04 75 79 26 26","latitude":"44.54122","longitude":"4.74213","date_saisie":"19/07/2013","valide":"Non","ppo":"Non","obsolete":true}},{"type":"Feature","geometry":{"type":"Polygon","coordinates":[[[4.7015,44.3698],[4.703,44.3697],[4.7031,44.3693],[4.7028,44.3686],[4.7028,44.3682],[4.7028,44.3679],[4.7029,44.3676],[4.7015,44.3678],[4.7012,44.3678],[4.7012,44.3682],[4.7012,44.3684],[4.7012,44.3689],[4.7013,44.3695],[4.7015,44.3698],[4.7015,44.3698]]]},"properties":{"id_ffco":"5987","nom":"COLLEGE LYS ISCLO D'OR","_dept":"26","numero":"2002-D26-1021","commune":"PIERRELATTE","echelle":"1/750","surface":"0.03 km²","format":"A4","annee":"2002","cartographes":"GILLARD Sylvain","proprietaire":"2606 - LOISIR ORIENTATION UNION PIERRELATTINE","specialite":"CO à pied","contacts":"CLUB L.O.U.PIERRELATTE, 04 75 52 58 23, 06 86 40 42 35, laure.coupat@free.fr, http://loup.segustero.com/","latitude":"44.36862","longitude":"4.70225","date_saisie":"19/07/2013","valide":"Non","ppo":"Non","obsolete":true}},{"type":"Feature","geometry":{"type":"Polygon","coordinates":[[[4.8841,44.8692],[4.8841,44.8692],[4.8829,44.868],[4.8829,44.8679],[4.8824,44.8671],[4.8808,44.8674],[4.881,44.8683],[4.8813,44.8694],[4.8813,44.8698],[4.8815,44.8698],[4.8826,44.8701],[4.8841,44.8692],[4.8841,44.8692]]]},"properties":{"id_ffco":"6037","nom":"COLLEGE JEAN MACE","_dept":"26","numero":"2003-D26-1020","commune":"PORTES-LES-VALENCE","echelle":"1/1000","surface":"0.05 km²","format":"A4","annee":"2003","cartographes":"COUPAT Gerard","proprietaire":"CONSEIL GENERAL DROME","niveau":"Initiation, Scolaire","specialite":"CO à pied","contacts":"CONSEIL GENERAL DROME, 04 75 79 26 26","latitude":"44.8691","longitude":"4.88251","date_saisie":"19/07/2013","valide":"Non","ppo":"Non","type_carte":"Nouvelle carte","fond":"Cadastre","obsolete":true}},{"type":"Feature","geometry":{"type":"Polygon","coordinates":[[[4.7833,44.3503],[4.7833,44.3503],[4.7808,44.35],[4.7797,44.3501],[4.7788,44.3501],[4.777,44.3501],[4.7772,44.3508],[4.7771,44.3509],[4.7774,44.3516],[4.7779,44.3522],[4.7782,44.3522],[4.7792,44.3522],[4.7801,44.3521],[4.7806,44.352],[4.7817,44.352],[4.7831,44.3505],[4.7833,44.3503],[4.7833,44.3503]]]},"properties":{"id_ffco":"6137","nom":"CENTRE DE LOISIRS","_dept":"26","numero":"2003-D26-1019","commune":"SAINT-PAUL-TROIS-CHATEAUX","echelle":"1/1750","surface":"0.09 km²","format":"A4","annee":"2003","cartographes":"GARNIER Patrick","proprietaire":"CONSEIL GENERAL DROME","niveau":"Initiation, Scolaire","specialite":"CO à pied","contacts":"CONSEIL GENERAL DROME, 04 75 79 26 26","latitude":"44.35138","longitude":"4.77951","date_saisie":"19/07/2013","valide":"Non","ppo":"Non","type_carte":"Nouvelle carte","fond":"Cadastre","obsolete":true}},{"type":"Feature","geometry":{"type":"Polygon","coordinates":[[[4.9419,45.2172],[4.9423,45.2169],[4.9444,45.2152],[4.9455,45.2148],[4.9466,45.2153],[4.9476,45.2144],[4.9476,45.2119],[4.9475,45.2101],[4.9473,45.2082],[4.9425,45.2082],[4.9367,45.2081],[4.937,45.2107],[4.937,45.2138],[4.9381,45.2146],[4.9401,45.2164],[4.9416,45.2175],[4.9419,45.2172],[4.9419,45.2172]]]},"properties":{"id_ffco":"6515","nom":"LA GALAURE","_dept":"26","numero":"2002-D26-1018","commune":"CHATEAUNEUF-DE-GALAURE","echelle":"1/5000","surface":"0.69 km²","format":"A4","annee":"2002","cartographes":"MASSABO G.","proprietaire":"CONSEIL GENERAL DROME","specialite":"CO à pied","contacts":"CONSEIL GENERAL DROME, 04 75 79 26 26","latitude":"45.21277","longitude":"4.94219","date_saisie":"19/07/2013","valide":"Non","ppo":"Non","obsolete":true}},{"type":"Feature","geometry":{"type":"Polygon","coordinates":[[[5.0237,44.9019],[5.0237,44.9019],[5.0234,44.9019],[5.0232,44.9008],[5.023,44.9003],[5.0228,44.9],[5.0225,44.8997],[5.0222,44.8997],[5.0218,44.8998],[5.0217,44.9001],[5.0216,44.9009],[5.0217,44.9015],[5.0219,44.9018],[5.0223,44.9022],[5.0235,44.9025],[5.0237,44.9019],[5.0237,44.9019]]]},"properties":{"id_ffco":"6021","nom":"LES GONTARDES","_dept":"26","numero":"2002-D26-1017","commune":"CHABEUIL","echelle":"1/1200","surface":"0.03 km²","format":"A4","annee":"2002","cartographes":"COUPAT Gerard","proprietaire":"CONSEIL GENERAL DROME","niveau":"Initiation, Scolaire","specialite":"CO à pied","contacts":"CONSEIL GENERAL DROME, 04 75 79 26 26","latitude":"44.90103","longitude":"5.02272","date_saisie":"19/07/2013","valide":"Non","ppo":"Non","type_carte":"Nouvelle carte","fond":"Ortho","obsolete":true}},{"type":"Feature","geometry":{"type":"Polygon","coordinates":[[[4.9419,45.2172],[4.9423,45.2169],[4.9444,45.2152],[4.943,45.2149],[4.9429,45.2147],[4.9429,45.2146],[4.9429,45.2145],[4.942,45.2142],[4.9411,45.2153],[4.9409,45.2156],[4.9405,45.2155],[4.9402,45.2155],[4.9399,45.2156],[4.9398,45.2157],[4.9398,45.2157],[4.94,45.216],[4.9418,45.2172],[4.9419,45.2172],[4.9419,45.2172]]]},"properties":{"id_ffco":"6238","nom":"GROUPE SCOLAIRE ST BONNET","_dept":"26","numero":"2002-D26-1016","commune":"CHATEAUNEUF-DE-GALAURE","echelle":"1/1500","surface":"0.06 km²","format":"A4","annee":"2002","cartographes":"MASSABO G.","proprietaire":"CONSEIL GENERAL DROME","niveau":"Initiation, Scolaire","specialite":"CO à pied","contacts":"CONSEIL GENERAL DROME, 04 75 79 26 26","latitude":"45.21572","longitude":"4.94221","date_saisie":"19/07/2013","valide":"Non","ppo":"Non","fond":"Ortho","obsolete":true}},{"type":"Feature","geometry":{"type":"Polygon","coordinates":[[[4.9829,45.1163],[4.983,45.1163],[4.9822,45.1174],[4.982,45.1183],[4.9835,45.1185],[4.9832,45.1193],[4.9834,45.1193],[4.9844,45.1194],[4.985,45.1196],[4.9854,45.1196],[4.9861,45.1196],[4.9862,45.1189],[4.9864,45.1186],[4.9865,45.1184],[4.9871,45.1178],[4.9872,45.1172],[4.9867,45.1172],[4.9863,45.1171],[4.9861,45.1169],[4.9859,45.1168],[4.9856,45.1167],[4.985,45.1167],[4.9844,45.1167],[4.9838,45.1166],[4.9834,45.1165],[4.9829,45.1163],[4.9829,45.1163]]]},"properties":{"id_ffco":"6041","nom":"COLLEGE DU PAYS DE L'HERBASSE","_dept":"26","numero":"2002-D26-1015","commune":"SAINT-DONAT-SUR-L'HERBASSE","echelle":"1/1750","surface":"0.1 km²","format":"A4","annee":"2002","cartographes":"COUPAT Gerard","proprietaire":"CONSEIL GENERAL DROME","specialite":"CO à pied","contacts":"CONSEIL GENERAL DROME, 04 75 79 26 26","latitude":"45.11797","longitude":"4.9846","date_saisie":"19/07/2013","valide":"Non","ppo":"Non","obsolete":true}},{"type":"Feature","geometry":{"type":"Polygon","coordinates":[[[4.7749,44.5515],[4.7747,44.5511],[4.7744,44.5504],[4.7735,44.5505],[4.7733,44.5504],[4.771,44.5514],[4.7717,44.5521],[4.7718,44.5521],[4.773,44.5517],[4.7749,44.5515],[4.7749,44.5515]]]},"properties":{"id_ffco":"6106","nom":"LYCEE PRIVE CHABRILLAN","_dept":"26","numero":"2002-D26-1014","commune":"MONTELIMAR","echelle":"1/1250","surface":"0.03 km²","format":"A4","annee":"2002","cartographes":"COUPAT Gerard","proprietaire":"CONSEIL GENERAL DROME","niveau":"Initiation, Scolaire","specialite":"CO à pied","contacts":"CONSEIL GENERAL DROME, 04 75 79 26 26","latitude":"44.55124","longitude":"4.77195","date_saisie":"19/07/2013","valide":"Non","ppo":"Non","obsolete":true}},{"type":"Feature","geometry":{"type":"Polygon","coordinates":[[[4.7526,44.3911],[4.7523,44.3915],[4.7527,44.393],[4.7532,44.3936],[4.7548,44.3967],[4.7557,44.3994],[4.7575,44.4009],[4.7582,44.4017],[4.7597,44.4035],[4.7624,44.4046],[4.7652,44.4051],[4.766,44.4059],[4.7691,44.4053],[4.7707,44.406],[4.7729,44.4084],[4.7736,44.4085],[4.7747,44.4082],[4.7785,44.4068],[4.7789,44.4085],[4.7817,44.4084],[4.7815,44.4095],[4.7866,44.4095],[4.7885,44.4083],[4.7906,44.4084],[4.7918,44.4081],[4.7913,44.3978],[4.7911,44.398],[4.7908,44.398],[4.7894,44.3973],[4.789,44.3966],[4.7884,44.3956],[4.7879,44.3955],[4.7872,44.3954],[4.7866,44.3954],[4.7857,44.3955],[4.785,44.395],[4.7835,44.3942],[4.7829,44.3938],[4.7825,44.3937],[4.782,44.3938],[4.7803,44.3943],[4.7786,44.3946],[4.7777,44.3948],[4.7767,44.3945],[4.7761,44.3945],[4.7752,44.3946],[4.7738,44.3951],[4.7731,44.3953],[4.7729,44.3951],[4.7725,44.3946],[4.7717,44.3942],[4.7702,44.3937],[4.7669,44.394],[4.7664,44.3939],[4.7639,44.3926],[4.7634,44.3925],[4.7631,44.3925],[4.763,44.3928],[4.7625,44.3937],[4.7621,44.3939],[4.7609,44.3939],[4.7596,44.3939],[4.7586,44.3937],[4.7576,44.3935],[4.7566,44.3931],[4.7556,44.3927],[4.7556,44.3924],[4.7553,44.3919],[4.755,44.3917],[4.7541,44.3913],[4.7531,44.3907],[4.7526,44.3911],[4.7526,44.3911]]]},"properties":{"id_ffco":"6040","nom":"LA GARDE ADHEMAR LE CHABRELET","_dept":"26","numero":"2002-D26-1013","commune":"LA GARDE-ADHEMAR","echelle":"1/12500","surface":"3.97 km²","format":"A3","annee":"2002","cartographes":"COUPAT Gerard","proprietaire":"2606 - LOISIR ORIENTATION UNION PIERRELATTINE","niveau":"Départemental","specialite":"CO à pied","contacts":"CLUB L.O.U.PIERRELATTE, 04 75 52 58 23, 06 86 40 42 35, laure.coupat@free.fr, http://loup.segustero.com/","latitude":"44.40429","longitude":"4.77443","date_saisie":"19/07/2013","valide":"Non","ppo":"Non","type_carte":"Nouvelle carte","fond":"IGN","obsolete":true}},{"type":"Feature","geometry":{"type":"Polygon","coordinates":[[[4.7204,44.5581],[4.7227,44.5581],[4.7226,44.557],[4.7214,44.5571],[4.7214,44.556],[4.7203,44.5559],[4.72,44.556],[4.7202,44.5578],[4.7204,44.5581],[4.7204,44.5581]]]},"properties":{"id_ffco":"5886","nom":"COLLEGE EUROPA","_dept":"26","numero":"2004-D26-1012","commune":"MONTELIMAR","echelle":"1/1200","surface":"0.03 km²","format":"A4","annee":"2004","cartographes":"COUPAT Gerard","proprietaire":"CONSEIL GENERAL DROME","niveau":"Initiation, Scolaire","specialite":"CO à pied","contacts":"CONSEIL GENERAL DROME, 04 75 79 26 26","latitude":"44.55726","longitude":"4.72094","date_saisie":"19/07/2013","valide":"Non","ppo":"Non","type_carte":"Nouvelle carte","fond":"Cadastre","obsolete":true}},{"type":"Feature","geometry":{"type":"Polygon","coordinates":[[[4.9384,44.6147],[4.9384,44.6146],[4.9393,44.6143],[4.9394,44.6144],[4.9412,44.6138],[4.9409,44.6136],[4.9406,44.6134],[4.9399,44.6126],[4.9399,44.6125],[4.9389,44.6123],[4.9382,44.6125],[4.9382,44.6124],[4.9376,44.6125],[4.9384,44.6146],[4.9384,44.6147],[4.9384,44.6147]]]},"properties":{"id_ffco":"5882","nom":"COLLEGE OLIVIER DE SERRE","_dept":"26","numero":"2002-D26-1010","commune":"CLEON-D'ANDRAN","echelle":"1/1500","surface":"0.04 km²","format":"A4","annee":"2002","cartographes":"COUPAT Gerard","proprietaire":"CONSEIL GENERAL DROME","specialite":"CO à pied","contacts":"CONSEIL GENERAL DROME, 04 75 79 26 26","latitude":"44.61378","longitude":"4.93919","date_saisie":"19/07/2013","valide":"Non","ppo":"Non","obsolete":true}},{"type":"Feature","geometry":{"type":"Polygon","coordinates":[[[5.0533,45.0388],[5.0533,45.0387],[5.0527,45.0392],[5.053,45.0394],[5.0529,45.0396],[5.0539,45.0406],[5.055,45.0406],[5.0552,45.0404],[5.0557,45.0403],[5.056,45.0401],[5.0562,45.0397],[5.0558,45.0384],[5.0555,45.0382],[5.0552,45.0382],[5.0538,45.0384],[5.0533,45.0388],[5.0533,45.0388]]]},"properties":{"id_ffco":"6104","nom":"LES MARISTES","_dept":"26","numero":"2001-D26-1007","commune":"BOURG-DE-PEAGE","echelle":"1/1500","surface":"0.05 km²","format":"A4","annee":"2001","cartographes":"COLOMB JB","proprietaire":"26 - Drôme","niveau":"Initiation, Scolaire","specialite":"CO à pied","contacts":"CDCO 26, cdco.drome@gmail.com, http://cdco26.fr/","latitude":"45.03926","longitude":"5.05472","date_saisie":"19/07/2013","valide":"Non","ppo":"Non","type_carte":"Nouvelle carte","fond":"Cadastre","obsolete":true}},{"type":"Feature","geometry":{"type":"Polygon","coordinates":[[[4.7699,44.3553],[4.77,44.3553],[4.7699,44.3554],[4.77,44.3554],[4.7701,44.3552],[4.7702,44.3552],[4.7706,44.3555],[4.7716,44.3555],[4.7723,44.3551],[4.7726,44.3548],[4.7728,44.3546],[4.7728,44.3543],[4.7729,44.3543],[4.7731,44.3543],[4.773,44.3537],[4.7728,44.3538],[4.7724,44.3539],[4.7718,44.3538],[4.771,44.3537],[4.7703,44.3537],[4.7697,44.3537],[4.769,44.3538],[4.7694,44.3543],[4.77,44.3551],[4.7699,44.3553],[4.7699,44.3553]]]},"properties":{"id_ffco":"6028","nom":"BOIS DE PIEJOUX","_dept":"26","numero":"2001-D26-1006","commune":"SAINT-PAUL-TROIS-CHATEAUX","echelle":"1/1000","surface":"0.05 km²","format":"A4","annee":"2001","cartographes":"GARNIER Patrick","proprietaire":"2606 - LOISIR ORIENTATION UNION PIERRELATTINE","specialite":"CO à pied","contacts":"CLUB L.O.U.PIERRELATTE, 04 75 52 58 23, 06 86 40 42 35, laure.coupat@free.fr, http://loup.segustero.com/","latitude":"44.35431","longitude":"4.77125","date_saisie":"19/07/2013","valide":"Non","ppo":"Non","obsolete":true}},{"type":"Feature","geometry":{"type":"Polygon","coordinates":[[[5.0584,45.0381],[5.0584,45.0382],[5.0565,45.0383],[5.0565,45.0389],[5.0569,45.0389],[5.0569,45.0394],[5.0566,45.0394],[5.0567,45.0397],[5.0575,45.0401],[5.0589,45.0399],[5.0584,45.0381],[5.0584,45.0381]]]},"properties":{"id_ffco":"6283","nom":"COLLEGE EUROPE","_dept":"26","numero":"2001-D26-1005","commune":"BOURG-DE-PEAGE","echelle":"1/1500","surface":"0.03 km²","format":"A4","annee":"2001","cartographes":"COUPAT Gerard","proprietaire":"2606 - LOISIR ORIENTATION UNION PIERRELATTINE","specialite":"CO à pied","contacts":"CLUB L.O.U.PIERRELATTE, 04 75 52 58 23, 06 86 40 42 35, laure.coupat@free.fr, http://loup.segustero.com/","latitude":"45.039","longitude":"5.05759","date_saisie":"19/07/2013","valide":"Non","ppo":"Non","obsolete":true}},{"type":"Feature","geometry":{"type":"Polygon","coordinates":[[[4.6932,44.3743],[4.6932,44.3743],[4.6929,44.3746],[4.6925,44.3752],[4.6925,44.3753],[4.6923,44.3756],[4.692,44.3765],[4.692,44.3766],[4.6936,44.3767],[4.6936,44.3766],[4.6935,44.3766],[4.6935,44.3765],[4.6936,44.3765],[4.6938,44.3762],[4.694,44.3762],[4.694,44.3757],[4.6938,44.3757],[4.6938,44.3753],[4.6935,44.3751],[4.6932,44.3743],[4.6932,44.3743]]]},"properties":{"id_ffco":"6075","nom":"PARC MUNICIPAL","_dept":"26","numero":"2000-D26-1004","commune":"PIERRELATTE","echelle":"1/1500","surface":"0.02 km²","format":"A4","annee":"2000","cartographes":"COUPAT Gerard","proprietaire":"2606 - LOISIR ORIENTATION UNION PIERRELATTINE","specialite":"CO à pied","contacts":"CLUB L.O.U.PIERRELATTE, 04 75 52 58 23, 06 86 40 42 35, laure.coupat@free.fr, http://loup.segustero.com/","latitude":"44.37573","longitude":"4.69324","date_saisie":"19/07/2013","valide":"Non","ppo":"Non","obsolete":true}},{"type":"Feature","geometry":{"type":"Polygon","coordinates":[[[4.703,44.3912],[4.7069,44.3908],[4.7063,44.3856],[4.7052,44.3857],[4.7048,44.3857],[4.7038,44.3828],[4.7034,44.3822],[4.7028,44.3822],[4.7024,44.3814],[4.7021,44.3804],[4.7015,44.3802],[4.7006,44.3797],[4.6998,44.3796],[4.699,44.3804],[4.698,44.3814],[4.697,44.3821],[4.6972,44.3837],[4.6983,44.3858],[4.6996,44.3855],[4.7,44.3855],[4.7003,44.3859],[4.7005,44.3865],[4.7011,44.3873],[4.7015,44.388],[4.7017,44.3885],[4.702,44.3894],[4.7022,44.3897],[4.703,44.3899],[4.703,44.3902],[4.703,44.3908],[4.703,44.3912],[4.703,44.3912]]]},"properties":{"id_ffco":"6218","nom":"CITE SCOLAIRE QUARTIER NORD","_dept":"26","numero":"2000-D26-1003","commune":"PIERRELATTE","echelle":"1/1500","surface":"0.52 km²","format":"A4","annee":"2000","cartographes":"COUPAT Gerard","proprietaire":"2606 - LOISIR ORIENTATION UNION PIERRELATTINE","specialite":"CO à pied","contacts":"CLUB L.O.U.PIERRELATTE, 04 75 52 58 23, 06 86 40 42 35, laure.coupat@free.fr, http://loup.segustero.com/","latitude":"44.38139","longitude":"4.70117","date_saisie":"19/07/2013","valide":"Non","ppo":"Non","obsolete":true}},{"type":"Feature","geometry":{"type":"Polygon","coordinates":[[[4.703,44.3912],[4.7069,44.3908],[4.7063,44.3856],[4.7052,44.3857],[4.7048,44.3857],[4.7038,44.3828],[4.7034,44.3822],[4.7028,44.3822],[4.7024,44.3814],[4.7021,44.3804],[4.7015,44.3802],[4.7006,44.3797],[4.6998,44.3796],[4.699,44.3804],[4.698,44.3814],[4.697,44.3821],[4.6972,44.3837],[4.6983,44.3858],[4.6996,44.3855],[4.7,44.3855],[4.7003,44.3859],[4.7005,44.3865],[4.7011,44.3873],[4.7015,44.388],[4.7017,44.3885],[4.702,44.3894],[4.7022,44.3897],[4.703,44.3899],[4.703,44.3902],[4.703,44.3908],[4.703,44.3912],[4.703,44.3912]]]},"properties":{"id_ffco":"6217","nom":"QUARTIER NORD PIERRELATTE","_dept":"26","numero":"2001-D26-1002","commune":"PIERRELATTE","echelle":"1/5000","surface":"0.52 km²","format":"A4","annee":"2001","cartographes":"COUPAT Gerard","proprietaire":"2606 - LOISIR ORIENTATION UNION PIERRELATTINE","niveau":"Initiation, Scolaire","specialite":"CO à pied","contacts":"CLUB L.O.U.PIERRELATTE, 04 75 52 58 23, 06 86 40 42 35, laure.coupat@free.fr, http://loup.segustero.com/","latitude":"44.38541","longitude":"4.70197","date_saisie":"19/07/2013","valide":"Non","ppo":"Non","type_carte":"Nouvelle carte","fond":"Cadastre","obsolete":true}},{"type":"Feature","geometry":{"type":"Polygon","coordinates":[[[5.4122,44.9683],[5.4111,44.9699],[5.4077,44.9696],[5.4026,44.9734],[5.4054,44.9797],[5.4078,44.9826],[5.4109,44.9861],[5.4138,44.9889],[5.4162,44.9886],[5.418,44.9874],[5.4199,44.9877],[5.4218,44.9886],[5.4218,44.9869],[5.4258,44.9875],[5.427,44.9853],[5.4268,44.9834],[5.4265,44.982],[5.4272,44.9796],[5.4272,44.977],[5.4285,44.9737],[5.4286,44.9708],[5.4283,44.9685],[5.4246,44.9654],[5.4221,44.9643],[5.422,44.9651],[5.4122,44.9683]]]},"properties":{"id_ffco":"6200","nom":"LES BRUYERES","_dept":"26","numero":"2006-D26-10","commune":"LA CHAPELLE-EN-VERCORS","echelle":"1/10000","surface":"3.8 km²","format":"A4","annee":"2006","cartographes":"MERCIER Bruno","proprietaire":"2605 - VALENCE SPORTS ORIENTATION","niveau":"Régional","specialite":"CO à pied","contacts":"CLUB VALENCE SPORT ORIENTATION, 04 75 59 20 81, vso.2605@free.fr, http://www.valence-sports-orientation.fr/","latitude":"44.97983","longitude":"5.41573","date_saisie":"19/07/2013","valide":"Non","ppo":"Non","type_carte":"Nouvelle carte","fond":"IGN","obsolete":true}},{"type":"Feature","geometry":{"type":"Polygon","coordinates":[[[5.3701,44.9363],[5.357,44.9079],[5.3536,44.9094],[5.3476,44.9091],[5.344,44.9063],[5.3337,44.9061],[5.3256,44.9103],[5.3246,44.9164],[5.3243,44.9244],[5.322,44.9324],[5.3203,44.9382],[5.3203,44.9471],[5.3612,44.9444],[5.3701,44.9422],[5.3701,44.9363]]]},"properties":{"id_ffco":"6188","nom":"LENTE SUD","_dept":"26","numero":"1992-D26-09","commune":"BOUVANTE","echelle":"1/15000","surface":"13.87 km²","format":"A3","annee":"1992","cartographes":"SHO Cart","proprietaire":"2605 - VALENCE SPORTS ORIENTATION","niveau":"National, International","specialite":"CO à pied","contacts":"CLUB VALENCE SPORT ORIENTATION, 04 75 59 20 81, vso.2605@free.fr, http://www.valence-sports-orientation.fr/","latitude":"44.92655","longitude":"5.34412","date_saisie":"19/07/2013","valide":"Non","ppo":"Non","type_carte":"Nouvelle carte","fond":"Ortho","obsolete":true}},{"type":"Feature","geometry":{"type":"Polygon","coordinates":[[[5.334,44.9658],[5.3366,44.9646],[5.3414,44.967],[5.3474,44.967],[5.354,44.9662],[5.3598,44.9647],[5.3618,44.9626],[5.3612,44.9558],[5.361,44.9492],[5.3622,44.9426],[5.3512,44.9393],[5.3412,44.938],[5.3265,44.938],[5.3189,44.9387],[5.3191,44.9465],[5.3282,44.9555],[5.3315,44.9608],[5.334,44.9658]]]},"properties":{"id_ffco":"6206","nom":"LENTE NORD","_dept":"26","numero":"1992-D26-08","commune":"BOUVANTE","echelle":"1/15000","surface":"8.58 km²","format":"A3","annee":"1992","cartographes":"SHO Cart","proprietaire":"2605 - VALENCE SPORTS ORIENTATION","specialite":"CO à pied","contacts":"CLUB VALENCE SPORT ORIENTATION, 04 75 59 20 81, vso.2605@free.fr, http://www.valence-sports-orientation.fr/","latitude":"44.95024","longitude":"5.34111","date_saisie":"19/07/2013","valide":"Non","ppo":"Non","obsolete":true}},{"type":"Feature","geometry":{"type":"Polygon","coordinates":[[[4.9994,45.1668],[4.9956,45.1636],[4.9914,45.161],[4.9856,45.1613],[4.9836,45.1583],[4.9797,45.151],[4.9884,45.1478],[4.9996,45.1479],[5.0043,45.1514],[5.0089,45.1529],[5.0117,45.1534],[5.0122,45.1592],[5.0097,45.1639],[5.0075,45.1678],[5.0044,45.1694],[5.0001,45.1692],[4.9994,45.1668]]]},"properties":{"id_ffco":"6791","nom":"SIZAY - BARD","_dept":"26","numero":"1990-D26-06","commune":"SAINT DONAT SUR HERBASSE","echelle":"1/15000","surface":"3.82 km²","format":"A4","annee":"1990","cartographes":"ANTOINE Alain","proprietaire":"26 - Drôme","specialite":"CO à pied","contacts":"CDCO 26, cdco26@free.fr, http://cdco26.free.fr/index.html","latitude":"45.15862","longitude":"4.99595","date_saisie":"19/07/2013","valide":"Non","ppo":"Non","obsolete":true}},{"type":"Feature","geometry":{"type":"Polygon","coordinates":[[[5.2277,44.9117],[5.2276,44.9099],[5.2275,44.9059],[5.2265,44.9032],[5.2243,44.9001],[5.2274,44.8984],[5.2224,44.898],[5.2104,44.8981],[5.2037,44.8994],[5.204,44.904],[5.2028,44.9085],[5.2022,44.9141],[5.2042,44.9187],[5.2066,44.9203],[5.2149,44.9178],[5.2266,44.9143],[5.2277,44.9117]]]},"properties":{"id_ffco":"6427","nom":"PISSENIBLE","_dept":"26","numero":"1989-D26-05","commune":"LEONCEL","echelle":"1/15000","surface":"3.99 km²","format":"A4","annee":"1989","cartographes":"ANTOINE Alain","proprietaire":"2605 - VALENCE SPORTS ORIENTATION","specialite":"CO à pied","contacts":"CLUB VALENCE SPORT ORIENTATION, 04 75 59 20 81, vso.2605@free.fr, http://www.valence-sports-orientation.fr/","latitude":"44.90914","longitude":"5.21494","date_saisie":"19/07/2013","valide":"Non","ppo":"Non","obsolete":true}},{"type":"Feature","geometry":null,"properties":{"id_ffco":"6900","nom":"PARC DE VALENCE LE HAUT","_dept":"26","numero":"1988-D26-04","commune":"VALENCE","echelle":"1/5000","surface":"None km²","annee":"1988","cartographes":"ANTOINE Alain","proprietaire":"2605 - VALENCE SPORTS ORIENTATION","specialite":"CO à pied","contacts":"CLUB VALENCE SPORT ORIENTATION, 04 75 59 20 81, vso.2605@free.fr, http://www.valence-sports-orientation.fr/","date_saisie":"19/07/2013","valide":"Non","ppo":"Non","obsolete":true}},{"type":"Feature","geometry":{"type":"Polygon","coordinates":[[[4.813,44.523],[4.81,44.5203],[4.8045,44.5185],[4.7973,44.5173],[4.7939,44.5197],[4.7959,44.5224],[4.8,44.5267],[4.8031,44.5299],[4.8056,44.5309],[4.8096,44.5299],[4.8117,44.5294],[4.8125,44.5271],[4.813,44.523],[4.813,44.523]]]},"properties":{"id_ffco":"6426","nom":"MONTCEAU","_dept":"26","numero":"1986-D26-03","commune":"ESPELUCHE","echelle":"1/10000","surface":"1.44 km²","format":"A4","annee":"1986","cartographes":"BONNET Guy","proprietaire":"SANS ADRESSE","specialite":"CO à pied","contacts":"SANS ADRESSE","latitude":"44.52408","longitude":"4.80346","date_saisie":"19/07/2013","valide":"Non","ppo":"Non","obsolete":true}},{"type":"Feature","geometry":null,"properties":{"id_ffco":"6425","nom":"ALEYRAC","_dept":"26","numero":"1978-D26-02","commune":"ALEYRAC","surface":"None km²","annee":"1978","cartographes":"INCONNU","proprietaire":"26 - Drôme","specialite":"CO à pied","contacts":"CDCO 26, cdco26@free.fr, http://cdco26.free.fr/index.html","latitude":"44.49629","longitude":"4.95079","date_saisie":"19/07/2013","valide":"Non","ppo":"Non","obsolete":true}},{"type":"Feature","geometry":{"type":"Polygon","coordinates":[[[5.0681,45.1342],[5.0749,45.1422],[5.0855,45.1516],[5.089,45.1532],[5.0925,45.1526],[5.0949,45.1541],[5.0984,45.1582],[5.1013,45.1586],[5.1072,45.1561],[5.1125,45.1569],[5.1163,45.1515],[5.1192,45.1478],[5.1215,45.1446],[5.1101,45.1307],[5.0644,45.1303],[5.0681,45.1342]]]},"properties":{"id_ffco":"6356","nom":"BOIS DE BARBARAI","_dept":"26","numero":"1978-D26-01","commune":"LE CHALON","echelle":"1/15000","surface":"8.82 km²","format":"A4","annee":"1978","cartographes":"BUSNEL C","proprietaire":"26 - Drôme","specialite":"CO à pied","contacts":"CDCO 26, cdco26@free.fr, http://cdco26.free.fr/index.html","latitude":"45.14445","longitude":"5.09298","date_saisie":"19/07/2013","valide":"Non","ppo":"Non","obsolete":true}},{"type":"Feature","geometry":null,"properties":{"id_ffco":"7547","nom":"st jalle","_dept":"26","numero":"2014-D26-000","commune":"xxxx","surface":"None km²","annee":"2014","contacts":"Choisir ...","date_saisie":"24/10/2014","valide":"Non","ppo":"Non","obsolete":true}}]}