{"type":"FeatureCollection","features":[{"type":"Feature","geometry":{"type":"Polygon","coordinates":[[[0.5284,49.3527],[0.5296,49.3539],[0.5336,49.3535],[0.5373,49.3531],[0.5401,49.3522],[0.5433,49.3514],[0.5453,49.3505],[0.546,49.349],[0.5453,49.3474],[0.5428,49.3468],[0.5423,49.3479],[0.5402,49.3482],[0.536,49.3486],[0.5333,49.3495],[0.5305,49.3503],[0.5302,49.352],[0.5283,49.3519],[0.5284,49.3527]]]},"properties":{"id_ffco":"9132","nom":"Plaine des sports - Pont Audemer","_dept":"27","numero":"2014-D27-71","commune":"Pont Audemer","echelle":"1/5000","surface":"0.53 km²","format":"A4","annee":"2014","cartographes":"D Barranger","proprietaire":"NM - Normandie","niveau":"Initiation, Scolaire","specialite":"CO à pied","latitude":"49.3506443901","longitude":"0.537547630954","date_saisie":"04/01/2016","date_depot":"23/03/2016","valide":"Oui","ppo":"Non","type_carte":"Nouvelle carte","fond":"Cadastre","obsolete":true}},{"type":"Feature","geometry":null,"properties":{"id_ffco":"2185","nom":"VALLOT","_dept":"27","numero":"1990-D27-16","commune":"VAL DE REUIL","echelle":"1/10000","surface":"1.5 km²","annee":"1990","proprietaire":"NM - Normandie","specialite":"CO à pied","latitude":"49.2718942","longitude":"1.213145","valide":"Non","ppo":"Non","obsolete":true}},{"type":"Feature","geometry":null,"properties":{"id_ffco":"2181","nom":"FORET D'EVREUX","_dept":"27","numero":"1990-D27-021","commune":"EVREUX","echelle":"1/15000","surface":"2.7 km²","annee":"1990","specialite":"CO à pied","latitude":"49.0245289","longitude":"1.151109","valide":"Non","ppo":"Non","obsolete":true}},{"type":"Feature","geometry":null,"properties":{"id_ffco":"2186","nom":"VALLOT","_dept":"27","numero":"1990-D27-015","commune":"VAL DE REUIL","echelle":"1/10000","surface":"1.5 km²","annee":"1990","proprietaire":"NM - Normandie","specialite":"CO à pied","latitude":"49.2718942","longitude":"1.213145","valide":"Non","ppo":"Non","obsolete":true}},{"type":"Feature","geometry":null,"properties":{"id_ffco":"2180","nom":"FORET D'EVREUX","_dept":"27","numero":"1990-D27-011","commune":"EVREUX","echelle":"1/15000","surface":"2.7 km²","annee":"1990","specialite":"CO à pied","latitude":"49.0245289","longitude":"1.151109","valide":"Non","ppo":"Non","obsolete":true}}]}