{"type":"FeatureCollection","features":[{"type":"Feature","geometry":{"type":"Polygon","coordinates":[[[1.0281,48.53],[1.0279,48.5276],[1.0273,48.5272],[1.0282,48.5261],[1.0285,48.5251],[1.0286,48.5242],[1.0286,48.5232],[1.0284,48.5222],[1.0281,48.5215],[1.0276,48.5198],[1.0268,48.5189],[1.0264,48.5177],[1.0265,48.517],[1.0266,48.516],[1.0266,48.5153],[1.0266,48.5144],[1.0264,48.5133],[1.0302,48.5129],[1.0324,48.5135],[1.0339,48.5138],[1.0356,48.5142],[1.0377,48.5144],[1.0377,48.5132],[1.039,48.5133],[1.039,48.5144],[1.0415,48.5124],[1.0443,48.5129],[1.0452,48.5145],[1.0465,48.5152],[1.0478,48.5146],[1.0498,48.5132],[1.0517,48.5128],[1.0529,48.5129],[1.0547,48.5133],[1.0566,48.5131],[1.0581,48.5131],[1.0622,48.513],[1.0662,48.5134],[1.0668,48.5146],[1.0686,48.5149],[1.0685,48.5156],[1.0699,48.5164],[1.0695,48.5173],[1.0702,48.5175],[1.0708,48.5168],[1.0727,48.5172],[1.0754,48.5181],[1.0774,48.5171],[1.0799,48.5188],[1.0819,48.5177],[1.0841,48.5186],[1.0832,48.5194],[1.0848,48.5203],[1.0738,48.5282],[1.0627,48.5314],[1.0426,48.5375],[1.037,48.5295],[1.0326,48.5287],[1.0281,48.53]]]},"properties":{"id_ffco":"662","nom":"Les Trois Fères (2)","_dept":"28","numero":"1992-D28-003","commune":"Senonches","echelle":"1/15000","surface":"7.52 km²","format":"A4","annee":"1992","cartographes":"A. Matton,F. Maurois","proprietaire":"CE - Centre-Val de Loire","niveau":"Interrégional","specialite":"CO à pied","latitude":"48.5230138333","longitude":"1.05208881214","valide":"Oui","ppo":"Non","type_carte":"Nouvelle carte","fond":"Cadastre","obsolete":true}},{"type":"Feature","geometry":null,"properties":{"id_ffco":"661","nom":"Les Tois Frères (1)","_dept":"28","numero":"1990-D28-002","commune":"Senonches","echelle":"1/15000","surface":"9.5 km²","format":"A4","annee":"1990","cartographes":"E Bousser,F. Maurois,P. Miranda","proprietaire":"CE - Centre-Val de Loire","niveau":"Interrégional","specialite":"CO à pied","latitude":"48.5600338","longitude":"1.0367842","valide":"Non","ppo":"Non","obsolete":true}},{"type":"Feature","geometry":null,"properties":{"id_ffco":"2044","nom":"Les Bas-Bourgs","_dept":"28","numero":"1989-D28-001","commune":"Chartres","echelle":"1/5000","surface":"0.8 km²","format":"A4","annee":"1989","cartographes":"F. Maurois,P. Miranda","proprietaire":"AS Lycée \"Marceau\"","niveau":"Initiation, Scolaire","specialite":"CO à pied","latitude":"48.4440819","longitude":"1.4835427","valide":"Non","ppo":"Non","obsolete":true}},{"type":"Feature","geometry":null,"properties":{"id_ffco":"142","nom":"Parc du Vauroux ???!!","_dept":"28","numero":"1999-D28-??","commune":"Mainvilliers","surface":"None km²","annee":"1999","cartographes":"??","proprietaire":"??","latitude":"48.4530482","longitude":"1.4556102","valide":"Non","ppo":"Oui (32 postes)","obsolete":true}}]}