{"type":"FeatureCollection","features":[{"type":"Feature","geometry":null,"properties":{"id_ffco":"4931","nom":"Stang Luzigou","_dept":"29","numero":"2009-D29-079","commune":"ERGUE GABERIC","echelle":"1/5000","surface":"1.5 km²","format":"A4","annee":"2009","cartographes":"Le Fouest Joseph","proprietaire":"2904 - QUIMPER ORIENTATION COATARMOR","niveau":"Régional","specialite":"CO à pied","latitude":"48.3636842","longitude":"-3.7467527","date_saisie":"29/04/2010","date_depot":"03/05/2010","valide":"Non","ppo":"Non","type_carte":"Nouvelle carte","fond":"IGN","obsolete":true}},{"type":"Feature","geometry":{"type":"Polygon","coordinates":[[[-4.1348,47.996],[-4.1338,47.9953],[-4.1317,47.9951],[-4.1287,47.9939],[-4.1281,47.9936],[-4.1295,47.9928],[-4.1297,47.9918],[-4.1299,47.9915],[-4.1299,47.9911],[-4.1298,47.9907],[-4.1269,47.9911],[-4.1262,47.9912],[-4.1245,47.9923],[-4.1245,47.9929],[-4.125,47.9932],[-4.1276,47.994],[-4.1268,47.9946],[-4.1248,47.9949],[-4.1219,47.9948],[-4.122,47.9949],[-4.1229,47.9962],[-4.1235,47.9963],[-4.1239,47.996],[-4.1247,47.9965],[-4.125,47.996],[-4.1257,47.9961],[-4.1273,47.9964],[-4.1288,47.9966],[-4.1286,47.9962],[-4.129,47.9959],[-4.1296,47.996],[-4.1304,47.9962],[-4.1306,47.9964],[-4.1311,47.9965],[-4.1319,47.9962],[-4.1339,47.9967],[-4.1348,47.996]]]},"properties":{"id_ffco":"9170","nom":"Le Bois d'Amour","_dept":"29","numero":"2007-D29-075","commune":"QUIMPER","echelle":"1/4000","surface":"0.25 km²","format":"A4","annee":"2007","cartographes":"Hervé CABON","proprietaire":"2904 - QUIMPER ORIENTATION COATARMOR","niveau":"Initiation, Scolaire","specialite":"CO à pied","latitude":"47.9942441522","longitude":"-4.12793955797","date_saisie":"11/01/2016","valide":"Non","ppo":"Non","type_carte":"Nouvelle carte","fond":"Cadastre","obsolete":true}},{"type":"Feature","geometry":null,"properties":{"id_ffco":"8961","nom":"LE CORNIGUEL","_dept":"29","numero":"2004-D29-050","commune":"QUIMPER","echelle":"1/5000","surface":"None km²","format":"A4","annee":"2004","cartographes":"Julien LE BORGNE","proprietaire":"2904 - QUIMPER ORIENTATION COATARMOR","niveau":"Initiation, Scolaire","specialite":"CO à pied","date_saisie":"29/11/2015","valide":"Non","ppo":"Non","type_carte":"Nouvelle carte","fond":"Cadastre","obsolete":true}},{"type":"Feature","geometry":null,"properties":{"id_ffco":"4929","nom":"LE LAC","_dept":"29","numero":"2001-D29-037","commune":"Quimper","echelle":"1/5000","surface":"1.5 km²","format":"A4","annee":"2001","cartographes":"J Le Fouest,E Demay,M Demay","proprietaire":"2904 - QUIMPER ORIENTATION COATARMOR","niveau":"Départemental","specialite":"CO à pied","latitude":"47.9959505","longitude":"-4.0999223","date_saisie":"29/04/2010","date_depot":"03/05/2010","valide":"Non","ppo":"Non","obsolete":true}}]}