{"type":"FeatureCollection","features":[{"type":"Feature","geometry":{"type":"Polygon","coordinates":[[[4.6817,43.886],[4.6812,43.8867],[4.6804,43.8872],[4.6799,43.8881],[4.6798,43.8886],[4.6802,43.8891],[4.681,43.8893],[4.6816,43.8889],[4.6831,43.8894],[4.6831,43.8898],[4.6839,43.8905],[4.6843,43.8909],[4.687,43.8897],[4.6863,43.8889],[4.6854,43.8881],[4.6846,43.8876],[4.6838,43.8868],[4.6828,43.8863],[4.6817,43.886]]]},"properties":{"id_ffco":"2026-D30-080","nom":"Complexe sportif","_dept":"30","numero":"2026-D30-080","commune":"Aramon","echelle":"1/3000","surface":"0.16 km²","format":"A4","annee":"2026","cartographes":"Ray Hulse","proprietaire":"30 - Gard","niveau":"Initiation, Scolaire","specialite":"CO à pied","latitude":"43.8884278831","longitude":"4.68322274265","date_saisie":"16/01/2026","valide":"Non","ppo":"Non","type_carte":"Nouvelle carte","fond":"Laser","obsolete":false}},{"type":"Feature","geometry":{"type":"Polygon","coordinates":[[[4.663,43.8867],[4.663,43.8857],[4.6628,43.8855],[4.6632,43.8843],[4.6637,43.8829],[4.6674,43.8848],[4.6678,43.8852],[4.6698,43.8855],[4.6725,43.8861],[4.6739,43.8867],[4.6758,43.8875],[4.6773,43.8878],[4.6777,43.8881],[4.6772,43.8885],[4.6759,43.8889],[4.674,43.889],[4.6726,43.889],[4.6705,43.8889],[4.6687,43.8887],[4.6672,43.8884],[4.6654,43.8879],[4.6646,43.8874],[4.663,43.8871],[4.663,43.8867]]]},"properties":{"id_ffco":"2026-D30-079","nom":"L'Ilôt d'Alfred","_dept":"30","numero":"2026-D30-079","commune":"Aramon","echelle":"1/4300","surface":"0.38 km²","format":"A4","annee":"2026","cartographes":"Ray Hulse","proprietaire":"30 - Gard","niveau":"Initiation, Scolaire","specialite":"CO à pied","latitude":"43.8867555662","longitude":"4.66896354115","date_saisie":"16/01/2026","valide":"Non","ppo":"Non","type_carte":"Nouvelle carte","fond":"Laser","obsolete":false}},{"type":"Feature","geometry":{"type":"Polygon","coordinates":[[[4.3496,43.7918],[4.346,43.7907],[4.3429,43.7889],[4.3426,43.7884],[4.3437,43.7871],[4.3428,43.7868],[4.3433,43.7857],[4.3442,43.7856],[4.345,43.786],[4.3463,43.7844],[4.3474,43.7844],[4.3482,43.7834],[4.3502,43.784],[4.3506,43.7836],[4.3517,43.7841],[4.3514,43.785],[4.3513,43.7853],[4.3515,43.7857],[4.351,43.7864],[4.3519,43.7884],[4.3505,43.79],[4.35,43.7911],[4.3496,43.7918]]]},"properties":{"id_ffco":"2025-D30-078","nom":"La Bastide","_dept":"30","numero":"2025-D30-078","commune":"Nîmes","echelle":"1/5000","surface":"0.45 km²","format":"A4","annee":"2025","cartographes":"Olivier Guignard","proprietaire":"30 - Gard","niveau":"Initiation, Scolaire","specialite":"CO à pied","latitude":"43.787525925","longitude":"4.34769747167","date_saisie":"23/09/2025","valide":"Non","ppo":"Non","type_carte":"Reprise","base":"2008-D30- La Bastide","fond":"Ortho","obsolete":false}},{"type":"Feature","geometry":{"type":"Polygon","coordinates":[[[4.398,44.2493],[4.389,44.2568],[4.3824,44.2583],[4.3742,44.2583],[4.3613,44.257],[4.3593,44.2549],[4.3594,44.2533],[4.3619,44.2515],[4.3641,44.2489],[4.3629,44.2458],[4.3587,44.2417],[4.3569,44.2375],[4.3541,44.2356],[4.3529,44.2311],[4.3505,44.2275],[4.3506,44.2257],[4.3477,44.2248],[4.3463,44.2233],[4.345,44.2211],[4.3435,44.2189],[4.3407,44.2168],[4.3396,44.2147],[4.34,44.2114],[4.3401,44.2104],[4.3422,44.2092],[4.3444,44.2068],[4.3467,44.209],[4.3503,44.211],[4.3528,44.2104],[4.354,44.2092],[4.356,44.2061],[4.3576,44.2072],[4.3601,44.2084],[4.3617,44.2095],[4.3632,44.2096],[4.3646,44.2076],[4.3661,44.2069],[4.3676,44.2048],[4.3734,44.2045],[4.3776,44.2047],[4.3883,44.2047],[4.3882,44.209],[4.3897,44.2122],[4.3933,44.2164],[4.3919,44.2188],[4.3903,44.2204],[4.3926,44.2275],[4.3936,44.2287],[4.3992,44.2333],[4.4003,44.2384],[4.401,44.2431],[4.398,44.2493]]]},"properties":{"id_ffco":"2025-D30-077","nom":"La Beaume des Fades","_dept":"30","numero":"2025-D30-077","commune":"Méjannes-le-Clap","echelle":"1/15000","surface":"19.2 km²","format":"A3","annee":"2025","cartographes":"Benjamin Midena, Matthieu Puech, Ray Hulse","proprietaire":"30 - Gard","niveau":"National, International","specialite":"CO à VTT","latitude":"44.2303055772","longitude":"4.37334014642","date_saisie":"03/04/2025","valide":"Non","ppo":"Non","type_carte":"Nouvelle carte","fond":"Laser","obsolete":false}},{"type":"Feature","geometry":{"type":"Polygon","coordinates":[[[4.356,44.2268],[4.3535,44.2258],[4.3508,44.2255],[4.3472,44.2244],[4.3459,44.2224],[4.3448,44.2196],[4.3423,44.2177],[4.3401,44.2155],[4.3399,44.2127],[4.34,44.2107],[4.3447,44.207],[4.3481,44.2097],[4.3502,44.2109],[4.3535,44.2099],[4.3563,44.2061],[4.3599,44.2083],[4.3622,44.2094],[4.3641,44.2083],[4.3657,44.2069],[4.3677,44.2085],[4.3705,44.2081],[4.3731,44.2086],[4.3746,44.2107],[4.376,44.2113],[4.3784,44.2105],[4.3811,44.211],[4.3833,44.2132],[4.384,44.2156],[4.3819,44.2171],[4.379,44.2189],[4.3767,44.2196],[4.3782,44.2217],[4.3788,44.2245],[4.3786,44.226],[4.3795,44.2279],[4.3774,44.229],[4.3743,44.2285],[4.3717,44.2279],[4.3692,44.228],[4.3659,44.2274],[4.3651,44.2277],[4.3641,44.2273],[4.361,44.2271],[4.356,44.2268]]]},"properties":{"id_ffco":"2024-D30-076","nom":"Méjannes-le-Clap VTT'O","_dept":"30","numero":"2024-D30-076","commune":"Méjannes-le-Clap","echelle":"1/15000","surface":"6.0 km²","format":"A4","annee":"2024","cartographes":"Ray Hulse, Benjamin Midena","proprietaire":"30 - Gard","niveau":"National, International","specialite":"CO à VTT","latitude":"44.2174281135","longitude":"4.36197080153","date_saisie":"04/12/2024","valide":"Non","ppo":"Oui (35 postes)","type_carte":"Reprise","base":"2024-D30-075 Le Dolmen des Fées 2024","fond":"Laser","obsolete":false}},{"type":"Feature","geometry":{"type":"Polygon","coordinates":[[[4.3509,44.2256],[4.3471,44.2242],[4.3459,44.2215],[4.345,44.2196],[4.3414,44.2172],[4.3399,44.2151],[4.3401,44.2125],[4.3424,44.2123],[4.3443,44.2122],[4.3445,44.211],[4.3435,44.2088],[4.3432,44.2082],[4.3444,44.2069],[4.3468,44.209],[4.3487,44.2103],[4.3503,44.2111],[4.3533,44.2102],[4.3561,44.206],[4.3572,44.207],[4.3588,44.2077],[4.3617,44.2095],[4.3632,44.2095],[4.3644,44.2078],[4.3656,44.2069],[4.3669,44.2062],[4.3676,44.2049],[4.3703,44.2079],[4.3724,44.2086],[4.3737,44.2106],[4.3757,44.2112],[4.3774,44.214],[4.3788,44.2144],[4.3808,44.2179],[4.3756,44.2201],[4.3728,44.2206],[4.3693,44.2224],[4.3714,44.2245],[4.372,44.2256],[4.3716,44.2279],[4.3678,44.2277],[4.3655,44.2272],[4.3652,44.2275],[4.3618,44.2271],[4.3605,44.2273],[4.3594,44.2276],[4.3573,44.2272],[4.3551,44.2268],[4.353,44.2256],[4.3509,44.2256]]]},"properties":{"id_ffco":"2024-D30-075","nom":"Le Dolmen des Fées 2024","_dept":"30","numero":"2024-D30-075","commune":"Méjannes-le-Clap","echelle":"1/10000","surface":"5.11 km²","format":"A3","annee":"2024","cartographes":"Ray Hulse","proprietaire":"30 - Gard","niveau":"Régional","specialite":"CO à pied","contacts":"Office du Tourisme, Méjannes-le-Clap","latitude":"44.2169672899","longitude":"4.36008836735","date_saisie":"04/12/2024","valide":"Non","ppo":"Oui (84 postes)","type_carte":"Reprise","base":"2013-D30-044 Dolmen des Fées","fond":"Laser","obsolete":false}},{"type":"Feature","geometry":{"type":"Polygon","coordinates":[[[4.3476,44.2242],[4.3496,44.225],[4.3508,44.2253],[4.351,44.2261],[4.3511,44.2278],[4.3523,44.2292],[4.3509,44.2306],[4.3488,44.2309],[4.3471,44.2305],[4.3449,44.23],[4.3431,44.23],[4.3419,44.2301],[4.3417,44.2294],[4.3428,44.2281],[4.3434,44.2272],[4.3442,44.2268],[4.345,44.226],[4.3447,44.2253],[4.3451,44.2249],[4.3476,44.2242]]]},"properties":{"id_ffco":"2024-D30-074","nom":"Méjannes-le-Clap Village","_dept":"30","numero":"2024-D30-074","commune":"Méjannes-le-Clap","echelle":"1/4000","surface":"0.4 km²","format":"A4","annee":"2024","cartographes":"Ray Hulse","proprietaire":"30 - Gard","niveau":"Départemental","specialite":"CO à pied","contacts":"Office du Tourisme, Méjannes-le-Clap","latitude":"44.2278728421","longitude":"4.34738715545","date_saisie":"04/12/2024","valide":"Non","ppo":"Oui (18 postes)","type_carte":"Nouvelle carte","fond":"Laser","obsolete":false}},{"type":"Feature","geometry":{"type":"Polygon","coordinates":[[[4.3503,44.2195],[4.3535,44.2214],[4.3513,44.223],[4.351,44.2236],[4.3502,44.2236],[4.3502,44.2223],[4.3506,44.2211],[4.3503,44.2203],[4.35,44.2195],[4.3503,44.2195]]]},"properties":{"id_ffco":"2024-D30-073","nom":"Méjannes-le-Clap Centre Sportif Départemental","_dept":"30","numero":"2024-D30-073","commune":"Méjannes-le-Clap","echelle":"1/2500","surface":"0.06 km²","format":"A4","annee":"2024","cartographes":"Ray Hulse","proprietaire":"Centre Sportif Départemental","niveau":"Initiation, Scolaire","specialite":"CO à pied","latitude":"44.2215769323","longitude":"4.35137295398","date_saisie":"04/12/2024","valide":"Non","ppo":"Non","type_carte":"Reprise","base":"2013-D30-044 Dolmen des Fées","fond":"Ortho","obsolete":false}},{"type":"Feature","geometry":{"type":"Polygon","coordinates":[[[4.1386,44.0502],[4.1385,44.0506],[4.1365,44.051],[4.1358,44.051],[4.1345,44.0515],[4.1352,44.0522],[4.1339,44.0534],[4.1339,44.0546],[4.1335,44.0559],[4.1349,44.056],[4.1362,44.0564],[4.1369,44.0559],[4.1376,44.0579],[4.1376,44.0598],[4.1373,44.062],[4.1383,44.0624],[4.141,44.0625],[4.1432,44.0632],[4.1436,44.0617],[4.1445,44.0612],[4.1442,44.0605],[4.1448,44.0593],[4.1453,44.0588],[4.144,44.0588],[4.1425,44.0583],[4.1432,44.0566],[4.1441,44.0548],[4.1439,44.0543],[4.1427,44.0539],[4.1429,44.0536],[4.1437,44.0531],[4.1434,44.0522],[4.1412,44.0512],[4.1412,44.0501],[4.1408,44.0495],[4.1398,44.0501],[4.1386,44.0502]]]},"properties":{"id_ffco":"2023-D30-072","nom":"Vézénobres","_dept":"30","numero":"2023-D30-072","commune":"Vézénobres","echelle":"1/4000","surface":"0.8 km²","format":"A3","annee":"2023","cartographes":"Ray Hulse","proprietaire":"30 - Gard","niveau":"Départemental","specialite":"CO à pied","latitude":"44.0562033582","longitude":"4.13967047216","date_saisie":"07/01/2024","date_depot":"13/02/2025","valide":"Oui","ppo":"Oui (35 postes)","type_carte":"Nouvelle carte","fond":"Laser","obsolete":false}},{"type":"Feature","geometry":{"type":"Polygon","coordinates":[[[4.0672,44.1324],[4.0679,44.1331],[4.0688,44.1345],[4.0702,44.135],[4.0707,44.1355],[4.0703,44.1362],[4.0702,44.1369],[4.0689,44.1369],[4.0681,44.1377],[4.0679,44.1388],[4.0674,44.1393],[4.0667,44.1398],[4.0662,44.14],[4.0669,44.1404],[4.065,44.1405],[4.0646,44.1408],[4.0623,44.141],[4.0609,44.1412],[4.0577,44.1416],[4.0557,44.1419],[4.0559,44.1401],[4.0557,44.1385],[4.056,44.1372],[4.0553,44.136],[4.0545,44.1338],[4.0536,44.1337],[4.0519,44.1328],[4.0522,44.1309],[4.055,44.1301],[4.0577,44.13],[4.0599,44.1296],[4.0609,44.1304],[4.0639,44.1307],[4.0653,44.1298],[4.0665,44.1298],[4.0678,44.1307],[4.0674,44.1311],[4.0672,44.1324]]]},"properties":{"id_ffco":"2022-D30-071","nom":"Alès-Rochebelle Sprint","_dept":"30","numero":"2022-D30-071","commune":"Alès","echelle":"1/5000","surface":"1.34 km²","format":"A3","annee":"2022","cartographes":"Ray Hulse","proprietaire":"30 - Gard","niveau":"Départemental","specialite":"CO à pied","latitude":"44.1353100306","longitude":"4.06122710701","date_saisie":"26/12/2022","date_depot":"13/02/2025","valide":"Oui","ppo":"Oui (35 postes)","type_carte":"Reprise","base":"2010-D30-040 Alès-Rochebelle","fond":"Ortho","obsolete":false}},{"type":"Feature","geometry":{"type":"Polygon","coordinates":[[[4.6463,44.1195],[4.647,44.1206],[4.6484,44.1207],[4.649,44.1223],[4.6497,44.1232],[4.6514,44.1259],[4.652,44.1264],[4.6529,44.1259],[4.6549,44.1264],[4.6563,44.1268],[4.6578,44.1255],[4.6593,44.1254],[4.6586,44.1222],[4.6575,44.1209],[4.6575,44.1184],[4.6564,44.1178],[4.6552,44.1172],[4.655,44.1165],[4.652,44.1155],[4.6508,44.115],[4.65,44.1152],[4.6488,44.1161],[4.6476,44.1177],[4.6475,44.1187],[4.6466,44.119],[4.6463,44.1195]]]},"properties":{"id_ffco":"2022-D30-070","nom":"Le Camp de César","_dept":"30","numero":"2022-D30-070","commune":"Laudun-l'Ardoise","echelle":"1/5000","surface":"0.83 km²","format":"A4","annee":"2022","cartographes":"Eric Charles","proprietaire":"1er REG Laudun-l'Ardoise","niveau":"Départemental","specialite":"CO à pied","latitude":"44.1209855597","longitude":"4.65310253864","date_saisie":"26/12/2022","date_depot":"15/02/2023","valide":"Oui","ppo":"Non","type_carte":"Nouvelle carte","fond":"Ortho","obsolete":false}},{"type":"Feature","geometry":{"type":"Polygon","coordinates":[[[4.6775,44.0985],[4.6761,44.1008],[4.6757,44.1019],[4.6732,44.1019],[4.6723,44.1041],[4.6718,44.105],[4.6725,44.1058],[4.675,44.106],[4.6773,44.1058],[4.678,44.1072],[4.679,44.1072],[4.6799,44.1066],[4.6811,44.1076],[4.6815,44.1091],[4.6828,44.111],[4.6848,44.1125],[4.6852,44.1136],[4.6871,44.1145],[4.6889,44.1119],[4.6919,44.1076],[4.6966,44.101],[4.6991,44.097],[4.6971,44.0972],[4.6941,44.0975],[4.6906,44.098],[4.6866,44.0985],[4.684,44.0987],[4.6802,44.0982],[4.6775,44.0985]]]},"properties":{"id_ffco":"2022-D30-069","nom":"Château Lascours","_dept":"30","numero":"2022-D30-069","commune":"Laudun-l'Ardoise","echelle":"1/7500","surface":"2.08 km²","format":"A4","annee":"2022","cartographes":"Eric Charles","proprietaire":"1er REG Laudun-l'Ardoise","niveau":"Départemental","specialite":"CO à pied","latitude":"44.103944937","longitude":"4.68562385158","date_saisie":"26/12/2022","date_depot":"15/02/2023","valide":"Oui","ppo":"Non","type_carte":"Nouvelle carte","fond":"Ortho","obsolete":false}},{"type":"Feature","geometry":{"type":"Polygon","coordinates":[[[4.6858,44.0984],[4.6855,44.0972],[4.6848,44.0968],[4.6836,44.0969],[4.6835,44.0967],[4.6837,44.0963],[4.6842,44.0961],[4.6854,44.0957],[4.6849,44.0948],[4.6845,44.094],[4.6845,44.0931],[4.6853,44.0923],[4.6861,44.0919],[4.6874,44.0919],[4.6885,44.0916],[4.6892,44.0913],[4.69,44.0914],[4.6916,44.0915],[4.695,44.0919],[4.6948,44.0931],[4.6932,44.0933],[4.6928,44.0938],[4.6923,44.0942],[4.6924,44.095],[4.6931,44.0951],[4.6931,44.0955],[4.6939,44.0961],[4.6937,44.0969],[4.6938,44.0974],[4.6897,44.0979],[4.6876,44.0982],[4.6858,44.0984]]]},"properties":{"id_ffco":"2022-D30-068","nom":"Quartier Général Rollet","_dept":"30","numero":"2022-D30-068","commune":"Laudun-l'Ardoise","echelle":"1/4000","surface":"0.49 km²","format":"A4","annee":"2022","cartographes":"Eric Charles","proprietaire":"1er REG Laudun-l'Ardoise","niveau":"Départemental","specialite":"CO à pied","latitude":"44.0947382906","longitude":"4.6892026195","date_saisie":"26/12/2022","date_depot":"15/02/2023","valide":"Oui","ppo":"Non","type_carte":"Nouvelle carte","fond":"Ortho","obsolete":false}},{"type":"Feature","geometry":{"type":"Polygon","coordinates":[[[4.1296,43.7891],[4.1302,43.789],[4.1307,43.7892],[4.1312,43.7892],[4.1313,43.7903],[4.1313,43.7908],[4.1308,43.7909],[4.1296,43.7911],[4.1281,43.7913],[4.1278,43.7911],[4.1277,43.7908],[4.1278,43.7902],[4.1283,43.7894],[4.129,43.7893],[4.1296,43.7891]]]},"properties":{"id_ffco":"2021-D30-067","nom":"Aujargues Parcours Sportif","_dept":"30","numero":"2021-D30-067","commune":"Aujargues","echelle":"1/1500","surface":"0.06 km²","format":"A4","annee":"2021","cartographes":"Daniel Seckler","proprietaire":"30 - Gard","niveau":"Initiation, Scolaire","specialite":"CO à pied","latitude":"43.7901691673","longitude":"4.12955123165","date_saisie":"27/12/2022","date_depot":"15/02/2023","valide":"Oui","ppo":"Oui (15 postes)","type_carte":"Nouvelle carte","fond":"Cadastre","obsolete":false}},{"type":"Feature","geometry":{"type":"Polygon","coordinates":[[[3.9424,44.0735],[3.9442,44.0737],[3.9463,44.0727],[3.9464,44.0706],[3.9465,44.0692],[3.9454,44.0695],[3.9444,44.0698],[3.9436,44.0704],[3.943,44.0723],[3.9425,44.0729],[3.9424,44.0735]]]},"properties":{"id_ffco":"2021-D30-066","nom":"Maison de la Randonnée de Thoiras","_dept":"30","numero":"2021-D30-066","commune":"Thoiras","echelle":"1/2000","surface":"0.11 km²","format":"A4","annee":"2021","cartographes":"Daniel Seckler","proprietaire":"30 - Gard","niveau":"Initiation, Scolaire","specialite":"CO à pied","latitude":"44.0716703163","longitude":"3.9447189381","date_saisie":"27/12/2022","date_depot":"15/02/2023","valide":"Oui","ppo":"Non","type_carte":"Reprise","base":"2007-D30-039 Maison de la Randonné de Thoiras","fond":"Cadastre","obsolete":false}},{"type":"Feature","geometry":{"type":"Polygon","coordinates":[[[4.3869,43.8905],[4.3887,43.8908],[4.3925,43.8912],[4.3953,43.8916],[4.3993,43.8919],[4.4028,43.8923],[4.4044,43.8919],[4.4064,43.8916],[4.408,43.8917],[4.4102,43.8921],[4.4116,43.8918],[4.4125,43.892],[4.414,43.8917],[4.4159,43.8913],[4.4178,43.8914],[4.419,43.892],[4.4213,43.8953],[4.423,43.8971],[4.4228,43.8989],[4.4214,43.9005],[4.4208,43.9011],[4.4206,43.9003],[4.4204,43.8997],[4.418,43.8999],[4.416,43.9012],[4.4148,43.9015],[4.4119,43.901],[4.4107,43.9013],[4.4092,43.9025],[4.4086,43.9029],[4.4079,43.903],[4.4079,43.9043],[4.4087,43.9045],[4.4098,43.9053],[4.411,43.9059],[4.4109,43.9066],[4.4106,43.9078],[4.4106,43.9089],[4.4078,43.9094],[4.408,43.911],[4.4072,43.9116],[4.4045,43.9128],[4.4016,43.9132],[4.4005,43.9134],[4.3986,43.9136],[4.3963,43.9137],[4.3948,43.9142],[4.3938,43.9153],[4.3915,43.9164],[4.3884,43.9179],[4.3878,43.9172],[4.3875,43.9148],[4.3878,43.9134],[4.3899,43.9102],[4.392,43.9068],[4.3935,43.904],[4.395,43.9031],[4.3964,43.9021],[4.3964,43.9007],[4.3949,43.8984],[4.3935,43.897],[4.3911,43.8958],[4.3884,43.8942],[4.387,43.8924],[4.3862,43.8909],[4.3869,43.8905]]]},"properties":{"id_ffco":"2021-D30-065","nom":"Les Mas 2021","_dept":"30","numero":"2021-D30-065","commune":"Nîmes","echelle":"1/15000","surface":"4.53 km²","format":"A4","annee":"2021","cartographes":"Daniel Seckler","proprietaire":"Camp des Garrigues","niveau":"Départemental","specialite":"CO à pied","latitude":"43.9016049279","longitude":"4.40295572399","date_saisie":"26/12/2022","date_depot":"15/02/2023","valide":"Oui","ppo":"Non","type_carte":"Reprise","base":"1994-D30-022 Les Mas","fond":"Ortho","obsolete":false}},{"type":"Feature","geometry":{"type":"Polygon","coordinates":[[[4.3404,43.8397],[4.3399,43.8396],[4.3394,43.8398],[4.3393,43.8403],[4.339,43.8403],[4.339,43.8414],[4.3391,43.8416],[4.3398,43.842],[4.3398,43.8418],[4.3402,43.842],[4.3404,43.8418],[4.3401,43.8417],[4.3402,43.8415],[4.3405,43.8412],[4.3406,43.841],[4.3404,43.8402],[4.3405,43.8398],[4.3404,43.8397]]]},"properties":{"id_ffco":"2020-D30-064","nom":"Stade Stanislas","_dept":"30","numero":"2020-D30-064","commune":"Nîmes","echelle":"1/1000","surface":"0.03 km²","format":"A4","annee":"2020","cartographes":"Daniel Seckler","proprietaire":"30 - Gard","niveau":"Initiation, Scolaire","specialite":"CO à pied","latitude":"43.8407851538","longitude":"4.33976846802","date_saisie":"30/12/2020","date_depot":"13/02/2025","valide":"Oui","ppo":"Non","type_carte":"Nouvelle carte","fond":"Ortho","obsolete":false}},{"type":"Feature","geometry":{"type":"Polygon","coordinates":[[[4.6924,43.9751],[4.6899,43.9714],[4.6878,43.9708],[4.6867,43.9719],[4.6852,43.9733],[4.6864,43.974],[4.6879,43.9743],[4.6874,43.9754],[4.686,43.9755],[4.6841,43.9754],[4.6824,43.9748],[4.6798,43.9744],[4.6792,43.9743],[4.6785,43.973],[4.6757,43.9721],[4.6738,43.9722],[4.6718,43.9727],[4.6734,43.9748],[4.6742,43.9761],[4.6761,43.9775],[4.6778,43.9779],[4.6825,43.9803],[4.684,43.9813],[4.6863,43.9816],[4.6873,43.9805],[4.6884,43.9808],[4.6891,43.9803],[4.6897,43.9802],[4.6897,43.9789],[4.6903,43.9776],[4.6894,43.9772],[4.6894,43.9762],[4.6894,43.9759],[4.691,43.9756],[4.6924,43.9751]]]},"properties":{"id_ffco":"2020-D30-063","nom":"Rochefort du Gard Village","_dept":"30","numero":"2020-D30-063","commune":"Rochefort du Gard","echelle":"1/5000","surface":"0.94 km²","format":"A3","annee":"2020","cartographes":"Rui Antunes","proprietaire":"30 - Gard","niveau":"Départemental","specialite":"CO à pied","contacts":"Maison du Tourisme, Nîmes","latitude":"43.9761899903","longitude":"4.68305039466","date_saisie":"08/01/2024","date_depot":"13/02/2025","valide":"Oui","ppo":"Oui (48 postes)","type_carte":"Nouvelle carte","fond":"Ortho","obsolete":false}},{"type":"Feature","geometry":{"type":"Polygon","coordinates":[[[4.672,43.983],[4.6737,43.9808],[4.6728,43.9794],[4.6702,43.9782],[4.6718,43.9773],[4.6737,43.9776],[4.676,43.9786],[4.6771,43.9779],[4.6751,43.9766],[4.6734,43.9748],[4.6722,43.9731],[4.6737,43.9722],[4.6755,43.972],[4.6783,43.9731],[4.6795,43.9743],[4.6818,43.9752],[4.6848,43.9756],[4.6867,43.9757],[4.6879,43.9743],[4.6852,43.9735],[4.6871,43.9711],[4.6882,43.9708],[4.6906,43.972],[4.6921,43.9742],[4.6926,43.9756],[4.6897,43.9762],[4.6896,43.9774],[4.6903,43.9781],[4.69,43.9804],[4.6901,43.9815],[4.6921,43.982],[4.6935,43.9821],[4.6944,43.9813],[4.6959,43.9814],[4.6975,43.9826],[4.6985,43.9829],[4.6985,43.9844],[4.698,43.9854],[4.6963,43.9876],[4.6936,43.9877],[4.6918,43.9894],[4.6886,43.9901],[4.6854,43.99],[4.6806,43.9871],[4.6755,43.9845],[4.672,43.983]]]},"properties":{"id_ffco":"2020-D30-062","nom":"Rochefort du Gard","_dept":"30","numero":"2020-D30-062","commune":"Rochefort du Gard","echelle":"1/10000","surface":"2.62 km²","format":"+","annee":"2020","cartographes":"Rui Antunes","proprietaire":"30 - Gard","niveau":"Départemental","specialite":"CO à pied","contacts":"Maison du Tourisme, Nîmes","latitude":"43.9811897994","longitude":"4.68445839128","date_saisie":"08/01/2024","date_depot":"19/02/2025","valide":"Oui","ppo":"Oui (76 postes)","type_carte":"Nouvelle carte","fond":"Ortho","obsolete":false}},{"type":"Feature","geometry":{"type":"Polygon","coordinates":[[[4.3448,43.8245],[4.3441,43.8243],[4.3431,43.8241],[4.3422,43.8238],[4.341,43.8234],[4.3403,43.8231],[4.341,43.8221],[4.3417,43.8211],[4.343,43.8215],[4.3429,43.8217],[4.3451,43.8224],[4.3454,43.8222],[4.346,43.8225],[4.3453,43.8239],[4.3448,43.8245]]]},"properties":{"id_ffco":"2020-D30-061","nom":"Stade Rouvière","_dept":"30","numero":"2020-D30-061","commune":"Nîmes","echelle":"1/2000","surface":"0.1 km²","format":"A4","annee":"2020","cartographes":"Daniel Seckler","proprietaire":"30 - Gard","niveau":"Initiation, Scolaire","specialite":"CO à pied","latitude":"43.822864532","longitude":"4.34313939667","date_saisie":"30/12/2020","date_depot":"19/02/2025","valide":"Oui","ppo":"Non","type_carte":"Reprise","base":"1990-D30-014 Stade Rouvière","fond":"Ortho","obsolete":false}},{"type":"Feature","geometry":{"type":"Polygon","coordinates":[[[4.1635,44.1607],[4.1601,44.1614],[4.158,44.1618],[4.1581,44.1631],[4.1577,44.1641],[4.1575,44.1653],[4.1582,44.1664],[4.1598,44.1666],[4.16,44.1672],[4.1606,44.1673],[4.1619,44.1657],[4.1634,44.1638],[4.1639,44.1634],[4.165,44.1626],[4.1642,44.1616],[4.1635,44.1607]]]},"properties":{"id_ffco":"2020-D30-060","nom":"La Tour Becamel","_dept":"30","numero":"2020-D30-060","commune":"Salindres","echelle":"1/3500","surface":"0.26 km²","format":"A4","annee":"2020","cartographes":"Daniel Seckler","proprietaire":"30 - Gard","niveau":"Initiation, Scolaire","specialite":"CO à pied","latitude":"44.1636865665","longitude":"4.16078452856","date_saisie":"30/12/2020","date_depot":"13/02/2025","valide":"Oui","ppo":"Non","type_carte":"Reprise","base":"2003-D30-036 La Tour Becamel","fond":"Ortho","obsolete":false}},{"type":"Feature","geometry":{"type":"Polygon","coordinates":[[[3.9509,44.3454],[3.9523,44.3485],[3.9542,44.3476],[3.9556,44.3467],[3.9563,44.3472],[3.9556,44.3485],[3.9553,44.3492],[3.9553,44.3503],[3.9554,44.3516],[3.9549,44.3522],[3.9534,44.3527],[3.953,44.3524],[3.9513,44.3531],[3.9507,44.3537],[3.9501,44.3532],[3.9495,44.3531],[3.9479,44.3538],[3.9462,44.3532],[3.9463,44.352],[3.9473,44.3509],[3.9477,44.3492],[3.9481,44.3476],[3.9492,44.3465],[3.9501,44.3454],[3.9509,44.3454]]]},"properties":{"id_ffco":"2020-D30-059","nom":"Génolhac","_dept":"30","numero":"2020-D30-059","commune":"Génolhac","echelle":"1/4000","surface":"0.44 km²","format":"A4","annee":"2020","cartographes":"Franz Mareigner","proprietaire":"30 - Gard","niveau":"Départemental","specialite":"CO à pied","latitude":"44.3500382651","longitude":"3.95103975444","date_saisie":"30/12/2020","date_depot":"13/02/2025","valide":"Oui","ppo":"Oui (18 postes)","type_carte":"Nouvelle carte","fond":"Laser","obsolete":false}},{"type":"Feature","geometry":{"type":"Polygon","coordinates":[[[4.3433,43.8292],[4.343,43.8288],[4.3414,43.8279],[4.3412,43.8281],[4.3407,43.828],[4.34,43.8291],[4.3398,43.8292],[4.3392,43.8302],[4.3403,43.8307],[4.341,43.8305],[4.3415,43.8298],[4.342,43.8294],[4.3429,43.8293],[4.3433,43.8292]]]},"properties":{"id_ffco":"2020-D30-058","nom":"Stade Audoyer","_dept":"30","numero":"2020-D30-058","commune":"Nîmes","echelle":"1/1500","surface":"0.05 km²","format":"A4","annee":"2020","cartographes":"Daniel Seckler","proprietaire":"30 - Gard","niveau":"Initiation, Scolaire","specialite":"CO à pied","latitude":"43.8292682346","longitude":"4.34106161445","date_saisie":"30/12/2020","date_depot":"13/02/2025","valide":"Oui","ppo":"Non","type_carte":"Nouvelle carte","fond":"Ortho","obsolete":false}},{"type":"Feature","geometry":{"type":"Polygon","coordinates":[[[4.2652,43.881],[4.2612,43.884],[4.2566,43.886],[4.2539,43.8875],[4.2507,43.8908],[4.2518,43.8913],[4.2529,43.8913],[4.2551,43.8906],[4.2577,43.891],[4.2565,43.8936],[4.2566,43.895],[4.2561,43.8959],[4.2568,43.8969],[4.2565,43.8981],[4.258,43.9002],[4.26,43.9011],[4.2614,43.8993],[4.2637,43.8977],[4.2642,43.8974],[4.2651,43.8981],[4.2659,43.8998],[4.2672,43.9007],[4.2677,43.9022],[4.2703,43.9015],[4.2729,43.9012],[4.2742,43.9007],[4.2743,43.8995],[4.2741,43.8986],[4.2745,43.898],[4.2767,43.8984],[4.2789,43.9004],[4.2804,43.9014],[4.2813,43.9025],[4.2822,43.9033],[4.2836,43.9029],[4.2858,43.9015],[4.2881,43.8997],[4.2889,43.898],[4.2886,43.8964],[4.2896,43.8948],[4.2901,43.8919],[4.2879,43.8925],[4.2864,43.893],[4.2842,43.8924],[4.2823,43.8916],[4.2812,43.8901],[4.2801,43.8905],[4.2784,43.8885],[4.2778,43.8886],[4.2772,43.8886],[4.2757,43.888],[4.2747,43.8881],[4.2746,43.886],[4.2768,43.884],[4.2748,43.8833],[4.2733,43.8834],[4.2723,43.8829],[4.2711,43.8829],[4.2681,43.8833],[4.2673,43.8832],[4.2655,43.8818],[4.2652,43.881]]]},"properties":{"id_ffco":"2019-D30-057","nom":"Clos de Gaillard","_dept":"30","numero":"2019-D30-057","commune":"Nîmes","echelle":"1/10000","surface":"4.17 km²","format":"A3","annee":"2019","cartographes":"Daniel Seckler","proprietaire":"30 - Gard","niveau":"Régional","specialite":"CO à pied","latitude":"43.8928476568","longitude":"4.27047356077","date_saisie":"30/12/2020","date_depot":"18/02/2025","valide":"Oui","ppo":"Oui (69 postes)","type_carte":"Reprise","base":"2012-D30-043 Clos Gaillard","fond":"Ortho","obsolete":false}},{"type":"Feature","geometry":{"type":"Polygon","coordinates":[[[4.3246,43.8585],[4.3276,43.8586],[4.3338,43.8574],[4.3343,43.8565],[4.3371,43.856],[4.3388,43.8546],[4.3419,43.8534],[4.3432,43.8524],[4.3446,43.8518],[4.3464,43.8496],[4.3466,43.8478],[4.3458,43.8479],[4.3442,43.8483],[4.3423,43.8487],[4.3408,43.8485],[4.3381,43.8488],[4.3363,43.8495],[4.3353,43.8502],[4.3322,43.8509],[4.3293,43.8512],[4.3289,43.8514],[4.3289,43.8516],[4.3247,43.852],[4.3241,43.8527],[4.3232,43.8532],[4.3228,43.8535],[4.3232,43.8538],[4.3232,43.8544],[4.3235,43.8551],[4.3234,43.8557],[4.3243,43.8572],[4.3246,43.8585]]]},"properties":{"id_ffco":"2019-D30-056","nom":"Bois des Espeisses","_dept":"30","numero":"2019-D30-056","commune":"Nîmes","echelle":"1/7500","surface":"1.18 km²","format":"A4","annee":"2019","cartographes":"Daniel Seckler","proprietaire":"30 - Gard","niveau":"Départemental","specialite":"CO à pied","latitude":"43.8532932622","longitude":"4.33388108963","date_saisie":"30/12/2020","date_depot":"18/02/2025","valide":"Oui","ppo":"Oui (38 postes)","type_carte":"Reprise","base":"2012-D30-042 Bois des Espeisses sprint","fond":"Ortho","obsolete":false}},{"type":"Feature","geometry":{"type":"Polygon","coordinates":[[[4.6676,44.1681],[4.667,44.1746],[4.6699,44.1768],[4.7012,44.181],[4.7116,44.1801],[4.7136,44.1757],[4.7143,44.1603],[4.6937,44.1644],[4.6822,44.165],[4.6676,44.1681]]]},"properties":{"id_ffco":"2018-D30-055","nom":"Bois du château de Gicon","_dept":"30","numero":"2018-D30-055","commune":"Saint Etienne des Sorts","echelle":"1/15000","surface":"6.13 km²","format":"A4","annee":"2018","cartographes":"Jeremy SEYSAUD, Pierre Yves COUDRAY","proprietaire":"30 - Gard","niveau":"National, International","specialite":"CO à VTT","contacts":"Orientation passion Avignon 84.04, opa8404@gmail.com","latitude":"44.1715992871","longitude":"4.69347442057","date_saisie":"21/06/2018","date_depot":"24/07/2018","valide":"Oui","ppo":"Non","type_carte":"Nouvelle carte","fond":"Ortho","obsolete":false}},{"type":"Feature","geometry":{"type":"Polygon","coordinates":[[[4.6181,44.1512],[4.6204,44.151],[4.6211,44.1523],[4.6221,44.1536],[4.6228,44.1541],[4.6224,44.1546],[4.6212,44.1549],[4.6204,44.1542],[4.62,44.1543],[4.6187,44.1525],[4.6182,44.1518],[4.6181,44.1512]]]},"properties":{"id_ffco":"2017-D30-054","nom":"Collège Le Bosquet","_dept":"30","numero":"2017-D30-054","commune":"Bagnoles sur Cèze","echelle":"1/2000","surface":"0.08 km²","format":"A4","annee":"2017","cartographes":"Benjamin Midena","proprietaire":"Collège Le Bosquet, Bagnoles-sur-Cèze","niveau":"Initiation, Scolaire","specialite":"CO à pied","latitude":"44.1528788985","longitude":"4.62033417134","date_saisie":"30/12/2020","date_depot":"18/02/2025","valide":"Oui","ppo":"Non","type_carte":"Reprise","base":"2000-D30-030 Le Bosquet","fond":"Ortho","obsolete":false}},{"type":"Feature","geometry":{"type":"Polygon","coordinates":[[[4.5597,44.2943],[4.5608,44.2954],[4.5632,44.295],[4.5668,44.2938],[4.567,44.2925],[4.5657,44.2927],[4.5651,44.2916],[4.5653,44.2905],[4.566,44.2903],[4.5662,44.2892],[4.5664,44.2884],[4.5672,44.2884],[4.5673,44.2879],[4.5675,44.2868],[4.5677,44.2857],[4.5674,44.2854],[4.5672,44.2851],[4.5671,44.2847],[4.5658,44.284],[4.5654,44.2841],[4.5638,44.2836],[4.5622,44.2842],[4.5617,44.2846],[4.5623,44.287],[4.5616,44.2882],[4.5605,44.2893],[4.5609,44.2905],[4.5615,44.2921],[4.5601,44.2931],[4.5597,44.2943]]]},"properties":{"id_ffco":"2017-D30-053","nom":"St Julien de Peyrolas","_dept":"30","numero":"2017-D30-053","commune":"St Julien de Peyrolas","echelle":"1/5000","surface":"0.52 km²","format":"A4","annee":"2017","cartographes":"Benjamin Midena, Gérard Coupat","proprietaire":"30 - Gard","niveau":"Départemental","specialite":"CO à pied","latitude":"44.2895322811","longitude":"4.56379641531","date_depot":"13/02/2025","valide":"Oui","ppo":"Non","observations":"9 Parcours","type_carte":"Nouvelle carte","fond":"Ortho","obsolete":false}},{"type":"Feature","geometry":{"type":"Polygon","coordinates":[[[4.557,44.3004],[4.5542,44.3002],[4.5542,44.3012],[4.5536,44.3027],[4.553,44.3039],[4.5523,44.305],[4.5532,44.3054],[4.5544,44.3057],[4.5555,44.3057],[4.5564,44.3045],[4.5579,44.3031],[4.5584,44.3026],[4.5599,44.3016],[4.5599,44.3004],[4.557,44.3004]]]},"properties":{"id_ffco":"2017-D30-052","nom":"Aiguèze","_dept":"30","numero":"2017-D30-052","commune":"30760 Aiguèze","echelle":"1/4000","surface":"0.21 km²","format":"A4","annee":"2017","cartographes":"Gérard Coupat","proprietaire":"30 - Gard","niveau":"Initiation, Scolaire","specialite":"CO à pied","latitude":"44.3027062764","longitude":"4.55590439557","date_saisie":"29/12/2020","date_depot":"13/02/2025","valide":"Oui","ppo":"Non","type_carte":"Nouvelle carte","fond":"Ortho","obsolete":false}},{"type":"Feature","geometry":{"type":"Polygon","coordinates":[[[3.5502,44.0957],[3.5508,44.0957],[3.5517,44.0949],[3.5527,44.0952],[3.5537,44.0953],[3.5544,44.0945],[3.5551,44.0935],[3.5556,44.0918],[3.555,44.0903],[3.5556,44.0897],[3.5547,44.0898],[3.5533,44.0892],[3.5508,44.087],[3.5493,44.0859],[3.5489,44.0837],[3.5493,44.0826],[3.5492,44.0812],[3.5477,44.0817],[3.5453,44.0814],[3.5439,44.081],[3.5418,44.0811],[3.5401,44.0818],[3.5398,44.0826],[3.5385,44.0836],[3.5372,44.084],[3.5378,44.0848],[3.539,44.0864],[3.5391,44.0879],[3.5393,44.0888],[3.5406,44.0901],[3.5425,44.0904],[3.5424,44.0917],[3.5415,44.094],[3.5408,44.0953],[3.5397,44.0959],[3.5397,44.0968],[3.5401,44.0977],[3.5454,44.0976],[3.5472,44.0972],[3.55,44.0963],[3.5502,44.0957]]]},"properties":{"id_ffco":"2016-D30-051","nom":"L'Espérou","_dept":"30","numero":"2016-D30-051","commune":"L'Espérou","echelle":"1/7500","surface":"1.69 km²","format":"A4","annee":"2016","cartographes":"Rui Antunes, Mario Rodriguez Martinez","proprietaire":"30 - Gard","niveau":"Départemental","specialite":"CO à pied","latitude":"44.0895735952","longitude":"3.54611733656","date_saisie":"29/12/2020","date_depot":"13/02/2025","valide":"Oui","ppo":"Oui (20 postes)","type_carte":"Nouvelle carte","fond":"Ortho","obsolete":false}},{"type":"Feature","geometry":{"type":"Polygon","coordinates":[[[3.5523,44.1168],[3.5498,44.1176],[3.5474,44.1173],[3.5446,44.1176],[3.5436,44.1182],[3.5435,44.1192],[3.542,44.1203],[3.5396,44.1207],[3.5387,44.1204],[3.537,44.1196],[3.5381,44.1184],[3.5372,44.1179],[3.5338,44.1151],[3.535,44.1133],[3.5344,44.1114],[3.5342,44.1097],[3.5357,44.1084],[3.5373,44.1076],[3.5384,44.1081],[3.539,44.1078],[3.5396,44.1066],[3.5401,44.1057],[3.541,44.1034],[3.5417,44.1029],[3.5437,44.1038],[3.545,44.1041],[3.5467,44.1052],[3.5483,44.1057],[3.5503,44.1068],[3.5514,44.1072],[3.5553,44.108],[3.5563,44.1089],[3.5563,44.11],[3.5571,44.1114],[3.557,44.1133],[3.5574,44.1145],[3.5569,44.1158],[3.5575,44.1172],[3.56,44.1178],[3.5615,44.1183],[3.5624,44.1194],[3.5636,44.1201],[3.5641,44.1207],[3.5662,44.1201],[3.5678,44.1196],[3.568,44.12],[3.5671,44.1205],[3.5653,44.1214],[3.5632,44.1215],[3.5618,44.1217],[3.5613,44.1213],[3.5596,44.12],[3.5574,44.1187],[3.555,44.1176],[3.5523,44.1168]]]},"properties":{"id_ffco":"2016-D30-050","nom":"Prat Peyrot","_dept":"30","numero":"2016-D30-050","commune":"L'Espérou","echelle":"1/10000","surface":"2.52 km²","format":"A4","annee":"2016","cartographes":"Rui Antunes, Mario Rodriguez Martinez","proprietaire":"30 - Gard","niveau":"Régional","specialite":"CO à pied","latitude":"44.1127028602","longitude":"3.54636478252","date_saisie":"29/12/2020","date_depot":"13/02/2025","valide":"Oui","ppo":"Oui (25 postes)","type_carte":"Nouvelle carte","fond":"Ortho","obsolete":false}},{"type":"Feature","geometry":{"type":"Polygon","coordinates":[[[4.0934,43.7639],[4.0922,43.7635],[4.0929,43.7629],[4.0932,43.7623],[4.0924,43.7617],[4.0917,43.7618],[4.0909,43.7619],[4.0903,43.7616],[4.0911,43.7609],[4.092,43.7602],[4.0926,43.7593],[4.0929,43.7587],[4.0951,43.7598],[4.0946,43.7611],[4.0945,43.762],[4.0943,43.7631],[4.0939,43.7635],[4.0934,43.7639]]]},"properties":{"id_ffco":"2015-D30-048","nom":"Roc de Massereau","_dept":"30","numero":"2015-D30-048","commune":"Sommières","echelle":"1/2000","surface":"0.1 km²","format":"A4","annee":"2015","cartographes":"Georges Lagorce","proprietaire":"30 - Gard","niveau":"Initiation, Scolaire","specialite":"CO à pied","latitude":"43.7611866501","longitude":"4.09314672809","date_saisie":"29/12/2020","date_depot":"13/02/2025","valide":"Oui","ppo":"Non","type_carte":"Nouvelle carte","fond":"Ortho","obsolete":false}},{"type":"Feature","geometry":{"type":"Polygon","coordinates":[[[4.4847,43.9559],[4.4833,43.9569],[4.4835,43.9576],[4.4818,43.9581],[4.4817,43.9585],[4.4798,43.9582],[4.4789,43.9598],[4.4775,43.9604],[4.4751,43.9611],[4.4749,43.9602],[4.4744,43.9601],[4.4739,43.9596],[4.4728,43.9593],[4.4732,43.9586],[4.4722,43.9583],[4.4715,43.9576],[4.4709,43.9563],[4.4707,43.9555],[4.4704,43.9542],[4.47,43.954],[4.4701,43.9535],[4.4712,43.9534],[4.4714,43.9528],[4.4726,43.953],[4.475,43.953],[4.4755,43.9524],[4.4758,43.9512],[4.4765,43.951],[4.4798,43.9515],[4.4812,43.9523],[4.4821,43.9534],[4.4829,43.9547],[4.4847,43.9559]]]},"properties":{"id_ffco":"2014-D30-047","nom":"Collias","_dept":"30","numero":"2014-D30-047","commune":"Collias","echelle":"1/4000","surface":"0.77 km²","format":"A3","annee":"2014","cartographes":"Ray Hulse","proprietaire":"30 - Gard","niveau":"Départemental","specialite":"Sprint (ISSOM)","latitude":"43.9557882376","longitude":"4.47704333773","date_saisie":"14/10/2015","date_depot":"13/02/2025","valide":"Oui","ppo":"Non","type_carte":"Nouvelle carte","fond":"Cadastre","obsolete":false}},{"type":"Feature","geometry":{"type":"Polygon","coordinates":[[[4.4058,43.6464],[4.4025,43.6448],[4.4025,43.644],[4.4018,43.6435],[4.402,43.6404],[4.405,43.6402],[4.4058,43.6464]]]},"properties":{"id_ffco":"2013-D30-046","nom":"Château d'Espeyran","_dept":"30","numero":"2013-D30-046","commune":"St Gilles","echelle":"1/3000","surface":"0.15 km²","format":"A4","annee":"2013","cartographes":"Ray Hulse","proprietaire":"30 - Gard","niveau":"Initiation, Scolaire","specialite":"CO à pied","latitude":"43.6429625197","longitude":"4.40380182838","date_saisie":"14/10/2015","date_depot":"13/02/2025","valide":"Oui","ppo":"Non","type_carte":"Nouvelle carte","fond":"Ortho","obsolete":false}},{"type":"Feature","geometry":{"type":"Polygon","coordinates":[[[4.3675,44.1508],[4.3678,44.1516],[4.3675,44.1537],[4.3675,44.155],[4.3664,44.1557],[4.3642,44.1557],[4.3633,44.1548],[4.3634,44.1528],[4.3651,44.1515],[4.3661,44.1511],[4.3675,44.1508]]]},"properties":{"id_ffco":"2013-D30-045","nom":"Lussan","_dept":"30","numero":"2013-D30-045","commune":"Lussan","echelle":"1/4000","surface":"0.15 km²","format":"A4","annee":"2013","cartographes":"Ray Hulse","proprietaire":"30 - Gard","niveau":"Départemental","specialite":"Sprint (ISSOM)","latitude":"44.1534690407","longitude":"4.36566148797","date_saisie":"14/10/2015","date_depot":"13/02/2025","valide":"Oui","ppo":"Non","type_carte":"Nouvelle carte","fond":"Cadastre","obsolete":false}},{"type":"Feature","geometry":{"type":"Polygon","coordinates":[[[4.356,44.2266],[4.356,44.2246],[4.3533,44.2246],[4.3532,44.2235],[4.3528,44.2228],[4.3526,44.2221],[4.3514,44.2228],[4.3509,44.2252],[4.3473,44.224],[4.346,44.2227],[4.3447,44.2194],[4.3427,44.2179],[4.3401,44.2159],[4.3398,44.2139],[4.3399,44.2126],[4.3426,44.2123],[4.3447,44.2122],[4.3448,44.2111],[4.3435,44.2086],[4.3444,44.2077],[4.3462,44.2084],[4.3504,44.211],[4.3532,44.2102],[4.356,44.2062],[4.3595,44.2025],[4.3668,44.2021],[4.3675,44.2046],[4.3705,44.2075],[4.3726,44.2084],[4.3736,44.2102],[4.3759,44.2112],[4.3786,44.2107],[4.3813,44.2112],[4.3804,44.2126],[4.3813,44.2133],[4.3813,44.215],[4.3835,44.2159],[4.381,44.2177],[4.3778,44.2193],[4.3742,44.2204],[4.372,44.2207],[4.369,44.2224],[4.372,44.2248],[4.3714,44.2265],[4.3711,44.2278],[4.3672,44.2276],[4.3659,44.2273],[4.3653,44.2276],[4.3639,44.2273],[4.356,44.2266]]]},"properties":{"id_ffco":"2013-D30-044","nom":"Dolmen des Fées","_dept":"30","numero":"2013-D30-044","commune":"Méjannes le Clap","echelle":"1/10000","surface":"5.68 km²","format":"A3","annee":"2013","cartographes":"Rui Antunes, José Batista","proprietaire":"30 - Gard","niveau":"Régional","specialite":"CO à pied","latitude":"44.2156171755","longitude":"4.36115577583","date_saisie":"14/10/2015","date_depot":"13/02/2025","valide":"Oui","ppo":"Oui (95 postes)","type_carte":"Reprise","base":"1990-D30-011 Dolmen des Fées","fond":"Ortho","obsolete":false}},{"type":"Feature","geometry":{"type":"Polygon","coordinates":[[[4.2654,43.881],[4.2659,43.8822],[4.2677,43.8831],[4.2696,43.8832],[4.2721,43.8828],[4.2732,43.8835],[4.2751,43.8833],[4.2768,43.8839],[4.2745,43.8865],[4.2746,43.8881],[4.2757,43.888],[4.2777,43.889],[4.2783,43.8886],[4.2802,43.8907],[4.279,43.8916],[4.2787,43.8922],[4.2804,43.894],[4.2793,43.8946],[4.2784,43.8952],[4.2775,43.8957],[4.2769,43.8963],[4.2767,43.8969],[4.2769,43.8983],[4.2742,43.898],[4.2727,43.8975],[4.2714,43.8985],[4.2699,43.8992],[4.2684,43.9004],[4.2675,43.9005],[4.2666,43.8998],[4.2653,43.8983],[4.2653,43.8976],[4.2638,43.8972],[4.2631,43.8977],[4.2615,43.8989],[4.2601,43.9001],[4.2582,43.9003],[4.2584,43.8988],[4.259,43.8975],[4.259,43.8931],[4.2569,43.8927],[4.2579,43.8909],[4.2564,43.8908],[4.257,43.8899],[4.256,43.8898],[4.2547,43.8907],[4.2528,43.8914],[4.2508,43.8909],[4.2518,43.8895],[4.2531,43.8881],[4.2539,43.8872],[4.2572,43.8856],[4.2605,43.8842],[4.2635,43.8822],[4.2654,43.881]]]},"properties":{"id_ffco":"2012-D30-043","nom":"Clos Gaillard","_dept":"30","numero":"2012-D30-043","commune":"Nîmes","echelle":"1/10000","surface":"2.9 km²","format":"A3","annee":"2012","cartographes":"Ray Hulse","proprietaire":"30 - Gard","niveau":"Régional","specialite":"CO à pied","latitude":"43.8909001603","longitude":"4.26692115084","date_saisie":"14/10/2015","valide":"Non","ppo":"Oui (80 postes)","type_carte":"Reprise","base":"2017-D30-053 St Julien de Peyrolas","fond":"Ortho","obsolete":false}},{"type":"Feature","geometry":{"type":"Polygon","coordinates":[[[4.3229,43.8553],[4.3232,43.8543],[4.3228,43.8533],[4.3244,43.8527],[4.3246,43.852],[4.3288,43.8516],[4.3289,43.8513],[4.3357,43.8499],[4.3372,43.849],[4.3397,43.8484],[4.3417,43.8485],[4.3425,43.8488],[4.3446,43.8483],[4.3456,43.8479],[4.3466,43.8481],[4.3465,43.8497],[4.3446,43.8517],[4.3433,43.8524],[4.3425,43.8532],[4.3412,43.8537],[4.3393,43.8542],[4.3385,43.855],[4.3352,43.8548],[4.3337,43.8576],[4.3303,43.8583],[4.3265,43.8587],[4.3245,43.8585],[4.3239,43.8568],[4.3229,43.8553]]]},"properties":{"id_ffco":"2012-D30-042","nom":"Bois des Espeisses sprint","_dept":"30","numero":"2012-D30-042","commune":"Nîmes","echelle":"1/5000","surface":"1.18 km²","format":"A3","annee":"2012","cartographes":"Ray Hulse","proprietaire":"30 - Gard","niveau":"Départemental","specialite":"Sprint (ISSOM)","latitude":"43.8532566941","longitude":"4.33371079043","date_saisie":"14/10/2015","valide":"Non","ppo":"Oui (72 postes)","type_carte":"Reprise","base":"2004-D30- Les Espeisses","fond":"Ortho","obsolete":false}},{"type":"Feature","geometry":{"type":"Polygon","coordinates":[[[4.6187,43.8416],[4.6168,43.8422],[4.6164,43.8427],[4.6154,43.8433],[4.6139,43.843],[4.6126,43.8422],[4.6106,43.8416],[4.6077,43.8424],[4.6055,43.8427],[4.604,43.8426],[4.603,43.8422],[4.6022,43.841],[4.6008,43.8386],[4.6,43.8374],[4.6004,43.8364],[4.6009,43.8346],[4.6015,43.8325],[4.6033,43.8308],[4.6064,43.8302],[4.6083,43.8291],[4.6103,43.8279],[4.6118,43.8278],[4.614,43.8284],[4.6155,43.8292],[4.6183,43.8311],[4.6178,43.8325],[4.6182,43.8345],[4.6185,43.8359],[4.6186,43.8367],[4.6194,43.8381],[4.6204,43.8387],[4.6204,43.8401],[4.6193,43.842],[4.6187,43.8416]]]},"properties":{"id_ffco":"2011-D30-041","nom":"St Roman","_dept":"30","numero":"2011-D30-041","commune":"Beaucaire","echelle":"1/10000","surface":"2.02 km²","format":"A4","annee":"2011","cartographes":"Ray Hulse","niveau":"Départemental","specialite":"CO à pied","latitude":"43.8360177265","longitude":"4.61027039084","date_saisie":"14/10/2015","valide":"Non","ppo":"Non","type_carte":"Nouvelle carte","fond":"Ortho","obsolete":false}},{"type":"Feature","geometry":{"type":"Polygon","coordinates":[[[4.0671,44.1388],[4.0675,44.1376],[4.0697,44.1366],[4.0675,44.1345],[4.0676,44.1333],[4.0669,44.1322],[4.0652,44.1311],[4.064,44.1305],[4.0613,44.1293],[4.0589,44.1296],[4.0582,44.1295],[4.0575,44.1299],[4.0563,44.1292],[4.0549,44.1296],[4.0532,44.1306],[4.0528,44.1312],[4.0511,44.1314],[4.0508,44.1334],[4.0513,44.1343],[4.053,44.1339],[4.0549,44.1348],[4.0556,44.1384],[4.056,44.1409],[4.0564,44.1417],[4.0584,44.1422],[4.0607,44.1415],[4.0639,44.1411],[4.0653,44.1413],[4.067,44.1407],[4.0671,44.1388]]]},"properties":{"id_ffco":"2010-D30-040","nom":"Alès-Rochebelle","_dept":"30","numero":"2010-D30-040","commune":"Alès","echelle":"1/7500","surface":"1.37 km²","format":"A4","annee":"2010","cartographes":"Ray Hulse","proprietaire":"30 - Gard","niveau":"Régional","specialite":"CO à pied","latitude":"44.1353571628","longitude":"4.06042485384","date_saisie":"14/10/2015","valide":"Non","ppo":"Oui (35 postes)","type_carte":"Nouvelle carte","fond":"Ortho","obsolete":false}},{"type":"Feature","geometry":{"type":"Polygon","coordinates":[[[3.944,44.0724],[3.9456,44.0731],[3.947,44.0722],[3.9478,44.0702],[3.9478,44.0694],[3.9469,44.0692],[3.9459,44.0695],[3.9445,44.0714],[3.9438,44.0722],[3.944,44.0724]]]},"properties":{"id_ffco":"2007-D30-039","nom":"Maison de la Randonné de Thoiras","_dept":"30","numero":"2007-D30-039","commune":"Thoiras","echelle":"1/2000","surface":"0.08 km²","format":"A4","annee":"2007","cartographes":"Gilles Goret","proprietaire":"30 - Gard","niveau":"Initiation, Scolaire","specialite":"CO à pied","latitude":"44.0711272926","longitude":"3.94606562139","date_saisie":"30/12/2020","valide":"Non","ppo":"Non","type_carte":"Nouvelle carte","fond":"Ortho","obsolete":false}},{"type":"Feature","geometry":{"type":"Polygon","coordinates":[[[4.4189,43.892],[4.4176,43.8912],[4.4171,43.89],[4.4168,43.8883],[4.4177,43.8869],[4.417,43.8852],[4.4166,43.8841],[4.417,43.8826],[4.4173,43.8812],[4.416,43.8777],[4.4146,43.8753],[4.4143,43.8747],[4.4143,43.8736],[4.4151,43.8731],[4.4158,43.8716],[4.4169,43.8707],[4.4183,43.8698],[4.422,43.8694],[4.4238,43.8696],[4.424,43.8682],[4.425,43.867],[4.4258,43.865],[4.4264,43.8637],[4.4272,43.8624],[4.4277,43.8612],[4.4271,43.8608],[4.4271,43.8602],[4.4295,43.8611],[4.4312,43.8616],[4.4341,43.8654],[4.4368,43.8679],[4.4428,43.8718],[4.447,43.8737],[4.4497,43.8747],[4.4529,43.8761],[4.4523,43.8821],[4.451,43.8847],[4.4509,43.8861],[4.4511,43.888],[4.4502,43.89],[4.4479,43.891],[4.4465,43.8923],[4.4461,43.8928],[4.4461,43.8939],[4.444,43.8941],[4.4424,43.8946],[4.4407,43.8946],[4.44,43.8935],[4.4393,43.8932],[4.4365,43.8925],[4.4365,43.8913],[4.4351,43.8907],[4.4345,43.89],[4.4339,43.8906],[4.432,43.8908],[4.4279,43.8908],[4.4242,43.8911],[4.4206,43.8916],[4.4189,43.892]]]},"properties":{"id_ffco":"2005-D30-037","nom":"Marguerittes","_dept":"30","numero":"2005-D30-037","commune":"Marguerittes","echelle":"1/10000","surface":"7.29 km²","format":"A3","annee":"2005","cartographes":"Gilles Goret","proprietaire":"30 - Gard","niveau":"Régional","specialite":"CO à pied","latitude":"43.8797007851","longitude":"4.43323734214","date_saisie":"30/12/2020","valide":"Non","ppo":"Non","type_carte":"Reprise","base":"1984-D30-001 Marguerittes","fond":"Ortho","obsolete":false}},{"type":"Feature","geometry":{"type":"Polygon","coordinates":[[[4.1634,44.1607],[4.1642,44.1616],[4.1651,44.1625],[4.1633,44.1637],[4.162,44.1657],[4.1612,44.1666],[4.1583,44.1665],[4.1575,44.1651],[4.1576,44.1643],[4.1581,44.1634],[4.158,44.1618],[4.1595,44.1614],[4.1603,44.1614],[4.1634,44.1607]]]},"properties":{"id_ffco":"2003-D30-036","nom":"La Tour Becamel","_dept":"30","numero":"2003-D30-036","commune":"Salindres","echelle":"1/3500","surface":"0.25 km²","format":"A4","annee":"2003","cartographes":"Didier Bertonneau","proprietaire":"Collège Jean-Baptiste Dumas, 30340 Salindres","niveau":"Initiation, Scolaire","specialite":"CO à pied","latitude":"44.163612691","longitude":"4.16077457556","date_saisie":"29/12/2020","valide":"Non","ppo":"Non","type_carte":"Nouvelle carte","fond":"IGN","obsolete":false}},{"type":"Feature","geometry":{"type":"Polygon","coordinates":[[[4.2187,43.751],[4.2186,43.7499],[4.2195,43.7489],[4.2197,43.7474],[4.2186,43.7475],[4.2172,43.7472],[4.2163,43.7469],[4.216,43.7474],[4.2146,43.748],[4.2141,43.7479],[4.2133,43.7472],[4.2109,43.7472],[4.2103,43.7482],[4.2135,43.7489],[4.2144,43.7495],[4.2142,43.7507],[4.217,43.751],[4.2187,43.751]]]},"properties":{"id_ffco":"2001-D30-035","nom":"Puech du Rhony","_dept":"30","numero":"2001-D30-035","commune":"Vergèze","echelle":"1/3500","surface":"0.2 km²","format":"A4","annee":"2001","cartographes":"Didier Bertonneau","proprietaire":"30 - Gard","niveau":"Initiation, Scolaire","specialite":"CO à pied","latitude":"43.7488230355","longitude":"4.21582911259","date_saisie":"22/02/2002","valide":"Oui","ppo":"Non","type_carte":"Nouvelle carte","fond":"Ortho","obsolete":false}},{"type":"Feature","geometry":{"type":"Polygon","coordinates":[[[4.2219,43.751],[4.224,43.7509],[4.2253,43.7506],[4.2245,43.7495],[4.2236,43.7474],[4.2227,43.747],[4.2225,43.7474],[4.2224,43.7482],[4.2215,43.7498],[4.2219,43.751]]]},"properties":{"id_ffco":"2001-D30-034","nom":"Complexe Sportif","_dept":"30","numero":"2001-D30-034","commune":"Vergèze","echelle":"1/2000","surface":"0.08 km²","format":"A4","annee":"2001","cartographes":"Didier Bertonneau","proprietaire":"30 - Gard","niveau":"Initiation, Scolaire","specialite":"CO à pied","latitude":"43.7494185359","longitude":"4.22316770516","date_saisie":"22/02/2002","valide":"Oui","ppo":"Non","type_carte":"Nouvelle carte","fond":"Ortho","obsolete":false}},{"type":"Feature","geometry":{"type":"Polygon","coordinates":[[[4.623,44.1546],[4.6213,44.1552],[4.6195,44.1547],[4.6184,44.1527],[4.618,44.1514],[4.6178,44.1507],[4.6202,44.1503],[4.6209,44.1519],[4.6222,44.1537],[4.6228,44.154],[4.623,44.1546]]]},"properties":{"id_ffco":"2000-D30-030","nom":"Le Bosquet","_dept":"30","numero":"2000-D30-030","commune":"Bagnols sur Cèze","echelle":"1/2500","surface":"0.12 km²","format":"A4","annee":"2000","cartographes":"Gilles Goret","proprietaire":"30 - Gard","niveau":"Initiation, Scolaire","specialite":"CO à pied","latitude":"44.1528815736","longitude":"4.62016846736","date_saisie":"22/02/2002","valide":"Oui","ppo":"Non","type_carte":"Nouvelle carte","fond":"IGN","obsolete":false}},{"type":"Feature","geometry":{"type":"Polygon","coordinates":[[[4.2089,43.9453],[4.2088,43.9469],[4.2083,43.9494],[4.2068,43.9497],[4.2064,43.95],[4.2035,43.9501],[4.2032,43.9493],[4.2036,43.9486],[4.2024,43.9457],[4.2036,43.9455],[4.2056,43.9449],[4.2087,43.9448],[4.2089,43.9453]]]},"properties":{"id_ffco":"1999-D30-028","nom":"Le Moulin de Tavillan","_dept":"30","numero":"1999-D30-028","commune":"30190 St Geniès de Malgoirès","echelle":"1/2500","surface":"0.24 km²","format":"A4","annee":"1999","cartographes":"Thomas Marasco","proprietaire":"30 - Gard","niveau":"Initiation, Scolaire","specialite":"CO à pied","latitude":"43.9473282159","longitude":"4.20588562616","date_saisie":"28/12/2020","valide":"Non","ppo":"Non","type_carte":"Nouvelle carte","fond":"IGN","ref_ign":"2841 Est","obsolete":false}},{"type":"Feature","geometry":{"type":"Polygon","coordinates":[[[4.3529,44.2253],[4.3508,44.2255],[4.3473,44.2242],[4.3459,44.2222],[4.3455,44.2211],[4.3464,44.2207],[4.3444,44.218],[4.3446,44.2169],[4.3446,44.2154],[4.346,44.2148],[4.3468,44.2158],[4.3482,44.2163],[4.3488,44.217],[4.3508,44.2171],[4.3516,44.2169],[4.3528,44.2172],[4.3541,44.2185],[4.3544,44.2196],[4.3543,44.2207],[4.3536,44.2217],[4.3533,44.2227],[4.3537,44.2238],[4.3534,44.2249],[4.3529,44.2253]]]},"properties":{"id_ffco":"2002-D30-027","nom":"Centre Sportif Départemental Socio-Educatif","_dept":"30","numero":"2002-D30-027","commune":"Méjannes-le-Clap","echelle":"1/5000","surface":"0.61 km²","format":"A4","annee":"2002","cartographes":"Didier Bertonneau","proprietaire":"30 - Gard","niveau":"Initiation, Scolaire","specialite":"CO à pied","latitude":"44.2204046063","longitude":"4.3495353689","date_saisie":"28/12/2020","valide":"Non","ppo":"Non","type_carte":"Extrait","base":"1998-D30-025 Centre Sportif Départemental","fond":"Ortho","obsolete":false}},{"type":"Feature","geometry":{"type":"Polygon","coordinates":[[[4.27,43.9096],[4.2672,43.9097],[4.2646,43.9103],[4.2585,43.9049],[4.2549,43.9013],[4.2521,43.9002],[4.2522,43.8989],[4.2505,43.8974],[4.2494,43.8975],[4.248,43.8955],[4.2484,43.8951],[4.2462,43.8934],[4.2447,43.8931],[4.2442,43.8926],[4.2446,43.8919],[4.2426,43.89],[4.2431,43.8889],[4.2472,43.8877],[4.2486,43.8868],[4.2531,43.8865],[4.2565,43.8856],[4.2604,43.8841],[4.2651,43.8809],[4.2653,43.8812],[4.2655,43.882],[4.2674,43.8832],[4.2686,43.8833],[4.272,43.8827],[4.2734,43.8835],[4.2749,43.8834],[4.2767,43.8838],[4.2771,43.8832],[4.2789,43.8834],[4.2804,43.8847],[4.2825,43.8864],[4.2829,43.8874],[4.2846,43.888],[4.2849,43.8892],[4.2864,43.8896],[4.2881,43.8904],[4.2888,43.8915],[4.2894,43.8913],[4.2901,43.8919],[4.2896,43.8946],[4.289,43.8966],[4.2887,43.899],[4.2852,43.902],[4.2815,43.9042],[4.2764,43.9061],[4.2713,43.9078],[4.27,43.9096]]]},"properties":{"id_ffco":"1998-D30-026","nom":"Le Clos de Gaillard","_dept":"30","numero":"1998-D30-026","commune":"Nîmes","echelle":"1/10000","surface":"7.4 km²","format":"A3","annee":"1998","cartographes":"Henry Pierre Prat, Marian Cotirta","proprietaire":"30 - Gard","niveau":"National, International","specialite":"CO à pied","latitude":"43.8949040695","longitude":"4.2680128503","valide":"Non","ppo":"Non","type_carte":"Reprise","base":"1984-D30-002 Clos Gaillard","fond":"IGN","obsolete":false}},{"type":"Feature","geometry":{"type":"Polygon","coordinates":[[[4.1194,44.2071],[4.1185,44.2051],[4.1183,44.2044],[4.1186,44.2036],[4.1225,44.203],[4.1239,44.2038],[4.1258,44.2043],[4.1257,44.205],[4.1259,44.2056],[4.1268,44.2051],[4.1282,44.2054],[4.1301,44.2049],[4.132,44.2047],[4.1323,44.2054],[4.1274,44.2073],[4.1239,44.2083],[4.1213,44.2071],[4.1194,44.2071]]]},"properties":{"id_ffco":"1998-D30-024","nom":"Commune de Rousson","_dept":"30","numero":"1998-D30-024","commune":"30340 Rousson","echelle":"1/5000","surface":"0.34 km²","format":"A4","annee":"1998","cartographes":"Didier Bertonneau, Marian Cotirta","proprietaire":"30 - Gard","niveau":"Initiation, Scolaire","specialite":"CO à pied","latitude":"44.2056409697","longitude":"4.12388935267","valide":"Oui","ppo":"Non","type_carte":"Nouvelle carte","fond":"Ortho","obsolete":false}},{"type":"Feature","geometry":{"type":"Polygon","coordinates":[[[4.3339,43.8574],[4.3304,43.8583],[4.3272,43.8588],[4.3247,43.8585],[4.3244,43.8572],[4.3232,43.8554],[4.3235,43.8549],[4.3232,43.8543],[4.3233,43.8537],[4.3228,43.8534],[4.3235,43.8529],[4.3241,43.8527],[4.3247,43.8519],[4.3263,43.8518],[4.3289,43.8515],[4.329,43.8513],[4.331,43.851],[4.3329,43.8508],[4.3357,43.85],[4.3371,43.8491],[4.3381,43.8488],[4.3399,43.8484],[4.3416,43.8485],[4.3424,43.8487],[4.3437,43.8485],[4.3444,43.8484],[4.3456,43.8487],[4.3456,43.8506],[4.3444,43.852],[4.3432,43.8525],[4.3421,43.8532],[4.3404,43.8528],[4.3399,43.852],[4.3389,43.8519],[4.3382,43.8519],[4.3373,43.8527],[4.3379,43.8535],[4.3386,43.8542],[4.3382,43.8545],[4.3372,43.8544],[4.3354,43.8547],[4.3345,43.8561],[4.3339,43.8574]]]},"properties":{"id_ffco":"2001-D30-023","nom":"Les Espesses","_dept":"30","numero":"2001-D30-023","commune":"Nîmes","echelle":"1/7500","surface":"1.07 km²","format":"A4","annee":"2001","cartographes":"Didier Bertonneau","proprietaire":"30 - Gard","niveau":"Initiation, Scolaire","specialite":"CO à pied","latitude":"43.8533598268","longitude":"4.33316074948","date_saisie":"22/02/2002","valide":"Oui","ppo":"Non","type_carte":"Nouvelle carte","fond":"IGN","obsolete":false}},{"type":"Feature","geometry":{"type":"Polygon","coordinates":[[[4.38,43.8836],[4.3835,43.8833],[4.3853,43.8827],[4.393,43.8834],[4.3965,43.8827],[4.3994,43.8835],[4.4032,43.8833],[4.407,43.8827],[4.412,43.8822],[4.4172,43.8818],[4.4167,43.8841],[4.4177,43.8869],[4.4168,43.8889],[4.4176,43.8913],[4.4179,43.8934],[4.4185,43.8961],[4.4166,43.8969],[4.4159,43.8986],[4.4139,43.8963],[4.4081,43.896],[4.4079,43.8971],[4.4107,43.8997],[4.4119,43.9008],[4.4112,43.9046],[4.4107,43.908],[4.4091,43.911],[4.4047,43.9125],[4.3992,43.9136],[4.3953,43.9139],[4.394,43.9151],[4.3882,43.9177],[4.3873,43.9168],[4.3876,43.9134],[4.391,43.9083],[4.3933,43.904],[4.3962,43.9025],[4.3962,43.9005],[4.3938,43.8974],[4.3894,43.8949],[4.387,43.8925],[4.3862,43.8906],[4.3835,43.8875],[4.3797,43.8847],[4.38,43.8836]]]},"properties":{"id_ffco":"1994-D30-022","nom":"Les Mas","_dept":"30","numero":"1994-D30-022","commune":"Poulx","echelle":"1/15000","surface":"6.75 km²","format":"A4","annee":"1994","cartographes":"Henry Pierre Prat","proprietaire":"OC - Occitanie","niveau":"Interrégional","specialite":"CO à pied","latitude":"43.8962541929","longitude":"4.40099457304","valide":"Oui","ppo":"Non","type_carte":"Reprise","base":"1987-D30-004 Mas de Cabanes","fond":"IGN","obsolete":false}},{"type":"Feature","geometry":null,"properties":{"id_ffco":"1991-D30-018","nom":"TERRES DE ROUVIERE","_dept":"30","numero":"1991-D30-018","commune":"Nîmes","echelle":"1/10000","surface":"1.0 km²","annee":"1991","proprietaire":"30 - Gard","specialite":"CO à pied","latitude":"43.83459","longitude":"4.3608637","valide":"Non","ppo":"Non","obsolete":false}},{"type":"Feature","geometry":null,"properties":{"id_ffco":"1984-D30-015","nom":"BOIS DE NICE","_dept":"30","numero":"1984-D30-015","commune":"NIMES","echelle":"1/15000","surface":"7.0 km²","annee":"1984","proprietaire":"30 - Gard","niveau":"Interrégional","specialite":"CO à pied","latitude":"43.83459","longitude":"4.3608637","valide":"Non","ppo":"Non","obsolete":false}},{"type":"Feature","geometry":{"type":"Polygon","coordinates":[[[4.3801,43.8849],[4.3837,43.8879],[4.3865,43.8894],[4.3865,43.8906],[4.3849,43.8915],[4.3855,43.8929],[4.3873,43.8933],[4.3873,43.8939],[4.3856,43.8944],[4.3856,43.8949],[4.3881,43.8958],[4.3896,43.8957],[4.393,43.8971],[4.3961,43.9004],[4.3957,43.9025],[4.3937,43.9036],[4.3915,43.9073],[4.3879,43.9128],[4.3875,43.9141],[4.3876,43.9151],[4.3876,43.9159],[4.3921,43.916],[4.394,43.9148],[4.395,43.914],[4.399,43.9136],[4.4032,43.9129],[4.4065,43.9115],[4.4093,43.911],[4.4099,43.9098],[4.4113,43.9089],[4.4113,43.9073],[4.4104,43.9054],[4.4138,43.905],[4.4166,43.9044],[4.4159,43.9011],[4.415,43.9007],[4.4168,43.8989],[4.4176,43.8982],[4.4181,43.8916],[4.4214,43.8921],[4.4257,43.8934],[4.4275,43.8938],[4.4291,43.8945],[4.4306,43.8946],[4.4315,43.8931],[4.4315,43.8913],[4.4319,43.8908],[4.4333,43.8906],[4.436,43.8876],[4.4374,43.8858],[4.4382,43.8825],[4.4385,43.8816],[4.4391,43.8804],[4.4392,43.8702],[4.4364,43.8681],[4.4354,43.8682],[4.4349,43.8678],[4.435,43.867],[4.4323,43.8643],[4.4312,43.8633],[4.4303,43.8623],[4.4276,43.8617],[4.4277,43.8611],[4.4254,43.8596],[4.4206,43.8578],[4.4187,43.8583],[4.4168,43.8588],[4.4149,43.8594],[4.4115,43.8597],[4.41,43.8599],[4.4087,43.8625],[4.4056,43.8636],[4.4041,43.8652],[4.4057,43.8679],[4.4071,43.8684],[4.4086,43.8691],[4.4084,43.8706],[4.4068,43.8706],[4.4056,43.8705],[4.4058,43.8726],[4.4029,43.8736],[4.4011,43.8728],[4.3997,43.8733],[4.3986,43.8739],[4.3978,43.8738],[4.3959,43.8745],[4.394,43.8748],[4.3927,43.8744],[4.3923,43.8756],[4.3909,43.8774],[4.3905,43.878],[4.39,43.879],[4.3888,43.88],[4.3885,43.8808],[4.3852,43.8826],[4.3829,43.8834],[4.3802,43.8835],[4.3801,43.8849]]]},"properties":{"id_ffco":"1990-D30-013","nom":"Les Garrigues","_dept":"30","numero":"1990-D30-013","commune":"Nîmes","echelle":"1/20000","surface":"16.42 km²","format":"A4","annee":"1990","cartographes":"HP Prat","proprietaire":"30 - Gard","niveau":"Départemental","specialite":"CO à pied","latitude":"43.8848210929","longitude":"4.41134757477","valide":"Oui","ppo":"Non","type_carte":"Nouvelle carte","fond":"IGN","ref_ign":"Nîmes Ouest","obsolete":false}},{"type":"Feature","geometry":{"type":"Polygon","coordinates":[[[4.3399,44.2142],[4.3458,44.2141],[4.3468,44.2157],[4.3489,44.217],[4.3516,44.2169],[4.3531,44.2174],[4.3544,44.2194],[4.3568,44.22],[4.3597,44.2184],[4.3631,44.2183],[4.3637,44.2177],[4.365,44.2198],[4.3648,44.2213],[4.3653,44.2227],[4.365,44.2243],[4.3657,44.2254],[4.3655,44.2272],[4.365,44.2277],[4.3639,44.2272],[4.3559,44.2267],[4.3545,44.2263],[4.3532,44.2253],[4.351,44.2253],[4.3492,44.225],[4.3469,44.2241],[4.3459,44.2224],[4.3444,44.2193],[4.3403,44.2162],[4.3398,44.2152],[4.3399,44.2142]]]},"properties":{"id_ffco":"1990-D30-012","nom":"Le Centre Sportif","_dept":"30","numero":"1990-D30-012","commune":"Méjannes le Clap","echelle":"1/10000","surface":"1.61 km²","format":"A5","annee":"1990","cartographes":"HP Prant, R Lazarowicz","proprietaire":"30 - Gard","niveau":"Départemental","specialite":"CO à pied","latitude":"44.2212792815","longitude":"4.35398051118","valide":"Oui","ppo":"Non","type_carte":"Reprise","base":"1990-D30-011 Dolmen des Fées","fond":"IGN","ref_ign":"Méjannes le Clap","obsolete":false}},{"type":"Feature","geometry":{"type":"Polygon","coordinates":[[[4.3399,44.2152],[4.3404,44.2163],[4.3446,44.2193],[4.346,44.2226],[4.3472,44.2243],[4.3506,44.2254],[4.3531,44.2253],[4.3558,44.2266],[4.3644,44.2272],[4.366,44.2272],[4.3705,44.2278],[4.3742,44.2283],[4.3774,44.2285],[4.3798,44.2279],[4.3808,44.2279],[4.3817,44.2268],[4.3827,44.2269],[4.3835,44.2266],[4.3841,44.2258],[4.3833,44.2247],[4.382,44.224],[4.381,44.2218],[4.3804,44.2204],[4.3788,44.2188],[4.3834,44.216],[4.3817,44.2148],[4.3786,44.2139],[4.3766,44.2115],[4.3748,44.2093],[4.3738,44.2074],[4.3718,44.2055],[4.3696,44.2042],[4.3681,44.2036],[4.3631,44.204],[4.3578,44.2042],[4.3552,44.2053],[4.3525,44.2047],[4.3493,44.2042],[4.3476,44.204],[4.3446,44.2067],[4.3443,44.208],[4.3426,44.2091],[4.3401,44.2108],[4.3402,44.2127],[4.3399,44.2152]]]},"properties":{"id_ffco":"1990-D30-011","nom":"Dolmen des Fées","_dept":"30","numero":"1990-D30-011","commune":"Méjannes le Clap","echelle":"1/15000","surface":"7.06 km²","format":"A4","annee":"1990","cartographes":"R Lazarowicz, HP Prat","proprietaire":"30 - Gard","niveau":"Départemental","specialite":"CO à pied","latitude":"44.2161153956","longitude":"4.36172559128","valide":"Oui","ppo":"Non","type_carte":"Nouvelle carte","fond":"IGN","ref_ign":"Méjannes le Clap","obsolete":false}},{"type":"Feature","geometry":{"type":"Polygon","coordinates":[[[4.3277,43.8734],[4.3307,43.874],[4.3326,43.8749],[4.3349,43.8744],[4.3357,43.8753],[4.3375,43.8754],[4.3397,43.8762],[4.3415,43.876],[4.3425,43.8765],[4.3426,43.8776],[4.3434,43.878],[4.3435,43.8785],[4.3447,43.8784],[4.3458,43.8779],[4.3471,43.8781],[4.3482,43.8789],[4.351,43.8786],[4.3534,43.8789],[4.3538,43.8794],[4.3556,43.8797],[4.3562,43.8789],[4.3581,43.8794],[4.3581,43.88],[4.3599,43.8801],[4.3623,43.88],[4.3638,43.8797],[4.366,43.8801],[4.3693,43.8808],[4.37,43.8806],[4.3704,43.8816],[4.3708,43.8837],[4.3711,43.8855],[4.3684,43.887],[4.3654,43.8888],[4.365,43.8912],[4.366,43.8935],[4.3672,43.8943],[4.3673,43.895],[4.3681,43.8948],[4.3679,43.8963],[4.3627,43.8975],[4.3546,43.899],[4.354,43.8987],[4.3497,43.8978],[4.3446,43.898],[4.3444,43.8975],[4.3426,43.8974],[4.3397,43.8968],[4.3351,43.8972],[4.3335,43.8977],[4.3311,43.8972],[4.3274,43.8969],[4.3258,43.8957],[4.3245,43.8956],[4.3225,43.8966],[4.3222,43.8963],[4.3228,43.895],[4.3241,43.8936],[4.3238,43.8924],[4.325,43.8903],[4.326,43.8889],[4.3253,43.8881],[4.3245,43.8877],[4.3236,43.8875],[4.3239,43.8863],[4.3246,43.8853],[4.324,43.8833],[4.3246,43.8799],[4.326,43.8767],[4.3277,43.8734]]]},"properties":{"id_ffco":"1990-D30-010","nom":"La Tour de Tholozan","_dept":"30","numero":"1990-D30-010","commune":"Nîmes","echelle":"1/15000","surface":"7.75 km²","format":"A4","annee":"1990","cartographes":"Midy, Bertonneau","proprietaire":"30 - Gard","niveau":"Départemental","specialite":"CO à pied","latitude":"43.8873286056","longitude":"4.34515315231","valide":"Oui","ppo":"Non","type_carte":"Nouvelle carte","fond":"IGN","ref_ign":"Nîmes Ouest","obsolete":false}},{"type":"Feature","geometry":{"type":"Polygon","coordinates":[[[4.4152,43.8594],[4.416,43.8604],[4.4149,43.8634],[4.4154,43.8641],[4.4148,43.8644],[4.4125,43.8626],[4.409,43.8626],[4.4066,43.8624],[4.406,43.8625],[4.4033,43.8614],[4.4032,43.8605],[4.4042,43.8602],[4.4048,43.858],[4.405,43.8576],[4.4069,43.8589],[4.41,43.8596],[4.4127,43.8597],[4.4152,43.8594]]]},"properties":{"id_ffco":"1991-D30-009","nom":"Parc de la Cheylonne","_dept":"30","numero":"1991-D30-009","commune":"Nîmes Courbessac","echelle":"1/5000","surface":"0.37 km²","format":"A5","annee":"1991","cartographes":"HP Prat, H Portenseigne","proprietaire":"3003","niveau":"Initiation, Scolaire","specialite":"CO à pied","latitude":"43.8609608488","longitude":"4.40973202943","valide":"Oui","ppo":"Non","type_carte":"Nouvelle carte","fond":"Cadastre","obsolete":false}},{"type":"Feature","geometry":{"type":"Polygon","coordinates":[[[4.4294,43.8009],[4.4299,43.7994],[4.4295,43.7992],[4.4291,43.7991],[4.428,43.8003],[4.4284,43.8008],[4.4284,43.8009],[4.4294,43.8009]]]},"properties":{"id_ffco":"1988-D30-007","nom":"Bouillargues","_dept":"30","numero":"1988-D30-007","commune":"Bouillargues","echelle":"1/1250","surface":"0.02 km²","format":"A5","annee":"1988","cartographes":"Michel Richardier","proprietaire":"LR - Languedoc-Roussillon","niveau":"Initiation, Scolaire","specialite":"CO à pied","latitude":"43.8000701661","longitude":"4.42903549695","valide":"Oui","ppo":"Non","type_carte":"Nouvelle carte","fond":"Cadastre","obsolete":false}},{"type":"Feature","geometry":null,"properties":{"id_ffco":"1978-D30-006","nom":"GOUFFRE ESPELUGUES","_dept":"30","numero":"1978-D30-006","commune":"NIMES","echelle":"1/15000","surface":"10.0 km²","annee":"1978","proprietaire":"3002","specialite":"CO à pied","latitude":"43.83459","longitude":"4.3608637","valide":"Non","ppo":"Non","obsolete":false}},{"type":"Feature","geometry":null,"properties":{"id_ffco":"1991-D30-00","nom":"ALES - MONTAUD","_dept":"30","numero":"1991-D30-00","commune":"ALES","echelle":"1/5000","surface":"1.0 km²","annee":"1991","specialite":"CO à pied","latitude":"44.1273966","longitude":"4.0790267","valide":"Non","ppo":"Non","obsolete":false}},{"type":"Feature","geometry":{"type":"Polygon","coordinates":[[[4.428,43.8725],[4.432,43.8725],[4.432,43.8743],[4.4308,43.8752],[4.4298,43.876],[4.4284,43.8777],[4.4272,43.8785],[4.4269,43.8796],[4.4277,43.8804],[4.4266,43.8806],[4.4253,43.8797],[4.4251,43.8759],[4.4257,43.8759],[4.4266,43.8756],[4.4264,43.8752],[4.428,43.8725]]]},"properties":{"id_ffco":"2006-D30-","nom":"Combe des Bourguignons","_dept":"30","numero":"2006-D30-","commune":"Marguerittes","echelle":"1/3000","surface":"0.25 km²","annee":"2006","niveau":"Initiation, Scolaire","contacts":"06 28 94 09 80 // CDCO 30 - 05, 04 66 56 38 80, cdco30@neuf.fr, http://gardorientation.com // Maison de la Garrigue , 04 66 20 54 78","latitude":"43.875789677","longitude":"4.42814990637","valide":"Non","ppo":"Oui (10 postes)","obsolete":false}},{"type":"Feature","geometry":{"type":"Polygon","coordinates":[[[4.3504,43.7903],[4.3528,43.7876],[4.3523,43.7871],[4.3517,43.7867],[4.3517,43.7863],[4.3525,43.7838],[4.3519,43.7839],[4.3506,43.7836],[4.3481,43.7833],[4.3473,43.7845],[4.3464,43.7843],[4.3447,43.7862],[4.3444,43.7858],[4.3432,43.7855],[4.3422,43.7882],[4.3429,43.7883],[4.3448,43.7897],[4.3478,43.7912],[4.3499,43.7917],[4.3504,43.7903]]]},"properties":{"id_ffco":"2008-D30-","nom":"La Bastide","_dept":"30","numero":"2008-D30-","commune":"Nimes","echelle":"1/5000","surface":"0.48 km²","annee":"2008","niveau":"Initiation, Scolaire","contacts":"06 28 94 09 80 // CDCO 30 - 05, 04 66 56 38 80, cdco30@neuf.fr, http://gardorientation.com","latitude":"43.7873162507","longitude":"4.34799439266","valide":"Non","ppo":"Oui (25 postes)","obsolete":false}},{"type":"Feature","geometry":{"type":"Polygon","coordinates":[[[4.3431,43.8535],[4.3431,43.8526],[4.3435,43.8523],[4.3445,43.8519],[4.3454,43.8508],[4.3448,43.8489],[4.3438,43.8485],[4.3432,43.8485],[4.3425,43.8487],[4.3417,43.8485],[4.3409,43.8485],[4.3395,43.8485],[4.3383,43.8488],[4.3372,43.849],[4.336,43.8498],[4.3354,43.8502],[4.3344,43.8504],[4.3329,43.8508],[4.3318,43.851],[4.3307,43.8511],[4.3297,43.8512],[4.329,43.8514],[4.329,43.8516],[4.3278,43.8518],[4.3265,43.8519],[4.3246,43.852],[4.3244,43.8524],[4.3242,43.8527],[4.3235,43.853],[4.3231,43.8532],[4.3228,43.8535],[4.3233,43.8537],[4.3231,43.8542],[4.3234,43.855],[4.3232,43.8552],[4.3226,43.8549],[4.3231,43.8557],[4.3239,43.8566],[4.3243,43.8579],[4.3244,43.8585],[4.326,43.8585],[4.3269,43.8587],[4.3286,43.8585],[4.3309,43.8582],[4.3341,43.8575],[4.335,43.855],[4.3357,43.8544],[4.338,43.8544],[4.3387,43.8543],[4.3384,43.8538],[4.3375,43.8533],[4.3374,43.8526],[4.3382,43.852],[4.3393,43.852],[4.3401,43.852],[4.3404,43.8524],[4.3404,43.8528],[4.3415,43.8531],[4.3423,43.8533],[4.3431,43.8535]]]},"properties":{"id_ffco":"2004-D30-","nom":"Les Espeisses","_dept":"30","numero":"2004-D30-","commune":"Nimes","echelle":"1/7500","surface":"1.06 km²","annee":"2004","niveau":"Initiation, Scolaire","contacts":"06 28 94 09 80 // CDCO 30 - 05, 04 66 56 38 80, cdco30@neuf.fr, http://gardorientation.com","latitude":"43.8534187845","longitude":"4.33303870549","valide":"Non","ppo":"Oui (44 postes)","obsolete":false}},{"type":"Feature","geometry":null,"properties":{"id_ffco":"????-D30-","nom":"Espace Gard Découverte","_dept":"30","numero":"????-D30-","commune":"Méjannes le Clap","surface":"None km²","contacts":"CDCO 30 - 05","latitude":"44.2400128","longitude":"4.3775481","valide":"Non","ppo":"Oui","obsolete":false}}]}