{"type":"FeatureCollection","features":[{"type":"Feature","geometry":{"type":"Polygon","coordinates":[[[4.5355,43.9467],[4.5342,43.9472],[4.5316,43.9465],[4.5295,43.9473],[4.5284,43.9514],[4.5315,43.9507],[4.5357,43.9492],[4.536,43.9498],[4.5363,43.9486],[4.5352,43.9476],[4.5363,43.9469],[4.5355,43.9467]]]},"properties":{"id_ffco":"3474","nom":"Le Pont du Gard","_dept":"30","numero":"2001-D30-033","commune":"Remoulins","echelle":"1/3500","surface":"0.21 km²","format":"A4","annee":"2001","cartographes":"Henry-Pierre PRAT","proprietaire":"30 - Gard","niveau":"Initiation, Scolaire","specialite":"CO à pied","latitude":"43.9487213462","longitude":"4.53211568953","date_saisie":"22/02/2002","valide":"Oui","ppo":"Non","type_carte":"Nouvelle carte","fond":"Ortho","obsolete":true}},{"type":"Feature","geometry":{"type":"Polygon","coordinates":[[[4.2703,43.9092],[4.2631,43.909],[4.2585,43.9047],[4.2486,43.8955],[4.2425,43.8899],[4.2426,43.889],[4.2478,43.8874],[4.2523,43.8868],[4.2594,43.8845],[4.2649,43.8813],[4.2675,43.8832],[4.2721,43.8828],[4.2734,43.8834],[4.2764,43.8839],[4.277,43.8833],[4.279,43.8834],[4.2805,43.8848],[4.283,43.8875],[4.2846,43.8882],[4.2849,43.8894],[4.2881,43.8901],[4.2891,43.8919],[4.2901,43.892],[4.2897,43.8945],[4.2888,43.8967],[4.2887,43.899],[4.2855,43.9018],[4.2818,43.904],[4.2748,43.9064],[4.2714,43.9081],[4.2703,43.9092]]]},"properties":{"id_ffco":"3473","nom":"Clos de Gaillard","_dept":"30","numero":"2001-D30-032","commune":"Nîmes","echelle":"1/10000","surface":"7.28 km²","format":"A3","annee":"2001","cartographes":"GORET Gilles,Henry-Pierre PRAT,COTIRTA Marian","proprietaire":"30 - Gard","niveau":"Interrégional","specialite":"CO à pied","latitude":"43.8948147911","longitude":"4.26812572921","date_saisie":"05/02/2002","valide":"Oui","ppo":"Non","type_carte":"Reprise","base":"1998-D30-026 Le Clos de Gaillard","fond":"IGN","obsolete":true}},{"type":"Feature","geometry":{"type":"Polygon","coordinates":[[[4.6297,44.137],[4.6247,44.1368],[4.6229,44.1378],[4.622,44.1438],[4.6224,44.1475],[4.6254,44.1516],[4.631,44.1515],[4.6332,44.1498],[4.6333,44.1453],[4.6325,44.142],[4.6311,44.1394],[4.6297,44.137]]]},"properties":{"id_ffco":"3472","nom":"Plateau de Berret","_dept":"30","numero":"2000-D30-031","commune":"Bagnols sur Cèze","echelle":"1/7500","surface":"1.22 km²","format":"A4","annee":"2000","cartographes":"GORET Gilles","proprietaire":"30 - Gard","niveau":"Initiation, Scolaire","specialite":"CO à pied","latitude":"44.1443727312","longitude":"4.62759112517","date_saisie":"22/02/2002","valide":"Oui","ppo":"Non","type_carte":"Nouvelle carte","fond":"IGN","obsolete":true}},{"type":"Feature","geometry":{"type":"Polygon","coordinates":[[[4.3402,44.2124],[4.3424,44.2124],[4.3447,44.2123],[4.3452,44.2131],[4.3485,44.2103],[4.3503,44.2111],[4.3531,44.2104],[4.3537,44.2099],[4.3564,44.2114],[4.3558,44.2124],[4.3565,44.2141],[4.3597,44.2112],[4.3621,44.2097],[4.364,44.2101],[4.3645,44.2123],[4.3649,44.2144],[4.3639,44.2159],[4.3642,44.2174],[4.3639,44.218],[4.3652,44.22],[4.3652,44.224],[4.3657,44.2257],[4.3656,44.2272],[4.3653,44.2276],[4.3645,44.2272],[4.3563,44.2266],[4.3549,44.2264],[4.3528,44.2253],[4.351,44.2253],[4.3493,44.225],[4.3475,44.2244],[4.346,44.2223],[4.3455,44.2209],[4.345,44.2193],[4.3427,44.2179],[4.3405,44.2163],[4.34,44.2144],[4.3402,44.2124]]]},"properties":{"id_ffco":"2860","nom":"Centre Sportif Départemental","_dept":"30","numero":"1998-D30-025","commune":"Méjannes le Clap","echelle":"1/10000","surface":"2.79 km²","format":"A4","annee":"1998","cartographes":"Didier Bertonneau","proprietaire":"30 - Gard","niveau":"Régional","specialite":"CO à pied","latitude":"44.2183023375","longitude":"4.35452947558","valide":"Oui","ppo":"Non","type_carte":"Nouvelle carte","fond":"Ortho","obsolete":true}},{"type":"Feature","geometry":{"type":"Polygon","coordinates":[[[4.3542,44.2193],[4.3498,44.2193],[4.347,44.22],[4.3465,44.2206],[4.3455,44.221],[4.3461,44.2227],[4.3475,44.2241],[4.3489,44.2248],[4.3472,44.2265],[4.3466,44.2265],[4.3478,44.2281],[4.3485,44.2295],[4.349,44.2303],[4.3502,44.2304],[4.3517,44.2286],[4.3525,44.2294],[4.3537,44.2317],[4.3543,44.2341],[4.3544,44.235],[4.3561,44.2359],[4.3567,44.2368],[4.358,44.2373],[4.3611,44.2363],[4.3618,44.237],[4.3642,44.2369],[4.365,44.2384],[4.3674,44.2393],[4.3692,44.24],[4.3697,44.241],[4.3713,44.2413],[4.3718,44.2412],[4.3723,44.242],[4.3735,44.2424],[4.3751,44.2421],[4.3756,44.2432],[4.3779,44.2431],[4.381,44.2423],[4.3862,44.2377],[4.3851,44.237],[4.3864,44.2364],[4.3872,44.2343],[4.3869,44.2329],[4.3865,44.2321],[4.386,44.2308],[4.3838,44.2296],[4.3832,44.2279],[4.3834,44.2269],[4.3841,44.2259],[4.3835,44.2248],[4.382,44.224],[4.3811,44.2222],[4.3805,44.2202],[4.3793,44.2194],[4.3787,44.2186],[4.3776,44.2192],[4.3747,44.2202],[4.3718,44.2205],[4.3689,44.2223],[4.3672,44.2228],[4.3651,44.2239],[4.3651,44.2221],[4.3649,44.2212],[4.365,44.2202],[4.3637,44.2179],[4.3627,44.2184],[4.3596,44.2185],[4.3562,44.2202],[4.3544,44.2203],[4.3542,44.2193]]]},"properties":{"id_ffco":"784","nom":"Méjannes le Clap","_dept":"30","numero":"1991-D30-021","commune":"Méjannes le Clap","echelle":"1/15000","surface":"5.88 km²","format":"A4","annee":"1991","proprietaire":"30 - Gard","niveau":"Départemental","specialite":"CO à pied","latitude":"44.2297032269","longitude":"4.36809351414","valide":"Oui","ppo":"Non","type_carte":"Nouvelle carte","fond":"IGN","ref_ign":"Méjannes le Clap","obsolete":true}},{"type":"Feature","geometry":{"type":"Polygon","coordinates":[[[4.3434,43.7858],[4.343,43.7868],[4.3439,43.7874],[4.343,43.7882],[4.3444,43.7893],[4.3458,43.7902],[4.3481,43.791],[4.3497,43.7914],[4.35,43.7912],[4.3505,43.7901],[4.3515,43.789],[4.3519,43.7886],[4.351,43.7865],[4.35,43.7863],[4.3497,43.7859],[4.3493,43.7861],[4.3491,43.7857],[4.3498,43.7851],[4.3502,43.784],[4.3473,43.7834],[4.3449,43.7863],[4.3445,43.7862],[4.344,43.7857],[4.3434,43.7858]]]},"properties":{"id_ffco":"2412","nom":"La Bastide","_dept":"30","numero":"1994-D30-020","commune":"Nîmes","echelle":"1/5000","surface":"0.38 km²","format":"A5","annee":"1994","cartographes":"Verdeil,Chamelot","proprietaire":"30 - Gard","niveau":"Initiation, Scolaire","specialite":"CO à pied","latitude":"43.7875845067","longitude":"4.3476155707","valide":"Oui","ppo":"Non","type_carte":"Nouvelle carte","fond":"IGN","ref_ign":"Nîmes Ouest","obsolete":true}},{"type":"Feature","geometry":{"type":"Polygon","coordinates":[[[4.2083,43.9493],[4.2066,43.9495],[4.2062,43.9499],[4.203,43.9499],[4.2031,43.9496],[4.2038,43.9493],[4.2048,43.9478],[4.2052,43.9465],[4.2066,43.9452],[4.207,43.945],[4.2081,43.9452],[4.2089,43.9453],[4.2089,43.9459],[4.2088,43.9468],[4.2086,43.9484],[4.2085,43.9491],[4.2083,43.9493]]]},"properties":{"id_ffco":"2411","nom":"Tavillan","_dept":"30","numero":"1991-D30-019","commune":"St Geniès de Malgoires","echelle":"1/4000","surface":"0.16 km²","format":"A5","annee":"1991","cartographes":"Thomas Marasco","proprietaire":"30 - Gard","niveau":"Initiation, Scolaire","specialite":"CO à pied","latitude":"43.9476917038","longitude":"4.20659818395","valide":"Oui","ppo":"Non","type_carte":"Nouvelle carte","fond":"IGN","ref_ign":"2841E","obsolete":true}},{"type":"Feature","geometry":{"type":"Polygon","coordinates":[[[4.5047,43.7519],[4.5054,43.7534],[4.5055,43.7543],[4.5052,43.7551],[4.5054,43.7554],[4.5061,43.7561],[4.5065,43.7568],[4.5074,43.7571],[4.5088,43.7569],[4.51,43.7569],[4.5117,43.7562],[4.5122,43.755],[4.5122,43.7545],[4.5125,43.754],[4.5122,43.7531],[4.5122,43.7527],[4.5114,43.752],[4.5103,43.7518],[4.5096,43.7519],[4.509,43.7525],[4.5086,43.7528],[4.508,43.7523],[4.5068,43.7517],[4.505,43.7516],[4.5047,43.7519]]]},"properties":{"id_ffco":"2409","nom":"La Haute Tour","_dept":"30","numero":"1991-D30-017","commune":"Bellegarde","echelle":"1/5000","surface":"0.29 km²","format":"A5","annee":"1991","cartographes":"Verdeil,Chamelot","proprietaire":"30 - Gard","niveau":"Départemental","specialite":"CO à pied","latitude":"43.7542970439","longitude":"4.5086789167","valide":"Oui","ppo":"Non","type_carte":"Nouvelle carte","fond":"IGN","ref_ign":"2942 EST","obsolete":true}},{"type":"Feature","geometry":{"type":"Polygon","coordinates":[[[4.253,43.7507],[4.2504,43.7561],[4.2498,43.7604],[4.2499,43.7618],[4.2489,43.7646],[4.2502,43.7658],[4.251,43.7661],[4.2493,43.7672],[4.2442,43.7689],[4.2401,43.7708],[4.2388,43.7721],[4.2339,43.7746],[4.2324,43.7738],[4.2301,43.7723],[4.2275,43.7715],[4.2244,43.771],[4.2232,43.7698],[4.2219,43.7691],[4.2195,43.7683],[4.2204,43.7657],[4.2193,43.7652],[4.218,43.7648],[4.2178,43.7642],[4.2187,43.7642],[4.2172,43.7612],[4.2151,43.7592],[4.214,43.7583],[4.2141,43.7577],[4.2131,43.7572],[4.2129,43.7541],[4.2145,43.7535],[4.2156,43.7531],[4.2159,43.7526],[4.2159,43.7513],[4.2139,43.7501],[4.2135,43.7486],[4.2152,43.7478],[4.2161,43.7471],[4.2163,43.7468],[4.2171,43.7471],[4.2185,43.7474],[4.2196,43.7473],[4.2207,43.7466],[4.2213,43.7465],[4.2228,43.747],[4.2257,43.7483],[4.2265,43.748],[4.227,43.7462],[4.2287,43.7465],[4.2294,43.7467],[4.2358,43.7465],[4.2437,43.7464],[4.2457,43.7463],[4.2465,43.7467],[4.2482,43.7474],[4.2475,43.7485],[4.2508,43.7493],[4.253,43.7507]]]},"properties":{"id_ffco":"783","nom":"Les Puechs","_dept":"30","numero":"1991-D30-016","commune":"Vergesse","echelle":"1/15000","surface":"7.29 km²","format":"A4","annee":"1991","cartographes":"HP Prat,Lazarowicz,Verdeill","proprietaire":"30 - Gard","niveau":"Départemental","specialite":"CO à pied","latitude":"43.7584149066","longitude":"4.23308593114","valide":"Oui","ppo":"Non","type_carte":"Nouvelle carte","fond":"IGN","ref_ign":"Nîmes Ouest","obsolete":true}},{"type":"Feature","geometry":{"type":"Polygon","coordinates":[[[4.346,43.8223],[4.3448,43.8245],[4.3432,43.8242],[4.3414,43.8236],[4.3399,43.8231],[4.3405,43.8221],[4.3415,43.821],[4.3428,43.8216],[4.3431,43.8218],[4.346,43.8223]]]},"properties":{"id_ffco":"2408","nom":"Stade Rouvière","_dept":"30","numero":"1990-D30-014","commune":"Nîmes","echelle":"1/2000","surface":"0.11 km²","format":"A5","annee":"1990","cartographes":"Didier Bertonneau","proprietaire":"30 - Gard","niveau":"Départemental","specialite":"CO à pied","latitude":"43.8228279226","longitude":"4.34297092301","valide":"Oui","ppo":"Oui (20 postes)","type_carte":"Nouvelle carte","fond":"Cadastre","obsolete":true}},{"type":"Feature","geometry":{"type":"Polygon","coordinates":[[[4.3804,43.8853],[4.3804,43.8836],[4.3833,43.8834],[4.3852,43.8827],[4.3883,43.881],[4.3897,43.8792],[4.3927,43.8744],[4.3944,43.8748],[4.3967,43.8742],[4.3977,43.8738],[4.3993,43.8738],[4.401,43.8729],[4.4026,43.8733],[4.4036,43.8736],[4.4057,43.8726],[4.4057,43.8713],[4.4054,43.8701],[4.4071,43.8706],[4.4085,43.8704],[4.4091,43.8715],[4.4132,43.8736],[4.4151,43.8758],[4.4171,43.8795],[4.4172,43.8817],[4.4166,43.8837],[4.4168,43.8851],[4.4176,43.8867],[4.4173,43.8879],[4.4168,43.8889],[4.4175,43.8912],[4.418,43.8931],[4.4181,43.8983],[4.4168,43.8986],[4.4168,43.8989],[4.4153,43.9001],[4.4149,43.9007],[4.4137,43.9007],[4.4106,43.8996],[4.4088,43.8982],[4.4082,43.8976],[4.4054,43.8975],[4.4019,43.898],[4.4007,43.8983],[4.3993,43.8984],[4.3988,43.8972],[4.397,43.897],[4.3947,43.8969],[4.3944,43.8977],[4.392,43.8967],[4.3894,43.8957],[4.3876,43.8957],[4.3855,43.8949],[4.3859,43.8943],[4.3875,43.8939],[4.3869,43.8931],[4.385,43.8927],[4.385,43.8913],[4.3865,43.8905],[4.3865,43.8894],[4.3849,43.8888],[4.3804,43.8853]]]},"properties":{"id_ffco":"1378","nom":"Grand Serre","_dept":"30","numero":"1984-D30-008","commune":"Courbessac","echelle":"1/15000","surface":"6.68 km²","format":"A4","annee":"1984","cartographes":"Bertonneau","proprietaire":"30 - Gard","niveau":"Interrégional","specialite":"CO à pied","latitude":"43.8861688826","longitude":"4.40224912353","valide":"Oui","ppo":"Non","type_carte":"Nouvelle carte","fond":"IGN","ref_ign":"Nîmes Ouest","obsolete":true}},{"type":"Feature","geometry":{"type":"Polygon","coordinates":[[[3.8267,44.0283],[3.8263,44.0278],[3.8243,44.0281],[3.8241,44.0275],[3.8242,44.0269],[3.8244,44.0263],[3.8244,44.0251],[3.8244,44.0239],[3.8245,44.0235],[3.8253,44.0229],[3.825,44.0224],[3.8262,44.022],[3.828,44.0216],[3.8295,44.022],[3.8311,44.0229],[3.8316,44.0236],[3.8313,44.0246],[3.8318,44.0258],[3.8317,44.0269],[3.8309,44.0271],[3.8288,44.0273],[3.8283,44.0266],[3.828,44.0263],[3.8273,44.027],[3.8273,44.0277],[3.8267,44.0283]]]},"properties":{"id_ffco":"2404","nom":"La Mouleyrette","_dept":"30","numero":"1987-D30-005","commune":"Colognac","echelle":"1/5000","surface":"0.33 km²","format":"A5","annee":"1987","cartographes":"M Richardier","proprietaire":"30 - Gard","niveau":"Départemental","specialite":"CO à pied","latitude":"44.0248545978","longitude":"3.82781919023","valide":"Oui","ppo":"Non","type_carte":"Nouvelle carte","fond":"IGN","ref_ign":"2741 EST","obsolete":true}},{"type":"Feature","geometry":{"type":"Polygon","coordinates":[[[4.3865,43.8905],[4.3848,43.8916],[4.3851,43.8929],[4.3869,43.8933],[4.3871,43.8939],[4.3855,43.8947],[4.3861,43.8951],[4.3878,43.8958],[4.3896,43.8956],[4.3928,43.8968],[4.3959,43.9002],[4.3959,43.9022],[4.3939,43.9036],[4.393,43.9048],[4.3878,43.9132],[4.3875,43.9166],[4.3881,43.918],[4.3935,43.9154],[4.3954,43.9139],[4.3989,43.9136],[4.402,43.9132],[4.4045,43.9124],[4.4078,43.9112],[4.4097,43.9109],[4.4098,43.91],[4.4112,43.9089],[4.4111,43.9081],[4.4115,43.9072],[4.4107,43.9061],[4.4097,43.9054],[4.4105,43.9051],[4.4117,43.9053],[4.4158,43.9047],[4.4168,43.9044],[4.4164,43.9038],[4.4171,43.9034],[4.416,43.9017],[4.4159,43.901],[4.4151,43.9008],[4.4161,43.8995],[4.4176,43.8986],[4.42,43.8975],[4.4195,43.8957],[4.4196,43.8951],[4.4195,43.8946],[4.4199,43.8943],[4.4199,43.8934],[4.4187,43.8919],[4.4174,43.8915],[4.4156,43.8912],[4.4136,43.8919],[4.4121,43.8918],[4.4113,43.8918],[4.41,43.892],[4.4077,43.8915],[4.406,43.8916],[4.4043,43.8918],[4.4028,43.8922],[4.4002,43.892],[4.3989,43.8917],[4.3971,43.8918],[4.3945,43.8915],[4.3917,43.8911],[4.3895,43.891],[4.3874,43.8908],[4.3865,43.8905]]]},"properties":{"id_ffco":"1377","nom":"Mas de Cabanes","_dept":"30","numero":"1987-D30-004","commune":"Poulx","echelle":"1/15000","surface":"4.77 km²","format":"A4","annee":"1987","cartographes":"D Bertonneau,C Burgstahler","proprietaire":"30 - Gard","niveau":"Interrégional","specialite":"CO à pied","latitude":"43.901732484","longitude":"4.40242698272","valide":"Oui","ppo":"Non","type_carte":"Nouvelle carte","fond":"IGN","ref_ign":"Nîmes Ouest","obsolete":true}},{"type":"Feature","geometry":{"type":"Polygon","coordinates":[[[4.3482,43.8381],[4.3489,43.8381],[4.3499,43.8383],[4.3515,43.8386],[4.3509,43.8394],[4.3525,43.84],[4.3513,43.8409],[4.3504,43.8423],[4.3497,43.8432],[4.3491,43.8432],[4.3488,43.8427],[4.3483,43.8423],[4.3481,43.8417],[4.3485,43.8414],[4.348,43.8405],[4.3476,43.8399],[4.3484,43.8394],[4.3484,43.8385],[4.3482,43.8381]]]},"properties":{"id_ffco":"2403","nom":"Jardin de la Fontaine","_dept":"30","numero":"1991-D30-003","commune":"Nîmes","echelle":"1/2000","surface":"0.12 km²","format":"A4","annee":"1991","cartographes":"D Bertonneau","proprietaire":"30 - Gard","niveau":"Initiation, Scolaire","specialite":"CO à pied","latitude":"43.8404300805","longitude":"4.34972636597","valide":"Oui","ppo":"Non","type_carte":"Nouvelle carte","fond":"Cadastre","obsolete":true}},{"type":"Feature","geometry":{"type":"Polygon","coordinates":[[[4.2682,43.879],[4.2752,43.8791],[4.2777,43.8776],[4.2807,43.8766],[4.2825,43.8766],[4.2834,43.8785],[4.2848,43.8808],[4.2848,43.8817],[4.2834,43.8824],[4.2844,43.8851],[4.2844,43.8855],[4.283,43.8874],[4.284,43.8877],[4.2848,43.8888],[4.285,43.8894],[4.2865,43.8897],[4.2881,43.8901],[4.2883,43.8911],[4.2902,43.8917],[4.2897,43.8941],[4.2888,43.8965],[4.2887,43.8993],[4.2864,43.9009],[4.2793,43.9052],[4.2749,43.9066],[4.2715,43.9078],[4.2704,43.909],[4.2694,43.9109],[4.2673,43.9126],[4.2629,43.9085],[4.2558,43.9021],[4.2513,43.8983],[4.251,43.8904],[4.2527,43.8885],[4.2542,43.887],[4.2575,43.8854],[4.2617,43.8838],[4.2654,43.8812],[4.2682,43.879]]]},"properties":{"id_ffco":"1376","nom":"Clos Gaillard","_dept":"30","numero":"1984-D30-002","commune":"Nîmes","echelle":"1/15000","surface":"7.73 km²","format":"A4","annee":"1984","cartographes":"Bertonneau,Midy,Coimbra","proprietaire":"30 - Gard","niveau":"Interrégional","specialite":"CO à pied","latitude":"43.8937466008","longitude":"4.27049582","valide":"Oui","ppo":"Non","type_carte":"Nouvelle carte","fond":"IGN","ref_ign":"Nîmes Ouest","obsolete":true}},{"type":"Feature","geometry":{"type":"Polygon","coordinates":[[[4.4276,43.8615],[4.4305,43.8622],[4.4322,43.8636],[4.4351,43.8668],[4.4351,43.8678],[4.4358,43.8681],[4.4364,43.868],[4.4393,43.8701],[4.4426,43.872],[4.4433,43.875],[4.4423,43.8773],[4.442,43.8785],[4.4389,43.8809],[4.4382,43.8825],[4.4374,43.8856],[4.4336,43.8903],[4.4329,43.8907],[4.4318,43.8909],[4.4318,43.8922],[4.4315,43.8934],[4.4307,43.8947],[4.4294,43.8945],[4.428,43.8942],[4.427,43.8937],[4.4252,43.8934],[4.4227,43.8925],[4.4205,43.8919],[4.4192,43.8919],[4.4186,43.8919],[4.4173,43.8912],[4.4168,43.8886],[4.4173,43.8874],[4.4174,43.8865],[4.4165,43.8844],[4.417,43.8821],[4.4171,43.88],[4.4158,43.8775],[4.4143,43.875],[4.4135,43.8741],[4.4139,43.8735],[4.4153,43.8728],[4.4171,43.8705],[4.4196,43.8698],[4.4235,43.8694],[4.4241,43.8678],[4.4256,43.8667],[4.4259,43.865],[4.4266,43.8636],[4.4274,43.8628],[4.4276,43.8615]]]},"properties":{"id_ffco":"1375","nom":"Marguerittes","_dept":"30","numero":"1984-D30-001","commune":"Marguerittes","echelle":"1/15000","surface":"5.24 km²","format":"A4","annee":"1984","cartographes":"D Bretonneau,C Burgstahler","proprietaire":"LR - Languedoc-Roussillon","niveau":"Interrégional","specialite":"CO à pied","latitude":"43.8786456088","longitude":"4.42816996433","valide":"Oui","ppo":"Non","type_carte":"Nouvelle carte","fond":"IGN","ref_ign":"Nîmes Ouest","obsolete":true}}]}