{"type":"FeatureCollection","features":[{"type":"Feature","geometry":{"type":"Polygon","coordinates":[[[1.4453,43.5593],[1.4468,43.5596],[1.4484,43.5592],[1.4482,43.5589],[1.4485,43.5588],[1.4488,43.5592],[1.4502,43.5587],[1.4502,43.5583],[1.4516,43.5576],[1.4517,43.5572],[1.452,43.5573],[1.4523,43.5554],[1.4514,43.5545],[1.4517,43.5537],[1.4503,43.553],[1.4491,43.5524],[1.4472,43.5505],[1.4438,43.5512],[1.4415,43.5504],[1.4426,43.5515],[1.443,43.5556],[1.4454,43.5572],[1.4458,43.5582],[1.4453,43.5593]]]},"properties":{"id_ffco":"13863","nom":"Pech-David 2023","_dept":"31","numero":"2023-D31-171","commune":"TOULOUSE","echelle":"1/5000","surface":"0.53 km²","format":"A4","annee":"2023","cartographes":"Olivier THOMAS","proprietaire":"31 - Haute-Garonne","niveau":"Initiation, Scolaire","specialite":"CO à pied","contacts":"CDCO31, https://www.cdco31.fr/","latitude":"43.5549068929","longitude":"1.44721987486","date_saisie":"02/03/2023","date_depot":"13/06/2023","valide":"Oui","ppo":"Oui (200 postes)","type_carte":"Reprise","base":"2019-D31-132 Pech-David 2019","fond":"Ortho","url":"https://www.cdco31.fr/carto/D31-171/","obsolete":true}},{"type":"Feature","geometry":{"type":"Polygon","coordinates":[[[1.4453,43.5594],[1.447,43.56],[1.4505,43.5586],[1.4503,43.5581],[1.4519,43.5576],[1.4518,43.5571],[1.4524,43.557],[1.4522,43.5558],[1.4511,43.5543],[1.4516,43.5537],[1.4493,43.5525],[1.4471,43.5506],[1.4438,43.5513],[1.4432,43.5509],[1.4427,43.5509],[1.442,43.5507],[1.4422,43.5513],[1.4431,43.5517],[1.4429,43.5533],[1.4436,43.5552],[1.4431,43.5554],[1.4456,43.5574],[1.4459,43.5584],[1.4453,43.5594]]]},"properties":{"id_ffco":"11883","nom":"Pech-David 2019","_dept":"31","numero":"2019-D31-132","commune":"Toulouse","echelle":"1/5000","surface":"0.52 km²","format":"A4","annee":"2019","cartographes":"O.Thomas","proprietaire":"31 - Haute-Garonne","niveau":"Départemental","specialite":"CO à pied","contacts":"CDCO31, https://www.cdco31.fr/","latitude":"43.5550798453","longitude":"1.4473583339","date_saisie":"27/12/2019","date_depot":"14/02/2020","valide":"Oui","ppo":"Non","type_carte":"Reprise","base":"2015-D31-101 Pech-David 2015","fond":"IGN","obsolete":true}},{"type":"Feature","geometry":{"type":"Polygon","coordinates":[[[1.3991,43.618],[1.4009,43.618],[1.401,43.6197],[1.4008,43.6204],[1.4001,43.6204],[1.3996,43.6199],[1.3994,43.6197],[1.3982,43.6195],[1.3982,43.6182],[1.3991,43.6182],[1.3991,43.618]]]},"properties":{"id_ffco":"11360","nom":"Copropriété chateau d'Ancely","_dept":"31","numero":"2019-D31-131","commune":"Toulouse","echelle":"1/1000","surface":"0.05 km²","format":"A4","annee":"2019","cartographes":"Gérald Augagneur","proprietaire":"31 - Haute-Garonne","niveau":"Initiation, Scolaire","specialite":"CO à pied","contacts":"Ecole primaire Chateau d'Ancely, TOULOUSE","latitude":"43.6190240918","longitude":"1.39974699413","date_saisie":"19/01/2019","date_depot":"29/03/2019","valide":"Oui","ppo":"Non","type_carte":"Nouvelle carte","fond":"Cadastre","obsolete":true}},{"type":"Feature","geometry":{"type":"Polygon","coordinates":[[[0.8287,43.3763],[0.8318,43.3791],[0.834,43.3784],[0.8375,43.3779],[0.837,43.376],[0.8354,43.374],[0.8346,43.374],[0.8345,43.373],[0.8336,43.373],[0.8319,43.3733],[0.8303,43.3749],[0.8305,43.3755],[0.8287,43.3763]]]},"properties":{"id_ffco":"11321","nom":"Complexe sportif de l'Isle en Dodon","_dept":"31","numero":"2018-D31-127","commune":"L'Isle en Dodon","echelle":"1/4000","surface":"0.29 km²","format":"A4","annee":"2018","cartographes":"O.Thomas","proprietaire":"31 - Haute-Garonne","niveau":"Initiation, Scolaire","specialite":"CO à pied","contacts":"CDCO31, https://www.cdco31.fr/","latitude":"43.3761505709","longitude":"0.833288936205","date_saisie":"29/12/2018","date_depot":"28/01/2019","valide":"Oui","ppo":"Non","type_carte":"Nouvelle carte","fond":"IGN","obsolete":true}},{"type":"Feature","geometry":{"type":"Polygon","coordinates":[[[1.217,43.6449],[1.2222,43.6417],[1.2313,43.6353],[1.2339,43.6369],[1.2387,43.6383],[1.2295,43.6461],[1.2271,43.6449],[1.2204,43.6513],[1.213,43.6487],[1.217,43.6449]]]},"properties":{"id_ffco":"11320","nom":"Bouconne Nord - partie Sud","_dept":"31","numero":"2018-D31-126","commune":"Pibrac","echelle":"1/10000","surface":"1.38 km²","format":"A4","annee":"2018","cartographes":"Olivier THOMAS","proprietaire":"31 - Haute-Garonne","niveau":"Départemental","specialite":"CO à pied","contacts":"TOAC, contact@toac-orientation.fr, https://toac-orientation.fr/club48tx5e9/","latitude":"43.6432722218","longitude":"1.22582514246","date_saisie":"29/12/2018","date_depot":"28/01/2019","valide":"Oui","ppo":"Non","type_carte":"Nouvelle carte","fond":"IGN","obsolete":true}},{"type":"Feature","geometry":{"type":"Polygon","coordinates":[[[1.2221,43.6418],[1.2225,43.6429],[1.2213,43.6442],[1.2254,43.6465],[1.2273,43.6449],[1.2294,43.6463],[1.2316,43.6443],[1.2282,43.6421],[1.2297,43.641],[1.2315,43.6401],[1.2279,43.6378],[1.2221,43.6418]]]},"properties":{"id_ffco":"11319","nom":"Lac de la Bordette 3","_dept":"31","numero":"2018-D31-125","commune":"Pibrac","echelle":"1/5000","surface":"0.45 km²","format":"A3","annee":"2018","cartographes":"Olivier THOMAS","proprietaire":"31 - Haute-Garonne","niveau":"Départemental","specialite":"CO à pied","contacts":"TOAC, contact@toac-orientation.fr, https://toac-orientation.fr/club48tx5e9/","latitude":"43.6424847279","longitude":"1.22659853565","date_saisie":"29/12/2018","date_depot":"28/01/2019","valide":"Oui","ppo":"Non","type_carte":"Reprise","base":"2008-D31-102 Bouconne - Lac de la Bordette 2","fond":"IGN","obsolete":true}},{"type":"Feature","geometry":{"type":"Polygon","coordinates":[[[1.3969,43.5756],[1.3971,43.577],[1.3978,43.5793],[1.3995,43.5793],[1.3997,43.5803],[1.4004,43.5803],[1.4011,43.5815],[1.4016,43.5807],[1.4016,43.5797],[1.4006,43.5795],[1.4004,43.5788],[1.3998,43.5788],[1.4001,43.5762],[1.3969,43.5756]]]},"properties":{"id_ffco":"10626","nom":"Parc de la Faculté J.Jaurès","_dept":"31","numero":"2017-D31-122","commune":"Toulouse","echelle":"1/2500","surface":"0.11 km²","format":"A4","annee":"2017","cartographes":"C. ESCUDIE","proprietaire":"31 - Haute-Garonne","niveau":"Initiation, Scolaire","specialite":"CO à pied","contacts":"CDCO31, https://www.cdco31.fr/","latitude":"43.5780712509","longitude":"1.39904666584","date_saisie":"27/12/2017","date_depot":"01/03/2018","valide":"Oui","ppo":"Non","type_carte":"Nouvelle carte","fond":"Ortho","obsolete":true}},{"type":"Feature","geometry":{"type":"Polygon","coordinates":[[[1.183,43.6203],[1.1903,43.6195],[1.2,43.615],[1.2066,43.613],[1.1996,43.6039],[1.1643,43.6044],[1.183,43.6203]]]},"properties":{"id_ffco":"10186","nom":"Bois de l'Isle Nord 2015","_dept":"31","numero":"2015-D31-118","commune":"Léguevin","echelle":"1/10000","surface":"3.86 km²","format":"A4","annee":"2015","cartographes":"P.Capbern","proprietaire":"3105 - TOAC ORIENTATION","niveau":"Régional","specialite":"CO à pied","contacts":"TOAC, contact@toac-orientation.fr, https://toac-orientation.fr/club48tx5e9/","latitude":"43.6106843856","longitude":"1.18691112048","date_saisie":"08/05/2017","date_depot":"24/05/2017","valide":"Oui","ppo":"Non","type_carte":"Reprise","base":"2005-D31-027 Bouconne Bois de l'Isle 3","fond":"Ortho","obsolete":true}},{"type":"Feature","geometry":{"type":"Polygon","coordinates":[[[1.2109,43.6502],[1.2321,43.6345],[1.2201,43.6215],[1.2178,43.6234],[1.2182,43.6255],[1.2203,43.6306],[1.2187,43.6323],[1.1949,43.6392],[1.2053,43.6451],[1.2109,43.6502]]]},"properties":{"id_ffco":"10184","nom":"Bouconne-Lasserre Nord 2015","_dept":"31","numero":"2015-D31-116","commune":"Lasserre, Brax, Pibrac","echelle":"1/10000","surface":"3.43 km²","format":"A4","annee":"2015","cartographes":"P.Capbern","proprietaire":"3105 - TOAC ORIENTATION","niveau":"Régional","specialite":"CO à pied","contacts":"TOAC, contact@toac-orientation.fr, https://toac-orientation.fr/club48tx5e9/","latitude":"43.6375644304","longitude":"1.21553387323","date_saisie":"08/05/2017","date_depot":"24/05/2017","valide":"Oui","ppo":"Non","type_carte":"Reprise","base":"2004-D31-026 Bouconne-Lasserre 2","fond":"Ortho","obsolete":true}},{"type":"Feature","geometry":{"type":"Polygon","coordinates":[[[1.5694,43.7548],[1.5918,43.7684],[1.5775,43.7866],[1.5733,43.7875],[1.5602,43.7828],[1.5578,43.7821],[1.5553,43.7735],[1.5694,43.7548]]]},"properties":{"id_ffco":"10183","nom":"Buzet 2012","_dept":"31","numero":"2012-D31-115","commune":"Buzet sur Tarn","echelle":"1/10000","surface":"6.24 km²","format":"A4","annee":"2012","cartographes":"G Lévêque,F Jordan,L Berbett","proprietaire":"31 - Haute-Garonne","niveau":"National, International","specialite":"CO à pied","contacts":"Conseil Général 31 - DADRE, 1, boulevard de la Marquette , 31090, TOULOUSE Cedex 9 , 05 34334821, 05 61845386, ens@cd31.fr","latitude":"43.7722705603","longitude":"1.57227077677","date_saisie":"08/05/2017","date_depot":"05/07/2017","valide":"Oui","ppo":"Oui (40 postes)","type_carte":"Reprise","base":"2007-D31-077 Forêt de Buzet 4","fond":"Ortho","obsolete":true}},{"type":"Feature","geometry":{"type":"Polygon","coordinates":[[[1.5963,43.7711],[1.5911,43.769],[1.59,43.7705],[1.5877,43.7728],[1.5861,43.7745],[1.5851,43.7761],[1.5852,43.7765],[1.589,43.7785],[1.5871,43.7794],[1.5894,43.7805],[1.5918,43.7789],[1.5942,43.782],[1.5947,43.7816],[1.5952,43.7806],[1.5956,43.7799],[1.597,43.78],[1.5977,43.7812],[1.5983,43.7811],[1.5994,43.7796],[1.599,43.7757],[1.5966,43.7758],[1.5963,43.7711]]]},"properties":{"id_ffco":"10057","nom":"LES BRUCS \"2\"","_dept":"31","numero":"2017-D31-109","commune":"BESSIERES","echelle":"1/3500","surface":"0.94 km²","format":"A4","annee":"2017","cartographes":"J.D. BOURGEOIS,C. ESCUDIE","proprietaire":"31 - Haute-Garonne","niveau":"Initiation, Scolaire","specialite":"CO à pied","contacts":"Collège de Bessières, 31660, Bessières","latitude":"43.7757042539","longitude":"1.59259172416","date_saisie":"22/02/2017","date_depot":"05/04/2017","valide":"Oui","ppo":"Oui (43 postes)","type_carte":"Reprise","base":"2010-D31-048 Les Brucs","fond":"Ortho","obsolete":true}},{"type":"Feature","geometry":{"type":"Polygon","coordinates":[[[1.4617,43.5638],[1.4656,43.5676],[1.4715,43.5677],[1.4715,43.5638],[1.4721,43.5629],[1.4752,43.5605],[1.4753,43.5595],[1.474,43.5588],[1.4746,43.5583],[1.4709,43.5561],[1.47,43.5566],[1.4688,43.5558],[1.4673,43.5574],[1.4657,43.5565],[1.4639,43.5593],[1.4639,43.5604],[1.4635,43.5611],[1.463,43.561],[1.4617,43.5638]]]},"properties":{"id_ffco":"9693","nom":"Fac Paul Sabatier","_dept":"31","numero":"2016-D31-106","commune":"Toulouse","echelle":"1/2500","surface":"0.92 km²","format":"A4","annee":"2016","cartographes":"ESCUDIE Christian","proprietaire":"31 - Haute-Garonne","niveau":"Initiation, Scolaire","specialite":"Sprint (ISSOM)","contacts":"CDCO31, https://www.cdco31.fr/ // Université P.Sabatier","latitude":"43.5618420098","longitude":"1.46834099613","date_saisie":"27/09/2016","date_depot":"24/10/2016","valide":"Oui","ppo":"Non","type_carte":"Nouvelle carte","fond":"Cadastre","obsolete":true}},{"type":"Feature","geometry":{"type":"Polygon","coordinates":[[[1.2192,43.6437],[1.2337,43.6339],[1.2372,43.6339],[1.2377,43.6536],[1.2193,43.6537],[1.2192,43.6437]]]},"properties":{"id_ffco":"5095","nom":"Bouconne - Lac de la Bordette 2","_dept":"31","numero":"2008-D31-102","commune":"Pibrac","echelle":"1/4000","surface":"2.59 km²","format":"A4","annee":"2008","cartographes":"P.Capbern,S Mena","proprietaire":"TOAC","niveau":"Régional","specialite":"CO à pied","contacts":"TOAC, contact@toac-orientation.fr, https://toac-orientation.fr/club48tx5e9/","latitude":"43.6454357793","longitude":"1.22939322938","date_saisie":"22/06/2011","date_depot":"23/03/2016","valide":"Oui","ppo":"Non","type_carte":"Reprise","base":"1997-D31-016 LAC DE LA BORDETTE","fond":"Ortho","obsolete":true}},{"type":"Feature","geometry":{"type":"Polygon","coordinates":[[[1.4431,43.5612],[1.4452,43.5621],[1.4505,43.559],[1.4521,43.5575],[1.4528,43.5561],[1.4524,43.5551],[1.4524,43.5542],[1.4493,43.5525],[1.4473,43.5505],[1.4437,43.5511],[1.4416,43.5507],[1.4432,43.5554],[1.4458,43.5581],[1.4452,43.5594],[1.4435,43.5607],[1.4429,43.5606],[1.4431,43.5612]]]},"properties":{"id_ffco":"9411","nom":"Pech-David 2015","_dept":"31","numero":"2015-D31-101","commune":"Toulouse","echelle":"1/10000","surface":"0.66 km²","format":"A4","annee":"2015","cartographes":"C. ESCUDIE,P.Capbern,J.Thomas","proprietaire":"31 - Haute-Garonne","niveau":"Départemental","specialite":"CO à pied","contacts":"CDCO31, https://www.cdco31.fr/","latitude":"43.5556939128","longitude":"1.447159904","date_saisie":"04/03/2016","date_depot":"23/03/2016","valide":"Oui","ppo":"Non","type_carte":"Reprise","base":"2011-D31-010 Pech-David","fond":"Cadastre","obsolete":true}},{"type":"Feature","geometry":{"type":"Polygon","coordinates":[[[1.338,43.5645],[1.3391,43.5665],[1.3399,43.5676],[1.3397,43.5694],[1.3451,43.5716],[1.3463,43.5739],[1.3487,43.5748],[1.3511,43.5754],[1.3522,43.5768],[1.3562,43.5764],[1.3583,43.5755],[1.355,43.5716],[1.3581,43.5702],[1.3537,43.5677],[1.3522,43.5664],[1.349,43.5607],[1.3436,43.5608],[1.3419,43.5619],[1.3393,43.5631],[1.338,43.5645]]]},"properties":{"id_ffco":"9408","nom":"La Ramée 2016","_dept":"31","numero":"2016-D31-099","commune":"Toulouse","echelle":"1/10000","surface":"1.62 km²","format":"A4","annee":"2016","cartographes":"A Lortolary","proprietaire":"31 - Haute-Garonne","niveau":"Départemental","specialite":"CO à pied","contacts":"CDCO31, https://www.cdco31.fr/","latitude":"43.568488313","longitude":"1.34805851657","date_saisie":"02/03/2016","date_depot":"23/03/2016","valide":"Oui","ppo":"Non","type_carte":"Reprise","base":"2005-D31-021 La Ramée","fond":"Ortho","obsolete":true}},{"type":"Feature","geometry":{"type":"Polygon","coordinates":[[[0.6982,43.0999],[0.7013,43.1021],[0.7036,43.1009],[0.7032,43.1005],[0.7035,43.1003],[0.7036,43.0992],[0.7031,43.0987],[0.7007,43.0987],[0.6982,43.0999]]]},"properties":{"id_ffco":"8812","nom":"Lac de Sède","_dept":"31","numero":"2015-D31-088","commune":"Saint-Gaudens","echelle":"1/3000","surface":"0.11 km²","format":"A4","annee":"2015","cartographes":"Olivier THOMAS","proprietaire":"31 - Haute-Garonne","niveau":"Initiation, Scolaire","specialite":"CO à pied","contacts":"CDCO31, https://www.cdco31.fr/ // Comminges Triathlon // Dés'orientés 31","latitude":"43.1001462997","longitude":"0.701330965369","date_saisie":"02/11/2015","date_depot":"16/12/2015","valide":"Oui","ppo":"Non","type_carte":"Nouvelle carte","fond":"Cadastre","obsolete":true}},{"type":"Feature","geometry":{"type":"Polygon","coordinates":[[[1.3855,43.6656],[1.3886,43.6665],[1.3936,43.6661],[1.399,43.6666],[1.4032,43.6646],[1.4046,43.6625],[1.4027,43.6618],[1.4002,43.6614],[1.3994,43.6608],[1.3981,43.6609],[1.3947,43.6629],[1.3931,43.6632],[1.3911,43.6619],[1.3891,43.6628],[1.3855,43.6656]]]},"properties":{"id_ffco":"8654","nom":"Parc des Quinze Sols","_dept":"31","numero":"2013-D31-080","commune":"Blagnac - Beauzelle","echelle":"1/5000","surface":"0.6 km²","format":"A4","annee":"2013","cartographes":"Olivier THOMAS","proprietaire":"31 - Haute-Garonne","niveau":"Initiation, Scolaire","specialite":"CO à pied","contacts":"CDCO31, https://www.cdco31.fr/","latitude":"43.6640893025","longitude":"1.3956611808","date_saisie":"04/10/2015","date_depot":"15/05/2014","valide":"Oui","ppo":"Non","type_carte":"Nouvelle carte","fond":"Ortho","obsolete":true}},{"type":"Feature","geometry":{"type":"Polygon","coordinates":[[[1.5708,43.7555],[1.5919,43.7679],[1.5863,43.7752],[1.5816,43.7808],[1.5803,43.7846],[1.5749,43.7874],[1.5623,43.7829],[1.5634,43.7734],[1.5624,43.7668],[1.5708,43.7555]]]},"properties":{"id_ffco":"4434","nom":"Forêt de Buzet 4","_dept":"31","numero":"2007-D31-077","commune":"Buzet-sur-Tarn","echelle":"1/10000","surface":"5.19 km²","format":"A4","annee":"2007","cartographes":"Fred Jordan,Gilles LEVEQUE","proprietaire":"31 - Haute-Garonne","niveau":"National, International","specialite":"CO à pied","contacts":"CDCO31, https://www.cdco31.fr/","latitude":"43.771989457","longitude":"1.57465266975","date_saisie":"29/12/2007","date_depot":"22/10/2009","valide":"Oui","ppo":"Oui (40 postes)","type_carte":"Reprise","base":"2005-D31-028 FORET DE BUZET 3","fond":"IGN","obsolete":true}},{"type":"Feature","geometry":{"type":"Polygon","coordinates":[[[1.3943,43.8378],[1.396,43.8396],[1.3995,43.8377],[1.3977,43.8372],[1.396,43.8359],[1.3943,43.8378]]]},"properties":{"id_ffco":"8651","nom":"Maison des vins","_dept":"31","numero":"2013-D31-076","commune":"Fronton","echelle":"1/2500","surface":"0.08 km²","format":"A4","annee":"2013","cartographes":"Hélène FOL","proprietaire":"31 - Haute-Garonne","niveau":"Initiation, Scolaire","specialite":"CO à pied","contacts":"CDCO31, https://www.cdco31.fr/ // Collège de Fronton","latitude":"43.8378112748","longitude":"1.39648293286","date_saisie":"03/10/2015","date_depot":"15/05/2014","valide":"Oui","ppo":"Non","type_carte":"Nouvelle carte","fond":"Cadastre","obsolete":true}},{"type":"Feature","geometry":{"type":"Polygon","coordinates":[[[1.4155,43.6557],[1.4194,43.6566],[1.4231,43.6523],[1.4224,43.6522],[1.4214,43.6529],[1.4203,43.6527],[1.4202,43.6513],[1.4212,43.6502],[1.4215,43.6497],[1.4208,43.6478],[1.4191,43.6473],[1.4173,43.6475],[1.4161,43.6477],[1.4152,43.6492],[1.4134,43.6538],[1.4152,43.6543],[1.4151,43.6547],[1.4155,43.6557]]]},"properties":{"id_ffco":"8634","nom":"Parc de Sesquières","_dept":"31","numero":"2011-D31-070","commune":"Toulouse","echelle":"1/5000","surface":"0.49 km²","format":"A4","annee":"2011","cartographes":"A Lortolary","proprietaire":"31 - Haute-Garonne","niveau":"Initiation, Scolaire","specialite":"CO à pied","contacts":"CDCO31, https://www.cdco31.fr/","latitude":"43.6519221165","longitude":"1.41791838725","date_saisie":"17/09/2015","date_depot":"15/05/2014","valide":"Oui","ppo":"Non","type_carte":"Nouvelle carte","fond":"Cadastre","obsolete":true}},{"type":"Feature","geometry":{"type":"Polygon","coordinates":[[[1.4292,43.5816],[1.4295,43.5817],[1.4295,43.581],[1.4304,43.5807],[1.4304,43.5805],[1.4301,43.5802],[1.4309,43.5769],[1.4346,43.5747],[1.4347,43.5739],[1.4338,43.574],[1.4305,43.5761],[1.4292,43.5781],[1.4289,43.581],[1.4292,43.5816]]]},"properties":{"id_ffco":"8633","nom":"Le Ramier de Toulouse","_dept":"31","numero":"2011-D31-069","commune":"Toulouse","echelle":"1/5000","surface":"0.09 km²","format":"A4","annee":"2011","cartographes":"A Lortolary","proprietaire":"31 - Haute-Garonne","niveau":"O+","specialite":"CO à pied","contacts":"CDCO31, https://www.cdco31.fr/","latitude":"43.5773930593","longitude":"1.43104024257","date_saisie":"17/09/2015","date_depot":"15/05/2014","valide":"Oui","ppo":"Non","type_carte":"Nouvelle carte","fond":"Ortho","obsolete":true}},{"type":"Feature","geometry":{"type":"Polygon","coordinates":[[[1.4797,43.6248],[1.4768,43.6237],[1.4768,43.6227],[1.4764,43.6217],[1.4767,43.6211],[1.4767,43.6206],[1.478,43.617],[1.4787,43.617],[1.4795,43.6169],[1.4798,43.6156],[1.4811,43.6145],[1.4782,43.613],[1.4786,43.6124],[1.4776,43.6117],[1.4784,43.611],[1.4813,43.6123],[1.4816,43.6116],[1.4823,43.6111],[1.4823,43.6104],[1.4832,43.6094],[1.4828,43.6092],[1.4834,43.6085],[1.4822,43.608],[1.4823,43.6077],[1.4832,43.6079],[1.4834,43.6077],[1.4848,43.607],[1.4847,43.609],[1.4846,43.6118],[1.4829,43.6166],[1.4805,43.6235],[1.48,43.6249],[1.4797,43.6248]]]},"properties":{"id_ffco":"8624","nom":"LES ARGOULETS","_dept":"31","numero":"2011-D31-067","commune":"TOULOUSE","echelle":"1/7500","surface":"0.58 km²","format":"A4","annee":"2011","cartographes":"Olivier THOMAS","proprietaire":"31 - Haute-Garonne","niveau":"Départemental","specialite":"CO à pied","latitude":"43.616693982","longitude":"1.48065054016","date_saisie":"09/09/2015","date_depot":"15/05/2014","valide":"Oui","ppo":"Non","type_carte":"Nouvelle carte","fond":"Ortho","obsolete":true}},{"type":"Feature","geometry":{"type":"Polygon","coordinates":[[[1.4504,43.5966],[1.4538,43.5967],[1.4543,43.5963],[1.4542,43.595],[1.4537,43.5946],[1.4536,43.5937],[1.4538,43.5927],[1.4538,43.5913],[1.4537,43.5908],[1.4519,43.5912],[1.4517,43.5913],[1.4497,43.592],[1.4487,43.5924],[1.4487,43.5928],[1.4487,43.5935],[1.4485,43.5951],[1.4504,43.5966]]]},"properties":{"id_ffco":"8623","nom":"TOULOUSE JARDIN DES PLANTES- GRAND ROND","_dept":"31","numero":"2011-D31-066","commune":"TOULOUSE","echelle":"1/2500","surface":"0.23 km²","format":"A4","annee":"2011","cartographes":"Luc Berbett","proprietaire":"3105 - TOAC ORIENTATION","niveau":"Départemental","specialite":"CO à pied","latitude":"43.5940177223","longitude":"1.45149957269","date_saisie":"09/09/2015","date_depot":"15/05/2014","valide":"Oui","ppo":"Non","type_carte":"Nouvelle carte","fond":"Ortho","obsolete":true}},{"type":"Feature","geometry":{"type":"Polygon","coordinates":[[[1.4609,43.5632],[1.4583,43.5614],[1.4576,43.5599],[1.4578,43.559],[1.4573,43.5578],[1.4587,43.5575],[1.4586,43.5571],[1.4594,43.5567],[1.459,43.5563],[1.4587,43.5553],[1.4594,43.555],[1.4615,43.5566],[1.4612,43.557],[1.4632,43.5581],[1.463,43.5584],[1.4639,43.5589],[1.4609,43.5632]]]},"properties":{"id_ffco":"8600","nom":"Lycée Bellevue","_dept":"31","numero":"2011-D31-063","commune":"Toulouse","echelle":"1/5000","surface":"0.26 km²","format":"A4","annee":"2011","cartographes":"ESCUDIE Christian","proprietaire":"31 - Haute-Garonne","niveau":"Initiation, Scolaire","specialite":"CO à pied","contacts":"CDCO31, https://www.cdco31.fr/","latitude":"43.5592072836","longitude":"1.4603374016","date_saisie":"04/09/2015","date_depot":"04/01/2014","valide":"Oui","ppo":"Non","type_carte":"Nouvelle carte","fond":"Ortho","obsolete":true}},{"type":"Feature","geometry":{"type":"Polygon","coordinates":[[[1.2292,43.4291],[1.2284,43.4265],[1.2243,43.4271],[1.2242,43.428],[1.223,43.4285],[1.2231,43.4294],[1.2239,43.4295],[1.224,43.4301],[1.2292,43.4291]]]},"properties":{"id_ffco":"8567","nom":"Collège Flora Tristan de Lherm","_dept":"31","numero":"2011-D31-058","commune":"Lherm","echelle":"1/2000","surface":"0.13 km²","format":"A4","annee":"2011","cartographes":"Pierrick Masse","proprietaire":"31 - Haute-Garonne","niveau":"Initiation, Scolaire","specialite":"CO à pied","contacts":"CDCO31, https://www.cdco31.fr/","latitude":"43.4283358498","longitude":"1.2261960912","date_saisie":"30/08/2015","date_depot":"15/05/2014","valide":"Oui","ppo":"Non","type_carte":"Nouvelle carte","fond":"Ortho","obsolete":true}},{"type":"Feature","geometry":{"type":"Polygon","coordinates":[[[1.4932,43.5384],[1.4981,43.539],[1.5015,43.5374],[1.5036,43.5384],[1.5059,43.54],[1.4988,43.5473],[1.4904,43.5471],[1.4859,43.5461],[1.49,43.5445],[1.4922,43.5403],[1.4927,43.5387],[1.4932,43.5384]]]},"properties":{"id_ffco":"8410","nom":"La Ferme de Cinquante 2","_dept":"31","numero":"2010-D31-055","commune":"Ramonville","echelle":"1/5000","surface":"0.97 km²","format":"A4","annee":"2010","cartographes":"ESCUDIE Christian","proprietaire":"31 - Haute-Garonne","niveau":"Initiation, Scolaire","specialite":"CO à pied","contacts":"CDCO31, https://www.cdco31.fr/","latitude":"43.5427343869","longitude":"1.49678727483","date_saisie":"05/05/2015","date_depot":"04/01/2014","valide":"Oui","ppo":"Non","type_carte":"Nouvelle carte","fond":"Cadastre","obsolete":true}},{"type":"Feature","geometry":{"type":"Polygon","coordinates":[[[1.6221,43.6809],[1.6259,43.681],[1.6287,43.68],[1.6286,43.6797],[1.6321,43.6787],[1.6293,43.6734],[1.6264,43.675],[1.625,43.6753],[1.6248,43.6749],[1.6228,43.676],[1.6249,43.6781],[1.6221,43.6802],[1.6221,43.6809]]]},"properties":{"id_ffco":"8357","nom":"Chateau de Bonrepos-Riquet","_dept":"31","numero":"2010-D31-053","commune":"Bonrepos-Riquet","echelle":"1/3500","surface":"0.39 km²","format":"A4","annee":"2010","cartographes":"ESCUDIE Christian","proprietaire":"31 - Haute-Garonne","niveau":"Initiation, Scolaire","specialite":"CO à pied","contacts":"CDCO31, https://www.cdco31.fr/","latitude":"43.677628845","longitude":"1.62711719079","date_saisie":"26/04/2015","date_depot":"04/01/2014","valide":"Oui","ppo":"Non","type_carte":"Nouvelle carte","fond":"Cadastre","obsolete":true}},{"type":"Feature","geometry":{"type":"Polygon","coordinates":[[[1.586,43.7766],[1.5893,43.7784],[1.5886,43.78],[1.5938,43.7812],[1.5946,43.7816],[1.5956,43.7797],[1.5972,43.7801],[1.5976,43.7809],[1.599,43.7807],[1.5999,43.7792],[1.6,43.7767],[1.5993,43.7763],[1.5973,43.7718],[1.5974,43.7711],[1.5912,43.7698],[1.5885,43.7723],[1.5857,43.7756],[1.586,43.7766]]]},"properties":{"id_ffco":"8348","nom":"Les Brucs","_dept":"31","numero":"2010-D31-048","commune":"Bessières","echelle":"1/7500","surface":"0.99 km²","format":"A5","annee":"2010","cartographes":"ESCUDIE Christian","proprietaire":"31 - Haute-Garonne","niveau":"Initiation, Scolaire","specialite":"CO à pied","contacts":"CDCO31, https://www.cdco31.fr/","latitude":"43.7757924497","longitude":"1.59327459306","date_saisie":"26/04/2015","date_depot":"04/01/2014","valide":"Oui","ppo":"Non","type_carte":"Nouvelle carte","fond":"Ortho","obsolete":true}},{"type":"Feature","geometry":{"type":"Polygon","coordinates":[[[0.762,42.9194],[0.7685,42.9191],[0.7697,42.9182],[0.7716,42.9184],[0.7738,42.9191],[0.7747,42.9188],[0.7756,42.9176],[0.7755,42.9167],[0.7783,42.9156],[0.7797,42.9158],[0.7797,42.9147],[0.7813,42.9141],[0.7822,42.9151],[0.7817,42.9126],[0.7807,42.9118],[0.7807,42.9105],[0.7786,42.9096],[0.7767,42.9093],[0.7754,42.9097],[0.7747,42.9105],[0.7733,42.91],[0.7718,42.9108],[0.7716,42.9124],[0.7674,42.9132],[0.7666,42.9143],[0.7641,42.9143],[0.7614,42.9163],[0.7615,42.9189],[0.762,42.9194]]]},"properties":{"id_ffco":"8347","nom":"Le Mourtis","_dept":"31","numero":"2010-D31-047","commune":"Aspet","echelle":"1/7500","surface":"1.07 km²","format":"A4","annee":"2010","cartographes":"Olivier THOMAS,PORTES Jean-Raymond","proprietaire":"3107 - LES DES'ORIENTES 31","niveau":"Régional","specialite":"CO à pied","contacts":"Dés'orientés 31","latitude":"42.9148238524","longitude":"0.771958276612","date_saisie":"26/04/2015","date_depot":"15/05/2014","valide":"Oui","ppo":"Oui (60 postes)","type_carte":"Nouvelle carte","fond":"Ortho","obsolete":true}},{"type":"Feature","geometry":{"type":"Polygon","coordinates":[[[1.3523,43.4528],[1.3543,43.4519],[1.3548,43.4503],[1.3558,43.45],[1.3562,43.4494],[1.3522,43.4445],[1.3492,43.4457],[1.3498,43.4478],[1.3496,43.449],[1.3501,43.4498],[1.351,43.4499],[1.3523,43.4528]]]},"properties":{"id_ffco":"7998","nom":"Domaine de Brioudes 2","_dept":"31","numero":"2008-D31-038","commune":"Muret","echelle":"1/4000","surface":"0.29 km²","format":"A4","annee":"2008","cartographes":"Olivier THOMAS","proprietaire":"31 - Haute-Garonne","niveau":"Initiation, Scolaire","specialite":"CO à pied","contacts":"CDCO31, https://www.cdco31.fr/","latitude":"43.4485151558","longitude":"1.35243030848","date_saisie":"01/02/2015","date_depot":"15/05/2014","valide":"Oui","ppo":"Non","type_carte":"Reprise","base":"1991-D31-006 BRIOUDES 31-MURET","fond":"Ortho","obsolete":true}},{"type":"Feature","geometry":{"type":"Polygon","coordinates":[[[0.7931,43.0295],[0.7988,43.0303],[0.8041,43.031],[0.8075,43.0318],[0.8105,43.0323],[0.8147,43.0323],[0.8189,43.0323],[0.8197,43.0311],[0.8111,43.0254],[0.8055,43.0222],[0.8005,43.0207],[0.7972,43.022],[0.7935,43.0245],[0.792,43.0265],[0.7931,43.0295]]]},"properties":{"id_ffco":"7997","nom":"Bois Perché","_dept":"31","numero":"2008-D31-037","commune":"Aspet","echelle":"1/10000","surface":"1.68 km²","format":"A4","annee":"2008","cartographes":"Olivier THOMAS","proprietaire":"3107 - LES DES'ORIENTES 31","niveau":"Régional","specialite":"CO à pied","contacts":"Dés'orientés 31","latitude":"43.0272564713","longitude":"0.804475421865","date_saisie":"01/02/2015","date_depot":"15/05/2014","valide":"Oui","ppo":"Oui (79 postes)","type_carte":"Nouvelle carte","fond":"Ortho","obsolete":true}},{"type":"Feature","geometry":{"type":"Polygon","coordinates":[[[1.38,43.6342],[1.3833,43.6353],[1.386,43.6359],[1.3859,43.6362],[1.3879,43.6361],[1.3882,43.6355],[1.3886,43.6332],[1.3854,43.6323],[1.3844,43.6322],[1.3843,43.6326],[1.3811,43.6327],[1.38,43.6342]]]},"properties":{"id_ffco":"4509","nom":"Parc du Ritouret","_dept":"31","numero":"2008-D31-036","commune":"Blagnac","echelle":"1/2500","surface":"0.2 km²","format":"A4","annee":"2008","cartographes":"L Berbett,S Mena,S Lhote","proprietaire":"3105 - TOAC ORIENTATION","niveau":"Initiation, Scolaire","specialite":"CO à pied","contacts":"TOAC, contact@toac-orientation.fr, https://toac-orientation.fr/club48tx5e9/","latitude":"43.634093313","longitude":"1.38481776089","date_saisie":"04/11/2009","date_depot":"06/11/2009","valide":"Oui","ppo":"Non","type_carte":"Nouvelle carte","fond":"Ortho","obsolete":true}},{"type":"Feature","geometry":{"type":"Polygon","coordinates":[[[1.4002,43.6364],[1.4,43.6351],[1.3982,43.6347],[1.3986,43.6324],[1.3998,43.6323],[1.3998,43.6293],[1.4012,43.6292],[1.4033,43.6365],[1.4002,43.6364]]]},"properties":{"id_ffco":"4618","nom":"Blagnac - Le Parc des Ramiers","_dept":"31","numero":"2008-D31-033","commune":"Blagnac","echelle":"1/4000","surface":"0.19 km²","format":"A4","annee":"2008","cartographes":"L Berbett","proprietaire":"3105 - TOAC ORIENTATION","niveau":"Initiation, Scolaire","specialite":"CO à pied","contacts":"TOAC, contact@toac-orientation.fr, https://toac-orientation.fr/club48tx5e9/","latitude":"43.6333981761","longitude":"1.40079838789","date_saisie":"25/11/2009","date_depot":"26/11/2009","valide":"Oui","ppo":"Non","type_carte":"Nouvelle carte","fond":"Ortho","obsolete":true}},{"type":"Feature","geometry":{"type":"Polygon","coordinates":[[[1.338,43.5646],[1.3399,43.5697],[1.3453,43.5722],[1.3464,43.5743],[1.3512,43.5754],[1.3521,43.5765],[1.3582,43.5758],[1.355,43.5716],[1.3578,43.5703],[1.3531,43.5675],[1.3488,43.5608],[1.3437,43.5609],[1.3422,43.562],[1.3393,43.5631],[1.338,43.5646]]]},"properties":{"id_ffco":"4619","nom":"La Ramée 3","_dept":"31","numero":"2008-D31-032","commune":"Tournefeuille","echelle":"1/10000","surface":"1.61 km²","format":"A4","annee":"2008","cartographes":"A Lortolary","proprietaire":"31 - Haute-Garonne","niveau":"Initiation, Scolaire","specialite":"CO à pied","contacts":"CDCO31, https://www.cdco31.fr/","latitude":"43.5684768263","longitude":"1.34780454258","date_saisie":"09/12/2009","date_depot":"15/12/2009","valide":"Oui","ppo":"Non","type_carte":"Reprise","base":"2005-D31-021 La Ramée","fond":"IGN","obsolete":true}},{"type":"Feature","geometry":{"type":"Polygon","coordinates":[[[1.3293,43.5985],[1.3302,43.5994],[1.3308,43.5992],[1.3312,43.5985],[1.337,43.5996],[1.3376,43.5975],[1.3348,43.5975],[1.3344,43.597],[1.3338,43.597],[1.3332,43.5958],[1.3324,43.596],[1.3326,43.597],[1.33,43.5978],[1.3302,43.598],[1.3293,43.5985]]]},"properties":{"id_ffco":"4620","nom":"Parc du Cabirol - Colomiers","_dept":"31","numero":"2007-D31-030","commune":"Colomiers","echelle":"1/2500","surface":"0.13 km²","format":"A4","annee":"2007","cartographes":"S Mena,L Berbett","proprietaire":"3105 - TOAC ORIENTATION","niveau":"Initiation, Scolaire","specialite":"CO à pied","contacts":"TOAC, contact@toac-orientation.fr, https://toac-orientation.fr/club48tx5e9/","latitude":"43.5980895937","longitude":"1.33373793452","date_saisie":"09/12/2009","date_depot":"15/12/2009","valide":"Oui","ppo":"Non","type_carte":"Nouvelle carte","fond":"Cadastre","obsolete":true}},{"type":"Feature","geometry":{"type":"Polygon","coordinates":[[[1.5916,43.7682],[1.5798,43.7607],[1.5632,43.7604],[1.5612,43.7749],[1.5877,43.7741],[1.5916,43.7682]]]},"properties":{"id_ffco":"4144","nom":"FORET DE BUZET 3 SUD","_dept":"31","numero":"2005-D31-029","commune":"Montastruc-La-Conseillère","echelle":"1/10000","surface":"3.14 km²","format":"A4","annee":"2005","cartographes":"G Lévêque","proprietaire":"3105 - TOAC ORIENTATION","niveau":"Départemental","specialite":"CO à pied","latitude":"43.7680237981","longitude":"1.57485834804","date_saisie":"28/11/2005","date_depot":"16/01/2006","valide":"Oui","ppo":"Non","type_carte":"Extrait","base":"2005-D31-028 FORET DE BUZET 3","fond":"Ortho","obsolete":true}},{"type":"Feature","geometry":{"type":"Polygon","coordinates":[[[1.5916,43.7679],[1.5683,43.7544],[1.5615,43.7624],[1.5617,43.764],[1.5568,43.7766],[1.5604,43.7826],[1.568,43.7869],[1.5753,43.7871],[1.5804,43.7852],[1.582,43.7801],[1.5852,43.7778],[1.5916,43.7679]]]},"properties":{"id_ffco":"4145","nom":"FORET DE BUZET 3","_dept":"31","numero":"2005-D31-028","commune":"Montastruc-La-Conseillère","echelle":"1/15000","surface":"6.29 km²","format":"A4","annee":"2005","cartographes":"G Lévêque","proprietaire":"3105 - TOAC ORIENTATION","niveau":"National, International","specialite":"CO à pied","latitude":"43.7720396646","longitude":"1.57267240309","date_saisie":"28/11/2005","date_depot":"16/01/2006","valide":"Oui","ppo":"Non","type_carte":"Reprise","base":"1999-D31-017 FORET DE BUZET 2","fond":"Ortho","obsolete":true}},{"type":"Feature","geometry":{"type":"Polygon","coordinates":[[[1.1828,43.6206],[1.1876,43.6203],[1.19,43.6198],[1.1958,43.6165],[1.2054,43.6137],[1.2072,43.6124],[1.2066,43.6116],[1.207,43.6096],[1.2072,43.6085],[1.2064,43.6074],[1.2015,43.6048],[1.1993,43.6025],[1.1969,43.6025],[1.1944,43.599],[1.1924,43.5979],[1.1883,43.5972],[1.1838,43.5955],[1.1819,43.595],[1.1779,43.5953],[1.1729,43.5955],[1.1678,43.5969],[1.1651,43.5995],[1.1651,43.6052],[1.1694,43.6072],[1.1686,43.6083],[1.1715,43.612],[1.1739,43.6132],[1.1754,43.6143],[1.1767,43.6142],[1.1789,43.6186],[1.1811,43.6188],[1.1824,43.6191],[1.183,43.6197],[1.1828,43.6206]]]},"properties":{"id_ffco":"4235","nom":"Bouconne Bois de l'Isle 3","_dept":"31","numero":"2005-D31-027","commune":"Léguevin","echelle":"1/15000","surface":"6.28 km²","format":"A4","annee":"2005","cartographes":"P.Capbern,S Mena,R Rivière","proprietaire":"3105 - TOAC ORIENTATION","niveau":"Interrégional","specialite":"CO à pied","latitude":"43.6071238725","longitude":"1.18507890907","date_saisie":"14/04/2006","date_depot":"14/04/2006","valide":"Oui","ppo":"Non","type_carte":"Reprise","base":"2000-D31-018 Le Bois de l'Isle 2","fond":"Ortho","obsolete":true}},{"type":"Feature","geometry":{"type":"Polygon","coordinates":[[[1.2115,43.6473],[1.212,43.6458],[1.2109,43.6452],[1.2052,43.644],[1.1998,43.643],[1.1981,43.643],[1.1973,43.642],[1.1945,43.6404],[1.1938,43.6394],[1.1936,43.636],[1.1927,43.6358],[1.1933,43.633],[1.192,43.6312],[1.1913,43.6314],[1.1906,43.63],[1.1913,43.6298],[1.1866,43.6248],[1.1898,43.6219],[1.1901,43.6196],[1.1957,43.6165],[1.2,43.6153],[1.2054,43.6137],[1.2068,43.6125],[1.2169,43.6172],[1.2175,43.6186],[1.2218,43.6211],[1.2269,43.6282],[1.2301,43.6321],[1.2322,43.6341],[1.2229,43.6409],[1.2139,43.6472],[1.2129,43.6481],[1.2115,43.6473]]]},"properties":{"id_ffco":"3780","nom":"Bouconne-Lasserre 2","_dept":"31","numero":"2004-D31-026","commune":"Brax","echelle":"1/15000","surface":"8.55 km²","format":"A4","annee":"2004","cartographes":"Céline Lecourt","proprietaire":"3105 - TOAC ORIENTATION","niveau":"Interrégional","specialite":"CO à pied","latitude":"43.629874869","longitude":"1.20861666119","date_saisie":"20/04/2004","valide":"Oui","ppo":"Non","type_carte":"Reprise","base":"1978-D31-003 BOUCONNE LASSERRE","fond":"Ortho","obsolete":true}},{"type":"Feature","geometry":{"type":"Polygon","coordinates":[[[1.4773,43.6547],[1.4793,43.6534],[1.4767,43.6512],[1.4741,43.6525],[1.4751,43.6541],[1.477,43.6548],[1.4773,43.6547]]]},"properties":{"id_ffco":"4234","nom":"Parc Malpagat","_dept":"31","numero":"2005-D31-024","commune":"L'Union","echelle":"1/2000","surface":"0.09 km²","format":"A4","annee":"2005","cartographes":"Gilles LEVEQUE","proprietaire":"31 - Haute-Garonne","niveau":"Initiation, Scolaire","specialite":"CO à pied","contacts":"CDCO31, https://www.cdco31.fr/ // Mairie l'UNION","latitude":"43.6530750742","longitude":"1.47662233627","date_saisie":"14/04/2006","date_depot":"14/04/2006","valide":"Oui","ppo":"Oui (27 postes)","type_carte":"Nouvelle carte","fond":"Cadastre","obsolete":true}},{"type":"Feature","geometry":{"type":"Polygon","coordinates":[[[1.3489,43.5608],[1.3438,43.5608],[1.3422,43.562],[1.3394,43.5632],[1.338,43.5646],[1.3398,43.5696],[1.3475,43.5748],[1.3509,43.5753],[1.3521,43.5765],[1.3576,43.5757],[1.3549,43.5717],[1.3581,43.5706],[1.3528,43.567],[1.3489,43.5608]]]},"properties":{"id_ffco":"4146","nom":"La Ramée","_dept":"31","numero":"2005-D31-021","commune":"Toulouse","echelle":"1/8000","surface":"1.65 km²","format":"A5","annee":"2005","cartographes":"N Giganto","proprietaire":"31 - Haute-Garonne","niveau":"Départemental","specialite":"CO à pied","latitude":"43.5684708","longitude":"1.34768064535","date_saisie":"28/11/2005","date_depot":"16/01/2006","valide":"Oui","ppo":"Non","type_carte":"Nouvelle carte","fond":"Ortho","obsolete":true}},{"type":"Feature","geometry":{"type":"Polygon","coordinates":[[[1.5074,43.524],[1.5076,43.5246],[1.5082,43.5245],[1.5083,43.5247],[1.5095,43.5245],[1.5105,43.5242],[1.5109,43.5237],[1.5114,43.5232],[1.5112,43.5231],[1.5114,43.5227],[1.5114,43.5225],[1.5112,43.5225],[1.5106,43.5225],[1.5101,43.5222],[1.5099,43.5219],[1.5098,43.5217],[1.5105,43.5215],[1.5102,43.5213],[1.5099,43.5211],[1.51,43.5209],[1.5099,43.5207],[1.5097,43.521],[1.5092,43.5211],[1.5088,43.5209],[1.5085,43.5209],[1.5076,43.5206],[1.5069,43.5214],[1.5067,43.5213],[1.5064,43.5216],[1.5064,43.5219],[1.5066,43.5221],[1.5062,43.5224],[1.5069,43.5226],[1.5071,43.5227],[1.5069,43.5231],[1.5072,43.5232],[1.5075,43.5234],[1.5077,43.5239],[1.5074,43.524]]]},"properties":{"id_ffco":"8619","nom":"Parc des FONTANELLES","_dept":"31","numero":"1999-D31-020","commune":"CASTANET","echelle":"1/2000","surface":"0.12 km²","format":"A4","annee":"1999","cartographes":"ESCUDIE Christian","proprietaire":"31 - Haute-Garonne","niveau":"Initiation, Scolaire","specialite":"CO à pied","latitude":"43.5226924613","longitude":"1.50880128564","date_saisie":"09/09/2015","date_depot":"16/12/2015","valide":"Oui","ppo":"Non","type_carte":"Nouvelle carte","fond":"Ortho","obsolete":true}},{"type":"Feature","geometry":{"type":"Polygon","coordinates":[[[1.5024,43.5175],[1.5068,43.5191],[1.5084,43.5172],[1.5084,43.516],[1.5073,43.5156],[1.5068,43.5159],[1.5054,43.5155],[1.5035,43.5153],[1.5024,43.5175]]]},"properties":{"id_ffco":"4036","nom":"COLLEGE CASTANET JEAN JAURES","_dept":"31","numero":"2000-D31-019","commune":"Castanet Tolosan","echelle":"1/2000","surface":"0.14 km²","format":"A4","annee":"2000","cartographes":"C. ESCUDIE","proprietaire":"31 - Haute-Garonne","niveau":"Initiation, Scolaire","specialite":"CO à pied","contacts":"CDCO31, https://www.cdco31.fr/","latitude":"43.5170192093","longitude":"1.50557172973","date_saisie":"13/09/2005","date_depot":"21/09/2005","valide":"Oui","ppo":"Non","type_carte":"Nouvelle carte","fond":"Ortho","obsolete":true}},{"type":"Feature","geometry":{"type":"Polygon","coordinates":[[[1.1887,43.597],[1.1835,43.5949],[1.1738,43.5961],[1.1625,43.6002],[1.1619,43.604],[1.1717,43.6087],[1.1789,43.6174],[1.1866,43.6201],[1.1921,43.6188],[1.1945,43.617],[1.2058,43.6137],[1.2079,43.6113],[1.2077,43.6071],[1.1992,43.6024],[1.1963,43.6018],[1.1932,43.5981],[1.1887,43.597]]]},"properties":{"id_ffco":"4147","nom":"Le Bois de l'Isle 2","_dept":"31","numero":"2000-D31-018","commune":"Lèguevin","echelle":"1/15000","surface":"6.25 km²","format":"A4","annee":"2000","cartographes":"A Chenu,J Franck,L Lestarquit,P Mathe,T Vanderdope","proprietaire":"3105 - TOAC ORIENTATION","niveau":"National, International","specialite":"CO à pied","latitude":"43.6069265124","longitude":"1.18550565075","date_saisie":"28/11/2005","date_depot":"16/01/2006","valide":"Oui","ppo":"Non","type_carte":"Reprise","base":"1978-D31-001 BOUCONNE ISLE JOURDAIN","fond":"Ortho","obsolete":true}},{"type":"Feature","geometry":{"type":"Polygon","coordinates":[[[1.5919,43.7682],[1.5706,43.7552],[1.5673,43.7542],[1.5634,43.7622],[1.5603,43.769],[1.5577,43.7712],[1.5573,43.7764],[1.5579,43.7819],[1.5612,43.7822],[1.5678,43.7871],[1.5753,43.7873],[1.5849,43.7857],[1.5817,43.7829],[1.5919,43.7682]]]},"properties":{"id_ffco":"3338","nom":"FORET DE BUZET 2","_dept":"31","numero":"1999-D31-017","commune":"Buzet sur Tarn","echelle":"1/15000","surface":"6.5 km²","format":"A4","annee":"1999","cartographes":"ESCUDIE Christian,Stéphane RUFFIO","proprietaire":"3102","niveau":"Interrégional","specialite":"CO à pied","latitude":"43.7723650942","longitude":"1.57298347335","valide":"Oui","ppo":"Non","type_carte":"Nouvelle carte","fond":"Ortho","obsolete":true}},{"type":"Feature","geometry":{"type":"Polygon","coordinates":[[[1.2191,43.6438],[1.2192,43.651],[1.2232,43.6526],[1.2265,43.6516],[1.2275,43.6523],[1.2291,43.6511],[1.2317,43.6523],[1.2348,43.6523],[1.2376,43.6504],[1.2366,43.6496],[1.2373,43.6483],[1.2374,43.6472],[1.2375,43.6462],[1.2366,43.6336],[1.235,43.6338],[1.2339,43.6331],[1.2299,43.6359],[1.2242,43.6399],[1.2191,43.6434],[1.2191,43.6436],[1.2191,43.6438]]]},"properties":{"id_ffco":"8617","nom":"LAC DE LA BORDETTE","_dept":"31","numero":"1997-D31-016","commune":"LEGUEVIN","echelle":"1/7500","surface":"2.33 km²","format":"A4","annee":"1997","cartographes":"ESCUDIE Christian,Stéphane RUFFIO","proprietaire":"31 - Haute-Garonne","niveau":"Départemental","specialite":"CO à pied","latitude":"43.6443708798","longitude":"1.22924979323","date_saisie":"09/09/2015","date_depot":"02/11/2016","valide":"Oui","ppo":"Non","type_carte":"Nouvelle carte","fond":"Ortho","obsolete":true}},{"type":"Feature","geometry":{"type":"Polygon","coordinates":[[[1.4433,43.5606],[1.4436,43.5612],[1.4452,43.562],[1.4506,43.5588],[1.4523,43.5579],[1.4524,43.5557],[1.4519,43.554],[1.4499,43.5529],[1.4473,43.5505],[1.4438,43.5513],[1.4415,43.5505],[1.4428,43.5553],[1.4452,43.5572],[1.4458,43.5585],[1.444,43.5605],[1.4433,43.5606]]]},"properties":{"id_ffco":"7982","nom":"Pech-David","_dept":"31","numero":"2011-D31-010","commune":"Toulouse","echelle":"1/5000","surface":"0.66 km²","format":"A4","annee":"2011","cartographes":"Patrick CAPBERN,Valérie BERGER,ESCUDIE Christian","proprietaire":"31 - Haute-Garonne","niveau":"Initiation, Scolaire","specialite":"CO à pied","contacts":"CDCO31, https://www.cdco31.fr/","latitude":"43.5556244","longitude":"1.44713028045","date_saisie":"28/01/2015","date_depot":"02/11/2016","valide":"Oui","ppo":"Non","type_carte":"Nouvelle carte","fond":"Cadastre","obsolete":true}},{"type":"Feature","geometry":{"type":"Polygon","coordinates":[[[1.5922,43.7681],[1.5681,43.754],[1.5669,43.7551],[1.5659,43.7559],[1.5657,43.7574],[1.562,43.7593],[1.5617,43.7598],[1.563,43.762],[1.5611,43.762],[1.5616,43.7639],[1.5622,43.7647],[1.5611,43.766],[1.5613,43.7675],[1.5616,43.7684],[1.5596,43.7693],[1.5568,43.7709],[1.5542,43.7723],[1.5495,43.7745],[1.5519,43.777],[1.5541,43.7795],[1.5558,43.7816],[1.5571,43.7825],[1.5585,43.7825],[1.5607,43.7828],[1.5629,43.7839],[1.5654,43.786],[1.567,43.7871],[1.5681,43.7874],[1.5713,43.7872],[1.5725,43.7874],[1.5737,43.788],[1.5768,43.7871],[1.5828,43.7861],[1.5854,43.7854],[1.5819,43.7825],[1.5826,43.7805],[1.5841,43.7792],[1.5855,43.7778],[1.5867,43.7752],[1.5886,43.7726],[1.5912,43.77],[1.5922,43.7681]]]},"properties":{"id_ffco":"9727","nom":"FORET DE BUZET","_dept":"31","numero":"1995-D31-008","commune":"BUZET","echelle":"1/15000","surface":"7.15 km²","format":"A4","annee":"1995","cartographes":"ESCUDIE Christian","proprietaire":"31 - Haute-Garonne","niveau":"Interrégional","specialite":"CO à pied","latitude":"43.7725695816","longitude":"1.5716413281","date_saisie":"10/10/2016","valide":"Oui","ppo":"Non","type_carte":"Nouvelle carte","fond":"Ortho","obsolete":true}},{"type":"Feature","geometry":{"type":"Polygon","coordinates":[[[1.1878,43.6192],[1.1881,43.6204],[1.1897,43.6201],[1.1918,43.6191],[1.1947,43.6173],[1.199,43.6161],[1.2033,43.6143],[1.2056,43.6136],[1.207,43.6127],[1.2062,43.6107],[1.2069,43.6086],[1.2066,43.6075],[1.1997,43.603],[1.198,43.6024],[1.1956,43.6024],[1.1941,43.6011],[1.1925,43.5987],[1.1911,43.5977],[1.1896,43.5971],[1.1871,43.5963],[1.1853,43.5953],[1.1823,43.5948],[1.1796,43.595],[1.1761,43.5954],[1.1739,43.5957],[1.173,43.5953],[1.1706,43.596],[1.1691,43.5971],[1.1671,43.5987],[1.1656,43.5995],[1.162,43.6009],[1.1622,43.6012],[1.1649,43.6013],[1.1637,43.604],[1.166,43.6046],[1.1682,43.6061],[1.1714,43.607],[1.1729,43.6078],[1.1734,43.6094],[1.1745,43.6108],[1.1755,43.6113],[1.1767,43.6122],[1.1779,43.613],[1.1798,43.6147],[1.1806,43.6148],[1.1806,43.6154],[1.1817,43.6168],[1.1849,43.6185],[1.1864,43.6191],[1.1878,43.6192]]]},"properties":{"id_ffco":"794","nom":"LE BOIS DE L'ISLE","_dept":"31","numero":"1994-D31-007","commune":"LEGUEVIN","echelle":"1/15000","surface":"5.79 km²","format":"A4","annee":"1994","cartographes":"H. Chauvel","proprietaire":"3101","niveau":"Interrégional","specialite":"CO à pied","latitude":"43.606597952","longitude":"1.18581098834","valide":"Oui","ppo":"Non","type_carte":"Reprise","base":"1978-D31-001 BOUCONNE ISLE JOURDAIN","fond":"IGN","obsolete":true}},{"type":"Feature","geometry":{"type":"Polygon","coordinates":[[[1.3528,43.4528],[1.3541,43.4523],[1.3545,43.4517],[1.3548,43.4506],[1.3557,43.4501],[1.3568,43.4492],[1.3564,43.4485],[1.3559,43.4479],[1.3552,43.4481],[1.3544,43.447],[1.3539,43.4469],[1.3532,43.4458],[1.3523,43.4449],[1.3503,43.4447],[1.3492,43.4448],[1.3487,43.4455],[1.3493,43.4461],[1.3494,43.4464],[1.3499,43.4477],[1.3501,43.4487],[1.3499,43.4494],[1.3505,43.4506],[1.3513,43.4514],[1.3524,43.4523],[1.3528,43.4527],[1.3528,43.4528]]]},"properties":{"id_ffco":"2444","nom":"BRIOUDES 31-MURET","_dept":"31","numero":"1991-D31-006","commune":"MURET","echelle":"1/5000","surface":"0.32 km²","format":"A5","annee":"1991","cartographes":"J.P. LABROUSSE","proprietaire":"MP - Midi-Pyrénées","niveau":"Initiation, Scolaire","specialite":"CO à pied","latitude":"43.4485125422","longitude":"1.35249860533","valide":"Oui","ppo":"Non","type_carte":"Nouvelle carte","fond":"Ortho","obsolete":true}},{"type":"Feature","geometry":{"type":"Polygon","coordinates":[[[1.3588,43.5713],[1.354,43.5678],[1.3523,43.5646],[1.3508,43.562],[1.3501,43.5605],[1.3475,43.5603],[1.3445,43.5603],[1.3423,43.5607],[1.341,43.5619],[1.3384,43.5628],[1.3371,43.5644],[1.3379,43.5652],[1.3386,43.5666],[1.3395,43.5677],[1.3397,43.5695],[1.3399,43.57],[1.3418,43.571],[1.3433,43.5717],[1.344,43.5724],[1.3451,43.5737],[1.3463,43.5745],[1.3492,43.5751],[1.3506,43.5755],[1.3513,43.5767],[1.3523,43.578],[1.3526,43.5769],[1.3528,43.5763],[1.3545,43.5762],[1.3562,43.5764],[1.3577,43.5764],[1.3587,43.5763],[1.3588,43.5713]]]},"properties":{"id_ffco":"2443","nom":"LA RAMEE","_dept":"31","numero":"1991-D31-005","commune":"TOULOUSE","echelle":"1/10000","surface":"1.95 km²","format":"A5","annee":"1991","proprietaire":"3101","niveau":"Initiation, Scolaire","specialite":"CO à pied","latitude":"43.5684840879","longitude":"1.34822985557","valide":"Non","ppo":"Non","type_carte":"Nouvelle carte","fond":"Ortho","obsolete":true}},{"type":"Feature","geometry":{"type":"Polygon","coordinates":[[[1.2065,43.6132],[1.2057,43.6123],[1.2054,43.6116],[1.2062,43.6088],[1.2061,43.6078],[1.1993,43.603],[1.1974,43.6026],[1.1952,43.6027],[1.1936,43.6011],[1.1918,43.601],[1.1913,43.6004],[1.1914,43.599],[1.1912,43.598],[1.1903,43.5974],[1.1882,43.5971],[1.1861,43.5963],[1.1847,43.5967],[1.1831,43.5971],[1.1812,43.5971],[1.179,43.5965],[1.1773,43.5963],[1.1749,43.5964],[1.1727,43.5962],[1.1715,43.5964],[1.1705,43.5971],[1.1708,43.5984],[1.1674,43.5993],[1.1661,43.6006],[1.164,43.6039],[1.1656,43.6049],[1.1688,43.6063],[1.1718,43.6078],[1.1716,43.6092],[1.1701,43.6095],[1.1712,43.6104],[1.1736,43.6105],[1.1742,43.6112],[1.1772,43.6137],[1.1791,43.6171],[1.1774,43.6177],[1.1785,43.6184],[1.1817,43.6178],[1.1845,43.6186],[1.1837,43.6195],[1.1831,43.6205],[1.1863,43.6206],[1.1888,43.6204],[1.1903,43.6198],[1.1942,43.6177],[1.1966,43.6166],[1.2015,43.6151],[1.206,43.6136],[1.2065,43.6132]]]},"properties":{"id_ffco":"3155","nom":"BOUCONNE SAINT LOUIS","_dept":"31","numero":"1994-D31-004","commune":"LEGEVIN","echelle":"1/15000","surface":"5.64 km²","format":"A3","annee":"1994","cartographes":"Lazarowicz","proprietaire":"CSG TOULOUSE","niveau":"Interrégional","specialite":"CO à pied","latitude":"43.6075683912","longitude":"1.18572669755","valide":"Oui","ppo":"Non","type_carte":"Nouvelle carte","fond":"Ortho","obsolete":true}},{"type":"Feature","geometry":{"type":"Polygon","coordinates":[[[1.1883,43.6237],[1.1935,43.6386],[1.2079,43.644],[1.2113,43.6499],[1.223,43.6412],[1.2326,43.6338],[1.2254,43.6282],[1.2154,43.6173],[1.2062,43.6131],[1.1945,43.6169],[1.1904,43.6193],[1.1883,43.6237]]]},"properties":{"id_ffco":"793","nom":"BOUCONNE LASSERRE","_dept":"31","numero":"1978-D31-003","commune":"TOULOUSE","echelle":"1/15000","surface":"8.28 km²","format":"A4","annee":"1978","cartographes":"Lazarowicz","proprietaire":"3101","niveau":"Interrégional","specialite":"CO à pied","latitude":"43.630205026","longitude":"1.2085083032","valide":"Oui","ppo":"Non","type_carte":"Reprise","base":"1981-D31-002 BOUCONNE 31","fond":"Ortho","obsolete":true}},{"type":"Feature","geometry":{"type":"Polygon","coordinates":[[[1.2063,43.6131],[1.2051,43.6122],[1.2051,43.6115],[1.2046,43.6096],[1.2044,43.6078],[1.2039,43.6064],[1.1994,43.6031],[1.1972,43.603],[1.1943,43.6031],[1.1925,43.6015],[1.1915,43.6008],[1.1913,43.5998],[1.1911,43.5982],[1.1897,43.5975],[1.1879,43.5968],[1.1856,43.5962],[1.1842,43.5969],[1.1822,43.5971],[1.1802,43.5972],[1.1757,43.5975],[1.1739,43.598],[1.173,43.5987],[1.1717,43.5995],[1.1705,43.6001],[1.1694,43.6006],[1.1678,43.6009],[1.1658,43.601],[1.1655,43.602],[1.1655,43.6033],[1.1663,43.6041],[1.167,43.6046],[1.1684,43.6049],[1.1683,43.6059],[1.1703,43.6064],[1.1715,43.6068],[1.1727,43.6075],[1.1738,43.6097],[1.175,43.611],[1.1772,43.6127],[1.1797,43.6149],[1.1823,43.617],[1.1848,43.6183],[1.1868,43.6193],[1.1891,43.6196],[1.1913,43.6192],[1.1945,43.6175],[1.1967,43.6165],[1.2007,43.6152],[1.2063,43.6131]]]},"properties":{"id_ffco":"8610","nom":"BOUCONNE 31","_dept":"31","numero":"1981-D31-002","commune":"LEGUEVIN","echelle":"1/15000","surface":"4.95 km²","format":"A4","annee":"1981","cartographes":"HUDELO gérard","proprietaire":"31 - Haute-Garonne","niveau":"Interrégional","specialite":"CO à pied","latitude":"43.6075372438","longitude":"1.1864991815","date_saisie":"08/09/2015","valide":"Non","ppo":"Non","type_carte":"Reprise","base":"1978-D31-001 BOUCONNE ISLE JOURDAIN","fond":"Cadastre","obsolete":true}},{"type":"Feature","geometry":{"type":"Polygon","coordinates":[[[1.2062,43.6131],[1.2037,43.6143],[1.1988,43.6157],[1.1956,43.6168],[1.1924,43.619],[1.1903,43.6196],[1.1888,43.6195],[1.1849,43.6186],[1.1819,43.617],[1.1814,43.6158],[1.1816,43.6149],[1.1818,43.6142],[1.182,43.6139],[1.1819,43.6133],[1.1814,43.6127],[1.1808,43.6119],[1.18,43.611],[1.179,43.6095],[1.1777,43.6084],[1.1746,43.6072],[1.1735,43.6062],[1.1709,43.6051],[1.1686,43.6049],[1.1664,43.6042],[1.1657,43.6033],[1.1656,43.6014],[1.1672,43.6008],[1.17,43.6003],[1.1713,43.5993],[1.173,43.5985],[1.1742,43.5977],[1.1768,43.5972],[1.1815,43.5971],[1.1845,43.5966],[1.1859,43.5974],[1.1867,43.5975],[1.1878,43.5972],[1.1905,43.598],[1.1914,43.5994],[1.1939,43.6019],[1.1958,43.6027],[1.1992,43.6034],[1.2015,43.6052],[1.2045,43.607],[1.2064,43.6082],[1.2059,43.6094],[1.2051,43.6121],[1.2062,43.6131]]]},"properties":{"id_ffco":"1399","nom":"BOUCONNE ISLE JOURDAIN","_dept":"31","numero":"1978-D31-001","commune":"Lèguevin","echelle":"1/15000","surface":"4.65 km²","format":"A4","annee":"1978","proprietaire":"3101","niveau":"Interrégional","specialite":"CO à pied","latitude":"43.6073608819","longitude":"1.1874407228","valide":"Oui","ppo":"Non","type_carte":"Nouvelle carte","fond":"Ortho","obsolete":true}}]}