{"type":"FeatureCollection","features":[{"type":"Feature","geometry":{"type":"Polygon","coordinates":[[[-2.1096,48.075],[-2.106,48.0744],[-2.1053,48.0623],[-2.1264,48.0619],[-2.1274,48.0618],[-2.1282,48.0685],[-2.1357,48.0678],[-2.1384,48.0737],[-2.1301,48.0794],[-2.1232,48.0793],[-2.1219,48.0788],[-2.1226,48.0791],[-2.121,48.0785],[-2.12,48.0781],[-2.1193,48.0778],[-2.1184,48.0775],[-2.1167,48.0769],[-2.1149,48.078],[-2.1122,48.0777],[-2.1122,48.0758],[-2.1115,48.075],[-2.1098,48.0752],[-2.1096,48.075]]]},"properties":{"id_ffco":"2008-D35-88","nom":"Le Tombeau de Merlin","_dept":"35","numero":"2008-D35-88","commune":"Paimpont","echelle":"1/10000","surface":"3.54 km²","format":"A4","annee":"2008","cartographes":"orienteeringmaps.eu","proprietaire":"3502 - CLUB RENNAIS DE COURSE D'ORIENTATION","niveau":"Régional","specialite":"CO à pied","latitude":"48.07047148","longitude":"-2.12052362113","date_saisie":"19/05/2012","valide":"Non","ppo":"Non","type_carte":"Nouvelle carte","fond":"Cadastre","obsolete":false}},{"type":"Feature","geometry":{"type":"Polygon","coordinates":[[[-1.4799,48.2282],[-1.469,48.2239],[-1.46,48.2197],[-1.4499,48.2212],[-1.4507,48.2251],[-1.4524,48.2251],[-1.4526,48.2267],[-1.4534,48.227],[-1.455,48.2274],[-1.4553,48.2272],[-1.4563,48.2272],[-1.4568,48.2274],[-1.4573,48.2272],[-1.4598,48.2282],[-1.4593,48.2294],[-1.461,48.2304],[-1.4612,48.231],[-1.4608,48.2316],[-1.4597,48.232],[-1.4595,48.2324],[-1.461,48.2328],[-1.4616,48.2333],[-1.4613,48.2348],[-1.4618,48.235],[-1.4622,48.2334],[-1.4625,48.2333],[-1.4627,48.2329],[-1.4631,48.233],[-1.4635,48.2336],[-1.4642,48.234],[-1.4643,48.2348],[-1.4643,48.2355],[-1.4654,48.2359],[-1.4668,48.2359],[-1.4795,48.2284],[-1.4799,48.2282]]]},"properties":{"id_ffco":"2008-D35-87","nom":"La Martois","_dept":"35","numero":"2008-D35-87","commune":"Liffré","echelle":"1/10000","surface":"1.93 km²","format":"A4","annee":"2008","cartographes":"Beauvir Yannick, Rouiller Thomas","proprietaire":"3502 - CLUB RENNAIS DE COURSE D'ORIENTATION","niveau":"Régional","specialite":"CO à pied","latitude":"48.2271472033","longitude":"-1.46414430628","date_saisie":"19/05/2012","date_depot":"14/06/2016","valide":"Oui","ppo":"Non","type_carte":"Nouvelle carte","fond":"Cadastre","obsolete":false}},{"type":"Feature","geometry":{"type":"Polygon","coordinates":[[[-1.8453,48.4907],[-1.8462,48.4904],[-1.8472,48.4902],[-1.8497,48.4905],[-1.8502,48.4914],[-1.8507,48.492],[-1.8515,48.4924],[-1.8523,48.4924],[-1.8523,48.4933],[-1.8533,48.496],[-1.8539,48.4976],[-1.8547,48.4978],[-1.8541,48.4994],[-1.8535,48.4998],[-1.8527,48.5003],[-1.8517,48.5002],[-1.8504,48.4997],[-1.85,48.4992],[-1.8487,48.4993],[-1.8476,48.4988],[-1.8478,48.4981],[-1.8476,48.4978],[-1.8475,48.4973],[-1.8483,48.4961],[-1.8482,48.4955],[-1.8474,48.4951],[-1.8466,48.4948],[-1.8439,48.4946],[-1.8446,48.4935],[-1.8455,48.4926],[-1.8454,48.4921],[-1.8453,48.4908],[-1.8453,48.4907]]]},"properties":{"id_ffco":"2006-D35-84","nom":"Lac de Mireloup","_dept":"35","numero":"2006-D35-84","echelle":"1/5000","surface":"0.48 km²","format":"A4","annee":"2006","cartographes":"LESAFFRE Pierre-Marie","proprietaire":"3502 - CLUB RENNAIS DE COURSE D'ORIENTATION","specialite":"CO à pied","latitude":"48.4951503966","longitude":"-1.84964824004","date_saisie":"07/04/2014","valide":"Non","ppo":"Non","type_carte":"Nouvelle carte","fond":"Cadastre","obsolete":false}},{"type":"Feature","geometry":{"type":"Polygon","coordinates":[[[-1.865,48.4963],[-1.8707,48.4915],[-1.8748,48.4904],[-1.8757,48.4894],[-1.878,48.4893],[-1.8807,48.4876],[-1.8806,48.4778],[-1.8764,48.4755],[-1.8726,48.4747],[-1.8701,48.4739],[-1.8701,48.4714],[-1.8681,48.4708],[-1.8666,48.4714],[-1.8635,48.4705],[-1.8626,48.4683],[-1.8625,48.4651],[-1.8549,48.4642],[-1.8549,48.4652],[-1.8527,48.4652],[-1.853,48.4642],[-1.8507,48.4643],[-1.8489,48.4669],[-1.8509,48.4689],[-1.8504,48.4701],[-1.8438,48.4728],[-1.841,48.4741],[-1.8452,48.4799],[-1.8483,48.483],[-1.8488,48.4869],[-1.8522,48.4917],[-1.8607,48.4946],[-1.865,48.4963]]]},"properties":{"id_ffco":"2006-D35-83","nom":"Le Jardin D'Amour","_dept":"35","numero":"2006-D35-83","commune":"Combourg","echelle":"1/10000","surface":"6.25 km²","format":"A3","annee":"2006","cartographes":"PM Lesaffre, D Pradeilles, Y Beauvir","proprietaire":"3502 - CLUB RENNAIS DE COURSE D'ORIENTATION","niveau":"Régional","specialite":"CO à pied","latitude":"48.4803717134","longitude":"-1.86153018058","date_saisie":"04/12/2006","date_depot":"30/05/2007","valide":"Oui","ppo":"Non","type_carte":"Nouvelle carte","base":"1996-D35-931 Parc de Bréquigny","fond":"Cadastre","obsolete":false}},{"type":"Feature","geometry":null,"properties":{"id_ffco":"2004-D35-751","nom":"BOUESSAY","_dept":"35","numero":"2004-D35-751","surface":"None km²","annee":"2004","date_saisie":"18/06/2015","valide":"Non","ppo":"Non","obsolete":false}},{"type":"Feature","geometry":{"type":"Polygon","coordinates":[[[-1.596,48.169],[-1.5969,48.1747],[-1.5968,48.1755],[-1.595,48.1794],[-1.5918,48.1826],[-1.5897,48.1851],[-1.5612,48.1852],[-1.5614,48.1783],[-1.5712,48.1714],[-1.5719,48.1716],[-1.5772,48.1691],[-1.5791,48.1692],[-1.5804,48.1682],[-1.582,48.1677],[-1.5823,48.1691],[-1.588,48.168],[-1.5924,48.1656],[-1.5956,48.1688],[-1.596,48.169]]]},"properties":{"id_ffco":"2005-D35-75","nom":"La Loge à Rougeais","_dept":"35","numero":"2005-D35-75","commune":"Thorigné Fouillard","echelle":"1/10000","surface":"4.08 km²","format":"A4","annee":"2005","cartographes":"LESAFFRE Pierre-Marie, BEAUVIR Yannick, SERINET Michel","proprietaire":"3502 - CLUB RENNAIS DE COURSE D'ORIENTATION","latitude":"48.1771017096","longitude":"-1.58020253059","valide":"Non","ppo":"Oui","type_carte":"Nouvelle carte","fond":"Cadastre","obsolete":false}},{"type":"Feature","geometry":{"type":"Polygon","coordinates":[[[-1.531,48.233],[-1.5311,48.2343],[-1.5271,48.2348],[-1.5243,48.2351],[-1.5238,48.2347],[-1.5205,48.2332],[-1.511,48.2324],[-1.5112,48.2243],[-1.5128,48.2245],[-1.5137,48.2227],[-1.5159,48.221],[-1.5161,48.2195],[-1.5296,48.2317],[-1.531,48.233]]]},"properties":{"id_ffco":"2004-D35-74","nom":"L'Angevinais","_dept":"35","numero":"2004-D35-74","commune":"Liffrré","echelle":"1/7500","surface":"1.37 km²","format":"A4","annee":"2004","cartographes":"D Barranger, Y Beauvir","proprietaire":"3502 - CLUB RENNAIS DE COURSE D'ORIENTATION","niveau":"Régional","specialite":"CO à pied","latitude":"48.228775665","longitude":"-1.51946619013","date_saisie":"26/11/2004","date_depot":"10/12/2004","valide":"Oui","ppo":"Non","type_carte":"Nouvelle carte","fond":"Cadastre","obsolete":false}},{"type":"Feature","geometry":{"type":"Polygon","coordinates":[[[-1.5191,48.2331],[-1.5236,48.2351],[-1.5308,48.2345],[-1.5315,48.2332],[-1.5371,48.2344],[-1.54,48.2303],[-1.5427,48.2301],[-1.5445,48.2307],[-1.5453,48.2295],[-1.5475,48.2287],[-1.5485,48.2276],[-1.5491,48.2263],[-1.5512,48.2261],[-1.5518,48.2254],[-1.5509,48.2092],[-1.5288,48.2024],[-1.5278,48.2037],[-1.5281,48.2045],[-1.5277,48.2052],[-1.5285,48.2087],[-1.5296,48.2088],[-1.5321,48.2096],[-1.533,48.2106],[-1.5324,48.211],[-1.5325,48.2116],[-1.5317,48.2131],[-1.5306,48.2134],[-1.5312,48.2149],[-1.5276,48.2148],[-1.5265,48.216],[-1.5277,48.2166],[-1.5256,48.2187],[-1.5275,48.2198],[-1.5267,48.2206],[-1.5259,48.2213],[-1.5243,48.2211],[-1.5229,48.2204],[-1.5223,48.2206],[-1.5215,48.22],[-1.5197,48.2206],[-1.5167,48.2185],[-1.5158,48.219],[-1.5158,48.2214],[-1.5134,48.2244],[-1.5138,48.2327],[-1.5191,48.2331]]]},"properties":{"id_ffco":"2004-D35-73","nom":"Le Grand Bat 2","_dept":"35","numero":"2004-D35-73","commune":"Liffré","echelle":"1/10000","surface":"6.38 km²","format":"A3","annee":"2004","cartographes":"M Serinet, A Frangeul, J Baron, D Barranger, PM Lesaffre, Y Beauvir","proprietaire":"3502 - CLUB RENNAIS DE COURSE D'ORIENTATION","niveau":"National, International","specialite":"CO à pied","latitude":"48.2209553478","longitude":"-1.53431574756","date_saisie":"26/11/2004","date_depot":"10/12/2004","valide":"Non","ppo":"Non","type_carte":"Nouvelle carte","fond":"Cadastre","obsolete":false}},{"type":"Feature","geometry":{"type":"Polygon","coordinates":[[[-1.7402,48.0537],[-1.7347,48.0535],[-1.7347,48.0477],[-1.741,48.0417],[-1.7479,48.0418],[-1.7478,48.0429],[-1.7501,48.043],[-1.7499,48.0456],[-1.7456,48.0496],[-1.7465,48.0505],[-1.7462,48.0507],[-1.7402,48.0537]]]},"properties":{"id_ffco":"2003-D35-71","nom":"ker lann","_dept":"35","numero":"2003-D35-71","commune":"BRUZ","echelle":"1/5000","surface":"1.05 km²","format":"A4","annee":"2003","cartographes":"BARRANGER David","proprietaire":"35 - Ille-et-Vilaine","niveau":"Régional","specialite":"CO à pied","latitude":"48.0475215345","longitude":"-1.74176458552","date_saisie":"18/06/2015","valide":"Non","ppo":"Non","type_carte":"Nouvelle carte","fond":"Cadastre","obsolete":false}},{"type":"Feature","geometry":{"type":"Polygon","coordinates":[[[-1.1857,48.3469],[-1.1827,48.3458],[-1.1824,48.3473],[-1.185,48.3511],[-1.1874,48.351],[-1.1865,48.347],[-1.1857,48.3469]]]},"properties":{"id_ffco":"2003-D35-65","nom":"Parc des Orières","_dept":"35","numero":"2003-D35-65","commune":"FOUGERES","echelle":"1/3000","surface":"0.13 km²","format":"A4","annee":"2003","cartographes":"BARRANGER David","proprietaire":"3506 - CLUB FOUGERAIS DE COURSE D'ORIENTATION","niveau":"Initiation, Scolaire","specialite":"CO à pied","latitude":"48.3485429635","longitude":"-1.18499789726","date_saisie":"07/04/2014","valide":"Non","ppo":"Non","type_carte":"Nouvelle carte","fond":"Cadastre","obsolete":false}},{"type":"Feature","geometry":{"type":"Polygon","coordinates":[[[-1.2149,48.3654],[-1.2142,48.3658],[-1.2148,48.3667],[-1.2141,48.3669],[-1.2146,48.3679],[-1.2155,48.3675],[-1.2162,48.3673],[-1.2158,48.3667],[-1.2166,48.3665],[-1.2162,48.3652],[-1.2151,48.3654],[-1.2149,48.3654]]]},"properties":{"id_ffco":"2003-D35-63","nom":"Complexe Sportif de LECOUSSE","_dept":"35","numero":"2003-D35-63","commune":"Lécousse","echelle":"1/1200","surface":"0.03 km²","format":"A4","annee":"2003","cartographes":"BARRANGER David","proprietaire":"3506 - CLUB FOUGERAIS DE COURSE D'ORIENTATION","niveau":"Initiation, Scolaire","specialite":"CO à pied","latitude":"48.3664523975","longitude":"-1.21530601537","date_saisie":"07/04/2014","valide":"Non","ppo":"Non","type_carte":"Nouvelle carte","fond":"Cadastre","obsolete":false}},{"type":"Feature","geometry":null,"properties":{"id_ffco":"2003-D35-60","nom":"Forêt de Villecartier","_dept":"35","numero":"2003-D35-60","commune":"Autrain","echelle":"1/10000","surface":"2.94 km²","format":"A4","annee":"2003","proprietaire":"3506 - CLUB FOUGERAIS DE COURSE D'ORIENTATION","specialite":"CO à pied","latitude":"48.2292016","longitude":"-1.5300695","date_saisie":"21/11/2003","date_depot":"24/11/2003","valide":"Non","ppo":"Non","obsolete":false}},{"type":"Feature","geometry":null,"properties":{"id_ffco":"2002-D35-59","nom":"Forêt Domaniale de Fougères \"Saint François\"","_dept":"35","numero":"2002-D35-59","commune":"Fougères","echelle":"1/10000","surface":"4.48 km²","annee":"2002","proprietaire":"3506 - CLUB FOUGERAIS DE COURSE D'ORIENTATION","specialite":"CO à pied","latitude":"48.3524027","longitude":"-1.2028489","date_saisie":"19/12/2002","date_depot":"10/01/2003","valide":"Non","ppo":"Non","obsolete":false}},{"type":"Feature","geometry":null,"properties":{"id_ffco":"2002-D35-58","nom":"Forêt de VILLECARTIER ( L'Etang )","_dept":"35","numero":"2002-D35-58","commune":"Antrain","echelle":"1/10000","surface":"2.16 km²","annee":"2002","proprietaire":"3506 - CLUB FOUGERAIS DE COURSE D'ORIENTATION","specialite":"CO à pied","latitude":"48.4638655","longitude":"-1.480176","date_saisie":"19/12/2002","date_depot":"10/01/2003","valide":"Non","ppo":"Non","obsolete":false}},{"type":"Feature","geometry":null,"properties":{"id_ffco":"2002-D35-56","nom":"FORET  DOMANIALE DE FOUGERES \"Le Poulailler\"","_dept":"35","numero":"2002-D35-56","commune":"Fougères","echelle":"1/15000","surface":"4.5 km²","annee":"2002","proprietaire":"3506 - CLUB FOUGERAIS DE COURSE D'ORIENTATION","specialite":"CO à pied","latitude":"48.3524027","longitude":"-1.2028489","date_saisie":"19/12/2002","date_depot":"10/01/2003","valide":"Non","ppo":"Non","obsolete":false}},{"type":"Feature","geometry":{"type":"Polygon","coordinates":[[[-1.5509,48.1853],[-1.5511,48.1901],[-1.5693,48.1929],[-1.6033,48.1923],[-1.6076,48.1877],[-1.609,48.1795],[-1.6067,48.1776],[-1.6,48.1786],[-1.5956,48.1787],[-1.5973,48.1752],[-1.5968,48.1696],[-1.5947,48.168],[-1.5892,48.1665],[-1.5861,48.1678],[-1.5825,48.1684],[-1.5756,48.1707],[-1.5707,48.1711],[-1.5523,48.1844],[-1.5509,48.1853]]]},"properties":{"id_ffco":"2001-D35-54","nom":"La Grande Lune","_dept":"35","numero":"2001-D35-54","commune":"Liffré","echelle":"1/10000","surface":"8.57 km²","format":"A3","annee":"2001","cartographes":"BEAUVIR Yannick, SERINET Michel, ROUAULT","proprietaire":"3502 - CLUB RENNAIS DE COURSE D'ORIENTATION","niveau":"Régional","specialite":"CO à pied","latitude":"48.1821804306","longitude":"-1.58128759971","date_saisie":"07/04/2014","valide":"Non","ppo":"Non","type_carte":"Nouvelle carte","fond":"Cadastre","obsolete":false}},{"type":"Feature","geometry":{"type":"Polygon","coordinates":[[[-1.546,48.1879],[-1.5558,48.1808],[-1.5551,48.1711],[-1.5533,48.1711],[-1.5535,48.1677],[-1.5468,48.1675],[-1.5397,48.1671],[-1.5285,48.1718],[-1.5243,48.1757],[-1.5259,48.1883],[-1.5295,48.1897],[-1.5454,48.1883],[-1.546,48.1879]]]},"properties":{"id_ffco":"2000-D35-52","nom":"LES ECURES","_dept":"35","numero":"2000-D35-52","commune":"LIFFRE","echelle":"1/10000","surface":"4.63 km²","format":"A4","annee":"2000","cartographes":"FRANGEUL Alain","proprietaire":"3502 - CLUB RENNAIS DE COURSE D'ORIENTATION","niveau":"Interrégional","specialite":"CO à pied","latitude":"48.1783389389","longitude":"-1.53994948349","valide":"Non","ppo":"Non","type_carte":"Nouvelle carte","obsolete":false}},{"type":"Feature","geometry":{"type":"Polygon","coordinates":[[[-1.5711,48.1721],[-1.5764,48.1757],[-1.5818,48.1723],[-1.5839,48.1785],[-1.5668,48.1915],[-1.5578,48.1912],[-1.5525,48.1901],[-1.5466,48.1893],[-1.5625,48.1782],[-1.5711,48.1721]]]},"properties":{"id_ffco":"1999-D35-51","nom":"Le Caleuvre","_dept":"35","numero":"1999-D35-51","commune":"LIFFRE","echelle":"1/10000","surface":"2.94 km²","format":"A4","annee":"1999","cartographes":"FRANGEUL Alain, BEAUVIR Yannick","proprietaire":"3502 - CLUB RENNAIS DE COURSE D'ORIENTATION","latitude":"48.1826873908","longitude":"-1.56704897112","date_saisie":"07/04/2014","valide":"Non","ppo":"Non","type_carte":"Nouvelle carte","fond":"Cadastre","obsolete":false}},{"type":"Feature","geometry":{"type":"Polygon","coordinates":[[[-1.613,48.1834],[-1.6069,48.1775],[-1.6023,48.1793],[-1.5948,48.1797],[-1.5968,48.1757],[-1.5967,48.1692],[-1.5956,48.1683],[-1.5881,48.1684],[-1.5818,48.1725],[-1.5865,48.1878],[-1.6022,48.1938],[-1.6101,48.1857],[-1.6127,48.1838],[-1.613,48.1834]]]},"properties":{"id_ffco":"1998-D35-46","nom":"LE GRAND COIN","_dept":"35","numero":"1998-D35-46","commune":"LIFFRE","echelle":"1/10000","surface":"3.51 km²","format":"A4","annee":"1998","cartographes":"FRANGEUL Alain","proprietaire":"3502 - CLUB RENNAIS DE COURSE D'ORIENTATION","niveau":"National, International","specialite":"CO à pied","latitude":"48.1812636061","longitude":"-1.59557863277","valide":"Non","ppo":"Non","type_carte":"Nouvelle carte","fond":"Cadastre","obsolete":false}},{"type":"Feature","geometry":null,"properties":{"id_ffco":"1998-D35-45","nom":"FORET DMLE DE VILLECARTIER - 3","_dept":"35","numero":"1998-D35-45","echelle":"1/5000","surface":"1.0 km²","annee":"1998","specialite":"CO à pied","latitude":"48.2292016","longitude":"-1.5300695","valide":"Non","ppo":"Non","obsolete":false}},{"type":"Feature","geometry":null,"properties":{"id_ffco":"1997-D35-44","nom":"FORET DE HAUTE SEVE","_dept":"35","numero":"1997-D35-44","commune":"ST AUBIN DU CORMIER","echelle":"1/10000","surface":"6.5 km²","annee":"1997","proprietaire":"3506 - CLUB FOUGERAIS DE COURSE D'ORIENTATION","niveau":"Interrégional","specialite":"CO à pied","latitude":"48.2609005","longitude":"-1.3975795","valide":"Non","ppo":"Non","obsolete":false}},{"type":"Feature","geometry":null,"properties":{"id_ffco":"1998-D35-44","nom":"FORET DMLE DE VILLECARTIER - 2","_dept":"35","numero":"1998-D35-44","echelle":"1/5000","surface":"1.0 km²","annee":"1998","specialite":"CO à pied","latitude":"48.2292016","longitude":"-1.5300695","valide":"Non","ppo":"Non","obsolete":false}},{"type":"Feature","geometry":null,"properties":{"id_ffco":"1998-D35-43","nom":"FORET DMLE DE VILLECARTIER - 1","_dept":"35","numero":"1998-D35-43","echelle":"1/5000","surface":"1.0 km²","annee":"1998","specialite":"CO à pied","latitude":"48.2292016","longitude":"-1.5300695","valide":"Non","ppo":"Non","obsolete":false}},{"type":"Feature","geometry":null,"properties":{"id_ffco":"1997-D35-42","nom":"LA PIERRE DU TRESOR","_dept":"35","numero":"1997-D35-42","commune":"FOUGERES","echelle":"1/7500","surface":"1.0 km²","annee":"1997","proprietaire":"3506 - CLUB FOUGERAIS DE COURSE D'ORIENTATION","specialite":"CO à pied","latitude":"48.3524027","longitude":"-1.2028489","valide":"Non","ppo":"Non","obsolete":false}},{"type":"Feature","geometry":{"type":"Polygon","coordinates":[[[-1.154,48.4109],[-1.1561,48.4114],[-1.158,48.4113],[-1.1629,48.411],[-1.1668,48.4102],[-1.1675,48.4094],[-1.1724,48.4006],[-1.1637,48.3935],[-1.1553,48.4083],[-1.154,48.4109]]]},"properties":{"id_ffco":"2001-D35-41","nom":"LES CELLIERS","_dept":"35","numero":"2001-D35-41","commune":"Landéan","echelle":"1/7500","surface":"1.47 km²","format":"A4","annee":"2001","cartographes":"DELALANDE Joël","proprietaire":"3506 - CLUB FOUGERAIS DE COURSE D'ORIENTATION","specialite":"CO à pied","latitude":"48.4039044814","longitude":"-1.16358952874","valide":"Non","ppo":"Non","type_carte":"Nouvelle carte","fond":"Cadastre","obsolete":false}},{"type":"Feature","geometry":null,"properties":{"id_ffco":"1985-D35-40","nom":"LE CORDON DES DRUIDES","_dept":"35","numero":"1985-D35-40","commune":"FOUGERES","echelle":"1/10000","surface":"3.0 km²","annee":"1985","specialite":"CO à pied","latitude":"48.3524027","longitude":"-1.2028489","valide":"Non","ppo":"Non","obsolete":false}},{"type":"Feature","geometry":null,"properties":{"id_ffco":"1988-D35-39","nom":"VALLEE DU ROHUEL","_dept":"35","numero":"1988-D35-39","commune":"LE VERGER","echelle":"1/5000","surface":"0.3 km²","annee":"1988","proprietaire":"BR - Bretagne","specialite":"CO à pied","latitude":"48.0697122","longitude":"-1.9322653","valide":"Non","ppo":"Non","obsolete":false}},{"type":"Feature","geometry":null,"properties":{"id_ffco":"1997-D35-39","nom":"LE CHÂTEAU","_dept":"35","numero":"1997-D35-39","commune":"ST AUBIN DU CORMIER","echelle":"1/5000","surface":"1.0 km²","annee":"1997","proprietaire":"3506 - CLUB FOUGERAIS DE COURSE D'ORIENTATION","specialite":"CO à pied","latitude":"48.2609005","longitude":"-1.3975795","valide":"Non","ppo":"Non","obsolete":false}},{"type":"Feature","geometry":{"type":"Polygon","coordinates":[[[-1.652,48.1317],[-1.6522,48.1381],[-1.6508,48.1383],[-1.6506,48.1413],[-1.6449,48.1415],[-1.6443,48.1376],[-1.6421,48.1365],[-1.6387,48.136],[-1.6409,48.1344],[-1.6385,48.1336],[-1.6429,48.1304],[-1.6428,48.1297],[-1.6518,48.1275],[-1.652,48.1317]]]},"properties":{"id_ffco":"1988-D35-38","nom":"BASE DE LOISIRS DES GAYEULLES","_dept":"35","numero":"1988-D35-38","commune":"RENNES","echelle":"1/5000","surface":"1.01 km²","format":"A4","annee":"1988","cartographes":"Frangeul Alain","proprietaire":"3502 - CLUB RENNAIS DE COURSE D'ORIENTATION","niveau":"Initiation, Scolaire","specialite":"CO à pied","latitude":"48.1344499884","longitude":"-1.64686502503","valide":"Oui","ppo":"Non","type_carte":"Nouvelle carte","fond":"Cadastre","obsolete":false}},{"type":"Feature","geometry":null,"properties":{"id_ffco":"1988-D35-37","nom":"ST AUBIN DU CORMIER","_dept":"35","numero":"1988-D35-37","commune":"FOUGERES","echelle":"1/5000","surface":"0.6 km²","annee":"1988","proprietaire":"3506 - CLUB FOUGERAIS DE COURSE D'ORIENTATION","specialite":"CO à pied","latitude":"48.3524027","longitude":"-1.2028489","valide":"Non","ppo":"Non","obsolete":false}},{"type":"Feature","geometry":null,"properties":{"id_ffco":"1988-D35-36","nom":"MAISON NEUVE (LA)","_dept":"35","numero":"1988-D35-36","commune":"FOUGERES","echelle":"1/5000","surface":"1.0 km²","annee":"1988","proprietaire":"3506 - CLUB FOUGERAIS DE COURSE D'ORIENTATION","specialite":"CO à pied","latitude":"48.3524027","longitude":"-1.2028489","valide":"Non","ppo":"Non","obsolete":false}},{"type":"Feature","geometry":null,"properties":{"id_ffco":"1988-D35-35","nom":"VERRERIE (LA)","_dept":"35","numero":"1988-D35-35","commune":"FOUGERES","echelle":"1/5000","surface":"0.9 km²","annee":"1988","proprietaire":"3506 - CLUB FOUGERAIS DE COURSE D'ORIENTATION","specialite":"CO à pied","latitude":"48.3524027","longitude":"-1.2028489","valide":"Non","ppo":"Non","obsolete":false}},{"type":"Feature","geometry":null,"properties":{"id_ffco":"1988-D35-34","nom":"CORDON DES DRUIDES (LE)","_dept":"35","numero":"1988-D35-34","commune":"FOUGERES","echelle":"1/10000","surface":"4.1 km²","annee":"1988","proprietaire":"3506 - CLUB FOUGERAIS DE COURSE D'ORIENTATION","specialite":"CO à pied","latitude":"48.3524027","longitude":"-1.2028489","valide":"Non","ppo":"Non","obsolete":false}},{"type":"Feature","geometry":null,"properties":{"id_ffco":"1988-D35-33","nom":"OPPIDUM (L')","_dept":"35","numero":"1988-D35-33","commune":"FOUGERES","echelle":"1/10000","surface":"2.4 km²","annee":"1988","proprietaire":"3506 - CLUB FOUGERAIS DE COURSE D'ORIENTATION","specialite":"CO à pied","latitude":"48.3524027","longitude":"-1.2028489","valide":"Non","ppo":"Non","obsolete":false}},{"type":"Feature","geometry":{"type":"Polygon","coordinates":[[[-1.1801,48.3753],[-1.188,48.375],[-1.1906,48.3761],[-1.1981,48.374],[-1.1981,48.3796],[-1.2002,48.381],[-1.199,48.3843],[-1.1995,48.3882],[-1.1907,48.3972],[-1.1916,48.4005],[-1.1876,48.4084],[-1.1755,48.4131],[-1.17,48.4098],[-1.1665,48.4101],[-1.159,48.4114],[-1.1495,48.4129],[-1.1434,48.4098],[-1.1385,48.4111],[-1.1327,48.4095],[-1.1221,48.4044],[-1.1217,48.4015],[-1.1205,48.3968],[-1.1219,48.3931],[-1.13,48.3883],[-1.1403,48.3842],[-1.1485,48.3807],[-1.1561,48.3754],[-1.1574,48.373],[-1.1619,48.3699],[-1.1742,48.3681],[-1.1779,48.3657],[-1.1779,48.3695],[-1.1806,48.3713],[-1.1816,48.374],[-1.1801,48.3753]]]},"properties":{"id_ffco":"1974-D35-32","nom":"FOUGERES","_dept":"35","numero":"1974-D35-32","commune":"FOUGERES","echelle":"1/15000","surface":"19.58 km²","annee":"1974","proprietaire":"3506 - CLUB FOUGERAIS DE COURSE D'ORIENTATION","specialite":"CO à pied","latitude":"48.3925846752","longitude":"-1.16269928744","valide":"Non","ppo":"Oui","obsolete":false}},{"type":"Feature","geometry":null,"properties":{"id_ffco":"1982-D35-31","nom":"ST ROUX","_dept":"35","numero":"1982-D35-31","commune":"RENNES","echelle":"1/15000","surface":"8.0 km²","annee":"1982","niveau":"Interrégional","specialite":"CO à pied","latitude":"48.1117611","longitude":"-1.6802654","valide":"Non","ppo":"Non","obsolete":false}},{"type":"Feature","geometry":{"type":"Polygon","coordinates":[[[-1.4477,48.2254],[-1.4501,48.2256],[-1.4533,48.2271],[-1.4551,48.2276],[-1.4595,48.2281],[-1.4591,48.23],[-1.4606,48.2305],[-1.4613,48.2328],[-1.4624,48.2334],[-1.4628,48.233],[-1.4643,48.2363],[-1.4655,48.2365],[-1.4713,48.2332],[-1.4803,48.228],[-1.4697,48.2228],[-1.4692,48.2238],[-1.4567,48.2179],[-1.4497,48.2147],[-1.4523,48.2128],[-1.445,48.2082],[-1.4407,48.2111],[-1.431,48.2113],[-1.4309,48.2178],[-1.4296,48.2266],[-1.4303,48.2282],[-1.4325,48.228],[-1.4336,48.2282],[-1.4352,48.2289],[-1.4364,48.2292],[-1.4375,48.2294],[-1.4383,48.2288],[-1.4405,48.2286],[-1.4461,48.2297],[-1.4469,48.2303],[-1.4472,48.2296],[-1.4481,48.2291],[-1.4478,48.2283],[-1.4478,48.2265],[-1.4477,48.2254]]]},"properties":{"id_ffco":"1982-D35-29","nom":"SEVAILLES - FORET DE LIFFRE","_dept":"35","numero":"1982-D35-29","commune":"LIFFRE","echelle":"1/15000","surface":"5.3 km²","format":"A4","annee":"1982","cartographes":"Ch Delerue","proprietaire":"3502 - CLUB RENNAIS DE COURSE D'ORIENTATION","niveau":"Interrégional","specialite":"CO à pied","latitude":"48.2224712748","longitude":"-1.45052960535","valide":"Oui","ppo":"Non","type_carte":"Nouvelle carte","fond":"Cadastre","obsolete":false}},{"type":"Feature","geometry":{"type":"Polygon","coordinates":[[[-1.6576,48.1414],[-1.6605,48.1414],[-1.6623,48.1409],[-1.6656,48.1413],[-1.6718,48.1411],[-1.6719,48.1394],[-1.6734,48.1396],[-1.6743,48.1386],[-1.6756,48.1373],[-1.6772,48.1357],[-1.6798,48.1347],[-1.6799,48.1332],[-1.6802,48.1318],[-1.68,48.1306],[-1.6797,48.1293],[-1.6776,48.1303],[-1.6736,48.1313],[-1.672,48.1314],[-1.6693,48.1306],[-1.6641,48.1285],[-1.6614,48.1325],[-1.66,48.1341],[-1.6586,48.1373],[-1.6585,48.1386],[-1.6575,48.1412],[-1.6576,48.1414]]]},"properties":{"id_ffco":"2026-D35-264","nom":"LA BELANGERAIS","_dept":"35","numero":"2026-D35-264","commune":"RENNES","echelle":"1/4000","surface":"1.56 km²","format":"A4","annee":"2026","cartographes":"PORRET Thierry","proprietaire":"3502 - CLUB RENNAIS DE COURSE D'ORIENTATION","niveau":"Interrégional","specialite":"CO à pied","contacts":"crco, http://crco.fr/ // Thierry PORRET, http://crco.fr/","latitude":"48.1354432086","longitude":"-1.66834195215","date_saisie":"05/05/2026","date_depot":"05/05/2026","valide":"Non","ppo":"Non","type_carte":"Nouvelle carte","fond":"Cadastre","obsolete":false}},{"type":"Feature","geometry":{"type":"Polygon","coordinates":[[[-1.6208,48.1269],[-1.617,48.1267],[-1.6138,48.1272],[-1.6083,48.1281],[-1.6029,48.1296],[-1.5974,48.1318],[-1.5972,48.1301],[-1.5976,48.1279],[-1.5957,48.1275],[-1.5919,48.1272],[-1.59,48.1278],[-1.5883,48.1276],[-1.5861,48.1277],[-1.5849,48.1267],[-1.585,48.1249],[-1.5883,48.1237],[-1.589,48.1212],[-1.5908,48.1193],[-1.5929,48.1177],[-1.5906,48.1166],[-1.5956,48.1144],[-1.6208,48.1138],[-1.6208,48.1269]]]},"properties":{"id_ffco":"2025-D35-259","nom":"CESSON SEVIGNE","_dept":"35","numero":"2025-D35-259","commune":"CESSON SEVIGNE","echelle":"1/4000","surface":"3.66 km²","format":"+","annee":"2025","cartographes":"FLORIOT Olivier","niveau":"Interrégional","specialite":"Sprint (ISSOM)","contacts":"crco, http://crco.fr/","latitude":"48.1215570269","longitude":"-1.60473353816","date_saisie":"30/06/2025","date_depot":"30/06/2025","valide":"Non","ppo":"Non","type_carte":"Nouvelle carte","fond":"Ortho","obsolete":false}},{"type":"Feature","geometry":{"type":"Polygon","coordinates":[[[-1.6163,48.1076],[-1.6116,48.1084],[-1.6122,48.1093],[-1.6111,48.1111],[-1.6086,48.1111],[-1.6088,48.1098],[-1.6072,48.1105],[-1.6061,48.1111],[-1.6034,48.1112],[-1.6025,48.1118],[-1.6023,48.1124],[-1.5992,48.1129],[-1.5971,48.1134],[-1.5947,48.1142],[-1.5944,48.1134],[-1.5911,48.1114],[-1.5905,48.1105],[-1.5924,48.1098],[-1.5932,48.1096],[-1.5977,48.1078],[-1.5991,48.1077],[-1.6002,48.1082],[-1.6033,48.1078],[-1.6037,48.1073],[-1.604,48.1055],[-1.604,48.1046],[-1.6089,48.1029],[-1.6102,48.103],[-1.6116,48.1038],[-1.6136,48.1045],[-1.6148,48.1054],[-1.6156,48.1066],[-1.6163,48.1076]]]},"properties":{"id_ffco":"2025-D35-258","nom":"LA MONNIAIS","_dept":"35","numero":"2025-D35-258","commune":"CESSON SEVIGNE","echelle":"1/4000","surface":"1.04 km²","format":"A4","annee":"2025","cartographes":"PORRET Thierry","proprietaire":"3502 - CLUB RENNAIS DE COURSE D'ORIENTATION","niveau":"Interrégional","specialite":"CO à pied","contacts":"Thierry PORRET, http://crco.fr/","latitude":"48.1086392811","longitude":"-1.60407974479","date_saisie":"15/06/2025","date_depot":"30/06/2025","valide":"Non","ppo":"Non","type_carte":"Nouvelle carte","fond":"Ortho","obsolete":false}},{"type":"Feature","geometry":{"type":"Polygon","coordinates":[[[-1.5381,48.2343],[-1.5309,48.2327],[-1.5184,48.2214],[-1.52,48.22],[-1.5249,48.2208],[-1.5257,48.2197],[-1.5232,48.2185],[-1.5222,48.217],[-1.5175,48.2163],[-1.525,48.2159],[-1.5244,48.2144],[-1.5289,48.2134],[-1.5304,48.2113],[-1.5295,48.2097],[-1.5276,48.2029],[-1.5295,48.2008],[-1.546,48.1889],[-1.565,48.1922],[-1.5731,48.1942],[-1.5698,48.1971],[-1.5729,48.1979],[-1.5736,48.1997],[-1.5686,48.2067],[-1.5697,48.2093],[-1.564,48.2112],[-1.563,48.2092],[-1.5554,48.214],[-1.5498,48.2199],[-1.5515,48.2264],[-1.5482,48.2282],[-1.5455,48.2308],[-1.5395,48.2323],[-1.5381,48.2343]]]},"properties":{"id_ffco":"2024-D35-257","nom":"LES MAFFRAIS","_dept":"35","numero":"2024-D35-257","commune":"LIFFRE","echelle":"1/10000","surface":"11.07 km²","format":"+","annee":"2024","cartographes":"PORRET Thierry","proprietaire":"3502 - CLUB RENNAIS DE COURSE D'ORIENTATION","niveau":"Interrégional","specialite":"CO à pied","contacts":"Thierry PORRET, http://crco.fr/","latitude":"48.2097720602","longitude":"-1.54535079008","date_saisie":"15/06/2025","valide":"Non","ppo":"Non","type_carte":"Nouvelle carte","fond":"IGN","obsolete":false}},{"type":"Feature","geometry":null,"properties":{"id_ffco":"2024-D35-253","nom":"ST SULIAC","_dept":"35","numero":"2024-D35-253","commune":"Saint Suliac","echelle":"1/4000","surface":"None km²","format":"A4","annee":"2024","cartographes":"Eric BOULET, Thierry PORRET","niveau":"Régional","specialite":"Sprint (ISSOM)","date_saisie":"29/08/2024","date_depot":"29/08/2024","valide":"Non","ppo":"Non","type_carte":"Nouvelle carte","obsolete":false}},{"type":"Feature","geometry":null,"properties":{"id_ffco":"2024-D35-252","nom":"LA MADELEINE","_dept":"35","numero":"2024-D35-252","commune":"Saint Malo","echelle":"1/4000","surface":"None km²","format":"A4","annee":"2024","cartographes":"Eric BOULET, Thierry PORRET","niveau":"Régional","specialite":"Sprint (ISSOM)","date_saisie":"29/08/2024","date_depot":"29/08/2024","valide":"Non","ppo":"Non","obsolete":false}},{"type":"Feature","geometry":{"type":"Polygon","coordinates":[[[-1.4434,48.2781],[-1.4458,48.2708],[-1.4732,48.2729],[-1.4736,48.2719],[-1.4782,48.2723],[-1.4845,48.2733],[-1.4953,48.2736],[-1.4988,48.2741],[-1.4979,48.2801],[-1.494,48.2798],[-1.4935,48.285],[-1.4926,48.2852],[-1.4884,48.2847],[-1.4879,48.2842],[-1.4859,48.2841],[-1.4836,48.2839],[-1.4817,48.2835],[-1.4806,48.2844],[-1.4775,48.2857],[-1.4752,48.2852],[-1.4584,48.2814],[-1.4434,48.2781]]]},"properties":{"id_ffco":"2024-D35-250","nom":"Haute Sève Est","_dept":"35","numero":"2024-D35-250","commune":"Saint Aubin du Cormier","echelle":"1/15000","surface":"4.53 km²","format":"A4","annee":"2024","cartographes":"BOULET Eric","proprietaire":"3502 - CLUB RENNAIS DE COURSE D'ORIENTATION","niveau":"Interrégional","specialite":"CO à pied","contacts":"Thierry PORRET, http://crco.fr/","latitude":"48.2777062104","longitude":"-1.47201604055","date_saisie":"18/06/2024","date_depot":"23/06/2024","valide":"Non","ppo":"Non","type_carte":"Extrait","base":"2012-D35-143 Foret de Haute Séve","obsolete":false}},{"type":"Feature","geometry":null,"properties":{"id_ffco":"2023-D35-244","nom":"LES LONGCHAMPS","_dept":"35","numero":"2023-D35-244","surface":"None km²","annee":"2023","date_saisie":"04/07/2023","valide":"Non","ppo":"Non","obsolete":false}},{"type":"Feature","geometry":{"type":"Polygon","coordinates":[[[-1.6585,48.1386],[-1.656,48.1386],[-1.6532,48.1384],[-1.6523,48.1382],[-1.6521,48.1323],[-1.6566,48.1323],[-1.6569,48.1321],[-1.6617,48.132],[-1.6611,48.1332],[-1.6602,48.1341],[-1.6587,48.1372],[-1.6585,48.1386]]]},"properties":{"id_ffco":"2023-D35-243","nom":"La Héronnière","_dept":"35","numero":"2023-D35-243","commune":"RENNES","echelle":"1/4000","surface":"0.4 km²","format":"A4","annee":"2023","cartographes":"PORRET","proprietaire":"3502 - CLUB RENNAIS DE COURSE D'ORIENTATION","niveau":"Régional","specialite":"CO à pied","latitude":"48.1351109082","longitude":"-1.65610135207","date_saisie":"30/12/2023","date_depot":"24/04/2023","valide":"Non","ppo":"Non","type_carte":"Nouvelle carte","fond":"Cadastre","obsolete":false}},{"type":"Feature","geometry":{"type":"Polygon","coordinates":[[[-2.089,47.6548],[-2.0885,47.6548],[-2.0883,47.6546],[-2.0886,47.6529],[-2.09,47.6532],[-2.09,47.6544],[-2.0896,47.6544],[-2.0896,47.6547],[-2.089,47.6548]]]},"properties":{"id_ffco":"1990-D35-24","nom":"PARC du BEL AIR","_dept":"35","numero":"1990-D35-24","commune":"REDON","echelle":"1/1000","surface":"0.02 km²","format":"A5","annee":"1990","cartographes":"FRANGEUL Alain, RENARD Guy","proprietaire":"35 - Ille-et-Vilaine","specialite":"CO à pied","latitude":"47.6538565468","longitude":"-2.08916398173","valide":"Non","ppo":"Non","type_carte":"Nouvelle carte","fond":"Cadastre","obsolete":false}},{"type":"Feature","geometry":{"type":"Polygon","coordinates":[[[-1.6021,48.1144],[-1.6028,48.115],[-1.603,48.115],[-1.6045,48.1164],[-1.6035,48.1167],[-1.604,48.1172],[-1.6037,48.1175],[-1.6035,48.118],[-1.6019,48.1177],[-1.6013,48.1177],[-1.6006,48.1172],[-1.6005,48.1168],[-1.6005,48.1165],[-1.6006,48.1157],[-1.6011,48.1145],[-1.6021,48.1144]]]},"properties":{"id_ffco":"2022-D35-237","nom":"Parc de Champagné","_dept":"35","numero":"2022-D35-237","commune":"CESSON SEVIGNE","echelle":"1/1500","surface":"0.08 km²","format":"A4","annee":"2022","cartographes":"FLORIOT Olivier","proprietaire":"35 - Ille-et-Vilaine","niveau":"Initiation, Scolaire","specialite":"CO à pied","latitude":"48.1162798805","longitude":"-1.60220655346","date_saisie":"09/12/2022","valide":"Non","ppo":"Non","type_carte":"Nouvelle carte","fond":"Cadastre","obsolete":false}},{"type":"Feature","geometry":{"type":"Polygon","coordinates":[[[-1.8937,48.2175],[-1.8941,48.2184],[-1.8939,48.2189],[-1.8947,48.2201],[-1.8959,48.2201],[-1.8967,48.22],[-1.8974,48.22],[-1.898,48.2201],[-1.8989,48.2202],[-1.899,48.2193],[-1.8992,48.2185],[-1.8994,48.218],[-1.8997,48.2176],[-1.8997,48.2171],[-1.8962,48.2169],[-1.8956,48.2167],[-1.8951,48.2174],[-1.8946,48.2173],[-1.8941,48.217],[-1.8937,48.2175]]]},"properties":{"id_ffco":"2022-D35-236","nom":"Complexe Romillé","_dept":"35","numero":"2022-D35-236","commune":"Romillé","echelle":"1/2000","surface":"0.13 km²","format":"A4","annee":"2022","cartographes":"FLORIOT Olivier","proprietaire":"35 - Ille-et-Vilaine","niveau":"Initiation, Scolaire","specialite":"CO à pied","latitude":"48.2184741748","longitude":"-1.89669173904","date_saisie":"09/12/2022","valide":"Non","ppo":"Non","type_carte":"Nouvelle carte","fond":"Cadastre","obsolete":false}},{"type":"Feature","geometry":{"type":"Polygon","coordinates":[[[-2.0647,48.6237],[-2.0652,48.6222],[-2.0633,48.6221],[-2.0632,48.6218],[-2.0628,48.6215],[-2.0625,48.6214],[-2.0635,48.6189],[-2.0644,48.6187],[-2.0651,48.6193],[-2.0647,48.6204],[-2.0659,48.6202],[-2.0668,48.6221],[-2.0669,48.624],[-2.0647,48.6237]]]},"properties":{"id_ffco":"2022-D35-235","nom":"COMPLEXE SPORTIF DU COSEC","_dept":"35","numero":"2022-D35-235","commune":"DINARD","echelle":"1/2000","surface":"0.1 km²","format":"A4","annee":"2022","cartographes":"Karine BOULET","proprietaire":"OGEO FRANCE","niveau":"Initiation, Scolaire","specialite":"CO à pied","latitude":"48.6213786671","longitude":"-2.06485083015","date_saisie":"28/11/2022","date_depot":"28/11/2022","valide":"Non","ppo":"Non","type_carte":"Nouvelle carte","fond":"Cadastre","obsolete":false}},{"type":"Feature","geometry":{"type":"Polygon","coordinates":[[[-2.0503,48.6241],[-2.0504,48.6235],[-2.0516,48.6225],[-2.0518,48.622],[-2.0517,48.6215],[-2.0512,48.6208],[-2.0511,48.6202],[-2.0513,48.6198],[-2.0518,48.6198],[-2.0533,48.6203],[-2.0544,48.6205],[-2.0547,48.6212],[-2.0547,48.6217],[-2.0572,48.6225],[-2.0568,48.6234],[-2.0564,48.6233],[-2.0551,48.6235],[-2.055,48.6239],[-2.0561,48.6242],[-2.0553,48.6246],[-2.0546,48.6245],[-2.0535,48.6242],[-2.0531,48.6244],[-2.0527,48.6247],[-2.0503,48.6241]]]},"properties":{"id_ffco":"2022-D35-234","nom":"PARC DE PORT BRETON","_dept":"35","numero":"2022-D35-234","commune":"DINARD","echelle":"1/2000","surface":"0.15 km²","format":"A4","annee":"2022","cartographes":"Karine BOULET","proprietaire":"OGEO FRANCE","niveau":"Initiation, Scolaire","specialite":"CO à pied","latitude":"48.6225307207","longitude":"-2.0533762105","date_saisie":"28/11/2022","date_depot":"28/11/2022","valide":"Non","ppo":"Non","type_carte":"Nouvelle carte","fond":"Cadastre","obsolete":false}},{"type":"Feature","geometry":{"type":"Polygon","coordinates":[[[-1.7711,48.1545],[-1.7711,48.1527],[-1.7705,48.1521],[-1.7704,48.1514],[-1.7684,48.1515],[-1.7686,48.1522],[-1.768,48.152],[-1.7675,48.1519],[-1.7665,48.1519],[-1.7668,48.1532],[-1.7668,48.1534],[-1.767,48.1545],[-1.7677,48.1546],[-1.7686,48.1545],[-1.7711,48.1545]]]},"properties":{"id_ffco":"2022-D35-232","nom":"Complexe Sportif de PACE","_dept":"35","numero":"2022-D35-232","commune":"PACE","echelle":"1/1500","surface":"0.1 km²","format":"A4","annee":"2022","cartographes":"FLORIOT Olivier","proprietaire":"35 - Ille-et-Vilaine","niveau":"Initiation, Scolaire","specialite":"CO à pied","latitude":"48.1530955387","longitude":"-1.76891473787","date_saisie":"09/12/2022","valide":"Non","ppo":"Non","type_carte":"Reprise","base":"2011-D35-113 Complexe sportif de Pace","fond":"Cadastre","obsolete":false}},{"type":"Feature","geometry":{"type":"Polygon","coordinates":[[[-1.745,48.0333],[-1.7435,48.0328],[-1.7412,48.0327],[-1.7383,48.0326],[-1.7374,48.0316],[-1.7382,48.0311],[-1.7392,48.0307],[-1.74,48.0303],[-1.7418,48.03],[-1.7422,48.0298],[-1.7441,48.0297],[-1.7459,48.0296],[-1.746,48.0307],[-1.7465,48.0308],[-1.7472,48.0309],[-1.7457,48.0326],[-1.745,48.0333]]]},"properties":{"id_ffco":"2022-D35-231","nom":"Stade Siméon Belliard","_dept":"35","numero":"2022-D35-231","commune":"BRUZ","echelle":"1/2500","surface":"0.19 km²","format":"A4","annee":"2022","cartographes":"FLORIOT Olivier","proprietaire":"35 - Ille-et-Vilaine","niveau":"Initiation, Scolaire","specialite":"CO à pied","latitude":"48.0313989206","longitude":"-1.742565754","date_saisie":"09/12/2022","valide":"Non","ppo":"Non","type_carte":"Nouvelle carte","fond":"Cadastre","obsolete":false}},{"type":"Feature","geometry":{"type":"Polygon","coordinates":[[[-1.3943,48.2622],[-1.3942,48.2567],[-1.3909,48.2572],[-1.3887,48.2571],[-1.3879,48.26],[-1.3853,48.2598],[-1.3821,48.2598],[-1.3802,48.2597],[-1.379,48.2586],[-1.3763,48.2582],[-1.3741,48.2578],[-1.3723,48.2582],[-1.3707,48.2582],[-1.3695,48.2576],[-1.3626,48.2569],[-1.3599,48.2565],[-1.3605,48.2582],[-1.3629,48.2601],[-1.3635,48.2583],[-1.3667,48.2592],[-1.3721,48.2594],[-1.3744,48.2593],[-1.3751,48.259],[-1.3768,48.2596],[-1.377,48.2604],[-1.379,48.2608],[-1.3796,48.2605],[-1.3816,48.261],[-1.3832,48.2614],[-1.39,48.2613],[-1.3903,48.262],[-1.3943,48.2622]]]},"properties":{"id_ffco":"2022-D35-230","nom":"St AUBIN du CORMIER - Les Crêtes","_dept":"35","numero":"2022-D35-230","commune":"Saint AUBIN du CORMIER","echelle":"1/5000","surface":"0.61 km²","format":"+","annee":"2022","cartographes":"PORRET Thierry","proprietaire":"3502 - CLUB RENNAIS DE COURSE D'ORIENTATION","niveau":"Régional","specialite":"CO à pied","contacts":"Thierry PORRET, http://crco.fr/","latitude":"48.2592144407","longitude":"-1.38044574513","date_saisie":"29/09/2022","date_depot":"11/10/2022","valide":"Non","ppo":"Non","type_carte":"Reprise","base":"1997-D35-39 LE CHÂTEAU","obsolete":false}},{"type":"Feature","geometry":{"type":"Polygon","coordinates":[[[-1.5894,48.1676],[-1.5819,48.1725],[-1.5759,48.1764],[-1.5819,48.1798],[-1.5837,48.1786],[-1.5886,48.1802],[-1.591,48.1789],[-1.5928,48.1786],[-1.594,48.1776],[-1.596,48.1762],[-1.5964,48.1753],[-1.5958,48.1724],[-1.5963,48.1719],[-1.5962,48.169],[-1.594,48.1705],[-1.5894,48.1676]]]},"properties":{"id_ffco":"2022-D35-228","nom":"LA LOGE A ROUGEAIS","_dept":"35","numero":"2022-D35-228","commune":"THORIGNE FOUILLARD","echelle":"1/7500","surface":"1.25 km²","format":"A4","annee":"2022","cartographes":"FLORIOT Olivier","proprietaire":"3502 - CLUB RENNAIS DE COURSE D'ORIENTATION","niveau":"Interrégional","specialite":"CO à pied","contacts":"crco, http://crco.fr/","latitude":"48.1745041172","longitude":"-1.58767163809","date_saisie":"29/09/2022","date_depot":"11/10/2022","valide":"Non","ppo":"Non","type_carte":"Nouvelle carte","fond":"Cadastre","obsolete":false}},{"type":"Feature","geometry":{"type":"Polygon","coordinates":[[[-1.5668,48.4869],[-1.5694,48.4862],[-1.5694,48.4851],[-1.5707,48.4842],[-1.5732,48.483],[-1.5747,48.4815],[-1.5749,48.4809],[-1.5746,48.4804],[-1.5753,48.4792],[-1.5763,48.4789],[-1.5779,48.4788],[-1.5792,48.4784],[-1.5804,48.4777],[-1.5812,48.4767],[-1.5819,48.4757],[-1.5816,48.467],[-1.5782,48.4654],[-1.5767,48.4635],[-1.5747,48.4625],[-1.5719,48.4619],[-1.5671,48.4612],[-1.5631,48.4624],[-1.5572,48.4626],[-1.5579,48.4632],[-1.5702,48.4678],[-1.5644,48.4742],[-1.5549,48.4784],[-1.5545,48.4798],[-1.5593,48.4823],[-1.5668,48.4869]]]},"properties":{"id_ffco":"2022-D35-219","nom":"VILLECARTIER 2","_dept":"35","numero":"2022-D35-219","commune":"TRANS-LA-FORET","echelle":"1/10000","surface":"3.14 km²","format":"A4","annee":"2022","cartographes":"BOULET Eric","proprietaire":"3502 - CLUB RENNAIS DE COURSE D'ORIENTATION","niveau":"Interrégional","specialite":"CO à pied","contacts":"crco, http://crco.fr/","latitude":"48.4738435385","longitude":"-1.57004886576","date_saisie":"18/04/2022","date_depot":"18/04/2022","valide":"Non","ppo":"Non","type_carte":"Nouvelle carte","fond":"Ortho","obsolete":false}},{"type":"Feature","geometry":null,"properties":{"id_ffco":"1982-D35-21","nom":"BURETTE (LE)","_dept":"35","numero":"1982-D35-21","commune":"RENNES","echelle":"1/15000","surface":"7.5 km²","annee":"1982","niveau":"Interrégional","specialite":"CO à pied","latitude":"48.1117611","longitude":"-1.6802654","valide":"Non","ppo":"Non","obsolete":false}},{"type":"Feature","geometry":{"type":"Polygon","coordinates":[[[-1.198,48.3754],[-1.1964,48.3791],[-1.1992,48.3799],[-1.1995,48.3827],[-1.1988,48.3843],[-1.197,48.3841],[-1.1963,48.3854],[-1.1987,48.3861],[-1.199,48.3886],[-1.1964,48.389],[-1.1963,48.3912],[-1.1939,48.3925],[-1.194,48.3934],[-1.1911,48.3955],[-1.1889,48.3938],[-1.1885,48.3902],[-1.187,48.3889],[-1.1827,48.3835],[-1.1789,48.3784],[-1.1803,48.3745],[-1.1841,48.3743],[-1.188,48.3741],[-1.1961,48.3746],[-1.198,48.3754]]]},"properties":{"id_ffco":"2021-D35-209","nom":"L'Oppidum-Fougères","_dept":"35","numero":"2021-D35-209","commune":"FOUGERES","echelle":"1/10000","surface":"2.25 km²","format":"A4","annee":"2021","cartographes":"BOULET Eric","proprietaire":"3506 - CLUB FOUGERAIS DE COURSE D'ORIENTATION","niveau":"Interrégional","specialite":"CO à pied","latitude":"48.3825573212","longitude":"-1.19016573671","date_saisie":"19/11/2021","date_depot":"22/11/2021","valide":"Non","ppo":"Non","type_carte":"Reprise","base":"1988-D35-33 OPPIDUM (L')","fond":"Ortho","obsolete":false}},{"type":"Feature","geometry":{"type":"Polygon","coordinates":[[[-1.8449,48.0711],[-1.8443,48.0692],[-1.8444,48.0681],[-1.8452,48.068],[-1.8449,48.0665],[-1.8352,48.0664],[-1.8354,48.0667],[-1.8359,48.0674],[-1.8368,48.0688],[-1.8372,48.0697],[-1.8374,48.0706],[-1.8445,48.0711],[-1.8449,48.0711]]]},"properties":{"id_ffco":"2021-D35-201","nom":"Etang de la Biardais","_dept":"35","numero":"2021-D35-201","commune":"MORDELLES","echelle":"1/3000","surface":"0.3 km²","format":"A4","annee":"2021","cartographes":"FLORIOT Olivier","proprietaire":"3502 - CLUB RENNAIS DE COURSE D'ORIENTATION","niveau":"Initiation, Scolaire","specialite":"CO à pied","contacts":"crco, http://crco.fr/","latitude":"48.0684992397","longitude":"-1.8406268568","date_saisie":"15/02/2021","date_depot":"15/02/2021","valide":"Non","ppo":"Non","type_carte":"Nouvelle carte","fond":"Cadastre","obsolete":false}},{"type":"Feature","geometry":null,"properties":{"id_ffco":"1988-D35-20","nom":"ST BRICE EN COGLES","_dept":"35","numero":"1988-D35-20","commune":"FOUGERES","echelle":"1/5000","surface":"0.5 km²","annee":"1988","proprietaire":"3506 - CLUB FOUGERAIS DE COURSE D'ORIENTATION","specialite":"CO à pied","latitude":"48.3524027","longitude":"-1.2028489","valide":"Non","ppo":"Non","obsolete":false}},{"type":"Feature","geometry":{"type":"Polygon","coordinates":[[[-2.0815,47.6504],[-2.0827,47.6498],[-2.0844,47.6484],[-2.0872,47.649],[-2.0874,47.6492],[-2.087,47.6514],[-2.0915,47.6517],[-2.0969,47.6533],[-2.0966,47.655],[-2.0966,47.6564],[-2.0968,47.6582],[-2.0956,47.6585],[-2.094,47.6585],[-2.0929,47.6583],[-2.0911,47.658],[-2.0897,47.6573],[-2.0865,47.6553],[-2.0833,47.6552],[-2.0831,47.6541],[-2.083,47.6525],[-2.0813,47.6524],[-2.0816,47.6515],[-2.0823,47.6508],[-2.0815,47.6504]]]},"properties":{"id_ffco":"2015-D35-195","nom":"REDON","_dept":"35","numero":"2015-D35-195","commune":"REDON","echelle":"1/4000","surface":"0.71 km²","format":"A3","annee":"2015","cartographes":"Eric CHARLES, Martin MOTTET","proprietaire":"3502 - CLUB RENNAIS DE COURSE D'ORIENTATION","niveau":"Interrégional","specialite":"CO à pied","latitude":"47.6538505775","longitude":"-2.08945128809","date_saisie":"29/12/2019","date_depot":"30/12/2019","valide":"Non","ppo":"Non","type_carte":"Nouvelle carte","obsolete":false}},{"type":"Feature","geometry":{"type":"Polygon","coordinates":[[[-1.5119,48.2243],[-1.5129,48.2244],[-1.5136,48.2229],[-1.5156,48.2213],[-1.5159,48.2195],[-1.532,48.2341],[-1.5243,48.2352],[-1.5214,48.2335],[-1.5197,48.2333],[-1.516,48.233],[-1.5107,48.2322],[-1.5119,48.2243]]]},"properties":{"id_ffco":"2018-D35-191","nom":"L'Angevinais","_dept":"35","numero":"2018-D35-191","commune":"LIFFRE","echelle":"1/7500","surface":"1.34 km²","format":"A4","annee":"2018","cartographes":"FLORIOT","proprietaire":"3502 - CLUB RENNAIS DE COURSE D'ORIENTATION","niveau":"Interrégional","specialite":"CO à pied","latitude":"48.2288851367","longitude":"-1.51946484503","date_saisie":"30/12/2023","date_depot":"29/12/2022","valide":"Non","ppo":"Non","type_carte":"Reprise","base":"2004-D35-74 L'Angevinais","obsolete":false}},{"type":"Feature","geometry":{"type":"Polygon","coordinates":[[[-1.6446,48.0876],[-1.6448,48.0896],[-1.6451,48.0909],[-1.6445,48.0911],[-1.6435,48.0911],[-1.6421,48.0916],[-1.64,48.0929],[-1.6382,48.0943],[-1.6376,48.0952],[-1.6343,48.094],[-1.6344,48.0935],[-1.6331,48.0917],[-1.6333,48.089],[-1.636,48.0876],[-1.6364,48.0874],[-1.6444,48.0873],[-1.6446,48.0876]]]},"properties":{"id_ffco":"2019-D35-189","nom":"La Poterie","_dept":"35","numero":"2019-D35-189","commune":"RENNES","echelle":"1/4000","surface":"0.53 km²","format":"A4","annee":"2019","cartographes":"FLORIOT Olivier, Eric CHARLES","proprietaire":"3502 - CLUB RENNAIS DE COURSE D'ORIENTATION","niveau":"Régional","specialite":"CO à pied","contacts":"Yves Beauvir - CRCO, 3502crco@gmail.com","latitude":"48.0904809518","longitude":"-1.63858775235","date_saisie":"14/06/2019","valide":"Non","ppo":"Non","type_carte":"Nouvelle carte","fond":"Cadastre","obsolete":false}},{"type":"Feature","geometry":{"type":"Polygon","coordinates":[[[-1.7031,48.128],[-1.7039,48.1311],[-1.7041,48.1313],[-1.7032,48.1334],[-1.7029,48.1337],[-1.7026,48.134],[-1.701,48.1342],[-1.6996,48.1344],[-1.6991,48.1345],[-1.6988,48.1348],[-1.698,48.1351],[-1.6978,48.135],[-1.6968,48.1341],[-1.6961,48.1336],[-1.6958,48.1332],[-1.695,48.1316],[-1.6961,48.129],[-1.6966,48.1288],[-1.7031,48.128],[-1.7031,48.128]]]},"properties":{"id_ffco":"2019-D35-188","nom":"BEAUREGARD","_dept":"35","numero":"2019-D35-188","commune":"RENNES","echelle":"1/4000","surface":"0.38 km²","format":"A4","annee":"2019","cartographes":"FLORIOT Olivier, Eric CHARLES","proprietaire":"3502 - CLUB RENNAIS DE COURSE D'ORIENTATION","niveau":"Régional","specialite":"Sprint (ISSOM)","latitude":"48.1313644852","longitude":"-1.6996381621","date_saisie":"29/05/2019","valide":"Non","ppo":"Non","type_carte":"Nouvelle carte","fond":"Cadastre","obsolete":false}},{"type":"Feature","geometry":{"type":"Polygon","coordinates":[[[-1.5161,48.2196],[-1.5149,48.2215],[-1.5129,48.224],[-1.5129,48.2247],[-1.5115,48.2254],[-1.511,48.2331],[-1.5125,48.2327],[-1.5161,48.2336],[-1.5158,48.2344],[-1.5192,48.2348],[-1.5197,48.2337],[-1.5215,48.2339],[-1.5244,48.2356],[-1.5298,48.2346],[-1.5314,48.2329],[-1.5303,48.2323],[-1.5161,48.2196]]]},"properties":{"id_ffco":"2018-D35-185","nom":"L'ANGEVINAIS","_dept":"35","numero":"2018-D35-185","commune":"LIFFRE","echelle":"1/7500","surface":"1.44 km²","format":"A4","annee":"2018","cartographes":"FLORIOT Olivier","proprietaire":"3502 - CLUB RENNAIS DE COURSE D'ORIENTATION","niveau":"Interrégional","specialite":"CO à pied","contacts":"crco, http://crco.fr/","latitude":"48.2291270709","longitude":"-1.51948984263","date_saisie":"29/09/2022","valide":"Non","ppo":"Non","type_carte":"Reprise","base":"2004-D35-74 L'Angevinais","obsolete":false}},{"type":"Feature","geometry":{"type":"Polygon","coordinates":[[[-1.2531,48.4127],[-1.2546,48.4139],[-1.2554,48.4142],[-1.2566,48.4153],[-1.2575,48.4157],[-1.2585,48.4171],[-1.2584,48.4179],[-1.257,48.4188],[-1.2557,48.4188],[-1.2545,48.4189],[-1.2539,48.4191],[-1.2533,48.4193],[-1.2529,48.4194],[-1.2522,48.4195],[-1.2515,48.4194],[-1.2507,48.4187],[-1.2501,48.4182],[-1.25,48.4179],[-1.2504,48.4171],[-1.2498,48.4168],[-1.249,48.4169],[-1.2483,48.4162],[-1.2483,48.415],[-1.2486,48.415],[-1.2486,48.4147],[-1.2493,48.4146],[-1.2499,48.414],[-1.2521,48.4142],[-1.2532,48.414],[-1.2531,48.4127]]]},"properties":{"id_ffco":"2017-D35-183","nom":"Le Châtellier","_dept":"35","numero":"2017-D35-183","commune":"Le Châtelier","echelle":"1/4000","surface":"0.34 km²","format":"A4","annee":"2017","cartographes":"Eric CHARLES","proprietaire":"3506 - CLUB FOUGERAIS DE COURSE D'ORIENTATION","niveau":"Régional","specialite":"CO à pied","latitude":"48.4165095013","longitude":"-1.25335643518","date_saisie":"05/12/2018","valide":"Non","ppo":"Non","type_carte":"Nouvelle carte","fond":"Ortho","obsolete":false}},{"type":"Feature","geometry":null,"properties":{"id_ffco":"1988-D35-18","nom":"SS-BOIS/PARC DE BREQUIGNY","_dept":"35","numero":"1988-D35-18","commune":"RENNES","echelle":"1/2500","surface":"0.1 km²","annee":"1988","proprietaire":"56 - Morbihan","specialite":"CO à pied","latitude":"48.1117611","longitude":"-1.6802654","valide":"Non","ppo":"Non","obsolete":false}},{"type":"Feature","geometry":{"type":"Polygon","coordinates":[[[-2.0234,48.647],[-2.0231,48.6451],[-2.0247,48.6448],[-2.0277,48.6446],[-2.0296,48.6445],[-2.0299,48.6462],[-2.0303,48.6518],[-2.0271,48.6528],[-2.0249,48.6534],[-2.0202,48.6522],[-2.023,48.6489],[-2.0234,48.647]]]},"properties":{"id_ffco":"2017-D35-178","nom":"Saint malo Intra Muros","_dept":"35","numero":"2017-D35-178","commune":"St Malo","echelle":"1/4000","surface":"0.5 km²","format":"A4","annee":"2017","cartographes":"Olivier Frangeul, Yannick Beauvir","proprietaire":"3502 - CLUB RENNAIS DE COURSE D'ORIENTATION","niveau":"National, International","specialite":"CO à pied","latitude":"48.6490730387","longitude":"-2.02610448258","date_saisie":"26/10/2017","date_depot":"20/10/2017","valide":"Non","ppo":"Non","type_carte":"Nouvelle carte","fond":"Cadastre","obsolete":false}},{"type":"Feature","geometry":{"type":"Polygon","coordinates":[[[-1.6459,48.1202],[-1.6458,48.1219],[-1.6464,48.1222],[-1.647,48.1229],[-1.6424,48.1254],[-1.6412,48.1267],[-1.6401,48.1275],[-1.6395,48.1281],[-1.6378,48.1282],[-1.6358,48.1284],[-1.6354,48.1286],[-1.6331,48.1285],[-1.6333,48.1282],[-1.6326,48.1275],[-1.6333,48.1262],[-1.634,48.1257],[-1.6334,48.1249],[-1.6368,48.123],[-1.639,48.1223],[-1.6459,48.1202]]]},"properties":{"id_ffco":"2017-D35-177","nom":"Mirabeau","_dept":"35","numero":"2017-D35-177","commune":"RENNES","echelle":"1/4000","surface":"0.49 km²","format":"A4","annee":"2017","cartographes":"Eric Charles, Yannick Beauvir","proprietaire":"3502 - CLUB RENNAIS DE COURSE D'ORIENTATION","niveau":"National, International","specialite":"CO à pied","latitude":"48.1247190974","longitude":"-1.63941023268","date_saisie":"26/10/2017","date_depot":"20/10/2017","valide":"Non","ppo":"Non","type_carte":"Nouvelle carte","fond":"Ortho","obsolete":false}},{"type":"Feature","geometry":{"type":"Polygon","coordinates":[[[-1.6855,48.1178],[-1.683,48.1172],[-1.6803,48.1172],[-1.6777,48.1173],[-1.6757,48.1171],[-1.6741,48.1165],[-1.6743,48.1148],[-1.6751,48.1134],[-1.6751,48.1124],[-1.6743,48.1102],[-1.6845,48.1101],[-1.6856,48.1104],[-1.6877,48.1146],[-1.6855,48.1178]]]},"properties":{"id_ffco":"2017-D35-176","nom":"Rennes centre ville","_dept":"35","numero":"2017-D35-176","commune":"RENNES","echelle":"1/4000","surface":"0.71 km²","format":"A4","annee":"2017","proprietaire":"3502 - CLUB RENNAIS DE COURSE D'ORIENTATION","niveau":"National, International","specialite":"CO à pied","latitude":"48.1137848507","longitude":"-1.68072278193","date_saisie":"26/10/2017","date_depot":"20/10/2017","valide":"Non","ppo":"Non","type_carte":"Nouvelle carte","fond":"Ortho","obsolete":false}},{"type":"Feature","geometry":{"type":"Polygon","coordinates":[[[-1.5701,48.4889],[-1.5715,48.489],[-1.573,48.488],[-1.5741,48.4874],[-1.5756,48.4865],[-1.5767,48.485],[-1.5762,48.4839],[-1.5786,48.4826],[-1.5804,48.4817],[-1.5822,48.4807],[-1.5824,48.48],[-1.5817,48.478],[-1.5813,48.4763],[-1.5817,48.4755],[-1.5829,48.4698],[-1.5832,48.4663],[-1.5815,48.467],[-1.579,48.4658],[-1.579,48.4632],[-1.5587,48.4631],[-1.5585,48.4817],[-1.5701,48.4889]]]},"properties":{"id_ffco":"2017-D35-175","nom":"Villecartier","_dept":"35","numero":"2017-D35-175","commune":"Trans la forêt","echelle":"1/10000","surface":"4.21 km²","format":"A4","annee":"2017","cartographes":"David Barranger, Yannick Beauvir","proprietaire":"3502 - CLUB RENNAIS DE COURSE D'ORIENTATION","niveau":"National, International","specialite":"CO à pied","latitude":"48.4745086521","longitude":"-1.57009161488","date_saisie":"26/10/2017","date_depot":"20/10/2017","valide":"Non","ppo":"Non","type_carte":"Nouvelle carte","fond":"Ortho","obsolete":false}},{"type":"Feature","geometry":{"type":"Polygon","coordinates":[[[-1.6448,48.0889],[-1.647,48.0889],[-1.647,48.0897],[-1.6472,48.0898],[-1.6475,48.0899],[-1.6476,48.0899],[-1.6477,48.0901],[-1.6476,48.0901],[-1.6475,48.0911],[-1.6455,48.091],[-1.6452,48.0907],[-1.6449,48.0902],[-1.6449,48.0898],[-1.6448,48.0889]]]},"properties":{"id_ffco":"2013-D35-161","nom":"Parc des Hautes Ourmes","_dept":"35","numero":"2013-D35-161","commune":"RENNES","echelle":"1/1100","surface":"0.04 km²","format":"A4","annee":"2013","cartographes":"FLORIOT Olivier","proprietaire":"3502 - CLUB RENNAIS DE COURSE D'ORIENTATION","niveau":"Initiation, Scolaire","specialite":"CO à pied","latitude":"48.0899953157","longitude":"-1.64617140779","date_saisie":"07/04/2014","valide":"Non","ppo":"Non","type_carte":"Reprise","base":"2014-D35-80 Parc des Hautes Ourmes","fond":"Cadastre","obsolete":false}},{"type":"Feature","geometry":null,"properties":{"id_ffco":"1974-D35-16","nom":"BEAUVAIS HTE FORET","_dept":"35","numero":"1974-D35-16","commune":"PAIMPONT","echelle":"1/15000","surface":"9.0 km²","annee":"1974","proprietaire":"5601 - A.S.A. DES ECOLES DE COETQUIDAN","specialite":"CO à pied","latitude":"48.0213721","longitude":"-2.171517","valide":"Non","ppo":"Non","obsolete":false}},{"type":"Feature","geometry":{"type":"Polygon","coordinates":[[[-2.0621,48.6264],[-2.0542,48.6266],[-2.0462,48.6376],[-2.047,48.6397],[-2.0505,48.6392],[-2.0519,48.6375],[-2.0549,48.6378],[-2.0567,48.6411],[-2.0623,48.6412],[-2.062,48.6267],[-2.0621,48.6264]]]},"properties":{"id_ffco":"2014-D35-155","nom":"DINARD","_dept":"35","numero":"2014-D35-155","commune":"DINARD","echelle":"1/5000","surface":"1.34 km²","format":"A4","annee":"2014","cartographes":"Y.BEAUVIR, O.FLORIOT","proprietaire":"3502 - CLUB RENNAIS DE COURSE D'ORIENTATION","niveau":"Régional","specialite":"Sprint (ISSOM)","contacts":"Thierry PORRET, http://crco.fr/","latitude":"48.6339364139","longitude":"-2.05601550188","date_saisie":"22/12/2014","valide":"Non","ppo":"Non","type_carte":"Nouvelle carte","obsolete":false}},{"type":"Feature","geometry":{"type":"Polygon","coordinates":[[[-1.6442,48.0869],[-1.6407,48.0882],[-1.6401,48.0879],[-1.6394,48.0877],[-1.6388,48.0878],[-1.6354,48.0894],[-1.6345,48.0882],[-1.641,48.0848],[-1.6414,48.0848],[-1.6425,48.0849],[-1.6436,48.0852],[-1.6441,48.0867],[-1.6442,48.0869]]]},"properties":{"id_ffco":"2013-D35-152","nom":"Complexe André FRESNAIS","_dept":"35","numero":"2013-D35-152","commune":"RENNES","echelle":"1/2500","surface":"0.16 km²","format":"A4","annee":"2013","cartographes":"FLORIOT Olivier","proprietaire":"35 - Ille-et-Vilaine","niveau":"Initiation, Scolaire","specialite":"CO à pied","contacts":"Thierry PORRET, http://crco.fr/","latitude":"48.0869013737","longitude":"-1.63981471803","date_saisie":"30/01/2015","date_depot":"14/06/2016","valide":"Oui","ppo":"Non","type_carte":"Nouvelle carte","fond":"Cadastre","obsolete":false}},{"type":"Feature","geometry":{"type":"Polygon","coordinates":[[[-1.8031,48.0996],[-1.8028,48.1001],[-1.8022,48.1008],[-1.802,48.1011],[-1.8027,48.1014],[-1.8031,48.1018],[-1.8033,48.1022],[-1.8033,48.1026],[-1.8033,48.1029],[-1.8037,48.1028],[-1.8043,48.1025],[-1.8053,48.1035],[-1.8063,48.1032],[-1.8067,48.1034],[-1.8074,48.1031],[-1.8078,48.1033],[-1.8082,48.1033],[-1.8089,48.1036],[-1.8097,48.1037],[-1.8102,48.1039],[-1.8103,48.1036],[-1.8104,48.1032],[-1.8106,48.1029],[-1.8101,48.1026],[-1.8104,48.1017],[-1.8094,48.1014],[-1.8081,48.1012],[-1.807,48.1009],[-1.8059,48.1006],[-1.8044,48.1001],[-1.8036,48.0999],[-1.8031,48.0996]]]},"properties":{"id_ffco":"2014-D35-151","nom":"Complexe Sportif LE RHEU","_dept":"35","numero":"2014-D35-151","commune":"LE RHEU","echelle":"1/2500","surface":"0.16 km²","format":"A4","annee":"2014","cartographes":"FLORIOT Olivier","proprietaire":"35 - Ille-et-Vilaine","niveau":"Initiation, Scolaire","specialite":"CO à pied","latitude":"48.1019082422","longitude":"-1.80631081983","date_saisie":"05/09/2014","date_depot":"02/06/2016","valide":"Oui","ppo":"Non","type_carte":"Nouvelle carte","fond":"Cadastre","obsolete":false}},{"type":"Feature","geometry":{"type":"Polygon","coordinates":[[[-2.1385,48.0832],[-2.139,48.0833],[-2.1403,48.0833],[-2.1406,48.0834],[-2.1412,48.0833],[-2.1424,48.0837],[-2.1432,48.0837],[-2.1445,48.0836],[-2.1451,48.084],[-2.1452,48.0846],[-2.1465,48.0849],[-2.1482,48.0854],[-2.1495,48.0855],[-2.151,48.0857],[-2.1521,48.0859],[-2.1533,48.0856],[-2.1537,48.0866],[-2.1551,48.0864],[-2.1586,48.0861],[-2.1589,48.0855],[-2.1634,48.0813],[-2.1643,48.08],[-2.1632,48.0796],[-2.1621,48.0787],[-2.1605,48.0774],[-2.1595,48.0778],[-2.1563,48.0802],[-2.1545,48.0811],[-2.1506,48.0837],[-2.1489,48.0818],[-2.1467,48.0805],[-2.1385,48.0832]]]},"properties":{"id_ffco":"2013-D35-150","nom":"Le Bois de MELÂTRE","_dept":"35","numero":"2013-D35-150","commune":"Paimpont","echelle":"1/7500","surface":"0.79 km²","format":"A4","annee":"2013","cartographes":"CHARLES Eric","proprietaire":"3502 - CLUB RENNAIS DE COURSE D'ORIENTATION","niveau":"Régional","specialite":"CO à pied","contacts":"Thierry PORRET, http://crco.fr/","latitude":"48.0826471008","longitude":"-2.15388312163","date_saisie":"05/09/2014","valide":"Non","ppo":"Non","type_carte":"Nouvelle carte","obsolete":false}},{"type":"Feature","geometry":null,"properties":{"id_ffco":"1974-D35-15","nom":"PAIMPONT HTE FORET","_dept":"35","numero":"1974-D35-15","commune":"PAIMPONT","echelle":"1/15000","surface":"9.0 km²","annee":"1974","proprietaire":"5601 - A.S.A. DES ECOLES DE COETQUIDAN","specialite":"CO à pied","latitude":"48.0213721","longitude":"-2.171517","valide":"Non","ppo":"Non","obsolete":false}},{"type":"Feature","geometry":{"type":"Polygon","coordinates":[[[-1.7228,48.1208],[-1.7231,48.1212],[-1.7231,48.1217],[-1.7235,48.1218],[-1.7238,48.1216],[-1.7241,48.1219],[-1.724,48.122],[-1.7233,48.122],[-1.7234,48.1222],[-1.7228,48.1223],[-1.7227,48.1221],[-1.7223,48.1222],[-1.7216,48.1222],[-1.7214,48.1223],[-1.7216,48.1227],[-1.7217,48.1233],[-1.7215,48.1235],[-1.7213,48.1238],[-1.7209,48.1238],[-1.7201,48.1241],[-1.7194,48.1241],[-1.7189,48.124],[-1.7186,48.1239],[-1.7187,48.1237],[-1.7189,48.1235],[-1.719,48.1233],[-1.7192,48.123],[-1.7192,48.1228],[-1.7195,48.1224],[-1.7198,48.1221],[-1.7207,48.1217],[-1.7218,48.1211],[-1.7228,48.1208]]]},"properties":{"id_ffco":"2014-D35-149","nom":"Parc de Villejean","_dept":"35","numero":"2014-D35-149","commune":"RENNES","echelle":"1/2000","surface":"0.06 km²","format":"A4","annee":"2014","cartographes":"FLORIOT Olivier","proprietaire":"35 - Ille-et-Vilaine","niveau":"Initiation, Scolaire","specialite":"CO à pied","latitude":"48.1225516522","longitude":"-1.72100779934","date_saisie":"05/09/2014","valide":"Non","ppo":"Non","type_carte":"Nouvelle carte","fond":"Cadastre","obsolete":false}},{"type":"Feature","geometry":{"type":"Polygon","coordinates":[[[-2.034,48.0971],[-2.0353,48.0968],[-2.0367,48.0975],[-2.0371,48.0981],[-2.0374,48.0991],[-2.0379,48.0997],[-2.0372,48.1001],[-2.0363,48.1008],[-2.0357,48.1012],[-2.0334,48.1018],[-2.0336,48.1022],[-2.0333,48.1023],[-2.0335,48.103],[-2.0316,48.1033],[-2.0304,48.1032],[-2.0298,48.1031],[-2.0292,48.1023],[-2.0282,48.102],[-2.0277,48.1029],[-2.0266,48.1036],[-2.0251,48.1037],[-2.0236,48.1043],[-2.0224,48.1047],[-2.0213,48.1044],[-2.02,48.1033],[-2.02,48.1027],[-2.0226,48.1023],[-2.0216,48.0986],[-2.0259,48.098],[-2.0271,48.0985],[-2.0274,48.0997],[-2.0278,48.1003],[-2.0286,48.1003],[-2.0289,48.0998],[-2.0295,48.1001],[-2.0302,48.1003],[-2.0306,48.1002],[-2.0314,48.1004],[-2.0322,48.0999],[-2.0319,48.0985],[-2.0338,48.0972],[-2.034,48.0971]]]},"properties":{"id_ffco":"2014-D35-148","nom":"Domaine de TREMELIN","_dept":"35","numero":"2014-D35-148","echelle":"1/4000","surface":"0.57 km²","format":"A4","annee":"2014","cartographes":"BEAUVIR Yannick, FLORIOT Olivier","niveau":"Régional","specialite":"CO à pied","contacts":"Thierry PORRET, http://crco.fr/","latitude":"48.1007816835","longitude":"-2.02867696658","date_saisie":"30/01/2015","valide":"Non","ppo":"Non","type_carte":"Nouvelle carte","obsolete":false}},{"type":"Feature","geometry":{"type":"Polygon","coordinates":[[[-1.1561,48.0581],[-1.1569,48.0584],[-1.1578,48.0587],[-1.1588,48.0593],[-1.1599,48.06],[-1.1598,48.0602],[-1.1581,48.061],[-1.1561,48.0618],[-1.1541,48.0599],[-1.1533,48.0587],[-1.1559,48.0581],[-1.1561,48.0581]]]},"properties":{"id_ffco":"2012-D35-147","nom":"Complexe sportif d'ARGENTRE du PLESSIS","_dept":"35","numero":"2012-D35-147","commune":"ARGENTRE du PLESSIS","echelle":"1/2000","surface":"0.11 km²","format":"A4","annee":"2012","cartographes":"FLORIOT Olivier","proprietaire":"3502 - CLUB RENNAIS DE COURSE D'ORIENTATION","niveau":"Initiation, Scolaire","specialite":"CO à pied","contacts":"Thierry PORRET, http://crco.fr/","latitude":"48.0598116762","longitude":"-1.15649558845","date_saisie":"30/01/2015","valide":"Non","ppo":"Non","type_carte":"Nouvelle carte","obsolete":false}},{"type":"Feature","geometry":{"type":"Polygon","coordinates":[[[-1.7189,47.9833],[-1.7185,47.9832],[-1.7184,47.9844],[-1.7141,47.9841],[-1.7141,47.9833],[-1.7154,47.9816],[-1.7158,47.9823],[-1.7189,47.9823],[-1.719,47.983],[-1.7189,47.9833]]]},"properties":{"id_ffco":"2015-D35-146","nom":"Complexe sportif LAILLE","_dept":"35","numero":"2015-D35-146","commune":"LAILLE","echelle":"1/1500","surface":"0.08 km²","format":"A4","annee":"2015","cartographes":"FLORIOT Olivier","proprietaire":"3502 - CLUB RENNAIS DE COURSE D'ORIENTATION","niveau":"Initiation, Scolaire","specialite":"CO à pied","contacts":"Thierry PORRET, http://crco.fr/","latitude":"47.9832412937","longitude":"-1.71649799141","date_saisie":"30/01/2015","date_depot":"02/06/2016","valide":"Oui","ppo":"Non","type_carte":"Nouvelle carte","fond":"Cadastre","obsolete":false}},{"type":"Feature","geometry":{"type":"Polygon","coordinates":[[[-1.4344,48.2146],[-1.4257,48.2148],[-1.4253,48.2167],[-1.4232,48.217],[-1.4197,48.2169],[-1.4168,48.2162],[-1.4161,48.2151],[-1.4145,48.216],[-1.411,48.216],[-1.4118,48.2154],[-1.4098,48.2141],[-1.4101,48.2115],[-1.4065,48.2103],[-1.4027,48.21],[-1.4002,48.2128],[-1.3997,48.2155],[-1.3985,48.223],[-1.4016,48.2246],[-1.4094,48.226],[-1.4163,48.2274],[-1.419,48.2258],[-1.435,48.2234],[-1.4344,48.2146]]]},"properties":{"id_ffco":"2012-D35-144","nom":"Carrefour des Dames","_dept":"35","numero":"2012-D35-144","commune":"Liffré","echelle":"1/10000","surface":"3.24 km²","format":"A4","annee":"2012","cartographes":"david barranger, matthieu Barthelemy, jean luc chandezon, yannick beauvir","proprietaire":"3502 - CLUB RENNAIS DE COURSE D'ORIENTATION","niveau":"National, International","specialite":"CO à pied","latitude":"48.219610625","longitude":"-1.41529744388","date_saisie":"18/11/2012","date_depot":"25/07/2013","valide":"Oui","ppo":"Non","type_carte":"Nouvelle carte","fond":"Ortho","obsolete":false}},{"type":"Feature","geometry":{"type":"Polygon","coordinates":[[[-1.5124,48.2873],[-1.5081,48.2862],[-1.5049,48.2857],[-1.5023,48.2859],[-1.5009,48.2859],[-1.4989,48.2844],[-1.4963,48.285],[-1.4937,48.2847],[-1.4896,48.2848],[-1.487,48.2839],[-1.4832,48.2834],[-1.4803,48.2841],[-1.4753,48.2852],[-1.4674,48.2836],[-1.4592,48.281],[-1.4427,48.2781],[-1.4436,48.2771],[-1.4446,48.2728],[-1.4472,48.2659],[-1.4475,48.265],[-1.4568,48.2677],[-1.4741,48.2683],[-1.499,48.2713],[-1.5071,48.2727],[-1.5121,48.2721],[-1.5159,48.2739],[-1.5177,48.2782],[-1.516,48.2816],[-1.5152,48.284],[-1.5124,48.2873]]]},"properties":{"id_ffco":"2012-D35-143","nom":"Foret de Haute Séve","_dept":"35","numero":"2012-D35-143","commune":"St aubin du cormier","echelle":"1/10000","surface":"8.37 km²","format":"A4","annee":"2012","cartographes":"david barranger, matthieu Barthelemy, jean luc chandezon, eric charles","proprietaire":"3502 - CLUB RENNAIS DE COURSE D'ORIENTATION","niveau":"National, International","specialite":"CO à pied","latitude":"48.2765609411","longitude":"-1.48051928808","date_saisie":"18/11/2012","date_depot":"25/07/2013","valide":"Oui","ppo":"Non","type_carte":"Nouvelle carte","fond":"Ortho","obsolete":false}},{"type":"Feature","geometry":{"type":"Polygon","coordinates":[[[-1.6489,48.1192],[-1.637,48.1228],[-1.6334,48.1249],[-1.6329,48.1242],[-1.6329,48.1232],[-1.6328,48.1224],[-1.6314,48.12],[-1.6316,48.1191],[-1.633,48.1158],[-1.6336,48.1161],[-1.6351,48.1156],[-1.6354,48.1141],[-1.6413,48.114],[-1.6414,48.1151],[-1.6426,48.1163],[-1.6431,48.1177],[-1.644,48.1171],[-1.6454,48.1171],[-1.6475,48.1172],[-1.6489,48.1192]]]},"properties":{"id_ffco":"2011-D35-141","nom":"BEAULIEU","_dept":"35","numero":"2011-D35-141","commune":"Rennes","echelle":"1/4000","surface":"0.84 km²","format":"+","annee":"2011","cartographes":"david barranger, matthieu Barthelemy, jean luc chandezon","proprietaire":"3502 - CLUB RENNAIS DE COURSE D'ORIENTATION","niveau":"National, International","specialite":"CO à pied","contacts":"Yves Beauvir - CRCO, 3502crco@gmail.com","latitude":"48.1188128266","longitude":"-1.63854037262","date_saisie":"18/11/2012","date_depot":"25/07/2013","valide":"Oui","ppo":"Non","type_carte":"Nouvelle carte","fond":"Cadastre","obsolete":false}},{"type":"Feature","geometry":{"type":"Polygon","coordinates":[[[-1.6501,48.1341],[-1.6499,48.1311],[-1.6497,48.1279],[-1.6458,48.1289],[-1.6429,48.1297],[-1.6427,48.1304],[-1.64,48.1321],[-1.6372,48.1351],[-1.6357,48.1366],[-1.6351,48.1374],[-1.6373,48.1378],[-1.6379,48.1377],[-1.6375,48.1396],[-1.639,48.1398],[-1.6393,48.1389],[-1.6392,48.1388],[-1.6395,48.1379],[-1.6399,48.1377],[-1.6411,48.1378],[-1.6415,48.137],[-1.642,48.137],[-1.6425,48.136],[-1.6435,48.136],[-1.6442,48.1366],[-1.6442,48.1373],[-1.6453,48.1378],[-1.6452,48.1388],[-1.6458,48.1409],[-1.6504,48.1408],[-1.6507,48.1395],[-1.6507,48.1384],[-1.6508,48.1376],[-1.6501,48.1341]]]},"properties":{"id_ffco":"2012-D35-140","nom":"Les Gayeulles","_dept":"35","numero":"2012-D35-140","commune":"rennes","echelle":"1/5000","surface":"0.94 km²","format":"A4","annee":"2012","cartographes":"david barranger, matthieu Barthelemy","proprietaire":"3502 - CLUB RENNAIS DE COURSE D'ORIENTATION","niveau":"National, International","specialite":"CO à pied","contacts":"Yves Beauvir - CRCO, 3502crco@gmail.com","latitude":"48.1347056739","longitude":"-1.64481106182","date_saisie":"18/11/2012","date_depot":"25/07/2013","valide":"Oui","ppo":"Non","type_carte":"Nouvelle carte","fond":"Cadastre","obsolete":false}},{"type":"Feature","geometry":{"type":"Polygon","coordinates":[[[-1.7534,48.2164],[-1.7531,48.2166],[-1.7531,48.2167],[-1.7525,48.2168],[-1.7518,48.2169],[-1.7511,48.2167],[-1.7494,48.2166],[-1.7494,48.2164],[-1.7503,48.2154],[-1.7504,48.2147],[-1.7509,48.2145],[-1.7509,48.2142],[-1.7504,48.2141],[-1.7503,48.2138],[-1.7503,48.2136],[-1.7499,48.2127],[-1.7491,48.2119],[-1.7497,48.2118],[-1.7499,48.2119],[-1.7505,48.2118],[-1.7513,48.2119],[-1.752,48.2119],[-1.7527,48.2124],[-1.7531,48.2131],[-1.7538,48.2138],[-1.7546,48.2142],[-1.7548,48.2143],[-1.7548,48.2147],[-1.7542,48.2148],[-1.7541,48.215],[-1.7541,48.2151],[-1.7542,48.2153],[-1.7542,48.2157],[-1.7533,48.2162],[-1.7534,48.2164]]]},"properties":{"id_ffco":"2014-D35-138","nom":"Biardel La Mézière","_dept":"35","numero":"2014-D35-138","commune":"La Mézière","echelle":"1/2000","surface":"0.14 km²","format":"A4","annee":"2014","cartographes":"FLORIOT Olivier","proprietaire":"3502 - CLUB RENNAIS DE COURSE D'ORIENTATION","niveau":"Initiation, Scolaire","specialite":"CO à pied","contacts":"Thierry PORRET, http://crco.fr/","latitude":"48.2144320846","longitude":"-1.75187539472","date_saisie":"09/09/2014","valide":"Non","ppo":"Non","type_carte":"Nouvelle carte","obsolete":false}},{"type":"Feature","geometry":{"type":"Polygon","coordinates":[[[-2.1063,48.6385],[-2.1055,48.639],[-2.1041,48.6394],[-2.1026,48.6395],[-2.1017,48.639],[-2.1008,48.6389],[-2.1002,48.6385],[-2.0997,48.6377],[-2.0993,48.637],[-2.0992,48.6363],[-2.0992,48.6358],[-2.0992,48.6352],[-2.0995,48.635],[-2.0994,48.6344],[-2.1001,48.6342],[-2.1004,48.6338],[-2.1007,48.6338],[-2.1008,48.634],[-2.1013,48.6339],[-2.1015,48.6342],[-2.1019,48.6346],[-2.1023,48.6347],[-2.103,48.6347],[-2.1032,48.6351],[-2.1036,48.6356],[-2.1039,48.636],[-2.1042,48.6366],[-2.1048,48.6369],[-2.1052,48.6369],[-2.1056,48.6369],[-2.1058,48.6372],[-2.1061,48.6378],[-2.1063,48.6381],[-2.1063,48.6385]]]},"properties":{"id_ffco":"2014-D35-137","nom":"La Pointe du Nick","_dept":"35","numero":"2014-D35-137","commune":"Saint Lunaire","echelle":"1/2500","surface":"0.21 km²","format":"A4","annee":"2014","cartographes":"FLORIOT Olivier","proprietaire":"3502 - CLUB RENNAIS DE COURSE D'ORIENTATION","niveau":"Initiation, Scolaire","specialite":"CO à pied","latitude":"48.6369644311","longitude":"-2.102272666","date_saisie":"05/12/2018","valide":"Non","ppo":"Non","type_carte":"Nouvelle carte","fond":"Cadastre","obsolete":false}},{"type":"Feature","geometry":{"type":"Polygon","coordinates":[[[-1.6055,48.2574],[-1.605,48.2577],[-1.6046,48.2578],[-1.6038,48.2579],[-1.603,48.2579],[-1.6021,48.2578],[-1.6008,48.259],[-1.6009,48.2594],[-1.6024,48.2591],[-1.6028,48.259],[-1.6052,48.259],[-1.6056,48.2589],[-1.6055,48.2574]]]},"properties":{"id_ffco":"2013-D35-134","nom":"Complexe sportif de saint Aubin d'Aubigné","_dept":"35","numero":"2013-D35-134","commune":"Saint Aubin d'Aubigné","echelle":"1/1500","surface":"0.05 km²","format":"A4","annee":"2013","cartographes":"FLORIOT Olivier","proprietaire":"3502 - CLUB RENNAIS DE COURSE D'ORIENTATION","niveau":"Initiation, Scolaire","specialite":"CO à pied","latitude":"48.2584859885","longitude":"-1.60341810288","date_saisie":"03/04/2014","valide":"Non","ppo":"Non","type_carte":"Nouvelle carte","fond":"Cadastre","obsolete":false}},{"type":"Feature","geometry":{"type":"Polygon","coordinates":[[[-1.4307,47.9012],[-1.438,47.9002],[-1.438,47.9016],[-1.4397,47.903],[-1.4418,47.903],[-1.4421,47.9021],[-1.4427,47.9021],[-1.4428,47.9031],[-1.4456,47.9035],[-1.4463,47.9039],[-1.4476,47.9038],[-1.4492,47.9043],[-1.4502,47.9043],[-1.4494,47.9066],[-1.4475,47.9064],[-1.447,47.9065],[-1.4455,47.9062],[-1.4443,47.908],[-1.4432,47.9078],[-1.4421,47.9075],[-1.4409,47.9074],[-1.4391,47.9068],[-1.4374,47.9066],[-1.4365,47.906],[-1.4342,47.9061],[-1.4324,47.9057],[-1.4321,47.9058],[-1.4307,47.9012]]]},"properties":{"id_ffco":"2013-D35-133","nom":"La Pierre de Rumfort","_dept":"35","numero":"2013-D35-133","commune":"Retiers","echelle":"1/5000","surface":"0.66 km²","format":"A4","annee":"2013","cartographes":"FLORIOT Olivier","proprietaire":"35 - Ille-et-Vilaine","niveau":"Initiation, Scolaire","specialite":"CO à pied","latitude":"47.9042783615","longitude":"-1.43942601061","date_saisie":"09/09/2014","valide":"Non","ppo":"Non","type_carte":"Nouvelle carte","obsolete":false}},{"type":"Feature","geometry":{"type":"Polygon","coordinates":[[[-2.1924,48.1865],[-2.1937,48.1853],[-2.1932,48.1851],[-2.1931,48.1849],[-2.1937,48.1844],[-2.1935,48.1843],[-2.1936,48.1841],[-2.1935,48.1841],[-2.1931,48.1838],[-2.1918,48.1842],[-2.1916,48.1841],[-2.1907,48.1843],[-2.1904,48.1845],[-2.1905,48.1849],[-2.1909,48.1848],[-2.1918,48.1857],[-2.1915,48.1859],[-2.1913,48.1859],[-2.191,48.1863],[-2.1912,48.1864],[-2.191,48.1865],[-2.1916,48.1868],[-2.1918,48.1866],[-2.1921,48.1866],[-2.1924,48.1865]]]},"properties":{"id_ffco":"2011-D35-132","nom":"Parc de saint meen le grand","_dept":"35","numero":"2011-D35-132","commune":"Saint Meen le Grand","echelle":"1/1500","surface":"0.04 km²","format":"A4","annee":"2011","cartographes":"FLORIOT Olivier","proprietaire":"3502 - CLUB RENNAIS DE COURSE D'ORIENTATION","niveau":"Initiation, Scolaire","specialite":"CO à pied","latitude":"48.1851643535","longitude":"-2.19217274129","date_saisie":"03/04/2014","valide":"Non","ppo":"Non","type_carte":"Nouvelle carte","fond":"Cadastre","obsolete":false}},{"type":"Feature","geometry":{"type":"Polygon","coordinates":[[[-1.6921,48.0837],[-1.6913,48.0836],[-1.6909,48.0834],[-1.6893,48.0837],[-1.6883,48.083],[-1.6873,48.0831],[-1.686,48.0829],[-1.6853,48.0828],[-1.6844,48.0829],[-1.6843,48.0813],[-1.6821,48.0816],[-1.6818,48.0811],[-1.6825,48.0808],[-1.6826,48.0801],[-1.6886,48.08],[-1.6881,48.0817],[-1.6891,48.0817],[-1.6912,48.0823],[-1.6921,48.0833],[-1.6921,48.0837]]]},"properties":{"id_ffco":"2012-D35-131","nom":"Parc de Bréquigny","_dept":"35","numero":"2012-D35-131","commune":"RENNES","echelle":"1/2500","surface":"0.16 km²","format":"A4","annee":"2012","cartographes":"FLORIOT Olivier","proprietaire":"3502 - CLUB RENNAIS DE COURSE D'ORIENTATION","niveau":"Initiation, Scolaire","specialite":"CO à pied","latitude":"48.0817400773","longitude":"-1.68689138986","date_saisie":"07/04/2014","valide":"Non","ppo":"Non","type_carte":"Reprise","base":"1996-D35-931 Parc de Bréquigny","fond":"Cadastre","obsolete":false}},{"type":"Feature","geometry":{"type":"Polygon","coordinates":[[[-2.1937,48.1888],[-2.1938,48.1889],[-2.194,48.189],[-2.1943,48.189],[-2.1946,48.1889],[-2.195,48.1888],[-2.1953,48.1887],[-2.1958,48.1887],[-2.1962,48.1885],[-2.1968,48.1887],[-2.1982,48.1889],[-2.1977,48.1871],[-2.1949,48.1853],[-2.1938,48.1861],[-2.1932,48.1859],[-2.1935,48.1853],[-2.193,48.1849],[-2.1933,48.1845],[-2.1933,48.1844],[-2.1936,48.1842],[-2.1931,48.1839],[-2.1918,48.1844],[-2.1915,48.1841],[-2.1908,48.1843],[-2.1903,48.1846],[-2.1905,48.1849],[-2.1908,48.1848],[-2.1917,48.1857],[-2.1915,48.186],[-2.1912,48.1859],[-2.191,48.1861],[-2.1911,48.1862],[-2.1909,48.1864],[-2.1916,48.1868],[-2.1918,48.1867],[-2.192,48.1867],[-2.1925,48.1861],[-2.193,48.1859],[-2.1939,48.1864],[-2.1944,48.1866],[-2.1939,48.188],[-2.193,48.1878],[-2.1926,48.1879],[-2.1925,48.1885],[-2.193,48.1888],[-2.1939,48.1889],[-2.1937,48.1888]]]},"properties":{"id_ffco":"2011-D35-130","nom":"Complexe sportif et parc de saint meen le grand","_dept":"35","numero":"2011-D35-130","commune":"Saint-Meen-le-Grand","echelle":"1/3000","surface":"0.14 km²","format":"A4","annee":"2011","cartographes":"FLORIOT Olivier","proprietaire":"3502 - CLUB RENNAIS DE COURSE D'ORIENTATION","niveau":"Initiation, Scolaire","specialite":"CO à pied","latitude":"48.1868180569","longitude":"-2.19444876545","date_saisie":"03/04/2014","valide":"Non","ppo":"Non","type_carte":"Nouvelle carte","fond":"Cadastre","obsolete":false}},{"type":"Feature","geometry":{"type":"Polygon","coordinates":[[[-2.1982,48.1889],[-2.1976,48.1871],[-2.1949,48.1853],[-2.1937,48.1861],[-2.1937,48.1863],[-2.1945,48.1866],[-2.1939,48.1878],[-2.1928,48.1877],[-2.1924,48.1886],[-2.1934,48.1888],[-2.1941,48.1889],[-2.1946,48.1886],[-2.1958,48.1887],[-2.1961,48.1885],[-2.197,48.1887],[-2.1982,48.1889]]]},"properties":{"id_ffco":"2011-D35-129","nom":"Complexe Sportif de Saint Meen le Grand","_dept":"35","numero":"2011-D35-129","commune":"Saint Meen le Grand","echelle":"1/2500","surface":"0.09 km²","format":"A4","annee":"2011","cartographes":"FLORIOT Olivier","proprietaire":"3502 - CLUB RENNAIS DE COURSE D'ORIENTATION","niveau":"Initiation, Scolaire","specialite":"CO à pied","latitude":"48.1874999023","longitude":"-2.19544870488","date_saisie":"03/04/2014","valide":"Non","ppo":"Non","type_carte":"Nouvelle carte","fond":"Cadastre","obsolete":false}},{"type":"Feature","geometry":{"type":"Polygon","coordinates":[[[-2.0881,47.6688],[-2.086,47.6668],[-2.0876,47.666],[-2.0867,47.6649],[-2.0898,47.6638],[-2.0955,47.6634],[-2.0967,47.6648],[-2.0931,47.6666],[-2.0881,47.6688]]]},"properties":{"id_ffco":"2011-D35-128","nom":"Le bois de BAHUREL","_dept":"35","numero":"2011-D35-128","commune":"REDON","echelle":"1/3000","surface":"0.26 km²","format":"A4","annee":"2011","cartographes":"FLORIOT Olivier","proprietaire":"35 - Ille-et-Vilaine","latitude":"47.6656360517","longitude":"-2.09093005043","date_saisie":"07/04/2014","valide":"Non","ppo":"Non","type_carte":"Reprise","base":"1998-D35-48 Bois de Bahurel","fond":"Cadastre","obsolete":false}},{"type":"Feature","geometry":{"type":"Polygon","coordinates":[[[-1.7091,48.0477],[-1.709,48.0474],[-1.7084,48.0474],[-1.7081,48.047],[-1.7069,48.047],[-1.7069,48.0464],[-1.7063,48.0461],[-1.7059,48.0451],[-1.7043,48.0449],[-1.7035,48.045],[-1.7003,48.045],[-1.7005,48.0452],[-1.7053,48.0475],[-1.7072,48.0483],[-1.7078,48.0483],[-1.7091,48.0477]]]},"properties":{"id_ffco":"2014-D35-127","nom":"Complexe Remy BERRANGER","_dept":"35","numero":"2014-D35-127","commune":"Chartes de Bretagne","echelle":"1/2000","surface":"0.1 km²","format":"A4","annee":"2014","cartographes":"FLORIOT Olivier","proprietaire":"3502 - CLUB RENNAIS DE COURSE D'ORIENTATION","niveau":"Initiation, Scolaire","specialite":"CO à pied","latitude":"48.0464139083","longitude":"-1.70503639449","date_saisie":"03/04/2014","valide":"Non","ppo":"Non","type_carte":"Nouvelle carte","fond":"Cadastre","obsolete":false}},{"type":"Feature","geometry":{"type":"Polygon","coordinates":[[[-1.7038,48.0342],[-1.7042,48.0342],[-1.7049,48.0342],[-1.706,48.0339],[-1.7061,48.0333],[-1.7072,48.0334],[-1.7071,48.0325],[-1.7076,48.032],[-1.7073,48.032],[-1.707,48.0314],[-1.7055,48.0314],[-1.7048,48.0311],[-1.7038,48.0311],[-1.7031,48.0309],[-1.7021,48.0323],[-1.7019,48.0328],[-1.7024,48.0332],[-1.7025,48.034],[-1.7033,48.0339],[-1.7038,48.0342]]]},"properties":{"id_ffco":"2013-D35-125","nom":"Parc des loisirs de Chartres de Bretagne","_dept":"35","numero":"2013-D35-125","commune":"CHARTRES DE BRETAGNE","echelle":"1/2000","surface":"0.11 km²","format":"A4","annee":"2013","cartographes":"FLORIOT Olivier","proprietaire":"3502 - CLUB RENNAIS DE COURSE D'ORIENTATION","niveau":"Initiation, Scolaire","specialite":"CO à pied","latitude":"48.032588366","longitude":"-1.70459574669","date_saisie":"03/04/2014","valide":"Non","ppo":"Non","type_carte":"Nouvelle carte","fond":"Cadastre","obsolete":false}},{"type":"Feature","geometry":{"type":"Polygon","coordinates":[[[-1.6109,48.0431],[-1.6102,48.0445],[-1.6117,48.0445],[-1.612,48.0439],[-1.6125,48.0434],[-1.6121,48.0427],[-1.6122,48.0417],[-1.6138,48.0418],[-1.6132,48.0414],[-1.6132,48.0409],[-1.6133,48.0404],[-1.6127,48.0396],[-1.6116,48.039],[-1.6108,48.0385],[-1.6102,48.0376],[-1.6103,48.037],[-1.6096,48.0362],[-1.6094,48.0356],[-1.6089,48.0357],[-1.6068,48.0357],[-1.6068,48.0366],[-1.6054,48.0369],[-1.6052,48.0375],[-1.6029,48.0377],[-1.6029,48.0379],[-1.6068,48.0428],[-1.6073,48.043],[-1.6077,48.0429],[-1.6086,48.0429],[-1.6109,48.0431]]]},"properties":{"id_ffco":"2011-D35-124","nom":"La Vallée de la Seiche","_dept":"35","numero":"2011-D35-124","commune":"Vern sur Seiche","echelle":"1/4000","surface":"0.41 km²","format":"A4","annee":"2011","cartographes":"FLORIOT Olivier","proprietaire":"3502 - CLUB RENNAIS DE COURSE D'ORIENTATION","niveau":"Initiation, Scolaire","specialite":"CO à pied","latitude":"48.0398423678","longitude":"-1.60852131182","date_saisie":"03/04/2014","valide":"Non","ppo":"Non","type_carte":"Nouvelle carte","fond":"Cadastre","obsolete":false}},{"type":"Feature","geometry":{"type":"Polygon","coordinates":[[[-1.7518,48.5438],[-1.7518,48.5442],[-1.7524,48.5448],[-1.7531,48.5452],[-1.7569,48.544],[-1.7574,48.5437],[-1.7563,48.542],[-1.7555,48.5413],[-1.7554,48.5409],[-1.7554,48.5406],[-1.7556,48.5405],[-1.7557,48.54],[-1.7558,48.5399],[-1.7557,48.5395],[-1.7555,48.5394],[-1.7554,48.5395],[-1.7556,48.5391],[-1.7556,48.5388],[-1.7554,48.5386],[-1.7549,48.5387],[-1.7546,48.5385],[-1.7538,48.5383],[-1.7537,48.5381],[-1.7529,48.5378],[-1.7528,48.5377],[-1.7525,48.5377],[-1.7523,48.5381],[-1.7522,48.5383],[-1.7521,48.5387],[-1.7521,48.5386],[-1.7521,48.5388],[-1.7518,48.5393],[-1.7528,48.5394],[-1.7533,48.5396],[-1.7535,48.54],[-1.7535,48.5404],[-1.7532,48.5422],[-1.753,48.5425],[-1.7518,48.5438]]]},"properties":{"id_ffco":"2011-D35-115","nom":"La Vallée de l'Abbaye","_dept":"35","numero":"2011-D35-115","commune":"Dol de Bretagne","echelle":"1/3000","surface":"0.18 km²","format":"A4","annee":"2011","cartographes":"BEAUVIR Yannick","proprietaire":"3502 - CLUB RENNAIS DE COURSE D'ORIENTATION","niveau":"Initiation, Scolaire","specialite":"CO à pied","latitude":"48.5418556199","longitude":"-1.7542916267","date_saisie":"09/09/2014","valide":"Non","ppo":"Non","type_carte":"Nouvelle carte","obsolete":false}},{"type":"Feature","geometry":{"type":"Polygon","coordinates":[[[-1.7644,48.5435],[-1.7673,48.543],[-1.7675,48.5429],[-1.7673,48.5426],[-1.7661,48.5415],[-1.7655,48.5401],[-1.7633,48.5411],[-1.7642,48.5434],[-1.7644,48.5435]]]},"properties":{"id_ffco":"2011-D35-114","nom":"Complexe Sportif de Dol de Bretagne","_dept":"35","numero":"2011-D35-114","commune":"Dol de Bretagne","echelle":"1/1500","surface":"0.06 km²","format":"A4","annee":"2011","cartographes":"FLORIOT Olivier","proprietaire":"3502 - CLUB RENNAIS DE COURSE D'ORIENTATION","niveau":"Initiation, Scolaire","specialite":"CO à pied","contacts":"Thierry PORRET, http://crco.fr/","latitude":"48.5420081148","longitude":"-1.76519861667","date_saisie":"09/09/2014","valide":"Non","ppo":"Non","type_carte":"Nouvelle carte","obsolete":false}},{"type":"Feature","geometry":{"type":"Polygon","coordinates":[[[-1.558,48.212],[-1.5592,48.2117],[-1.5606,48.2126],[-1.5621,48.2111],[-1.5602,48.2088],[-1.5695,48.2045],[-1.5731,48.2002],[-1.5717,48.1968],[-1.57,48.1966],[-1.5717,48.1952],[-1.5642,48.1928],[-1.5625,48.1927],[-1.5577,48.1943],[-1.5561,48.1928],[-1.5534,48.1934],[-1.5527,48.1916],[-1.5491,48.19],[-1.5475,48.1905],[-1.546,48.1891],[-1.545,48.2114],[-1.5515,48.2109],[-1.5537,48.2101],[-1.5571,48.2109],[-1.558,48.212]]]},"properties":{"id_ffco":"2012-D35-112","nom":"Les Maffrais","_dept":"35","numero":"2012-D35-112","commune":"LIFFRE","echelle":"1/10000","surface":"3.55 km²","format":"A4","annee":"2012","cartographes":"CHARLES Eric","proprietaire":"3502 - CLUB RENNAIS DE COURSE D'ORIENTATION","niveau":"Régional","specialite":"CO à pied","latitude":"48.2010874029","longitude":"-1.55691801329","valide":"Non","ppo":"Non","type_carte":"Reprise","base":"2000-D35-921 Les MAFFRAIS","obsolete":false}},{"type":"Feature","geometry":{"type":"Polygon","coordinates":[[[-1.7779,48.1598],[-1.779,48.1595],[-1.7785,48.1591],[-1.7789,48.1587],[-1.7816,48.1578],[-1.7811,48.1575],[-1.7815,48.1573],[-1.7813,48.157],[-1.7819,48.1566],[-1.7814,48.156],[-1.7816,48.1557],[-1.7819,48.1551],[-1.7805,48.1542],[-1.7808,48.154],[-1.7835,48.1538],[-1.7826,48.1526],[-1.7825,48.1525],[-1.7809,48.1527],[-1.7806,48.1522],[-1.78,48.1523],[-1.7797,48.1521],[-1.7785,48.1523],[-1.7784,48.152],[-1.778,48.1517],[-1.7769,48.1518],[-1.7775,48.1524],[-1.7774,48.1532],[-1.7774,48.154],[-1.7773,48.1555],[-1.7771,48.1558],[-1.7765,48.1558],[-1.7768,48.1563],[-1.7767,48.1568],[-1.7762,48.158],[-1.7767,48.1581],[-1.777,48.1588],[-1.7772,48.1591],[-1.7777,48.1593],[-1.7779,48.1598]]]},"properties":{"id_ffco":"2011-D35-111","nom":"Le pont Amelin 2","_dept":"35","numero":"2011-D35-111","commune":"PACE","echelle":"1/3000","surface":"0.26 km²","format":"A4","annee":"2011","cartographes":"FLORIOT Olivier","proprietaire":"3502 - CLUB RENNAIS DE COURSE D'ORIENTATION","niveau":"Initiation, Scolaire","specialite":"CO à pied","latitude":"48.1554658779","longitude":"-1.77928469865","date_saisie":"03/04/2014","date_depot":"14/06/2016","valide":"Oui","ppo":"Non","type_carte":"Nouvelle carte","fond":"Cadastre","obsolete":false}},{"type":"Feature","geometry":{"type":"Polygon","coordinates":[[[-1.7778,48.159],[-1.7787,48.1588],[-1.779,48.1586],[-1.7804,48.1582],[-1.7811,48.158],[-1.7815,48.1578],[-1.7816,48.1577],[-1.7813,48.1575],[-1.7815,48.1573],[-1.7813,48.1569],[-1.7816,48.1568],[-1.7819,48.1567],[-1.7819,48.1565],[-1.7815,48.1563],[-1.7814,48.1559],[-1.7816,48.1558],[-1.7814,48.1556],[-1.781,48.1555],[-1.7808,48.1557],[-1.7802,48.1557],[-1.7799,48.1555],[-1.7796,48.1555],[-1.7793,48.1555],[-1.7791,48.1553],[-1.7788,48.1553],[-1.7787,48.1551],[-1.7781,48.1551],[-1.7777,48.1551],[-1.7766,48.156],[-1.7769,48.1563],[-1.7768,48.1568],[-1.7764,48.1575],[-1.7761,48.158],[-1.7767,48.1581],[-1.777,48.1588],[-1.7778,48.159]]]},"properties":{"id_ffco":"2011-D35-110","nom":"Bois de Champagne","_dept":"35","numero":"2011-D35-110","commune":"Pacé","echelle":"1/2500","surface":"0.12 km²","format":"A4","annee":"2011","cartographes":"FLORIOT Olivier","proprietaire":"35 - Ille-et-Vilaine","niveau":"Initiation, Scolaire","specialite":"CO à pied","contacts":"Thierry PORRET, http://crco.fr/","latitude":"48.1569889038","longitude":"-1.77890151578","date_saisie":"09/09/2014","date_depot":"14/06/2016","valide":"Oui","ppo":"Non","type_carte":"Nouvelle carte","fond":"Cadastre","obsolete":false}},{"type":"Feature","geometry":null,"properties":{"id_ffco":"1982-D35-11","nom":"BEDFER","_dept":"35","numero":"1982-D35-11","commune":"RENNES","echelle":"1/15000","surface":"8.0 km²","annee":"1982","proprietaire":"3502 - CLUB RENNAIS DE COURSE D'ORIENTATION","niveau":"Interrégional","specialite":"CO à pied","latitude":"48.1117611","longitude":"-1.6802654","valide":"Non","ppo":"Non","obsolete":false}},{"type":"Feature","geometry":{"type":"Polygon","coordinates":[[[-1.1791,48.0873],[-1.1789,48.0876],[-1.1775,48.0874],[-1.1772,48.088],[-1.1692,48.0866],[-1.1694,48.0858],[-1.1691,48.0854],[-1.1695,48.0853],[-1.1711,48.0818],[-1.1701,48.0811],[-1.1702,48.0809],[-1.1707,48.0809],[-1.1708,48.0807],[-1.1705,48.0805],[-1.1705,48.0801],[-1.1717,48.0811],[-1.172,48.081],[-1.1791,48.0873]]]},"properties":{"id_ffco":"2011-D35-109","nom":"Le Bois des Rochers","_dept":"35","numero":"2011-D35-109","commune":"Vitré","echelle":"1/4000","surface":"0.3 km²","format":"A4","annee":"2011","cartographes":"FLORIOT Olivier","proprietaire":"35 - Ille-et-Vilaine","niveau":"Initiation, Scolaire","specialite":"CO à pied","latitude":"48.0850163739","longitude":"-1.17332878266","date_saisie":"09/09/2014","date_depot":"14/06/2016","valide":"Oui","ppo":"Non","type_carte":"Nouvelle carte","fond":"Cadastre","obsolete":false}},{"type":"Feature","geometry":{"type":"Polygon","coordinates":[[[-1.1996,48.1102],[-1.1993,48.1106],[-1.1991,48.1121],[-1.1974,48.1117],[-1.1965,48.1118],[-1.1959,48.1118],[-1.1957,48.1122],[-1.195,48.112],[-1.1946,48.1117],[-1.1912,48.1107],[-1.1904,48.1097],[-1.1907,48.1093],[-1.1894,48.1082],[-1.1906,48.1076],[-1.1908,48.1077],[-1.1917,48.1069],[-1.193,48.1076],[-1.1932,48.1078],[-1.1927,48.1073],[-1.1929,48.1072],[-1.1934,48.107],[-1.1942,48.1066],[-1.1966,48.1067],[-1.1969,48.1072],[-1.1968,48.1074],[-1.1972,48.1076],[-1.1985,48.1094],[-1.1996,48.1102]]]},"properties":{"id_ffco":"2010-D35-108","nom":"Hippodrome de Vitré","_dept":"35","numero":"2010-D35-108","commune":"Vitré","echelle":"1/3000","surface":"0.3 km²","format":"A4","annee":"2010","cartographes":"FLORIOT Olivier","proprietaire":"35 - Ille-et-Vilaine","niveau":"Initiation, Scolaire","specialite":"CO à pied","latitude":"48.1093715218","longitude":"-1.1947510593","date_saisie":"09/09/2014","date_depot":"14/06/2016","valide":"Non","ppo":"Non","type_carte":"Nouvelle carte","obsolete":false}},{"type":"Feature","geometry":{"type":"Polygon","coordinates":[[[-1.21,48.1168],[-1.2048,48.1164],[-1.2049,48.1178],[-1.2066,48.1179],[-1.2067,48.1181],[-1.2099,48.1183],[-1.21,48.1168]]]},"properties":{"id_ffco":"2010-D35-107","nom":"Jardin du Parc","_dept":"35","numero":"2010-D35-107","commune":"Vitré","echelle":"1/1500","surface":"0.06 km²","format":"A4","annee":"2010","cartographes":"FLORIOT Olivier","proprietaire":"35 - Ille-et-Vilaine","niveau":"Initiation, Scolaire","specialite":"CO à pied","latitude":"48.1173264542","longitude":"-1.20742879712","date_saisie":"09/09/2014","date_depot":"02/06/2016","valide":"Oui","ppo":"Non","type_carte":"Nouvelle carte","fond":"Cadastre","obsolete":false}},{"type":"Feature","geometry":{"type":"Polygon","coordinates":[[[-1.5291,48.1191],[-1.529,48.1208],[-1.5281,48.1209],[-1.5269,48.1211],[-1.5254,48.121],[-1.5241,48.1209],[-1.5227,48.1205],[-1.5222,48.1203],[-1.5223,48.12],[-1.5221,48.1198],[-1.5219,48.1194],[-1.5221,48.1183],[-1.5289,48.1191],[-1.5291,48.1191]]]},"properties":{"id_ffco":"2010-D35-106","nom":"Base de loisir du Chêne Joli","_dept":"35","numero":"2010-D35-106","commune":"NOYAL-SUR-VILAINE","echelle":"1/2000","surface":"0.13 km²","format":"A4","annee":"2010","cartographes":"FLORIOT Olivier","proprietaire":"3502 - CLUB RENNAIS DE COURSE D'ORIENTATION","niveau":"Initiation, Scolaire","specialite":"CO à pied","latitude":"48.1197850328","longitude":"-1.52547506508","date_saisie":"03/04/2014","date_depot":"02/06/2016","valide":"Oui","ppo":"Non","type_carte":"Nouvelle carte","fond":"Cadastre","obsolete":false}},{"type":"Feature","geometry":{"type":"Polygon","coordinates":[[[-1.2116,48.1174],[-1.2115,48.118],[-1.2116,48.1186],[-1.2127,48.1187],[-1.2137,48.1188],[-1.2141,48.1187],[-1.2165,48.1189],[-1.2166,48.118],[-1.2146,48.1179],[-1.2142,48.1178],[-1.2146,48.1175],[-1.2116,48.1174]]]},"properties":{"id_ffco":"2010-D35-104","nom":"Complexe Sportif des Promenades","_dept":"35","numero":"2010-D35-104","commune":"Vitré","echelle":"1/1500","surface":"0.05 km²","format":"A4","annee":"2010","cartographes":"FLORIOT Olivier","proprietaire":"35 - Ille-et-Vilaine","niveau":"Initiation, Scolaire","specialite":"CO à pied","latitude":"48.1181808584","longitude":"-1.21386470391","date_saisie":"09/09/2014","date_depot":"02/06/2016","valide":"Oui","ppo":"Non","type_carte":"Nouvelle carte","fond":"Cadastre","obsolete":false}},{"type":"Feature","geometry":{"type":"Polygon","coordinates":[[[-1.5326,48.1125],[-1.5332,48.1126],[-1.5349,48.1126],[-1.5349,48.1135],[-1.5351,48.1142],[-1.5351,48.1146],[-1.5349,48.1151],[-1.5346,48.1157],[-1.5346,48.1164],[-1.5348,48.1168],[-1.5353,48.1173],[-1.5349,48.1173],[-1.5341,48.1172],[-1.5329,48.1171],[-1.5324,48.1171],[-1.5324,48.1169],[-1.5322,48.1168],[-1.5321,48.1164],[-1.5321,48.1155],[-1.5321,48.1149],[-1.5323,48.1142],[-1.5324,48.1135],[-1.5326,48.1126],[-1.5326,48.1125]]]},"properties":{"id_ffco":"2010-D35-103","nom":"Collège Jacques BREL","_dept":"35","numero":"2010-D35-103","commune":"NOYAL-SUR-VILAINE","echelle":"1/2000","surface":"0.1 km²","format":"A4","annee":"2010","cartographes":"FLORIOT Olivier","proprietaire":"3502 - CLUB RENNAIS DE COURSE D'ORIENTATION","niveau":"Initiation, Scolaire","specialite":"CO à pied","latitude":"48.1149026683","longitude":"-1.53357879363","date_saisie":"03/04/2014","date_depot":"02/06/2016","valide":"Oui","ppo":"Non","type_carte":"Nouvelle carte","fond":"Cadastre","obsolete":false}},{"type":"Feature","geometry":{"type":"Polygon","coordinates":[[[-1.6496,48.1795],[-1.6498,48.1778],[-1.6502,48.1769],[-1.6516,48.1773],[-1.6511,48.1768],[-1.6513,48.1764],[-1.6514,48.1761],[-1.6511,48.1758],[-1.6505,48.1754],[-1.6493,48.1754],[-1.6491,48.1764],[-1.6481,48.1763],[-1.6481,48.1766],[-1.6469,48.1764],[-1.6466,48.1767],[-1.6459,48.1789],[-1.6496,48.1795]]]},"properties":{"id_ffco":"2010-D35-102","nom":"Collège François TRUFFAUT","_dept":"35","numero":"2010-D35-102","commune":"Betton","echelle":"1/2000","surface":"0.1 km²","format":"A4","annee":"2010","cartographes":"FLORIOT Olivier","proprietaire":"3502 - CLUB RENNAIS DE COURSE D'ORIENTATION","niveau":"Initiation, Scolaire","specialite":"CO à pied","latitude":"48.1774845721","longitude":"-1.64859932941","date_saisie":"03/04/2014","date_depot":"02/06/2016","valide":"Oui","ppo":"Non","type_carte":"Nouvelle carte","fond":"Cadastre","obsolete":false}},{"type":"Feature","geometry":{"type":"Polygon","coordinates":[[[-1.6034,48.1078],[-1.5989,48.1085],[-1.5991,48.1092],[-1.5981,48.1091],[-1.598,48.1095],[-1.5983,48.1102],[-1.5994,48.1104],[-1.5997,48.1107],[-1.5999,48.111],[-1.6006,48.1113],[-1.601,48.1114],[-1.6015,48.1113],[-1.6022,48.1111],[-1.6035,48.1079],[-1.6034,48.1078]]]},"properties":{"id_ffco":"2010-D35-101","nom":"Parc de la Monniais","_dept":"35","numero":"2010-D35-101","commune":"CESSON SEVIGNE","echelle":"1/2500","surface":"0.1 km²","format":"A4","annee":"2010","cartographes":"FLORIOT Olivier","proprietaire":"35 - Ille-et-Vilaine","niveau":"Initiation, Scolaire","specialite":"CO à pied","latitude":"48.1095436773","longitude":"-1.60088582467","date_saisie":"09/09/2014","valide":"Oui","ppo":"Oui (24 postes)","type_carte":"Nouvelle carte","fond":"Cadastre","obsolete":false}},{"type":"Feature","geometry":null,"properties":{"id_ffco":"2017-D35-1000","nom":"Carte test agence communication","_dept":"35","numero":"2017-D35-1000","commune":"rennes","echelle":"1/1000","surface":"None km²","format":"A4","annee":"2017","date_saisie":"06/12/2017","valide":"Non","ppo":"Non","type_carte":"Nouvelle carte","fond":"IGN","obsolete":false}},{"type":"Feature","geometry":null,"properties":{"id_ffco":"1982-D35-10","nom":"FENDERIE","_dept":"35","numero":"1982-D35-10","commune":"PAIMPONT","echelle":"1/10000","surface":"5.0 km²","annee":"1982","proprietaire":"5601 - A.S.A. DES ECOLES DE COETQUIDAN","niveau":"Interrégional","specialite":"CO à pied","latitude":"48.0213721","longitude":"-2.171517","valide":"Non","ppo":"Non","obsolete":false}},{"type":"Feature","geometry":null,"properties":{"id_ffco":"1982-D35-08","nom":"CASSE COU","_dept":"35","numero":"1982-D35-08","commune":"PAIMPONT","echelle":"1/10000","surface":"5.0 km²","annee":"1982","proprietaire":"5601 - A.S.A. DES ECOLES DE COETQUIDAN","niveau":"Interrégional","specialite":"CO à pied","latitude":"48.0213721","longitude":"-2.171517","valide":"Non","ppo":"Non","obsolete":false}},{"type":"Feature","geometry":null,"properties":{"id_ffco":"1982-D35-07","nom":"MOUTE","_dept":"35","numero":"1982-D35-07","commune":"PAIMPONT","echelle":"1/15000","surface":"4.0 km²","annee":"1982","proprietaire":"5601 - A.S.A. DES ECOLES DE COETQUIDAN","niveau":"Interrégional","specialite":"CO à pied","latitude":"48.0213721","longitude":"-2.171517","valide":"Non","ppo":"Non","obsolete":false}},{"type":"Feature","geometry":null,"properties":{"id_ffco":"1988-D35-06","nom":"LACS","_dept":"35","numero":"1988-D35-06","commune":"RENNES","echelle":"1/10000","surface":"3.7 km²","annee":"1988","proprietaire":"BR - Bretagne","specialite":"CO à pied","latitude":"48.1117611","longitude":"-1.6802654","valide":"Non","ppo":"Non","obsolete":false}},{"type":"Feature","geometry":null,"properties":{"id_ffco":"1988-D35-05","nom":"BOULAIS","_dept":"35","numero":"1988-D35-05","commune":"RENNES","echelle":"1/10000","surface":"1.1 km²","annee":"1988","proprietaire":"BR - Bretagne","specialite":"CO à pied","latitude":"48.1117611","longitude":"-1.6802654","valide":"Non","ppo":"Non","obsolete":false}},{"type":"Feature","geometry":null,"properties":{"id_ffco":"1988-D35-04","nom":"VERDRIE","_dept":"35","numero":"1988-D35-04","commune":"RENNES","echelle":"1/10000","surface":"3.0 km²","annee":"1988","proprietaire":"BR - Bretagne","specialite":"CO à pied","latitude":"48.1117611","longitude":"-1.6802654","valide":"Non","ppo":"Non","obsolete":false}},{"type":"Feature","geometry":null,"properties":{"id_ffco":"1982-D35-00","nom":"MORAVAL","_dept":"35","numero":"1982-D35-00","commune":"ST AUBIN DU CORM.","echelle":"1/15000","surface":"9.0 km²","annee":"1982","proprietaire":"3502 - CLUB RENNAIS DE COURSE D'ORIENTATION","niveau":"Interrégional","specialite":"CO à pied","latitude":"48.2292016","longitude":"-1.5300695","valide":"Non","ppo":"Non","obsolete":false}},{"type":"Feature","geometry":null,"properties":{"id_ffco":"1988-D35-00","nom":"GRAND COIN","_dept":"35","numero":"1988-D35-00","commune":"RENNES","echelle":"1/10000","surface":"3.5 km²","annee":"1988","proprietaire":"3502 - CLUB RENNAIS DE COURSE D'ORIENTATION","specialite":"CO à pied","latitude":"48.1117611","longitude":"-1.6802654","valide":"Non","ppo":"Non","obsolete":false}},{"type":"Feature","geometry":{"type":"Polygon","coordinates":[[[-1.9295,48.0547],[-1.9331,48.0571],[-1.9346,48.0569],[-1.9387,48.0574],[-1.9393,48.0542],[-1.9389,48.0533],[-1.9373,48.0536],[-1.9357,48.0537],[-1.9343,48.0544],[-1.9327,48.0551],[-1.9296,48.0542],[-1.9295,48.0547]]]},"properties":{"id_ffco":"1994-D35-","nom":"Aéroport du Verger","_dept":"35","numero":"1994-D35-","commune":"Verger","surface":"0.19 km²","annee":"1994","cartographes":"Guy RENARD","proprietaire":"3502 - CLUB RENNAIS DE COURSE D'ORIENTATION","latitude":"48.055435358","longitude":"-1.93548008112","valide":"Non","ppo":"Oui (35 postes)","obsolete":false}},{"type":"Feature","geometry":null,"properties":{"id_ffco":"????-D35-","nom":"Récrée Nature Villecartier","_dept":"35","numero":"????-D35-","commune":"Bazouges la Pérouse","surface":"None km²","latitude":"48.4264566","longitude":"-1.5757862","valide":"Non","ppo":"Oui","obsolete":false}},{"type":"Feature","geometry":null,"properties":{"id_ffco":"1999-D35-","nom":"Bois de St. Aubin du Cormier","_dept":"35","numero":"1999-D35-","commune":"St Aubin du Cormier","surface":"None km²","annee":"1999","latitude":"48.2609005","longitude":"-1.3975795","valide":"Non","ppo":"Oui (26 postes)","obsolete":false}},{"type":"Feature","geometry":null,"properties":{"id_ffco":"????-D35-","nom":"Antrain","_dept":"35","numero":"????-D35-","commune":"Antrain","surface":"None km²","latitude":"48.4638655","longitude":"-1.480176","valide":"Non","ppo":"Oui","obsolete":false}},{"type":"Feature","geometry":null,"properties":{"id_ffco":"????-D35-","nom":"Les Celliers forêt de Fougères","_dept":"35","numero":"????-D35-","commune":"Landean","surface":"None km²","latitude":"48.4121129","longitude":"-1.1531828","valide":"Non","ppo":"Oui","obsolete":false}},{"type":"Feature","geometry":null,"properties":{"id_ffco":"????-D35-","nom":"Chateaugiron","_dept":"35","numero":"????-D35-","commune":"Chateaugiron","surface":"None km²","latitude":"48.0469509","longitude":"-1.5025629","valide":"Non","ppo":"Oui","obsolete":false}},{"type":"Feature","geometry":null,"properties":{"id_ffco":"????-D35-","nom":"Parc des Sports de Bouridel","_dept":"35","numero":"????-D35-","commune":"Vern sur Seiche","surface":"None km²","latitude":"48.0457505","longitude":"-1.6023293","valide":"Non","ppo":"Oui","obsolete":false}}]}