{"type":"FeatureCollection","features":[{"type":"Feature","geometry":null,"properties":{"id_ffco":"199","nom":"Parc de Bréquigny","_dept":"35","numero":"1996-D35-931","commune":"Rennes","echelle":"1/2500","surface":"None km²","format":"A4","annee":"1996","cartographes":"RENARD Guy,Frangeul","proprietaire":"3502 - CLUB RENNAIS DE COURSE D'ORIENTATION","latitude":"48.1117611","longitude":"-1.6802654","valide":"Non","ppo":"Oui (52 postes)","type_carte":"Reprise","base":"1996-D35-931 Parc de Bréquigny","fond":"Cadastre","obsolete":true}},{"type":"Feature","geometry":null,"properties":{"id_ffco":"7346","nom":"Les MAFFRAIS","_dept":"35","numero":"2000-D35-921","commune":"LIFFRE","echelle":"1/10000","surface":"None km²","format":"A4","annee":"2000","cartographes":"BEAUVIR Yannick","proprietaire":"3502 - CLUB RENNAIS DE COURSE D'ORIENTATION","niveau":"Interrégional","specialite":"CO à pied","date_saisie":"07/04/2014","valide":"Non","ppo":"Non","type_carte":"Nouvelle carte","fond":"Cadastre","obsolete":true}},{"type":"Feature","geometry":null,"properties":{"id_ffco":"197","nom":"Bois de la Ruche","_dept":"35","numero":"1990-D35-901","commune":"Redon","surface":"None km²","format":"A5","annee":"1990","latitude":"47.6517102","longitude":"-2.0845071","valide":"Non","ppo":"Oui (22 postes)","obsolete":true}},{"type":"Feature","geometry":null,"properties":{"id_ffco":"196","nom":"Bois de Beaumont","_dept":"35","numero":"1991-D35-900","commune":"Redon","surface":"None km²","annee":"1991","latitude":"47.6517102","longitude":"-2.0845071","valide":"Non","ppo":"Oui (20 postes)","obsolete":true}},{"type":"Feature","geometry":{"type":"Polygon","coordinates":[[[-1.6026,48.2624],[-1.6018,48.2613],[-1.6018,48.2607],[-1.5999,48.2599],[-1.5994,48.2603],[-1.5986,48.262],[-1.5992,48.2657],[-1.5992,48.2667],[-1.6019,48.2668],[-1.6046,48.2668],[-1.6049,48.2662],[-1.6038,48.2662],[-1.6038,48.2658],[-1.6031,48.2658],[-1.6031,48.2655],[-1.603,48.265],[-1.6031,48.2645],[-1.603,48.2636],[-1.6026,48.2626],[-1.6026,48.2624]]]},"properties":{"id_ffco":"4672","nom":"L'étang de St Aubin d'Aubigné","_dept":"35","numero":"2009-D35-90","commune":"St Aubin d'Aubigné","echelle":"1/3000","surface":"0.21 km²","format":"A4","annee":"2009","cartographes":"Y Beauvir","proprietaire":"3502 - CLUB RENNAIS DE COURSE D'ORIENTATION","niveau":"Régional","specialite":"CO à pied","latitude":"48.2638549885","longitude":"-1.60100817502","date_saisie":"15/12/2009","date_depot":"22/12/2009","valide":"Oui","ppo":"Non","type_carte":"Nouvelle carte","fond":"Cadastre","obsolete":true}},{"type":"Feature","geometry":{"type":"Polygon","coordinates":[[[-1.7584,47.9913],[-1.7579,47.9915],[-1.7571,47.9923],[-1.7565,47.9922],[-1.7553,47.9928],[-1.7551,47.9932],[-1.7545,47.9936],[-1.7521,47.9948],[-1.7517,47.9954],[-1.7519,47.996],[-1.7528,47.9965],[-1.7545,47.997],[-1.7558,47.997],[-1.7571,47.9971],[-1.7598,47.9972],[-1.7606,47.9972],[-1.7618,47.9973],[-1.7629,47.9973],[-1.7646,47.9974],[-1.7657,47.9975],[-1.7676,47.9981],[-1.768,47.9979],[-1.768,47.9971],[-1.7677,47.9951],[-1.7674,47.995],[-1.7668,47.9939],[-1.7642,47.9925],[-1.7619,47.9929],[-1.761,47.9928],[-1.7594,47.9923],[-1.7584,47.9915],[-1.7584,47.9913]]]},"properties":{"id_ffco":"7357","nom":"Le BOEL","_dept":"35","numero":"2006-D35-85","commune":"Pont Réan","echelle":"1/4000","surface":"0.55 km²","format":"A4","annee":"2006","cartographes":"LESAFFRE Pierre-Marie","proprietaire":"3502 - CLUB RENNAIS DE COURSE D'ORIENTATION","niveau":"Régional","specialite":"CO à pied","latitude":"47.9950289225","longitude":"-1.76028405158","date_saisie":"07/04/2014","valide":"Non","ppo":"Non","type_carte":"Nouvelle carte","fond":"Cadastre","obsolete":true}},{"type":"Feature","geometry":null,"properties":{"id_ffco":"7356","nom":"Parc de la Monniais et Bois de la Justice","_dept":"35","numero":"2004-D35-81","commune":"CESSON SEVIGNE","echelle":"1/4000","surface":"None km²","format":"A4","annee":"2004","cartographes":"David Barranger","proprietaire":"3502 - CLUB RENNAIS DE COURSE D'ORIENTATION","niveau":"Initiation, Scolaire","specialite":"CO à pied","date_saisie":"07/04/2014","valide":"Non","ppo":"Non","type_carte":"Nouvelle carte","obsolete":true}},{"type":"Feature","geometry":{"type":"Polygon","coordinates":[[[-1.6448,48.089],[-1.6469,48.0889],[-1.6471,48.0897],[-1.6473,48.0898],[-1.6478,48.09],[-1.6478,48.0901],[-1.6477,48.0901],[-1.6475,48.0911],[-1.6455,48.091],[-1.6451,48.0906],[-1.6449,48.09],[-1.6448,48.0897],[-1.6448,48.089]]]},"properties":{"id_ffco":"7351","nom":"Parc des Hautes Ourmes","_dept":"35","numero":"2014-D35-80","commune":"RENNES","echelle":"1/1100","surface":"0.04 km²","format":"A4","annee":"2014","cartographes":"David Barranger","proprietaire":"3502 - CLUB RENNAIS DE COURSE D'ORIENTATION","niveau":"Initiation, Scolaire","specialite":"CO à pied","latitude":"48.0900084376","longitude":"-1.64620568928","date_saisie":"07/04/2014","valide":"Non","ppo":"Non","type_carte":"Nouvelle carte","fond":"Cadastre","obsolete":true}},{"type":"Feature","geometry":null,"properties":{"id_ffco":"8480","nom":"BOUESSAY","_dept":"35","numero":"2004-D35-751","surface":"None km²","annee":"2004","date_saisie":"18/06/2015","valide":"Non","ppo":"Non","obsolete":true}},{"type":"Feature","geometry":{"type":"Polygon","coordinates":[[[-1.596,48.169],[-1.5969,48.1747],[-1.5968,48.1755],[-1.595,48.1794],[-1.5918,48.1826],[-1.5897,48.1851],[-1.5612,48.1852],[-1.5614,48.1783],[-1.5712,48.1714],[-1.5719,48.1716],[-1.5772,48.1691],[-1.5791,48.1692],[-1.5804,48.1682],[-1.582,48.1677],[-1.5823,48.1691],[-1.588,48.168],[-1.5924,48.1656],[-1.5956,48.1688],[-1.596,48.169]]]},"properties":{"id_ffco":"201","nom":"La Loge à Rougeais","_dept":"35","numero":"2005-D35-75","commune":"Thorigné Fouillard","echelle":"1/10000","surface":"4.08 km²","format":"A4","annee":"2005","cartographes":"LESAFFRE Pierre-Marie,BEAUVIR Yannick,SERINET Michel","proprietaire":"3502 - CLUB RENNAIS DE COURSE D'ORIENTATION","latitude":"48.1771017096","longitude":"-1.58020253059","valide":"Non","ppo":"Oui","type_carte":"Nouvelle carte","fond":"Cadastre","obsolete":true}},{"type":"Feature","geometry":{"type":"Polygon","coordinates":[[[-1.8032,48.1028],[-1.8044,48.1025],[-1.8053,48.1035],[-1.8063,48.1032],[-1.8068,48.1033],[-1.8075,48.1028],[-1.8075,48.101],[-1.8038,48.1],[-1.8031,48.0996],[-1.8027,48.1003],[-1.802,48.1011],[-1.8027,48.1015],[-1.8032,48.102],[-1.8034,48.1023],[-1.8032,48.1028]]]},"properties":{"id_ffco":"7415","nom":"Complexe sportif ville de le Rheu","_dept":"35","numero":"2003-D35-62","commune":"LE RHEU","echelle":"1/2000","surface":"0.1 km²","format":"A4","annee":"2003","cartographes":"David Barranger","proprietaire":"35 - Ille-et-Vilaine","niveau":"Initiation, Scolaire","specialite":"CO à pied","latitude":"48.1016060167","longitude":"-1.80499697172","date_saisie":"05/09/2014","valide":"Non","ppo":"Non","type_carte":"Nouvelle carte","obsolete":true}},{"type":"Feature","geometry":{"type":"Polygon","coordinates":[[[-1.546,48.1879],[-1.5558,48.1808],[-1.5551,48.1711],[-1.5533,48.1711],[-1.5535,48.1677],[-1.5468,48.1675],[-1.5397,48.1671],[-1.5285,48.1718],[-1.5243,48.1757],[-1.5259,48.1883],[-1.5295,48.1897],[-1.5454,48.1883],[-1.546,48.1879]]]},"properties":{"id_ffco":"3330","nom":"LES ECURES","_dept":"35","numero":"2000-D35-52","commune":"LIFFRE","echelle":"1/10000","surface":"4.63 km²","format":"A4","annee":"2000","cartographes":"Alain FRANGEUL","proprietaire":"3502 - CLUB RENNAIS DE COURSE D'ORIENTATION","niveau":"Interrégional","specialite":"CO à pied","latitude":"48.1783389389","longitude":"-1.53994948349","valide":"Non","ppo":"Non","type_carte":"Nouvelle carte","obsolete":true}},{"type":"Feature","geometry":null,"properties":{"id_ffco":"198","nom":"Bois de Bahurel","_dept":"35","numero":"1998-D35-48","commune":"Redon","echelle":"1/5000","surface":"None km²","format":"A4","annee":"1998","cartographes":"RENARD Guy,DELALANDE Joël","proprietaire":"35 - Ille-et-Vilaine","niveau":"Initiation, Scolaire","specialite":"CO à pied","latitude":"47.6517102","longitude":"-2.0845071","valide":"Non","ppo":"Non","type_carte":"Nouvelle carte","obsolete":true}},{"type":"Feature","geometry":null,"properties":{"id_ffco":"3234","nom":"FORET DMLE DE VILLECARTIER - 3","_dept":"35","numero":"1998-D35-45","echelle":"1/5000","surface":"1.0 km²","annee":"1998","specialite":"CO à pied","latitude":"48.2292016","longitude":"-1.5300695","valide":"Non","ppo":"Non","obsolete":true}},{"type":"Feature","geometry":null,"properties":{"id_ffco":"3235","nom":"FORET DMLE DE VILLECARTIER - 1","_dept":"35","numero":"1998-D35-43","echelle":"1/5000","surface":"1.0 km²","annee":"1998","specialite":"CO à pied","latitude":"48.2292016","longitude":"-1.5300695","valide":"Non","ppo":"Non","obsolete":true}},{"type":"Feature","geometry":{"type":"Polygon","coordinates":[[[-1.652,48.1317],[-1.6522,48.1381],[-1.6508,48.1383],[-1.6506,48.1413],[-1.6449,48.1415],[-1.6443,48.1376],[-1.6421,48.1365],[-1.6387,48.136],[-1.6409,48.1344],[-1.6385,48.1336],[-1.6429,48.1304],[-1.6428,48.1297],[-1.6518,48.1275],[-1.652,48.1317]]]},"properties":{"id_ffco":"1933","nom":"BASE DE LOISIRS DES GAYEULLES","_dept":"35","numero":"1988-D35-38","commune":"RENNES","echelle":"1/5000","surface":"1.01 km²","format":"A4","annee":"1988","cartographes":"Alain FRANGEUL","proprietaire":"3502 - CLUB RENNAIS DE COURSE D'ORIENTATION","niveau":"Initiation, Scolaire","specialite":"CO à pied","latitude":"48.1344499884","longitude":"-1.64686502503","valide":"Oui","ppo":"Non","type_carte":"Nouvelle carte","fond":"Cadastre","obsolete":true}},{"type":"Feature","geometry":null,"properties":{"id_ffco":"1931","nom":"ST AUBIN DU CORMIER","_dept":"35","numero":"1988-D35-37","commune":"FOUGERES","echelle":"1/5000","surface":"0.6 km²","annee":"1988","proprietaire":"3506 - CLUB FOUGERAIS DE COURSE D'ORIENTATION","specialite":"CO à pied","latitude":"48.3524027","longitude":"-1.2028489","valide":"Non","ppo":"Non","obsolete":true}},{"type":"Feature","geometry":null,"properties":{"id_ffco":"1927","nom":"OPPIDUM (L')","_dept":"35","numero":"1988-D35-33","commune":"FOUGERES","echelle":"1/10000","surface":"2.4 km²","annee":"1988","proprietaire":"3506 - CLUB FOUGERAIS DE COURSE D'ORIENTATION","specialite":"CO à pied","latitude":"48.3524027","longitude":"-1.2028489","valide":"Non","ppo":"Non","obsolete":true}},{"type":"Feature","geometry":{"type":"Polygon","coordinates":[[[-1.1801,48.3753],[-1.188,48.375],[-1.1906,48.3761],[-1.1981,48.374],[-1.1981,48.3796],[-1.2002,48.381],[-1.199,48.3843],[-1.1995,48.3882],[-1.1907,48.3972],[-1.1916,48.4005],[-1.1876,48.4084],[-1.1755,48.4131],[-1.17,48.4098],[-1.1665,48.4101],[-1.159,48.4114],[-1.1495,48.4129],[-1.1434,48.4098],[-1.1385,48.4111],[-1.1327,48.4095],[-1.1221,48.4044],[-1.1217,48.4015],[-1.1205,48.3968],[-1.1219,48.3931],[-1.13,48.3883],[-1.1403,48.3842],[-1.1485,48.3807],[-1.1561,48.3754],[-1.1574,48.373],[-1.1619,48.3699],[-1.1742,48.3681],[-1.1779,48.3657],[-1.1779,48.3695],[-1.1806,48.3713],[-1.1816,48.374],[-1.1801,48.3753]]]},"properties":{"id_ffco":"635","nom":"FOUGERES","_dept":"35","numero":"1974-D35-32","commune":"FOUGERES","echelle":"1/15000","surface":"19.58 km²","annee":"1974","proprietaire":"3506 - CLUB FOUGERAIS DE COURSE D'ORIENTATION","specialite":"CO à pied","latitude":"48.3925846752","longitude":"-1.16269928744","valide":"Non","ppo":"Oui","obsolete":true}},{"type":"Feature","geometry":null,"properties":{"id_ffco":"1095","nom":"ST ROUX","_dept":"35","numero":"1982-D35-31","commune":"RENNES","echelle":"1/15000","surface":"8.0 km²","annee":"1982","niveau":"Interrégional","specialite":"CO à pied","latitude":"48.1117611","longitude":"-1.6802654","valide":"Non","ppo":"Non","obsolete":true}},{"type":"Feature","geometry":null,"properties":{"id_ffco":"1094","nom":"MI-FORET","_dept":"35","numero":"1982-D35-30","commune":"RENNES","echelle":"1/15000","surface":"6.0 km²","annee":"1982","proprietaire":"3502 - CLUB RENNAIS DE COURSE D'ORIENTATION","niveau":"Interrégional","specialite":"CO à pied","latitude":"48.1117611","longitude":"-1.6802654","valide":"Non","ppo":"Non","obsolete":true}},{"type":"Feature","geometry":{"type":"Polygon","coordinates":[[[-2.0529,47.6621],[-2.0541,47.6618],[-2.0541,47.6615],[-2.0561,47.6616],[-2.0608,47.6617],[-2.0617,47.6615],[-2.0612,47.6608],[-2.0617,47.6599],[-2.0623,47.6597],[-2.0615,47.6589],[-2.0598,47.6585],[-2.0576,47.6588],[-2.0567,47.6583],[-2.0562,47.6579],[-2.0549,47.6578],[-2.0513,47.6592],[-2.0497,47.6603],[-2.0508,47.6609],[-2.0523,47.6618],[-2.0529,47.6621]]]},"properties":{"id_ffco":"1926","nom":"BOIS de la RUCHE","_dept":"35","numero":"1988-D35-26","commune":"REDON","echelle":"1/15000","surface":"0.29 km²","format":"A4","annee":"1988","cartographes":"Alain FRANGEUL,RENARD Guy","proprietaire":"35 - Ille-et-Vilaine","specialite":"CO à pied","latitude":"47.6600407515","longitude":"-2.05610902432","valide":"Non","ppo":"Non","type_carte":"Nouvelle carte","fond":"Cadastre","obsolete":true}},{"type":"Feature","geometry":{"type":"Polygon","coordinates":[[[-2.0957,47.6585],[-2.0948,47.6579],[-2.0937,47.6575],[-2.0926,47.6574],[-2.092,47.6583],[-2.0923,47.6583],[-2.0929,47.6583],[-2.0933,47.6583],[-2.0942,47.6585],[-2.0945,47.6586],[-2.0946,47.6585],[-2.0957,47.6585]]]},"properties":{"id_ffco":"1925","nom":"BOIS DE BEAUMONT","_dept":"35","numero":"1990-D35-25","commune":"REDON","echelle":"1/1000","surface":"0.02 km²","format":"A4","annee":"1990","cartographes":"Alain FRANGEUL,RENARD Guy","proprietaire":"35 - Ille-et-Vilaine","niveau":"Initiation, Scolaire","specialite":"CO à pied","latitude":"47.6580174515","longitude":"-2.0937127255","valide":"Non","ppo":"Non","type_carte":"Nouvelle carte","fond":"Cadastre","obsolete":true}},{"type":"Feature","geometry":{"type":"Polygon","coordinates":[[[-2.089,47.6548],[-2.0885,47.6548],[-2.0883,47.6546],[-2.0886,47.6529],[-2.09,47.6532],[-2.09,47.6544],[-2.0896,47.6544],[-2.0896,47.6547],[-2.089,47.6548]]]},"properties":{"id_ffco":"1924","nom":"PARC du BEL AIR","_dept":"35","numero":"1990-D35-24","commune":"REDON","echelle":"1/1000","surface":"0.02 km²","format":"A5","annee":"1990","cartographes":"Alain FRANGEUL,RENARD Guy","proprietaire":"35 - Ille-et-Vilaine","specialite":"CO à pied","latitude":"47.6538565468","longitude":"-2.08916398173","valide":"Non","ppo":"Non","type_carte":"Nouvelle carte","fond":"Cadastre","obsolete":true}},{"type":"Feature","geometry":null,"properties":{"id_ffco":"634","nom":"MONTAUBAN DE BRETAGNE","_dept":"35","numero":"1974-D35-23","commune":"MONTAUBAN/BRET.","echelle":"1/15000","surface":"5.0 km²","annee":"1974","proprietaire":"2201 - CLUB ORIENTATION DE CAULNES","specialite":"CO à pied","latitude":"48.2292016","longitude":"-1.5300695","valide":"Non","ppo":"Non","obsolete":true}},{"type":"Feature","geometry":null,"properties":{"id_ffco":"1092","nom":"BURETTE (LE)","_dept":"35","numero":"1982-D35-21","commune":"RENNES","echelle":"1/15000","surface":"7.5 km²","annee":"1982","niveau":"Interrégional","specialite":"CO à pied","latitude":"48.1117611","longitude":"-1.6802654","valide":"Non","ppo":"Non","obsolete":true}},{"type":"Feature","geometry":null,"properties":{"id_ffco":"1932","nom":"ST BRICE EN COGLES","_dept":"35","numero":"1988-D35-20","commune":"FOUGERES","echelle":"1/5000","surface":"0.5 km²","annee":"1988","proprietaire":"3506 - CLUB FOUGERAIS DE COURSE D'ORIENTATION","specialite":"CO à pied","latitude":"48.3524027","longitude":"-1.2028489","valide":"Non","ppo":"Non","obsolete":true}},{"type":"Feature","geometry":{"type":"Polygon","coordinates":[[[-1.6895,48.0838],[-1.6878,48.0834],[-1.6857,48.0829],[-1.6845,48.0828],[-1.6841,48.0832],[-1.6842,48.0814],[-1.6824,48.0815],[-1.6826,48.0802],[-1.6846,48.0799],[-1.6849,48.0802],[-1.6887,48.0801],[-1.6884,48.0816],[-1.6913,48.0819],[-1.6922,48.083],[-1.6895,48.0838]]]},"properties":{"id_ffco":"1923","nom":"PARC BREQUIGNY","_dept":"35","numero":"1988-D35-19","commune":"RENNES","echelle":"1/2500","surface":"0.17 km²","format":"A4","annee":"1988","proprietaire":"3502 - CLUB RENNAIS DE COURSE D'ORIENTATION","niveau":"Initiation, Scolaire","specialite":"CO à pied","latitude":"48.0818033764","longitude":"-1.68704458264","valide":"Oui","ppo":"Non","type_carte":"Nouvelle carte","fond":"Cadastre","obsolete":true}},{"type":"Feature","geometry":null,"properties":{"id_ffco":"1922","nom":"SS-BOIS/PARC DE BREQUIGNY","_dept":"35","numero":"1988-D35-18","commune":"RENNES","echelle":"1/2500","surface":"0.1 km²","annee":"1988","proprietaire":"56 - Morbihan","specialite":"CO à pied","latitude":"48.1117611","longitude":"-1.6802654","valide":"Non","ppo":"Non","obsolete":true}},{"type":"Feature","geometry":null,"properties":{"id_ffco":"633","nom":"BEAUVAIS HTE FORET","_dept":"35","numero":"1974-D35-16","commune":"PAIMPONT","echelle":"1/15000","surface":"9.0 km²","annee":"1974","proprietaire":"5601 - A.S.A. DES ECOLES DE COETQUIDAN","specialite":"CO à pied","latitude":"48.0213721","longitude":"-2.171517","valide":"Non","ppo":"Non","obsolete":true}},{"type":"Feature","geometry":null,"properties":{"id_ffco":"632","nom":"PAIMPONT HTE FORET","_dept":"35","numero":"1974-D35-15","commune":"PAIMPONT","echelle":"1/15000","surface":"9.0 km²","annee":"1974","proprietaire":"5601 - A.S.A. DES ECOLES DE COETQUIDAN","specialite":"CO à pied","latitude":"48.0213721","longitude":"-2.171517","valide":"Non","ppo":"Non","obsolete":true}},{"type":"Feature","geometry":null,"properties":{"id_ffco":"1091","nom":"Comper","_dept":"35","numero":"1982-D35-14","commune":"MOEL","echelle":"1/15000","surface":"8.0 km²","annee":"1982","proprietaire":"2202","niveau":"Interrégional","specialite":"CO à pied","latitude":"48.1277808","longitude":"-2.1555098","valide":"Non","ppo":"Non","obsolete":true}},{"type":"Feature","geometry":null,"properties":{"id_ffco":"1921","nom":"BOIS DE LA MOTTE","_dept":"35","numero":"1988-D35-13","commune":"RENNES","echelle":"1/5000","surface":"0.3 km²","format":"A4","annee":"1988","cartographes":"Alain FRANGEUL","proprietaire":"3502 - CLUB RENNAIS DE COURSE D'ORIENTATION","specialite":"CO à pied","latitude":"48.1117611","longitude":"-1.6802654","valide":"Non","ppo":"Non","obsolete":true}},{"type":"Feature","geometry":{"type":"Polygon","coordinates":[[[-1.7705,48.1514],[-1.7685,48.1514],[-1.7685,48.1522],[-1.7675,48.1519],[-1.7666,48.152],[-1.7671,48.1545],[-1.7677,48.1546],[-1.7685,48.1545],[-1.7694,48.1544],[-1.771,48.1544],[-1.7711,48.1543],[-1.7711,48.1533],[-1.7711,48.1527],[-1.7705,48.1521],[-1.7705,48.1514]]]},"properties":{"id_ffco":"7342","nom":"Complexe sportif de Pace","_dept":"35","numero":"2011-D35-113","commune":"PACE","echelle":"1/1500","surface":"0.09 km²","format":"A4","annee":"2011","cartographes":"FLORIOT Olivier","proprietaire":"3502 - CLUB RENNAIS DE COURSE D'ORIENTATION","niveau":"Initiation, Scolaire","specialite":"CO à pied","latitude":"48.1530858583","longitude":"-1.76895744816","date_saisie":"03/04/2014","date_depot":"14/06/2016","valide":"Oui","ppo":"Non","type_carte":"Nouvelle carte","fond":"Cadastre","obsolete":true}},{"type":"Feature","geometry":null,"properties":{"id_ffco":"1090","nom":"BEDFER","_dept":"35","numero":"1982-D35-11","commune":"RENNES","echelle":"1/15000","surface":"8.0 km²","annee":"1982","proprietaire":"3502 - CLUB RENNAIS DE COURSE D'ORIENTATION","niveau":"Interrégional","specialite":"CO à pied","latitude":"48.1117611","longitude":"-1.6802654","valide":"Non","ppo":"Non","obsolete":true}},{"type":"Feature","geometry":{"type":"Polygon","coordinates":[[[-1.6034,48.1078],[-1.5989,48.1085],[-1.5991,48.1092],[-1.5981,48.1091],[-1.598,48.1095],[-1.5983,48.1102],[-1.5994,48.1104],[-1.5997,48.1107],[-1.5999,48.111],[-1.6006,48.1113],[-1.601,48.1114],[-1.6015,48.1113],[-1.6022,48.1111],[-1.6035,48.1079],[-1.6034,48.1078]]]},"properties":{"id_ffco":"7419","nom":"Parc de la Monniais","_dept":"35","numero":"2010-D35-101","commune":"CESSON SEVIGNE","echelle":"1/2500","surface":"0.1 km²","format":"A4","annee":"2010","cartographes":"FLORIOT Olivier","proprietaire":"35 - Ille-et-Vilaine","niveau":"Initiation, Scolaire","specialite":"CO à pied","latitude":"48.1095436773","longitude":"-1.60088582467","date_saisie":"09/09/2014","valide":"Oui","ppo":"Oui (24 postes)","type_carte":"Nouvelle carte","fond":"Cadastre","obsolete":true}},{"type":"Feature","geometry":null,"properties":{"id_ffco":"10579","nom":"Carte test agence communication","_dept":"35","numero":"2017-D35-1000","commune":"rennes","echelle":"1/1000","surface":"None km²","format":"A4","annee":"2017","date_saisie":"06/12/2017","valide":"Non","ppo":"Non","type_carte":"Nouvelle carte","fond":"IGN","obsolete":true}},{"type":"Feature","geometry":null,"properties":{"id_ffco":"1089","nom":"FENDERIE","_dept":"35","numero":"1982-D35-10","commune":"PAIMPONT","echelle":"1/10000","surface":"5.0 km²","annee":"1982","proprietaire":"5601 - A.S.A. DES ECOLES DE COETQUIDAN","niveau":"Interrégional","specialite":"CO à pied","latitude":"48.0213721","longitude":"-2.171517","valide":"Non","ppo":"Non","obsolete":true}},{"type":"Feature","geometry":null,"properties":{"id_ffco":"1920","nom":"BOIS D.SAVIO","_dept":"35","numero":"1988-D35-09","commune":"RENNES","echelle":"1/2500","surface":"0.3 km²","annee":"1988","proprietaire":"3502 - CLUB RENNAIS DE COURSE D'ORIENTATION","specialite":"CO à pied","latitude":"48.1117611","longitude":"-1.6802654","valide":"Non","ppo":"Non","obsolete":true}},{"type":"Feature","geometry":null,"properties":{"id_ffco":"1088","nom":"CASSE COU","_dept":"35","numero":"1982-D35-08","commune":"PAIMPONT","echelle":"1/10000","surface":"5.0 km²","annee":"1982","proprietaire":"5601 - A.S.A. DES ECOLES DE COETQUIDAN","niveau":"Interrégional","specialite":"CO à pied","latitude":"48.0213721","longitude":"-2.171517","valide":"Non","ppo":"Non","obsolete":true}},{"type":"Feature","geometry":null,"properties":{"id_ffco":"1087","nom":"MOUTE","_dept":"35","numero":"1982-D35-07","commune":"PAIMPONT","echelle":"1/15000","surface":"4.0 km²","annee":"1982","proprietaire":"5601 - A.S.A. DES ECOLES DE COETQUIDAN","niveau":"Interrégional","specialite":"CO à pied","latitude":"48.0213721","longitude":"-2.171517","valide":"Non","ppo":"Non","obsolete":true}},{"type":"Feature","geometry":null,"properties":{"id_ffco":"1919","nom":"LACS","_dept":"35","numero":"1988-D35-06","commune":"RENNES","echelle":"1/10000","surface":"3.7 km²","annee":"1988","proprietaire":"BR - Bretagne","specialite":"CO à pied","latitude":"48.1117611","longitude":"-1.6802654","valide":"Non","ppo":"Non","obsolete":true}},{"type":"Feature","geometry":null,"properties":{"id_ffco":"1918","nom":"BOULAIS","_dept":"35","numero":"1988-D35-05","commune":"RENNES","echelle":"1/10000","surface":"1.1 km²","annee":"1988","proprietaire":"BR - Bretagne","specialite":"CO à pied","latitude":"48.1117611","longitude":"-1.6802654","valide":"Non","ppo":"Non","obsolete":true}},{"type":"Feature","geometry":null,"properties":{"id_ffco":"1917","nom":"VERDRIE","_dept":"35","numero":"1988-D35-04","commune":"RENNES","echelle":"1/10000","surface":"3.0 km²","annee":"1988","proprietaire":"BR - Bretagne","specialite":"CO à pied","latitude":"48.1117611","longitude":"-1.6802654","valide":"Non","ppo":"Non","obsolete":true}},{"type":"Feature","geometry":null,"properties":{"id_ffco":"1916","nom":"GRAND BAT","_dept":"35","numero":"1988-D35-03","commune":"RENNES","echelle":"1/10000","surface":"5.0 km²","annee":"1988","proprietaire":"3502 - CLUB RENNAIS DE COURSE D'ORIENTATION","specialite":"CO à pied","latitude":"48.1117611","longitude":"-1.6802654","valide":"Non","ppo":"Non","obsolete":true}},{"type":"Feature","geometry":null,"properties":{"id_ffco":"1915","nom":"GRAND COIN","_dept":"35","numero":"1988-D35-01","commune":"RENNES","echelle":"1/10000","surface":"3.5 km²","annee":"1988","proprietaire":"3502 - CLUB RENNAIS DE COURSE D'ORIENTATION","specialite":"CO à pied","latitude":"48.1117611","longitude":"-1.6802654","valide":"Non","ppo":"Non","obsolete":true}}]}