{"type":"FeatureCollection","features":[{"type":"Feature","geometry":null,"properties":{"id_ffco":"1142","nom":"BOMMIERS LES ROSIERS","_dept":"36","numero":"1982-D36-004","commune":"BOMMIERS","echelle":"1/15000","surface":"8.25 km²","annee":"1982","niveau":"Interrégional","specialite":"CO à pied","latitude":"46.7951388","longitude":"1.9843387","valide":"Non","ppo":"Non","obsolete":true}},{"type":"Feature","geometry":null,"properties":{"id_ffco":"663","nom":"CHATEAUROUX - Etang de BERTHOMMIERS","_dept":"36","numero":"1975-D36-003","commune":"Châteauroux","echelle":"1/15000","surface":"6.7 km²","annee":"1975","proprietaire":"36 - Indre","specialite":"CO à pied","latitude":"46.8082146","longitude":"1.691818","valide":"Non","ppo":"Non","obsolete":true}},{"type":"Feature","geometry":null,"properties":{"id_ffco":"1141","nom":"N.D.CHENE","_dept":"36","numero":"1982-D36-001","commune":"CHATEAUROUX","echelle":"1/15000","surface":"16.6 km²","annee":"1982","cartographes":"H Giroix","proprietaire":"CE - Centre-Val de Loire","niveau":"Interrégional","specialite":"CO à pied","latitude":"46.8082146","longitude":"1.691818","valide":"Non","ppo":"Non","obsolete":true}},{"type":"Feature","geometry":null,"properties":{"id_ffco":"207","nom":"La senatorerie jardin public","_dept":"36","numero":"????-D36-","commune":"Châteauroux","surface":"None km²","latitude":"46.8082146","longitude":"1.691818","valide":"Non","ppo":"Oui","obsolete":true}}]}