{"type":"FeatureCollection","features":[{"type":"Feature","geometry":{"type":"Polygon","coordinates":[[[0.3676,47.2182],[0.3756,47.2158],[0.3811,47.218],[0.3859,47.2201],[0.4014,47.2186],[0.4264,47.2124],[0.4328,47.2149],[0.4378,47.2157],[0.4491,47.2349],[0.446,47.2365],[0.4458,47.2398],[0.4438,47.2417],[0.4433,47.2437],[0.4371,47.2434],[0.4371,47.2486],[0.4345,47.2497],[0.4357,47.2518],[0.4285,47.2543],[0.4248,47.2541],[0.4215,47.2541],[0.4185,47.2544],[0.4082,47.2587],[0.407,47.2609],[0.4046,47.2615],[0.4028,47.2594],[0.3976,47.2594],[0.3842,47.2575],[0.3784,47.256],[0.3712,47.254],[0.3554,47.2498],[0.3526,47.2437],[0.3507,47.24],[0.3423,47.2348],[0.3425,47.2299],[0.3406,47.2265],[0.3471,47.2245],[0.3676,47.2182]]]},"properties":{"id_ffco":"3571","nom":"Forêt de Chinon \"L'ancien Camp\"","_dept":"37","numero":"2002-D37-048","commune":"Cheillé","echelle":"1/20000","surface":"29.79 km²","format":"A3","annee":"2002","cartographes":"O. Boisseau,N. Filet,J-F. Laurent,Y. Moutault","proprietaire":"37 - Indre-et-Loire","niveau":"National, International","specialite":"CO à VTT","latitude":"47.235951423","longitude":"0.39717815447","date_saisie":"14/10/2002","date_depot":"07/11/2002","valide":"Non","ppo":"Non","obsolete":true}},{"type":"Feature","geometry":{"type":"Polygon","coordinates":[[[0.3119,47.1969],[0.3121,47.1969],[0.3586,47.2145],[0.359,47.2335],[0.3377,47.2348],[0.341,47.2365],[0.3423,47.2397],[0.3286,47.2423],[0.3274,47.2389],[0.3253,47.2365],[0.3236,47.2361],[0.3224,47.2355],[0.3173,47.236],[0.3118,47.237],[0.3097,47.2374],[0.308,47.237],[0.3066,47.2362],[0.3071,47.1969],[0.3119,47.1969]]]},"properties":{"id_ffco":"3568","nom":"Forêt de Chinon \"Belles Cousines\"","_dept":"37","numero":"2002-D37-047","commune":"St-Benoît-la-Forêt","echelle":"1/20000","surface":"13.99 km²","format":"A4","annee":"2002","cartographes":"M. Blanchard,O. Boisseau,L. Fourmy","proprietaire":"37 - Indre-et-Loire","niveau":"National, International","specialite":"CO à VTT","latitude":"47.2205396278","longitude":"0.329819970205","date_saisie":"14/10/2002","date_depot":"07/11/2002","valide":"Non","ppo":"Non","obsolete":true}},{"type":"Feature","geometry":null,"properties":{"id_ffco":"3569","nom":"La Fontaine aux Dames (doublon)","_dept":"37","numero":"2002-D37-046","commune":"St-Benoît-la-Forêt","echelle":"1/20000","surface":"29.11 km²","format":"A3","annee":"2002","cartographes":"M. Blanchard,O. Boisseau,L. Fourmy","proprietaire":"37 - Indre-et-Loire","niveau":"National, International","specialite":"CO à VTT","latitude":"47.2197990181","longitude":"0.323568265719","date_saisie":"14/10/2002","date_depot":"07/11/2002","valide":"Non","ppo":"Non","obsolete":true}},{"type":"Feature","geometry":{"type":"Polygon","coordinates":[[[0.6964,47.3711],[0.6969,47.3711],[0.6988,47.3717],[0.7011,47.3722],[0.7014,47.3724],[0.7023,47.3726],[0.7036,47.3728],[0.7039,47.3728],[0.704,47.371],[0.7039,47.3704],[0.7022,47.3704],[0.7003,47.3703],[0.6998,47.3703],[0.6975,47.3701],[0.6969,47.37],[0.6964,47.3711]]]},"properties":{"id_ffco":"3933","nom":"Ile Balzac-Ouest","_dept":"37","numero":"2001-D37-043","commune":"Tours","echelle":"1/2000","surface":"0.11 km²","format":"A5","annee":"2001","cartographes":"J-F. Laurent,P. Moutault","proprietaire":"37 - Indre-et-Loire","niveau":"Initiation, Scolaire","specialite":"CO à pied","latitude":"47.3712402899","longitude":"0.70077100586","date_saisie":"23/06/2005","date_depot":"20/09/2005","valide":"Non","ppo":"Non","obsolete":true}},{"type":"Feature","geometry":{"type":"Polygon","coordinates":[[[0.8058,47.3618],[0.8092,47.3597],[0.8113,47.3594],[0.817,47.3597],[0.8194,47.3598],[0.8228,47.3593],[0.8252,47.3589],[0.8225,47.3539],[0.822,47.3519],[0.8199,47.3477],[0.8206,47.3473],[0.8202,47.3448],[0.8202,47.343],[0.8159,47.3405],[0.8129,47.3396],[0.8086,47.342],[0.8068,47.3403],[0.8019,47.3417],[0.8005,47.3422],[0.8005,47.3426],[0.7936,47.343],[0.7929,47.3431],[0.7948,47.3475],[0.795,47.3496],[0.7938,47.351],[0.7943,47.3544],[0.7943,47.3559],[0.7996,47.359],[0.8017,47.3595],[0.8043,47.3622],[0.8058,47.3618]]]},"properties":{"id_ffco":"3932","nom":"Le Village","_dept":"37","numero":"2001-D37-042","commune":"Véretz","echelle":"1/10000","surface":"4.18 km²","format":"A4","annee":"2001","cartographes":"J-F. Laurent","proprietaire":"37 - Indre-et-Loire","niveau":"Départemental","specialite":"CO à pied","latitude":"47.3507871789","longitude":"0.808467664887","date_saisie":"23/06/2005","date_depot":"20/09/2005","valide":"Non","ppo":"Non","obsolete":true}},{"type":"Feature","geometry":{"type":"Polygon","coordinates":[[[1.1115,47.1246],[1.111,47.1392],[1.1115,47.1426],[1.1122,47.1458],[1.1143,47.1477],[1.1208,47.1466],[1.1237,47.1505],[1.1265,47.1493],[1.1272,47.1485],[1.1299,47.1482],[1.1303,47.1468],[1.1305,47.1458],[1.1285,47.1431],[1.1347,47.139],[1.1447,47.1464],[1.1445,47.1452],[1.1498,47.1403],[1.1479,47.1385],[1.1508,47.1369],[1.1492,47.1348],[1.146,47.1317],[1.1441,47.1285],[1.1458,47.1285],[1.1482,47.1275],[1.1498,47.1235],[1.1495,47.1195],[1.1472,47.1174],[1.1259,47.1161],[1.1115,47.1239],[1.1115,47.1246]]]},"properties":{"id_ffco":"2988","nom":"Forêt de Loches \"Le Pas-aux-Ânes\"","_dept":"37","numero":"1997-D37-034","commune":"Sennevières","echelle":"1/15000","surface":"8.43 km²","format":"A4","annee":"1997","cartographes":"O. Boisseau,A. Matton","proprietaire":"37 - Indre-et-Loire","niveau":"National, International","specialite":"CO à pied","latitude":"47.1316631375","longitude":"1.12978083072","valide":"Non","ppo":"Non","obsolete":true}},{"type":"Feature","geometry":{"type":"Polygon","coordinates":[[[1.002,47.1845],[1.0255,47.1823],[1.0312,47.1843],[1.0314,47.1852],[1.0346,47.1863],[1.0364,47.1865],[1.0355,47.1897],[1.0393,47.1905],[1.0382,47.1889],[1.04,47.1866],[1.0468,47.1858],[1.0503,47.1864],[1.0534,47.1894],[1.0576,47.1882],[1.058,47.1865],[1.0558,47.1796],[1.0592,47.1788],[1.0587,47.1728],[1.0554,47.1653],[1.0288,47.1639],[1.0286,47.1651],[1.0225,47.1654],[1.0192,47.1661],[1.0183,47.1662],[1.0182,47.1675],[1.0137,47.1681],[1.0137,47.1719],[1.012,47.1721],[1.0104,47.1736],[1.0104,47.1744],[1.0063,47.1744],[1.0055,47.1772],[1.0041,47.1799],[1.0043,47.1824],[1.0022,47.1829],[1.002,47.1845]]]},"properties":{"id_ffco":"1150","nom":"Forêt de Loches \"St-Quentin\"","_dept":"37","numero":"1995-D37-033","commune":"St-Quentin-sur-Indrois","echelle":"1/15000","surface":"8.33 km²","format":"A4","annee":"1995","cartographes":"A. Matton","proprietaire":"37 - Indre-et-Loire","niveau":"Interrégional","specialite":"CO à pied","latitude":"47.1758352739","longitude":"1.03450162746","valide":"Non","ppo":"Non","obsolete":true}},{"type":"Feature","geometry":{"type":"Polygon","coordinates":[[[0.3412,47.2266],[0.3531,47.2228],[0.3543,47.2252],[0.3524,47.2261],[0.3547,47.227],[0.3499,47.2279],[0.3425,47.2289],[0.3412,47.2266]]]},"properties":{"id_ffco":"2063","nom":"Le Teillay","_dept":"37","numero":"1994-D37-032","commune":"St-Benoît-la-Forêt","echelle":"1/5000","surface":"0.36 km²","format":"A5","annee":"1994","cartographes":"O. Boisseau","proprietaire":"37 - Indre-et-Loire","niveau":"Initiation, Scolaire","specialite":"CO à pied","latitude":"47.2262139777","longitude":"0.34826384908","valide":"Non","ppo":"Non","obsolete":true}},{"type":"Feature","geometry":{"type":"Polygon","coordinates":[[[0.7527,47.3349],[0.755,47.3338],[0.7567,47.3335],[0.758,47.3331],[0.7594,47.3316],[0.7623,47.3287],[0.7636,47.3294],[0.7651,47.3299],[0.7659,47.33],[0.7665,47.3313],[0.7666,47.3323],[0.7659,47.3344],[0.7658,47.3351],[0.765,47.3367],[0.7647,47.3374],[0.7638,47.3387],[0.7631,47.34],[0.7623,47.3413],[0.759,47.3405],[0.7562,47.3399],[0.7573,47.3383],[0.7542,47.3375],[0.7535,47.3384],[0.752,47.3369],[0.752,47.3352],[0.7527,47.3349]]]},"properties":{"id_ffco":"2062","nom":"Le Bois des Hâtes","_dept":"37","numero":"1995-D37-031","commune":"Chambray-lès-Tours","echelle":"1/10000","surface":"0.85 km²","format":"A5","annee":"1995","cartographes":"A. Matton","proprietaire":"37 - Indre-et-Loire","niveau":"Départemental","specialite":"CO à pied","latitude":"47.3352758282","longitude":"0.760314972477","valide":"Non","ppo":"Non","obsolete":true}},{"type":"Feature","geometry":{"type":"Polygon","coordinates":[[[0.712,47.323],[0.7157,47.3232],[0.7236,47.3238],[0.7286,47.325],[0.7323,47.3261],[0.7318,47.3289],[0.7323,47.3298],[0.7281,47.3334],[0.7289,47.3358],[0.7295,47.339],[0.7052,47.348],[0.7002,47.3498],[0.7045,47.3361],[0.7084,47.3231],[0.712,47.323]]]},"properties":{"id_ffco":"5163","nom":"Centre-Ville","_dept":"37","numero":"1994-D37-030","commune":"Chambray-lès-Tours","echelle":"1/10000","surface":"4.3 km²","format":"A4","annee":"1994","cartographes":"A. Matton","proprietaire":"37 - Indre-et-Loire","niveau":"Départemental","specialite":"Raid'O","latitude":"47.3344769202","longitude":"0.716003124294","date_saisie":"21/11/2011","valide":"Non","ppo":"Non","obsolete":true}},{"type":"Feature","geometry":{"type":"Polygon","coordinates":[[[0.7327,47.3372],[0.7338,47.3336],[0.7345,47.3329],[0.7348,47.333],[0.7355,47.3322],[0.732,47.3283],[0.732,47.3285],[0.7319,47.3291],[0.7322,47.3294],[0.7323,47.3298],[0.732,47.3301],[0.7308,47.3308],[0.7301,47.3316],[0.7287,47.3327],[0.7281,47.3331],[0.7281,47.3335],[0.7287,47.3351],[0.7289,47.3357],[0.7311,47.3378],[0.7327,47.3372]]]},"properties":{"id_ffco":"2061","nom":"La Charpraie (2)","_dept":"37","numero":"1994-D37-029","commune":"Chambray-lès-Tours","echelle":"1/5000","surface":"0.29 km²","format":"A5","annee":"1994","cartographes":"A. Matton","proprietaire":"37 - Indre-et-Loire","niveau":"Initiation, Scolaire","specialite":"CO à pied","latitude":"47.3334711313","longitude":"0.731633505535","valide":"Non","ppo":"Non","obsolete":true}},{"type":"Feature","geometry":{"type":"Polygon","coordinates":[[[0.7158,47.4016],[0.7166,47.4016],[0.7175,47.4017],[0.7186,47.4019],[0.7213,47.4025],[0.7207,47.4045],[0.7163,47.4044],[0.7158,47.4016]]]},"properties":{"id_ffco":"2060","nom":"Abbaye de Marmoutier","_dept":"37","numero":"1993-D37-028","commune":"Tours","echelle":"1/2500","surface":"0.11 km²","format":"A5","annee":"1993","cartographes":"A. Matton","proprietaire":"37 - Indre-et-Loire","niveau":"Initiation, Scolaire","specialite":"CO à pied","contacts":"Lycée Marmoutier","latitude":"47.4031335026","longitude":"0.71843651866","valide":"Non","ppo":"Non","obsolete":true}},{"type":"Feature","geometry":{"type":"Polygon","coordinates":[[[1.0247,47.182],[1.0274,47.1721],[1.0286,47.1645],[1.0283,47.1622],[1.0247,47.1558],[1.0214,47.1521],[1.0225,47.1466],[1.0259,47.1465],[1.0297,47.1454],[1.0372,47.1464],[1.037,47.1411],[1.0405,47.14],[1.0475,47.1411],[1.0535,47.141],[1.0638,47.1426],[1.0667,47.1412],[1.0717,47.1437],[1.074,47.1417],[1.0822,47.143],[1.0841,47.1579],[1.0738,47.1607],[1.0693,47.1662],[1.0738,47.1702],[1.074,47.1795],[1.0719,47.1812],[1.0717,47.1828],[1.0671,47.1842],[1.0661,47.1847],[1.0631,47.1847],[1.0588,47.1858],[1.0575,47.1872],[1.0575,47.1883],[1.0535,47.1893],[1.0506,47.1877],[1.0494,47.1866],[1.0465,47.1862],[1.0403,47.1866],[1.0388,47.1889],[1.0396,47.1906],[1.0372,47.1917],[1.0345,47.1914],[1.0345,47.1905],[1.036,47.1873],[1.0336,47.1857],[1.0303,47.1852],[1.0303,47.184],[1.025,47.1823],[1.0247,47.182]]]},"properties":{"id_ffco":"669","nom":"Forêt de Loches \"Les Pyramides\"","_dept":"37","numero":"1993-D37-027","commune":"Ferrière-sur-Beaulieu","echelle":"1/15000","surface":"18.79 km²","format":"A3","annee":"1993","proprietaire":"37 - Indre-et-Loire","niveau":"National, International","specialite":"CO à pied","latitude":"47.1631513939","longitude":"1.05159669843","valide":"Non","ppo":"Non","obsolete":true}},{"type":"Feature","geometry":{"type":"Polygon","coordinates":[[[0.5092,47.2057],[0.5149,47.202],[0.5162,47.2003],[0.5118,47.1906],[0.4932,47.1948],[0.4881,47.196],[0.4917,47.1991],[0.4951,47.197],[0.4972,47.1995],[0.4989,47.2005],[0.5008,47.2005],[0.503,47.1997],[0.5051,47.1996],[0.5059,47.1996],[0.5064,47.2008],[0.5073,47.2012],[0.507,47.2027],[0.5083,47.2059],[0.5092,47.2057]]]},"properties":{"id_ffco":"2059","nom":"Forêt de Crissay","_dept":"37","numero":"1991-D37-026","commune":"Villaines-les-Rochers","echelle":"1/10000","surface":"1.64 km²","format":"A4","annee":"1991","cartographes":"A. Matton","proprietaire":"37 - Indre-et-Loire","niveau":"Départemental","specialite":"CO à pied","latitude":"47.1972869255","longitude":"0.505224259485","valide":"Non","ppo":"Non","obsolete":true}},{"type":"Feature","geometry":{"type":"Polygon","coordinates":[[[0.2798,47.1966],[0.3168,47.1995],[0.314,47.2025],[0.3092,47.2033],[0.3056,47.2062],[0.3073,47.2093],[0.3011,47.2116],[0.3046,47.2168],[0.3056,47.2189],[0.3042,47.22],[0.3065,47.2217],[0.3092,47.2231],[0.3111,47.2224],[0.3143,47.223],[0.3178,47.2227],[0.3209,47.2245],[0.3238,47.2242],[0.3241,47.2222],[0.326,47.2203],[0.331,47.2202],[0.3367,47.2221],[0.3403,47.2198],[0.3399,47.2187],[0.3437,47.2153],[0.3555,47.2181],[0.3597,47.2208],[0.3621,47.2242],[0.3494,47.2278],[0.343,47.2285],[0.3394,47.2299],[0.3325,47.2313],[0.3269,47.2327],[0.3214,47.2326],[0.3161,47.2325],[0.3135,47.2315],[0.3085,47.2268],[0.2994,47.2223],[0.2932,47.2194],[0.2835,47.2165],[0.279,47.2123],[0.2822,47.2114],[0.2798,47.2104],[0.2744,47.2088],[0.2776,47.2045],[0.281,47.2037],[0.2774,47.2019],[0.2773,47.1984],[0.2781,47.1973],[0.2798,47.1966]]]},"properties":{"id_ffco":"668","nom":"Forêt de Chinon \"Puy du Renard\"","_dept":"37","numero":"1990-D37-025","commune":"St-Benoît-la-Forêt","echelle":"1/15000","surface":"9.56 km²","format":"A3","annee":"1990","cartographes":"L. Niven,R. Niven","proprietaire":"37 - Indre-et-Loire","niveau":"Interrégional","specialite":"CO à pied","latitude":"47.2154958666","longitude":"0.311746042214","valide":"Non","ppo":"Non","obsolete":true}},{"type":"Feature","geometry":{"type":"Polygon","coordinates":[[[0.3935,47.2279],[0.3933,47.228],[0.3846,47.2385],[0.3684,47.2324],[0.3519,47.2335],[0.3574,47.2462],[0.3636,47.2448],[0.37,47.2474],[0.3767,47.2476],[0.3712,47.2538],[0.3779,47.2539],[0.3827,47.2555],[0.3937,47.2562],[0.3954,47.2519],[0.3985,47.2476],[0.4055,47.2465],[0.4098,47.2466],[0.4103,47.2287],[0.3961,47.2285],[0.3935,47.2279]]]},"properties":{"id_ffco":"1149","nom":"Forêt de Chinon \"La Pucelle\"","_dept":"37","numero":"1989-D37-024","commune":"Cheillé","echelle":"1/15000","surface":"8.21 km²","format":"A4","annee":"1989","cartographes":"G. Buzon,A. Matton","proprietaire":"37 - Indre-et-Loire","niveau":"Interrégional","specialite":"CO à pied","latitude":"47.2413377899","longitude":"0.384806733492","valide":"Non","ppo":"Non","obsolete":true}},{"type":"Feature","geometry":{"type":"Polygon","coordinates":[[[0.4098,47.2351],[0.4179,47.2245],[0.4551,47.2251],[0.4608,47.2264],[0.4688,47.2303],[0.4695,47.2306],[0.4676,47.2328],[0.4652,47.234],[0.4627,47.2358],[0.4601,47.2384],[0.4577,47.2398],[0.4527,47.2425],[0.4501,47.2396],[0.4464,47.241],[0.4419,47.2428],[0.4391,47.2434],[0.4386,47.2462],[0.4098,47.2351]]]},"properties":{"id_ffco":"667","nom":"Forêt de Chinon \"Bayard\"","_dept":"37","numero":"1989-D37-023","commune":"Cheillé","echelle":"1/15000","surface":"6.93 km²","format":"A4","annee":"1989","cartographes":"H. Chauvel,A. Matton","proprietaire":"37 - Indre-et-Loire","niveau":"Interrégional","specialite":"CO à pied","latitude":"47.2332606193","longitude":"0.438830597842","valide":"Non","ppo":"Non","obsolete":true}},{"type":"Feature","geometry":{"type":"Polygon","coordinates":[[[0.7801,47.3407],[0.7842,47.3255],[0.7882,47.3263],[0.7899,47.3273],[0.7908,47.3276],[0.7914,47.3276],[0.7897,47.3373],[0.7864,47.3367],[0.7856,47.3397],[0.787,47.3408],[0.7801,47.3407]]]},"properties":{"id_ffco":"2050","nom":"Terrain Militaire","_dept":"37","numero":"1986-D37-022","commune":"Larçay","echelle":"1/10000","surface":"0.9 km²","format":"A4","annee":"1986","cartographes":"O. Boisseau","proprietaire":"37 - Indre-et-Loire","niveau":"Départemental","specialite":"CO à pied","latitude":"47.3331892675","longitude":"0.785839460241","valide":"Non","ppo":"Non","obsolete":true}},{"type":"Feature","geometry":{"type":"Polygon","coordinates":[[[0.3411,47.2265],[0.3597,47.2208],[0.3625,47.2244],[0.3495,47.2275],[0.3426,47.229],[0.3411,47.2265]]]},"properties":{"id_ffco":"2058","nom":"Parc Forestier du Teillay","_dept":"37","numero":"1988-D37-021","commune":"St-Benoît-la-Forêt","echelle":"1/5000","surface":"0.61 km²","format":"A4","annee":"1988","cartographes":"G. Buzon","proprietaire":"37 - Indre-et-Loire","niveau":"Régional","specialite":"CO à pied","latitude":"47.2250309874","longitude":"0.352085543173","valide":"Non","ppo":"Non","obsolete":true}},{"type":"Feature","geometry":{"type":"Polygon","coordinates":[[[0.5013,47.3882],[0.5004,47.3846],[0.4999,47.383],[0.5006,47.3768],[0.5026,47.3751],[0.5042,47.3731],[0.5063,47.3728],[0.5091,47.3731],[0.5109,47.3728],[0.5117,47.3724],[0.5136,47.3706],[0.5158,47.37],[0.5168,47.3704],[0.5148,47.3731],[0.5146,47.3756],[0.5167,47.3767],[0.517,47.3772],[0.5188,47.3781],[0.5224,47.3785],[0.5235,47.379],[0.5245,47.3793],[0.5242,47.38],[0.5245,47.3805],[0.5268,47.3808],[0.5285,47.3797],[0.5302,47.3808],[0.5293,47.3816],[0.5281,47.3822],[0.5268,47.3845],[0.5245,47.3848],[0.5228,47.3851],[0.5211,47.3846],[0.5205,47.3844],[0.5194,47.3843],[0.5169,47.3835],[0.5155,47.383],[0.5151,47.383],[0.5128,47.3838],[0.5121,47.384],[0.5114,47.384],[0.5013,47.3882]]]},"properties":{"id_ffco":"2057","nom":"les Sept Chênes","_dept":"37","numero":"1987-D37-020","commune":"St-Etienne-de-Chigny","echelle":"1/10000","surface":"2.18 km²","format":"A4","annee":"1987","cartographes":"G. Buzon,R. Buzon","proprietaire":"37 - Indre-et-Loire","niveau":"Régional","specialite":"CO à pied","latitude":"47.3798162498","longitude":"0.511644651396","valide":"Non","ppo":"Non","obsolete":true}},{"type":"Feature","geometry":{"type":"Polygon","coordinates":[[[0.1827,47.4394],[0.184,47.4398],[0.1883,47.4415],[0.1932,47.4426],[0.1944,47.4428],[0.198,47.4466],[0.1991,47.4481],[0.203,47.4502],[0.2083,47.455],[0.2114,47.4574],[0.2148,47.4588],[0.2138,47.459],[0.1888,47.46],[0.1881,47.4589],[0.186,47.4573],[0.1811,47.4537],[0.1818,47.4508],[0.182,47.4478],[0.1825,47.4441],[0.1827,47.4394]]]},"properties":{"id_ffco":"2056","nom":"Le Petit Bray","_dept":"37","numero":"1987-D37-019","commune":"Rillé","echelle":"1/10000","surface":"3.06 km²","format":"A4","annee":"1987","cartographes":"G. Buzon,R. Buzon","proprietaire":"37 - Indre-et-Loire","niveau":"Départemental","specialite":"CO à pied","latitude":"47.451733345","longitude":"0.193670411478","valide":"Non","ppo":"Non","obsolete":true}},{"type":"Feature","geometry":{"type":"Polygon","coordinates":[[[0.3852,47.2387],[0.3684,47.2323],[0.352,47.2336],[0.3573,47.2455],[0.3625,47.2442],[0.3669,47.2471],[0.3709,47.2477],[0.3771,47.2479],[0.3852,47.2387]]]},"properties":{"id_ffco":"2055","nom":"St-Benoît","_dept":"37","numero":"1986-D37-018","commune":"Cheillé","echelle":"1/10000","surface":"2.89 km²","format":"A4","annee":"1986","cartographes":"G. Buzon,A. Matton","proprietaire":"37 - Indre-et-Loire","niveau":"Départemental","specialite":"CO à pied","latitude":"47.2398045218","longitude":"0.368096876678","valide":"Non","ppo":"Non","obsolete":true}},{"type":"Feature","geometry":{"type":"Polygon","coordinates":[[[0.3933,47.2279],[0.3846,47.2383],[0.3736,47.2342],[0.3713,47.2534],[0.3755,47.2539],[0.3813,47.255],[0.3885,47.2564],[0.3928,47.2565],[0.394,47.2496],[0.4009,47.2469],[0.405,47.2462],[0.4103,47.2467],[0.4137,47.2467],[0.4184,47.2479],[0.4228,47.2473],[0.4254,47.2476],[0.4259,47.2499],[0.4347,47.2495],[0.4352,47.2476],[0.4371,47.2476],[0.4379,47.2452],[0.4369,47.242],[0.4429,47.2419],[0.4488,47.2401],[0.4491,47.235],[0.4452,47.228],[0.3933,47.2279]]]},"properties":{"id_ffco":"1147","nom":"Cheillé","_dept":"37","numero":"1986-D37-017","commune":"Cheillé","echelle":"1/15000","surface":"12.15 km²","format":"A4","annee":"1986","cartographes":"J-F. Laurent","proprietaire":"37 - Indre-et-Loire","niveau":"Interrégional","specialite":"CO à pied","latitude":"47.2397587713","longitude":"0.408849007066","valide":"Non","ppo":"Non","obsolete":true}},{"type":"Feature","geometry":{"type":"Polygon","coordinates":[[[0.1978,47.4592],[0.2136,47.4583],[0.2244,47.4556],[0.227,47.4601],[0.2259,47.4606],[0.2254,47.4612],[0.2229,47.4622],[0.2221,47.4628],[0.222,47.4639],[0.2195,47.4649],[0.2077,47.4671],[0.2014,47.469],[0.1986,47.4687],[0.1983,47.4658],[0.1978,47.4592]]]},"properties":{"id_ffco":"2053","nom":"Lac de Pincemaille","_dept":"37","numero":"1986-D37-016","commune":"Rillé","echelle":"1/10000","surface":"1.89 km²","format":"A4","annee":"1986","cartographes":"G. Buzon","proprietaire":"37 - Indre-et-Loire","niveau":"Départemental","specialite":"CO à pied","latitude":"47.4621878823","longitude":"0.210974943771","valide":"Non","ppo":"Non","obsolete":true}},{"type":"Feature","geometry":{"type":"Polygon","coordinates":[[[0.7646,47.3246],[0.7697,47.3209],[0.7768,47.3243],[0.7726,47.3264],[0.7722,47.3267],[0.7704,47.3274],[0.7685,47.3287],[0.7662,47.3307],[0.7654,47.3288],[0.7671,47.3281],[0.7656,47.3259],[0.7646,47.3246]]]},"properties":{"id_ffco":"2052","nom":"Les Landes d'Esvres","_dept":"37","numero":"1985-D37-015","commune":"Esvres","echelle":"1/5000","surface":"0.44 km²","format":"A4","annee":"1985","cartographes":"G. Buzon","proprietaire":"37 - Indre-et-Loire","niveau":"Initiation, Scolaire","specialite":"CO à pied","latitude":"47.3250435185","longitude":"0.7697818956","valide":"Non","ppo":"Non","obsolete":true}},{"type":"Feature","geometry":{"type":"Polygon","coordinates":[[[0.3253,47.2194],[0.3246,47.2199],[0.3245,47.2203],[0.3259,47.2212],[0.3257,47.2219],[0.3254,47.2233],[0.3283,47.2234],[0.3321,47.2237],[0.336,47.2241],[0.3372,47.2238],[0.338,47.2235],[0.3369,47.2222],[0.3367,47.2212],[0.3339,47.2212],[0.3327,47.2205],[0.3316,47.2205],[0.3297,47.2192],[0.3277,47.2194],[0.3259,47.2191],[0.3253,47.2194]]]},"properties":{"id_ffco":"2051","nom":"La Pommardière","_dept":"37","numero":"1985-D37-014","commune":"St-Benoît-la-Forêt","echelle":"1/5000","surface":"0.35 km²","format":"A4","annee":"1985","cartographes":"G. Buzon","proprietaire":"37 - Indre-et-Loire","niveau":"Départemental","specialite":"CO à pied","latitude":"47.2218116107","longitude":"0.330701394568","valide":"Non","ppo":"Non","obsolete":true}},{"type":"Feature","geometry":{"type":"Polygon","coordinates":[[[1.0822,47.1407],[1.0822,47.143],[1.0879,47.1451],[1.0899,47.1467],[1.0954,47.1457],[1.0956,47.1447],[1.1036,47.1449],[1.1054,47.147],[1.1133,47.1475],[1.121,47.1466],[1.1239,47.1503],[1.1287,47.1481],[1.1297,47.1478],[1.1299,47.1468],[1.1275,47.1436],[1.1352,47.1389],[1.1443,47.146],[1.145,47.1447],[1.1503,47.14],[1.1476,47.1383],[1.1503,47.1366],[1.1454,47.1324],[1.1445,47.1282],[1.1467,47.1291],[1.1485,47.1285],[1.1495,47.1284],[1.1498,47.1228],[1.1502,47.1195],[1.1493,47.1195],[1.1474,47.1174],[1.1251,47.1161],[1.1172,47.1178],[1.1119,47.121],[1.1086,47.1229],[1.1018,47.1248],[1.0971,47.1254],[1.0944,47.1265],[1.0949,47.1297],[1.094,47.1334],[1.0855,47.134],[1.0822,47.1407]]]},"properties":{"id_ffco":"1148","nom":"Forêt de Loches \"Les Chartreux\"","_dept":"37","numero":"1986-D37-013","commune":"Sennevières","echelle":"1/15000","surface":"12.8 km²","format":"A3","annee":"1986","cartographes":"O. Boisseau,J-F. Laurent","proprietaire":"37 - Indre-et-Loire","niveau":"Interrégional","specialite":"CO à pied","latitude":"47.1328554144","longitude":"1.11972822953","valide":"Non","ppo":"Non","obsolete":true}},{"type":"Feature","geometry":{"type":"Polygon","coordinates":[[[0.7662,47.3342],[0.7715,47.335],[0.7832,47.329],[0.7843,47.3253],[0.7787,47.3245],[0.7767,47.3245],[0.7756,47.3251],[0.769,47.3212],[0.7636,47.3252],[0.7642,47.3267],[0.7653,47.3288],[0.7635,47.3295],[0.7661,47.331],[0.7664,47.3317],[0.7662,47.3342]]]},"properties":{"id_ffco":"2049","nom":"Parc de Larçay","_dept":"37","numero":"1985-D37-012","commune":"Larçay","echelle":"1/10000","surface":"1.42 km²","format":"A5","annee":"1985","cartographes":"G. Buzon","proprietaire":"37 - Indre-et-Loire","niveau":"Départemental","specialite":"CO à pied","latitude":"47.3282510179","longitude":"0.772722172795","valide":"Non","ppo":"Non","obsolete":true}},{"type":"Feature","geometry":{"type":"Polygon","coordinates":[[[0.7326,47.3372],[0.7328,47.3371],[0.7342,47.3327],[0.7351,47.3329],[0.7356,47.3323],[0.7319,47.3283],[0.732,47.3292],[0.7322,47.3294],[0.7322,47.3298],[0.7315,47.3304],[0.7306,47.3311],[0.7295,47.3321],[0.7282,47.3331],[0.7281,47.3334],[0.7288,47.3351],[0.729,47.3358],[0.7311,47.3378],[0.7326,47.3372]]]},"properties":{"id_ffco":"2048","nom":"La Charpraie","_dept":"37","numero":"1984-D37-011","commune":"Chambray-lès-Tours","echelle":"1/5000","surface":"0.29 km²","format":"A5","annee":"1984","cartographes":"G. Buzon,A. Matton","proprietaire":"37 - Indre-et-Loire","niveau":"Initiation, Scolaire","specialite":"CO à pied","latitude":"47.3334917005","longitude":"0.731662471279","valide":"Non","ppo":"Oui","obsolete":true}},{"type":"Feature","geometry":{"type":"Polygon","coordinates":[[[1.0436,47.1651],[1.0693,47.1659],[1.0736,47.1607],[1.0839,47.1577],[1.088,47.1568],[1.0901,47.154],[1.0923,47.1521],[1.0913,47.1508],[1.0921,47.148],[1.0873,47.1447],[1.0822,47.1431],[1.0753,47.1419],[1.0705,47.1446],[1.0631,47.1421],[1.0566,47.1445],[1.0546,47.1446],[1.0518,47.1443],[1.0473,47.146],[1.0458,47.146],[1.0439,47.1477],[1.0369,47.1468],[1.0333,47.1556],[1.0436,47.1651]]]},"properties":{"id_ffco":"1146","nom":"Forêt de Loches \"Les Pyramides\"","_dept":"37","numero":"1984-D37-010","commune":"Ferrière-sur-Beaulieu","echelle":"1/15000","surface":"8.45 km²","format":"A4","annee":"1984","cartographes":"O. Boisseau,J-F. Laurent","proprietaire":"37 - Indre-et-Loire","niveau":"Interrégional","specialite":"CO à pied","latitude":"47.1536938222","longitude":"1.06222912811","valide":"Non","ppo":"Non","obsolete":true}},{"type":"Feature","geometry":{"type":"Polygon","coordinates":[[[0.3483,47.2247],[0.3485,47.2247],[0.3599,47.2211],[0.362,47.2238],[0.3531,47.2261],[0.3483,47.2247]]]},"properties":{"id_ffco":"2047","nom":"Parc Forestier du Teillay","_dept":"37","numero":"1983-D37-009","commune":"St-Benoît la Forêt","echelle":"1/5000","surface":"0.26 km²","format":"A5","annee":"1983","cartographes":"J-F. Laurent,G. Buzon","proprietaire":"37 - Indre-et-Loire","niveau":"Initiation, Scolaire","specialite":"CO à pied","latitude":"47.2238069758","longitude":"0.355932621949","valide":"Non","ppo":"Non","obsolete":true}},{"type":"Feature","geometry":{"type":"Polygon","coordinates":[[[0.6389,47.3578],[0.6427,47.3573],[0.6433,47.3572],[0.644,47.3564],[0.6452,47.3557],[0.6457,47.3484],[0.6453,47.3466],[0.641,47.346],[0.6403,47.3472],[0.6406,47.3477],[0.6399,47.3509],[0.6402,47.3517],[0.6391,47.3522],[0.6368,47.3516],[0.6358,47.352],[0.6372,47.3541],[0.6372,47.3557],[0.6384,47.3577],[0.6389,47.3578]]]},"properties":{"id_ffco":"2046","nom":"Lac des Bretonnières","_dept":"37","numero":"1983-D37-008","commune":"Joué-lès-Tours","echelle":"1/5000","surface":"0.62 km²","format":"A4","annee":"1983","cartographes":"H. Chauvel,J-F. Laurent","proprietaire":"37 - Indre-et-Loire","niveau":"Initiation, Scolaire","specialite":"CO à pied","latitude":"47.3523336696","longitude":"0.641730973991","valide":"Non","ppo":"Non","obsolete":true}},{"type":"Feature","geometry":{"type":"Polygon","coordinates":[[[1.1119,47.1244],[1.1117,47.1315],[1.1129,47.1314],[1.1127,47.1321],[1.114,47.1328],[1.1148,47.1346],[1.117,47.1333],[1.121,47.1374],[1.1246,47.138],[1.1273,47.136],[1.1283,47.1359],[1.1303,47.1346],[1.131,47.1333],[1.132,47.133],[1.1371,47.1374],[1.1424,47.1338],[1.1452,47.1319],[1.1442,47.1286],[1.1459,47.1287],[1.1487,47.1265],[1.1501,47.1243],[1.1496,47.1191],[1.1474,47.1174],[1.15,47.1122],[1.1432,47.1116],[1.1393,47.1118],[1.1374,47.1114],[1.1334,47.1127],[1.1246,47.1176],[1.1245,47.1176],[1.1119,47.1244]]]},"properties":{"id_ffco":"1145","nom":"Forêt de Loches \"Les Hauts Bois\"","_dept":"37","numero":"1982-D37-007","commune":"Sennevières","echelle":"1/15000","surface":"5.83 km²","format":"A4","annee":"1982","cartographes":"J-F. Laurent","proprietaire":"37 - Indre-et-Loire","niveau":"Interrégional","specialite":"CO à pied","latitude":"47.1247939383","longitude":"1.13211148067","valide":"Non","ppo":"Non","obsolete":true}},{"type":"Feature","geometry":{"type":"Polygon","coordinates":[[[0.3931,47.2289],[0.412,47.2067],[0.4228,47.2115],[0.4302,47.2135],[0.4376,47.2157],[0.4433,47.225],[0.463,47.2357],[0.4613,47.2377],[0.4584,47.2396],[0.4541,47.2414],[0.4515,47.2413],[0.45,47.2397],[0.4465,47.2409],[0.4429,47.2424],[0.4393,47.2433],[0.4403,47.2469],[0.3931,47.2289]]]},"properties":{"id_ffco":"666","nom":"Forêt de Chinon \"François 1er\"","_dept":"37","numero":"1982-D37-006","commune":"Cheillé","echelle":"1/15000","surface":"11.41 km²","format":"A3","annee":"1982","cartographes":"G Belmas","proprietaire":"37 - Indre-et-Loire","niveau":"National, International","specialite":"CO à pied","latitude":"47.2276281887","longitude":"0.426158342558","valide":"Non","ppo":"Non","obsolete":true}},{"type":"Feature","geometry":{"type":"Polygon","coordinates":[[[1.0195,47.1452],[1.02,47.1478],[1.0209,47.1502],[1.0223,47.1529],[1.0243,47.1558],[1.029,47.1632],[1.0274,47.1725],[1.0242,47.1823],[1.0317,47.1847],[1.0377,47.1854],[1.04,47.1855],[1.0398,47.1864],[1.047,47.1861],[1.0496,47.1863],[1.0539,47.1896],[1.058,47.1877],[1.0576,47.1869],[1.0561,47.1795],[1.0597,47.1788],[1.0697,47.1654],[1.0588,47.1569],[1.0369,47.1463],[1.0298,47.1454],[1.0243,47.1465],[1.0209,47.1447],[1.0195,47.1452]]]},"properties":{"id_ffco":"665","nom":"Forêt de Loches \"La Poterie\"","_dept":"37","numero":"1981-D37-005","commune":"Genillé","echelle":"1/15000","surface":"11.19 km²","format":"A3","annee":"1981","cartographes":"O. Boisseau,T. Le Tutour,A. Matton,J-M Roumanie","proprietaire":"37 - Indre-et-Loire","niveau":"National, International","specialite":"CO à pied","latitude":"47.1669470856","longitude":"1.04322915739","valide":"Non","ppo":"Non","obsolete":true}},{"type":"Feature","geometry":{"type":"Polygon","coordinates":[[[0.4027,47.2323],[0.4069,47.2265],[0.4186,47.2246],[0.4361,47.2319],[0.4272,47.2416],[0.4027,47.2323]]]},"properties":{"id_ffco":"2045","nom":"Forêt de Chinon \"Agnès Sorel\"","_dept":"37","numero":"1979-D37-004","commune":"Cheillé","echelle":"1/10000","surface":"2.66 km²","format":"A4","annee":"1979","cartographes":"A. Matton,J-P Taillandier","proprietaire":"37 - Indre-et-Loire","niveau":"National, International","specialite":"CO à pied","latitude":"47.2323168947","longitude":"0.419677568825","valide":"Non","ppo":"Non","obsolete":true}},{"type":"Feature","geometry":{"type":"Polygon","coordinates":[[[0.3845,47.2388],[0.3682,47.2328],[0.3522,47.2336],[0.3575,47.2463],[0.3625,47.245],[0.3676,47.2476],[0.3708,47.2478],[0.3773,47.2477],[0.38,47.245],[0.3901,47.2505],[0.3986,47.2475],[0.3959,47.2429],[0.3979,47.2432],[0.3941,47.2374],[0.3845,47.2388]]]},"properties":{"id_ffco":"1144","nom":"Charles VII","_dept":"37","numero":"1979-D37-003","commune":"Cheillé","echelle":"1/15000","surface":"4.16 km²","format":"A4","annee":"1979","cartographes":"A. Matton,J-P Taillandier","proprietaire":"37 - Indre-et-Loire","niveau":"National, International","specialite":"CO à pied","latitude":"47.2412908515","longitude":"0.374761245385","valide":"Non","ppo":"Non","obsolete":true}},{"type":"Feature","geometry":{"type":"Polygon","coordinates":[[[1.0521,47.1725],[1.0589,47.1575],[1.058,47.1568],[1.0371,47.1466],[1.0305,47.1456],[1.0296,47.1458],[1.0248,47.1467],[1.0232,47.1467],[1.0207,47.1456],[1.0198,47.1463],[1.0207,47.1498],[1.0237,47.1549],[1.0258,47.157],[1.0273,47.1597],[1.0287,47.1617],[1.0292,47.1634],[1.029,47.1663],[1.028,47.172],[1.0521,47.1725]]]},"properties":{"id_ffco":"664","nom":"Loches","_dept":"37","numero":"1978-D37-002","commune":"Ferrière-sur-Beaulieu","echelle":"1/15000","surface":"5.84 km²","format":"A4","annee":"1978","cartographes":"A. Matton,J-P Taillandier","proprietaire":"37 - Indre-et-Loire","niveau":"National, International","specialite":"CO à pied","latitude":"47.1594337716","longitude":"1.03944620801","valide":"Non","ppo":"Non","obsolete":true}},{"type":"Feature","geometry":{"type":"Polygon","coordinates":[[[0.4102,47.2354],[0.4181,47.225],[0.4018,47.2187],[0.425,47.2124],[0.4303,47.2172],[0.4341,47.2208],[0.4346,47.2222],[0.4428,47.2249],[0.4468,47.2313],[0.4446,47.2414],[0.4428,47.2433],[0.4446,47.2461],[0.4422,47.2477],[0.4102,47.2354]]]},"properties":{"id_ffco":"1143","nom":"AZAY RIDEAU 37","_dept":"37","numero":"1977-D37-001","commune":"Cheillé","echelle":"1/15000","surface":"6.8 km²","format":"A4","annee":"1977","cartographes":"A. Matton,J-P Taillandier","proprietaire":"37 - Indre-et-Loire","niveau":"Interrégional","specialite":"CO à pied","latitude":"47.2296313088","longitude":"0.428028016708","valide":"Non","ppo":"Non","obsolete":true}}]}