{"type":"FeatureCollection","features":[{"type":"Feature","geometry":null,"properties":{"id_ffco":"3676","nom":"MONTRICHARD Le Rond des Rois","_dept":"41","numero":"2003-D41-014","commune":"Montrichard","echelle":"1/10000","surface":"6.28 km²","format":"A4","annee":"2003","proprietaire":"37 - Indre-et-Loire","specialite":"CO à pied","latitude":"47.3437224","longitude":"1.1849997","date_saisie":"04/09/2003","date_depot":"05/09/2003","valide":"Non","ppo":"Non","obsolete":true}},{"type":"Feature","geometry":{"type":"Polygon","coordinates":[[[1.2396,47.5803],[1.2471,47.5818],[1.2507,47.5818],[1.2521,47.5819],[1.2542,47.5824],[1.2511,47.5895],[1.2632,47.5987],[1.2606,47.6013],[1.2598,47.602],[1.2567,47.6031],[1.2536,47.6049],[1.2517,47.6065],[1.2504,47.6079],[1.2484,47.6087],[1.2468,47.6089],[1.2446,47.6083],[1.2435,47.6078],[1.2424,47.607],[1.2419,47.606],[1.2421,47.6049],[1.2431,47.604],[1.243,47.6035],[1.2415,47.6029],[1.2408,47.602],[1.2408,47.6013],[1.2394,47.6009],[1.2386,47.6012],[1.2379,47.602],[1.2359,47.6024],[1.2348,47.6022],[1.2344,47.6017],[1.2344,47.6014],[1.2332,47.6005],[1.2316,47.6015],[1.2293,47.6003],[1.2294,47.5992],[1.2294,47.5977],[1.2298,47.597],[1.2291,47.5961],[1.2275,47.5953],[1.2264,47.5933],[1.225,47.5922],[1.224,47.5895],[1.2242,47.5864],[1.2396,47.5803]]]},"properties":{"id_ffco":"675","nom":"Forêt de Blois \"Le Fort à Mouton\"","_dept":"41","numero":"1994-D41-010","commune":"Molineuf","echelle":"1/15000","surface":"5.46 km²","format":"A4","annee":"1994","cartographes":"P. Pennequin","proprietaire":"CE - Centre-Val de Loire","niveau":"Interrégional","specialite":"CO à pied","latitude":"47.5936907499","longitude":"1.24279998174","valide":"Non","ppo":"Non","obsolete":true}},{"type":"Feature","geometry":{"type":"Polygon","coordinates":[[[1.3254,47.5533],[1.327,47.5529],[1.323,47.5488],[1.323,47.5454],[1.3241,47.5453],[1.3265,47.5335],[1.3242,47.5316],[1.3546,47.5343],[1.3649,47.5497],[1.3649,47.5574],[1.3594,47.5584],[1.3531,47.5639],[1.352,47.5648],[1.3507,47.5658],[1.3464,47.5653],[1.3407,47.5626],[1.3345,47.5588],[1.3289,47.5552],[1.3254,47.5533]]]},"properties":{"id_ffco":"674","nom":"Forêt de Russy \"L'Etoile\"","_dept":"41","numero":"1993-D41-008","commune":"St-Gervais-la-Forêt","echelle":"1/15000","surface":"8.41 km²","format":"A4","annee":"1993","cartographes":"P. Pennequin","proprietaire":"CE - Centre-Val de Loire","niveau":"Interrégional","specialite":"CO à pied","latitude":"47.547784307","longitude":"1.34383538623","valide":"Non","ppo":"Non","obsolete":true}},{"type":"Feature","geometry":{"type":"Polygon","coordinates":[[[1.2542,47.5829],[1.2617,47.5832],[1.2659,47.5833],[1.2684,47.5831],[1.2745,47.5815],[1.283,47.5808],[1.2964,47.5827],[1.2978,47.5826],[1.2992,47.5816],[1.3009,47.5794],[1.3016,47.5765],[1.3002,47.5761],[1.2691,47.5585],[1.2647,47.5574],[1.2592,47.5564],[1.2566,47.5592],[1.2497,47.5566],[1.2439,47.5705],[1.258,47.5734],[1.254,47.5827],[1.2542,47.5829]]]},"properties":{"id_ffco":"673","nom":"Forêt de Blois \"Louis XII\"","_dept":"41","numero":"1991-D41-007","commune":"Blois","echelle":"1/15000","surface":"7.7 km²","format":"A4","annee":"1991","cartographes":"C. Cuisset,P. Pennequin","proprietaire":"CE - Centre-Val de Loire","niveau":"Régional","specialite":"CO à pied","latitude":"47.5712689905","longitude":"1.27023249861","valide":"Non","ppo":"Non","obsolete":true}},{"type":"Feature","geometry":null,"properties":{"id_ffco":"3203","nom":"Le Bois des Cerfs","_dept":"41","numero":"1996-D41-006","commune":"Romorantin","surface":"None km²","annee":"1996","proprietaire":"4101","specialite":"CO à pied","latitude":"47.3594413","longitude":"1.7444366","valide":"Non","ppo":"Non","obsolete":true}},{"type":"Feature","geometry":{"type":"Polygon","coordinates":[[[1.2785,47.5642],[1.2833,47.5628],[1.2866,47.5611],[1.2846,47.5593],[1.2841,47.5581],[1.2837,47.5545],[1.2807,47.5505],[1.2793,47.5498],[1.2781,47.5484],[1.2766,47.5479],[1.2746,47.5475],[1.2737,47.5465],[1.2722,47.5447],[1.2714,47.5424],[1.2715,47.541],[1.272,47.5409],[1.2689,47.5385],[1.2659,47.5369],[1.2642,47.5369],[1.261,47.5362],[1.2599,47.5354],[1.2575,47.5372],[1.2567,47.5401],[1.2496,47.5388],[1.25,47.5377],[1.2468,47.5365],[1.2467,47.5362],[1.2441,47.5355],[1.243,47.5373],[1.243,47.5379],[1.2418,47.5388],[1.241,47.5402],[1.2408,47.5411],[1.2428,47.5424],[1.2453,47.5438],[1.2456,47.5449],[1.2452,47.5464],[1.244,47.5472],[1.2457,47.5485],[1.2474,47.55],[1.2465,47.55],[1.2445,47.5493],[1.243,47.5492],[1.243,47.5496],[1.2442,47.5515],[1.2442,47.5526],[1.244,47.5528],[1.2428,47.5531],[1.2417,47.5543],[1.2417,47.5555],[1.242,47.5576],[1.2751,47.5654],[1.2785,47.5642]]]},"properties":{"id_ffco":"672","nom":"Forêt de Blois \"La Vallée des Cigognes\"","_dept":"41","numero":"1988-D41-005","commune":"Chouzy-sur-Cisse","echelle":"1/15000","surface":"7.19 km²","format":"A4","annee":"1988","cartographes":"C. Cuisset,J. Hemery,G. Husson,P. Pennequin","proprietaire":"CE - Centre-Val de Loire","niveau":"Interrégional","specialite":"CO à pied","latitude":"47.5510516017","longitude":"1.262285351","valide":"Non","ppo":"Non","obsolete":true}},{"type":"Feature","geometry":{"type":"Polygon","coordinates":[[[1.2284,47.5786],[1.2405,47.5811],[1.248,47.5825],[1.2513,47.5825],[1.2547,47.583],[1.2628,47.5832],[1.2669,47.5832],[1.2686,47.5831],[1.2717,47.5822],[1.2748,47.5812],[1.2753,47.5812],[1.2769,47.5771],[1.2784,47.564],[1.2691,47.5583],[1.2545,47.5544],[1.2496,47.5515],[1.2478,47.55],[1.2453,47.5496],[1.2437,47.549],[1.2425,47.549],[1.2446,47.5518],[1.2441,47.5526],[1.2427,47.5531],[1.2413,47.5556],[1.242,47.5582],[1.2393,47.5629],[1.2387,47.5647],[1.2387,47.565],[1.2338,47.5649],[1.2302,47.5637],[1.2283,47.5635],[1.2245,47.5634],[1.2212,47.5634],[1.2199,47.5643],[1.2188,47.5669],[1.2218,47.5684],[1.2224,47.5702],[1.2236,47.5722],[1.2235,47.5742],[1.225,47.5746],[1.2272,47.5781],[1.2284,47.5786]]]},"properties":{"id_ffco":"1152","nom":"Forêt de Blois \"Les Sablonnières\"","_dept":"41","numero":"1986-D41-004","commune":"Chambon-sur-Cisse","echelle":"1/15000","surface":"10.5 km²","format":"A4","annee":"1986","cartographes":"J-F. Laurent,P. Pennequin","proprietaire":"CE - Centre-Val de Loire","niveau":"Interrégional","specialite":"CO à pied","latitude":"47.5693036299","longitude":"1.25200210744","valide":"Non","ppo":"Non","obsolete":true}},{"type":"Feature","geometry":{"type":"Polygon","coordinates":[[[1.3119,47.5428],[1.3123,47.5409],[1.3145,47.5332],[1.3175,47.5304],[1.3254,47.5313],[1.3682,47.5356],[1.3641,47.5483],[1.3699,47.5569],[1.3675,47.5582],[1.3656,47.5573],[1.3594,47.5584],[1.3563,47.5611],[1.352,47.565],[1.3505,47.5661],[1.3491,47.5661],[1.3462,47.5658],[1.3345,47.5586],[1.332,47.5605],[1.3305,47.5595],[1.3328,47.5577],[1.3244,47.5525],[1.3155,47.546],[1.3119,47.5428]]]},"properties":{"id_ffco":"1151","nom":"Forêt de Russy \"Les Relles\"","_dept":"41","numero":"1986-D41-003","commune":"St-Gervais-la-Forêt","echelle":"1/15000","surface":"11.19 km²","format":"A4","annee":"1986","cartographes":"J-F. Laurent,P. Pennequin","proprietaire":"CE - Centre-Val de Loire","niveau":"Interrégional","specialite":"CO à pied","latitude":"47.5461409991","longitude":"1.34172541324","valide":"Non","ppo":"Non","obsolete":true}},{"type":"Feature","geometry":{"type":"Polygon","coordinates":[[[1.2398,47.5803],[1.2399,47.5804],[1.2418,47.5808],[1.2474,47.5818],[1.2509,47.5818],[1.2531,47.5821],[1.2545,47.5824],[1.2605,47.5826],[1.2657,47.5826],[1.2684,47.5823],[1.2708,47.5817],[1.2686,47.5865],[1.2702,47.5881],[1.2749,47.5943],[1.2769,47.5948],[1.2754,47.597],[1.273,47.5962],[1.2708,47.596],[1.2693,47.5952],[1.2683,47.5966],[1.2698,47.5987],[1.2683,47.5995],[1.2646,47.5984],[1.2636,47.5987],[1.2604,47.6017],[1.2583,47.6024],[1.255,47.6041],[1.2526,47.6057],[1.2506,47.608],[1.2474,47.609],[1.2437,47.6079],[1.242,47.6065],[1.2421,47.605],[1.243,47.6042],[1.2414,47.6031],[1.2405,47.6011],[1.239,47.6011],[1.2368,47.6024],[1.2345,47.6023],[1.233,47.6013],[1.2313,47.5994],[1.2296,47.5984],[1.226,47.5956],[1.2242,47.5921],[1.224,47.5864],[1.2398,47.5803]]]},"properties":{"id_ffco":"671","nom":"Forêt de Blois \"Le Fort à l'Âne\"","_dept":"41","numero":"1982-D41-002","commune":"Molineuf","echelle":"1/15000","surface":"7.72 km²","format":"A4","annee":"1982","cartographes":"A. Matton,P. Pennequin","proprietaire":"CE - Centre-Val de Loire","niveau":"National, International","specialite":"CO à pied","latitude":"47.5926803991","longitude":"1.24850665601","valide":"Non","ppo":"Non","obsolete":true}},{"type":"Feature","geometry":{"type":"Polygon","coordinates":[[[1.2579,47.5735],[1.2656,47.583],[1.2677,47.5829],[1.2703,47.5824],[1.2741,47.5812],[1.2828,47.5806],[1.2844,47.5807],[1.297,47.5829],[1.3001,47.5823],[1.3004,47.5819],[1.299,47.5816],[1.3014,47.579],[1.3031,47.5768],[1.3005,47.5765],[1.2781,47.5638],[1.2579,47.5735]]]},"properties":{"id_ffco":"670","nom":"Forêt de Blois \"Les Allées\"","_dept":"41","numero":"1982-D41-001","commune":"Blois","echelle":"1/15000","surface":"4.17 km²","format":"A4","annee":"1982","cartographes":"J-L Attard,D. Bonnefoy,A. Franzin","proprietaire":"CE - Centre-Val de Loire","niveau":"National, International","specialite":"CO à pied","latitude":"47.5749413212","longitude":"1.27933973684","valide":"Non","ppo":"Non","obsolete":true}},{"type":"Feature","geometry":null,"properties":{"id_ffco":"248","nom":"Blois","_dept":"41","numero":"????-D41-","commune":"Blois","surface":"None km²","latitude":"47.5859427","longitude":"1.3300966","valide":"Non","ppo":"Oui","obsolete":true}}]}