{"type":"FeatureCollection","features":[{"type":"Feature","geometry":{"type":"Polygon","coordinates":[[[4.4413,45.4281],[4.4416,45.4283],[4.4439,45.4289],[4.4447,45.4294],[4.4454,45.4303],[4.446,45.4304],[4.4466,45.4302],[4.4473,45.4302],[4.4478,45.4293],[4.4486,45.4284],[4.4487,45.4278],[4.4493,45.4268],[4.4494,45.4253],[4.449,45.425],[4.4482,45.4251],[4.4472,45.4257],[4.447,45.4261],[4.4461,45.4266],[4.4453,45.4269],[4.4446,45.427],[4.4435,45.427],[4.4428,45.4274],[4.4413,45.4281],[4.4413,45.4281],[4.4413,45.4281]]]},"properties":{"id_ffco":"6292","nom":"LA PEROTIERE III","_dept":"42","numero":"2000-D42-99","commune":"SAINT-ETIENNE","echelle":"1/4000","surface":"0.18 km²","annee":"2000","cartographes":"LAGORCE Georges","proprietaire":"42 - Loire","specialite":"CO à pied","contacts":"CDCO 42, 06 75 41 56 36, cdcoloire@free.fr, http://cdcoloire.free.fr","latitude":"45.42776","longitude":"4.44656","date_saisie":"19/07/2013","valide":"Non","ppo":"Non","obsolete":true}},{"type":"Feature","geometry":{"type":"Polygon","coordinates":[[[3.9461,46.1601],[3.9463,46.1628],[3.9474,46.1655],[3.9493,46.1685],[3.952,46.1692],[3.9548,46.1699],[3.9583,46.1707],[3.9657,46.1719],[3.9715,46.173],[3.9766,46.1755],[3.9798,46.1758],[3.9802,46.1763],[3.9843,46.1765],[3.9867,46.1762],[3.9885,46.173],[3.9891,46.171],[3.9926,46.1684],[3.995,46.1662],[3.9933,46.1646],[3.9912,46.1629],[3.9858,46.1628],[3.9871,46.1608],[3.9859,46.1588],[3.984,46.1571],[3.9783,46.1541],[3.9785,46.1521],[3.9808,46.1503],[3.9819,46.1489],[3.9822,46.1476],[3.9758,46.1449],[3.9713,46.148],[3.9672,46.1507],[3.9643,46.1518],[3.9622,46.1541],[3.9607,46.156],[3.9592,46.1562],[3.9573,46.156],[3.954,46.1557],[3.952,46.1568],[3.9487,46.1587],[3.9464,46.1602],[3.9463,46.1602],[3.9461,46.1601],[3.9461,46.1601]]]},"properties":{"id_ffco":"5940","nom":"FORET DEPARTEMENTALE DE LESPINASSE","_dept":"42","numero":"2000-D42-98","commune":"NOAILLY","echelle":"1/10000","surface":"7.1 km²","annee":"2000","cartographes":"PLOCKYN Daniel","proprietaire":"42 - Loire","specialite":"CO à pied","contacts":"CDCO 42, 06 75 41 56 36, cdcoloire@free.fr, http://cdcoloire.free.fr","latitude":"46.16073","longitude":"3.97053","date_saisie":"19/07/2013","valide":"Non","ppo":"Non","obsolete":true}},{"type":"Feature","geometry":{"type":"Polygon","coordinates":[[[3.7997,46.0058],[3.8013,46.0058],[3.8022,46.0071],[3.8051,46.0074],[3.8068,46.007],[3.8089,46.008],[3.8091,46.0122],[3.8226,46.0123],[3.8229,46.0112],[3.824,46.0104],[3.825,46.008],[3.8249,46.0051],[3.826,46.0031],[3.8262,46.0007],[3.8262,45.9981],[3.8268,45.986],[3.8105,45.986],[3.8106,45.99],[3.8039,45.9913],[3.8005,45.9918],[3.7999,45.9983],[3.8055,46.001],[3.8041,46.0039],[3.8001,46.005],[3.7997,46.0058]]]},"properties":{"id_ffco":"5953","nom":"LE GUE DE LA CHAUX","_dept":"42","numero":"2000-D42-96","commune":"MARSAC-EN-LIVRADOIS","echelle":"1/10000","surface":"4.75 km²","annee":"2000","cartographes":"COTIRTA Marian","proprietaire":"42 - Loire","specialite":"CO à pied","contacts":"CDCO 42, 06 75 41 56 36, cdcoloire@free.fr, http://cdcoloire.free.fr","latitude":"45.99912","longitude":"3.81326","date_saisie":"19/07/2013","valide":"Non","ppo":"Non","obsolete":true}},{"type":"Feature","geometry":{"type":"Polygon","coordinates":[[[3.7912,46.0058],[3.7908,46.0052],[3.79,46.0042],[3.789,46.0035],[3.7878,46.003],[3.7864,46.0027],[3.7851,46.0026],[3.7841,46.0023],[3.7835,46.0021],[3.7851,46.0007],[3.7853,45.9999],[3.7856,45.9988],[3.7855,45.9977],[3.7857,45.9971],[3.7871,45.9972],[3.7876,45.9968],[3.7957,45.9829],[3.7965,45.9841],[3.7973,45.9848],[3.7981,45.9855],[3.7991,45.9864],[3.8005,45.9859],[3.8014,45.9851],[3.802,45.9847],[3.8035,45.9845],[3.806,45.9845],[3.8075,45.9847],[3.8083,45.9849],[3.8091,45.9858],[3.8101,45.9865],[3.811,45.9871],[3.812,45.9872],[3.8135,45.9872],[3.8153,45.9869],[3.8162,45.9867],[3.8174,45.9869],[3.8186,45.9869],[3.8199,45.9873],[3.8202,45.9877],[3.8201,45.9883],[3.8197,45.9894],[3.82,45.9901],[3.8213,45.9916],[3.8226,45.9932],[3.8235,45.9945],[3.8248,45.996],[3.8255,45.9964],[3.8273,45.9969],[3.8282,45.9974],[3.8291,45.9983],[3.8305,45.9992],[3.8317,45.9999],[3.832,46.0001],[3.832,46.0019],[3.8305,46.0018],[3.8293,46.008],[3.8279,46.0088],[3.8284,46.0092],[3.8287,46.01],[3.8311,46.0131],[3.8217,46.019],[3.8221,46.0223],[3.8211,46.0237],[3.8215,46.0254],[3.822,46.0263],[3.8136,46.0268],[3.7988,46.0272],[3.7981,46.0256],[3.7967,46.0251],[3.796,46.0245],[3.7951,46.0247],[3.7944,46.0244],[3.7919,46.0241],[3.7908,46.0236],[3.7902,46.0236],[3.7892,46.0236],[3.789,46.0232],[3.7898,46.0232],[3.7895,46.0227],[3.7887,46.0216],[3.7884,46.021],[3.7885,46.0202],[3.7871,46.0201],[3.787,46.0197],[3.788,46.0193],[3.7881,46.0184],[3.7884,46.0177],[3.7873,46.0173],[3.7873,46.0158],[3.7912,46.0058]]]},"properties":{"id_ffco":"7405","nom":"LA LOGE DES GARDES","_dept":"42","numero":"2000-D42-95","echelle":"1/10000","surface":"12.81 km²","annee":"2000","niveau":"National, International","specialite":"CO à pied","latitude":"46.0062770205","longitude":"3.80751472162","date_saisie":"04/07/2014","valide":"Non","ppo":"Non","obsolete":true}},{"type":"Feature","geometry":null,"properties":{"id_ffco":"6169","nom":"LA GRANDE BORNE","_dept":"42","numero":"2000-D42-94","commune":"LA VALLA-EN-GIER","echelle":"1/10000","surface":"10.0 km²","annee":"2000","cartographes":"MAREIGNER Franz et Yann","proprietaire":"42 - Loire","specialite":"CO à pied","contacts":"CDCO 42, 06 75 41 56 36, cdcoloire@free.fr, http://cdcoloire.free.fr","latitude":"45.43189","longitude":"4.53407","date_saisie":"19/07/2013","valide":"Non","ppo":"Non","obsolete":true}},{"type":"Feature","geometry":{"type":"Polygon","coordinates":[[[4.515,45.4154],[4.5184,45.413],[4.52,45.4103],[4.5161,45.4098],[4.5144,45.4127],[4.5121,45.4147],[4.5122,45.4156],[4.5148,45.4156],[4.515,45.4154]]]},"properties":{"id_ffco":"5935","nom":"PARC DE FONTALON","_dept":"42","numero":"2000-D42-93","commune":"LA VALLA-EN-GIER","echelle":"1/10000","surface":"0.19 km²","annee":"2000","cartographes":"MAREIGNER Franz et Yann","proprietaire":"42 - Loire","specialite":"CO à pied","contacts":"CDCO 42, 06 75 41 56 36, cdcoloire@free.fr, http://cdcoloire.free.fr","latitude":"45.41268","longitude":"4.51607","date_saisie":"19/07/2013","valide":"Non","ppo":"Non","obsolete":true}},{"type":"Feature","geometry":null,"properties":{"id_ffco":"6042","nom":"BOIS DE MABEUX MARHLES","_dept":"42","numero":"1999-D42-92","commune":"LA VALLA-EN-GIER","echelle":"1/10000","surface":"None km²","annee":"1999","cartographes":"INCONNU","proprietaire":"6913 - CRAPAHUT SAINTE-FOY-LES-LYON","specialite":"CO à pied","contacts":"CLUB CRAPAHUT, 04 78 59 30 78, 06 76 31 53 79, crapahut@free.fr, http://crapahut.free.fr/co/index.php","latitude":"45.42213","longitude":"4.52662","date_saisie":"19/07/2013","valide":"Non","ppo":"Non","obsolete":true}},{"type":"Feature","geometry":{"type":"Polygon","coordinates":[[[3.9638,45.4888],[3.9704,45.4871],[3.981,45.4901],[3.9861,45.4942],[3.9848,45.498],[3.9824,45.4995],[3.9824,45.502],[3.9853,45.5026],[3.9858,45.5054],[3.9834,45.5104],[3.9757,45.5209],[3.968,45.5207],[3.9564,45.5207],[3.9395,45.5202],[3.9374,45.5178],[3.9398,45.5116],[3.9401,45.5084],[3.9374,45.5042],[3.942,45.5001],[3.9422,45.4988],[3.9434,45.498],[3.9511,45.4967],[3.9532,45.4942],[3.9638,45.4888]]]},"properties":{"id_ffco":"5810","nom":"ST JEAN DE SOLEYMIEUX LES MARAIS","_dept":"42","numero":"1999-D42-90","commune":"GUMIERES","echelle":"1/15000","surface":"10.76 km²","annee":"1999","cartographes":"MAREIGNER Franz et Yann","proprietaire":"42 - Loire","specialite":"CO à pied","contacts":"CDCO 42, 06 75 41 56 36, cdcoloire@free.fr, http://cdcoloire.free.fr","latitude":"45.504","longitude":"3.96177","date_saisie":"19/07/2013","valide":"Non","ppo":"Non","obsolete":true}},{"type":"Feature","geometry":null,"properties":{"id_ffco":"5919","nom":"LES COTES","_dept":"42","numero":"1998-D42-89","commune":"MAROLS","echelle":"1/2000","surface":"None km²","annee":"1998","cartographes":"MAREIGNER Franz et Yann","proprietaire":"42 - Loire","specialite":"CO à pied","contacts":"CDCO 42, 06 75 41 56 36, cdcoloire@free.fr, http://cdcoloire.free.fr","latitude":"45.4745","longitude":"4.0383","date_saisie":"19/07/2013","valide":"Non","ppo":"Non","obsolete":true}},{"type":"Feature","geometry":{"type":"Polygon","coordinates":[[[4.5156,45.3697],[4.5184,45.3681],[4.5212,45.3691],[4.5282,45.3686],[4.5286,45.3666],[4.5308,45.3658],[4.5321,45.3633],[4.5397,45.3584],[4.5388,45.3559],[4.5407,45.3544],[4.5405,45.3516],[4.5388,45.3483],[4.5409,45.3475],[4.5416,45.3456],[4.54,45.3415],[4.5362,45.3411],[4.5349,45.3349],[4.539,45.3327],[4.5425,45.3299],[4.5425,45.3271],[4.5462,45.3263],[4.5449,45.3238],[4.5397,45.3235],[4.537,45.3215],[4.5352,45.3178],[4.5333,45.3167],[4.531,45.3171],[4.5279,45.3179],[4.5271,45.317],[4.5266,45.3157],[4.5257,45.3157],[4.522,45.3175],[4.5219,45.3204],[4.5224,45.3244],[4.5204,45.3227],[4.5174,45.3226],[4.5188,45.3205],[4.5161,45.3165],[4.5131,45.3164],[4.5087,45.3178],[4.5077,45.3182],[4.5057,45.3179],[4.5046,45.3185],[4.5044,45.3205],[4.5014,45.3205],[4.4979,45.3201],[4.4927,45.3219],[4.4901,45.3242],[4.486,45.3242],[4.484,45.3251],[4.4809,45.3266],[4.479,45.3285],[4.4798,45.3348],[4.4779,45.3387],[4.4779,45.3431],[4.4805,45.3448],[4.4825,45.345],[4.4808,45.3464],[4.4794,45.349],[4.4767,45.3496],[4.4776,45.3536],[4.4786,45.3563],[4.4798,45.3551],[4.4835,45.3566],[4.4884,45.3566],[4.4836,45.3584],[4.4855,45.3604],[4.4859,45.3621],[4.4837,45.3631],[4.4831,45.3649],[4.4849,45.368],[4.4857,45.3681],[4.4851,45.37],[4.4869,45.3737],[4.489,45.3739],[4.4925,45.3742],[4.4992,45.3734],[4.5032,45.3736],[4.5071,45.3713],[4.5127,45.3712],[4.5156,45.3697]]]},"properties":{"id_ffco":"6221","nom":"LA MADONE","_dept":"42","numero":"1998-D42-84","commune":"LE BESSAT","echelle":"1/20000","surface":"25.55 km²","annee":"1998","cartographes":"COTIRTA Marian","proprietaire":"42 - Loire","specialite":"Raid'O","contacts":"CDCO 42, 06 75 41 56 36, cdcoloire@free.fr, http://cdcoloire.free.fr","latitude":"45.34496","longitude":"4.51145","date_saisie":"19/07/2013","valide":"Non","ppo":"Non","obsolete":true}},{"type":"Feature","geometry":{"type":"Polygon","coordinates":[[[4.6037,45.517],[4.605,45.5146],[4.6027,45.5137],[4.6018,45.5124],[4.6017,45.5114],[4.5995,45.5122],[4.5987,45.5129],[4.5975,45.5144],[4.5979,45.5155],[4.5988,45.516],[4.6,45.5157],[4.6012,45.516],[4.6016,45.5164],[4.6037,45.517],[4.6037,45.517]]]},"properties":{"id_ffco":"6172","nom":"LE GRAND PONT","_dept":"42","numero":"1998-D42-83","commune":"RIVE-DE-GIER","echelle":"1/4000","surface":"0.2 km²","annee":"1998","cartographes":"TARDY O","proprietaire":"42 - Loire","specialite":"CO à pied","contacts":"CDCO 42, 06 75 41 56 36, cdcoloire@free.fr, http://cdcoloire.free.fr","latitude":"45.51456","longitude":"4.6011","date_saisie":"19/07/2013","valide":"Non","ppo":"Non","obsolete":true}},{"type":"Feature","geometry":{"type":"Polygon","coordinates":[[[4.6314,45.3757],[4.6329,45.3762],[4.6354,45.3767],[4.6382,45.377],[4.6405,45.3775],[4.6421,45.3775],[4.6447,45.3773],[4.6472,45.3775],[4.6501,45.3774],[4.6534,45.3778],[4.6565,45.3781],[4.6593,45.3787],[4.6615,45.3788],[4.6627,45.3795],[4.6649,45.3791],[4.6655,45.3781],[4.6654,45.377],[4.666,45.3754],[4.6663,45.3742],[4.6667,45.3733],[4.6667,45.3724],[4.6662,45.371],[4.6662,45.3699],[4.6661,45.3691],[4.6652,45.3677],[4.664,45.3674],[4.6633,45.3672],[4.6618,45.3675],[4.6612,45.367],[4.6588,45.3663],[4.657,45.3662],[4.6557,45.3657],[4.6545,45.3654],[4.6537,45.3639],[4.6525,45.3634],[4.6508,45.363],[4.6477,45.3626],[4.6449,45.3628],[4.6432,45.3632],[4.6404,45.364],[4.6379,45.3655],[4.6356,45.3668],[4.634,45.3681],[4.6321,45.3688],[4.6298,45.3706],[4.6297,45.3715],[4.6305,45.3732],[4.6305,45.3739],[4.6314,45.3757],[4.6314,45.3757]]]},"properties":{"id_ffco":"6043","nom":"BOIS DE PRIAUX","_dept":"42","numero":"1998-D42-82","commune":"VERANNE","echelle":"1/5000","surface":"3.79 km²","annee":"1998","cartographes":"MAREIGNER Franz et Yann","proprietaire":"4203 - ORIENT'EXPRESS 42","specialite":"CO à pied","contacts":"CLUB ORIENT-EXPRESS42, 04 74 84 51 29, ljc.le.dreau@free.fr","latitude":"45.37406","longitude":"4.63671","date_saisie":"19/07/2013","valide":"Non","ppo":"Non","obsolete":true}},{"type":"Feature","geometry":{"type":"Polygon","coordinates":[[[4.6408,45.3714],[4.6428,45.3708],[4.6448,45.3709],[4.6516,45.3694],[4.6503,45.3662],[4.6517,45.3652],[4.6518,45.364],[4.6492,45.3638],[4.6467,45.363],[4.6427,45.3638],[4.6386,45.3638],[4.6371,45.3655],[4.6356,45.3702],[4.6347,45.3715],[4.6339,45.3726],[4.6335,45.3731],[4.6368,45.3732],[4.6383,45.3729],[4.6402,45.3717],[4.6408,45.3714]]]},"properties":{"id_ffco":"5863","nom":"CRET DE LA CAMIERE","_dept":"42","numero":"1998-D42-81","commune":"VERANNE","echelle":"1/5000","surface":"0.99 km²","annee":"1998","cartographes":"MAREIGNER Franz et Yann","proprietaire":"4203 - ORIENT'EXPRESS 42","specialite":"CO à pied","contacts":"CLUB ORIENT-EXPRESS42, 04 74 84 51 29, ljc.le.dreau@free.fr","latitude":"45.36831","longitude":"4.64172","date_saisie":"19/07/2013","valide":"Non","ppo":"Non","obsolete":true}},{"type":"Feature","geometry":null,"properties":{"id_ffco":"5789","nom":"LE MOLLARD","_dept":"42","numero":"1998-D42-80","commune":"RIVE-DE-GIER","echelle":"1/2000","surface":"None km²","annee":"1998","cartographes":"MAREIGNER Franz et Yann","proprietaire":"42 - Loire","specialite":"CO à pied","contacts":"CDCO 42, 06 75 41 56 36, cdcoloire@free.fr, http://cdcoloire.free.fr","latitude":"45.52015","longitude":"4.617","date_saisie":"19/07/2013","valide":"Non","ppo":"Non","obsolete":true}},{"type":"Feature","geometry":{"type":"Polygon","coordinates":[[[4.3788,45.5355],[4.3802,45.5349],[4.381,45.5349],[4.3819,45.534],[4.3834,45.5327],[4.3842,45.5324],[4.3826,45.5315],[4.382,45.5317],[4.3809,45.5318],[4.3804,45.5317],[4.3795,45.5324],[4.3777,45.5333],[4.3776,45.5337],[4.3787,45.5339],[4.3788,45.5344],[4.3781,45.5351],[4.3788,45.5355],[4.3788,45.5355]]]},"properties":{"id_ffco":"6131","nom":"ZONE DU PLAN D'EAU DE ST HEAND","_dept":"42","numero":"1998-D42-79","commune":"SAINT-HEAND","echelle":"1/2500","surface":"0.11 km²","annee":"1998","cartographes":"ROULLIER THOMAS","proprietaire":"42 - Loire","specialite":"CO à pied","contacts":"CDCO 42, 06 75 41 56 36, cdcoloire@free.fr, http://cdcoloire.free.fr","latitude":"45.53324","longitude":"4.38082","date_saisie":"19/07/2013","valide":"Non","ppo":"Non","obsolete":true}},{"type":"Feature","geometry":{"type":"Polygon","coordinates":[[[4.5738,45.2974],[4.5736,45.2983],[4.5732,45.2991],[4.5738,45.2995],[4.5782,45.2998],[4.5816,45.3],[4.5826,45.2999],[4.5826,45.2995],[4.5831,45.2991],[4.5831,45.2981],[4.5816,45.2978],[4.5745,45.2972],[4.5738,45.2974],[4.5738,45.2974]]]},"properties":{"id_ffco":"6170","nom":"BASE LOISIRS DE BOURG-ARGENTAL","_dept":"42","numero":"1998-D42-77","commune":"BOURG-ARGENTAL","echelle":"1/3000","surface":"0.18 km²","annee":"1998","cartographes":"PARET Bernard","proprietaire":"4203 - ORIENT'EXPRESS 42","specialite":"CO à pied","contacts":"CLUB ORIENT-EXPRESS42, 04 74 84 51 29, ljc.le.dreau@free.fr","latitude":"45.29887","longitude":"4.57765","date_saisie":"19/07/2013","valide":"Non","ppo":"Non","obsolete":true}},{"type":"Feature","geometry":{"type":"Polygon","coordinates":[[[3.9521,45.4957],[3.9494,45.4976],[3.9458,45.4977],[3.9441,45.51],[3.9458,45.5106],[3.9462,45.5126],[3.9445,45.5134],[3.9435,45.5183],[3.9462,45.518],[3.9469,45.5166],[3.9536,45.5174],[3.9546,45.5189],[3.9691,45.5192],[3.9691,45.516],[3.9659,45.5143],[3.9652,45.5098],[3.9671,45.5076],[3.968,45.5056],[3.9681,45.5038],[3.968,45.5001],[3.9675,45.4971],[3.9691,45.4949],[3.969,45.493],[3.9657,45.4924],[3.9575,45.4923],[3.9521,45.4957]]]},"properties":{"id_ffco":"6133","nom":"CHANTEREINE LES MARAIS","_dept":"42","numero":"1997-D42-75","commune":"SAINT-CLEMENT-DE-VALORGUE","echelle":"1/10000","surface":"4.73 km²","annee":"1997","cartographes":"MAREIGNER Franz et Yann","proprietaire":"42 - Loire","specialite":"CO à pied","contacts":"CDCO 42, 06 75 41 56 36, cdcoloire@free.fr, http://cdcoloire.free.fr","latitude":"45.50574","longitude":"3.95632","date_saisie":"19/07/2013","valide":"Non","ppo":"Non","obsolete":true}},{"type":"Feature","geometry":{"type":"Polygon","coordinates":[[[3.9912,45.4734],[3.9935,45.4737],[3.9939,45.4745],[3.9934,45.4774],[3.9937,45.4786],[3.9955,45.479],[3.996,45.4796],[3.9963,45.4816],[3.9968,45.4825],[3.9968,45.4843],[3.9974,45.4856],[3.9982,45.4873],[4.0083,45.4867],[4.0107,45.4844],[4.0082,45.4775],[4.0096,45.4712],[4.0058,45.4692],[3.9975,45.469],[3.99,45.4704],[3.9899,45.4725],[3.9904,45.4733],[3.9912,45.4734],[3.9912,45.4734]]]},"properties":{"id_ffco":"6178","nom":"LA CHAPELLE EN LAFAYE","_dept":"42","numero":"1997-D42-74","commune":"LA CHAPELLE-EN-LAFAYE","echelle":"1/10000","surface":"2.28 km²","annee":"1997","cartographes":"MAREIGNER Franz et Yann","proprietaire":"42 - Loire","specialite":"CO à pied","contacts":"CDCO 42, 06 75 41 56 36, cdcoloire@free.fr, http://cdcoloire.free.fr","latitude":"45.47487","longitude":"3.99998","date_saisie":"19/07/2013","valide":"Non","ppo":"Non","obsolete":true}},{"type":"Feature","geometry":{"type":"Polygon","coordinates":[[[4.6182,45.4257],[4.6481,45.4241],[4.6546,45.4245],[4.6585,45.4215],[4.6773,45.4163],[4.6869,45.4003],[4.6884,45.3889],[4.6931,45.378],[4.6632,45.3763],[4.6436,45.3727],[4.6369,45.3654],[4.6155,45.3653],[4.6179,45.3793],[4.6155,45.3939],[4.6175,45.4205],[4.6175,45.4256],[4.6182,45.4257]]]},"properties":{"id_ffco":"5766","nom":"LES TROIS DENTS","_dept":"42","numero":"1996-D42-73","commune":"PELUSSIN","echelle":"1/20000","surface":"30.22 km²","annee":"1996","cartographes":"KAJAK Stephane","proprietaire":"SANS ADRESSE","specialite":"Rand'O","contacts":"SANS ADRESSE","latitude":"45.39549","longitude":"4.65426","date_saisie":"19/07/2013","valide":"Non","ppo":"Non","obsolete":true}},{"type":"Feature","geometry":{"type":"Polygon","coordinates":[[[4.0492,45.4796],[4.0486,45.4783],[4.0475,45.4774],[4.0475,45.4767],[4.0483,45.4752],[4.0495,45.4738],[4.0498,45.4727],[4.0499,45.4714],[4.0489,45.4709],[4.0489,45.4705],[4.0499,45.4702],[4.0507,45.4696],[4.0509,45.4682],[4.0514,45.4666],[4.0506,45.4656],[4.0506,45.4652],[4.049,45.4642],[4.0489,45.4631],[4.0489,45.4615],[4.0484,45.46],[4.0476,45.4592],[4.0454,45.4586],[4.0453,45.4596],[4.0452,45.4603],[4.0445,45.4601],[4.0442,45.4596],[4.0426,45.4597],[4.0415,45.4597],[4.0408,45.459],[4.0399,45.4577],[4.0397,45.4562],[4.0401,45.456],[4.0398,45.4552],[4.0385,45.4544],[4.0365,45.4546],[4.0351,45.4548],[4.0342,45.4551],[4.0329,45.4551],[4.0324,45.4551],[4.0316,45.4544],[4.0302,45.4538],[4.0276,45.4536],[4.0251,45.4537],[4.0171,45.453],[4.0127,45.4528],[4.0116,45.4537],[4.0118,45.4556],[4.0131,45.4571],[4.0122,45.4584],[4.0097,45.4603],[4.0066,45.4615],[4.0056,45.4618],[4.0036,45.4622],[4.0015,45.46],[3.9984,45.4571],[3.9961,45.4551],[3.9941,45.4548],[3.9913,45.4563],[3.9898,45.4588],[3.9904,45.4604],[3.9908,45.4613],[3.9904,45.4623],[3.9893,45.4629],[3.9895,45.4644],[3.9909,45.4654],[3.991,45.4669],[3.9903,45.4687],[3.9897,45.47],[3.9907,45.4733],[3.9934,45.4736],[3.9941,45.4742],[3.9938,45.4757],[3.9934,45.4771],[3.9931,45.4778],[3.9942,45.4787],[3.9957,45.4791],[3.9958,45.4805],[3.9969,45.4826],[3.9969,45.4843],[3.997,45.4854],[3.9992,45.488],[4.0007,45.4897],[4.0015,45.4916],[4.005,45.4912],[4.0059,45.4903],[4.0083,45.492],[4.0107,45.4925],[4.0129,45.4921],[4.0137,45.492],[4.0144,45.4898],[4.0156,45.488],[4.0157,45.4867],[4.0168,45.4857],[4.0182,45.4853],[4.0208,45.4851],[4.0232,45.4835],[4.0248,45.4832],[4.0254,45.4824],[4.0278,45.4817],[4.0295,45.4813],[4.0312,45.482],[4.0331,45.4819],[4.0353,45.481],[4.0397,45.4802],[4.0422,45.4786],[4.0437,45.4791],[4.0467,45.4798],[4.0492,45.4796],[4.0492,45.4796]]]},"properties":{"id_ffco":"6223","nom":"MONTARCHER LA CHAPELLE","_dept":"42","numero":"1997-D42-72","commune":"MAROLS","echelle":"1/15000","surface":"14.12 km²","annee":"1997","cartographes":"MAREIGNER Franz et Yann","proprietaire":"42 - Loire","specialite":"CO à pied","contacts":"CDCO 42, 06 75 41 56 36, cdcoloire@free.fr, http://cdcoloire.free.fr","latitude":"45.46497","longitude":"4.01699","date_saisie":"19/07/2013","valide":"Non","ppo":"Non","obsolete":true}},{"type":"Feature","geometry":{"type":"Polygon","coordinates":[[[4.4027,45.4361],[4.403,45.4349],[4.4048,45.434],[4.4049,45.4333],[4.4035,45.4331],[4.402,45.4331],[4.4008,45.4327],[4.3996,45.4327],[4.3975,45.4327],[4.3967,45.4332],[4.3962,45.4342],[4.3968,45.4354],[4.3978,45.4366],[4.3996,45.4367],[4.4013,45.4363],[4.4032,45.4357],[4.4027,45.4361],[4.4027,45.4361]]]},"properties":{"id_ffco":"6228","nom":"LE JARDIN DES PLANTES","_dept":"42","numero":"1996-D42-71","commune":"SAINT-ETIENNE","echelle":"1/4000","surface":"0.21 km²","annee":"1996","cartographes":"LAGORCE Georges","proprietaire":"42 - Loire","specialite":"CO à pied","contacts":"CDCO 42, 06 75 41 56 36, cdcoloire@free.fr, http://cdcoloire.free.fr","latitude":"45.43472","longitude":"4.40004","date_saisie":"19/07/2013","valide":"Non","ppo":"Non","obsolete":true}},{"type":"Feature","geometry":{"type":"Polygon","coordinates":[[[4.3691,45.4479],[4.3691,45.4478],[4.3688,45.4485],[4.3679,45.4497],[4.3676,45.4502],[4.3674,45.4519],[4.3693,45.4529],[4.3686,45.4533],[4.3695,45.454],[4.3707,45.4542],[4.372,45.4548],[4.372,45.4551],[4.373,45.4553],[4.3735,45.4549],[4.3754,45.454],[4.3763,45.4534],[4.3771,45.4513],[4.3774,45.4513],[4.3778,45.45],[4.3753,45.4497],[4.3759,45.4483],[4.376,45.4479],[4.3749,45.4477],[4.3746,45.4477],[4.374,45.4463],[4.3727,45.4462],[4.3712,45.4466],[4.371,45.4468],[4.37,45.4475],[4.3691,45.4479],[4.3691,45.4479]]]},"properties":{"id_ffco":"6163","nom":"PARC DE MONTAUD","_dept":"42","numero":"1997-D42-70","commune":"SAINT-ETIENNE","echelle":"1/5000","surface":"0.52 km²","annee":"1997","cartographes":"LAGORCE Georges","proprietaire":"42 - Loire","specialite":"CO à pied","contacts":"CDCO 42, 06 75 41 56 36, cdcoloire@free.fr, http://cdcoloire.free.fr","latitude":"45.45052","longitude":"4.37272","date_saisie":"19/07/2013","valide":"Non","ppo":"Non","obsolete":true}},{"type":"Feature","geometry":{"type":"Polygon","coordinates":[[[4.5177,45.3698],[4.5176,45.3695],[4.5177,45.3694],[4.5178,45.3696],[4.5176,45.3695],[4.5247,45.3698],[4.5296,45.3685],[4.5303,45.3663],[4.5396,45.3588],[4.5399,45.3548],[4.5403,45.3489],[4.5391,45.3483],[4.5413,45.3472],[4.5401,45.3408],[4.537,45.3408],[4.5348,45.3344],[4.5324,45.3324],[4.5054,45.3316],[4.5054,45.3405],[4.5011,45.3459],[4.4968,45.3514],[4.5018,45.3523],[4.4997,45.3581],[4.4998,45.3576],[4.499,45.3581],[4.4955,45.3575],[4.4963,45.362],[4.5041,45.367],[4.5071,45.365],[4.5123,45.3714],[4.5176,45.3695],[4.5177,45.3698]]]},"properties":{"id_ffco":"6233","nom":"LES GRANDS BOIS","_dept":"42","numero":"1995-D42-68","commune":"TARENTAISE","echelle":"1/15000","surface":"11.52 km²","annee":"1995","cartographes":"COTIRTA Marian","proprietaire":"42 - Loire","specialite":"CO à pied","contacts":"CDCO 42, 06 75 41 56 36, cdcoloire@free.fr, http://cdcoloire.free.fr","latitude":"45.35154","longitude":"4.51839","date_saisie":"19/07/2013","valide":"Non","ppo":"Non","obsolete":true}},{"type":"Feature","geometry":{"type":"Polygon","coordinates":[[[4.6571,45.3944],[4.6599,45.3955],[4.6637,45.3952],[4.6643,45.3941],[4.6662,45.3938],[4.6669,45.3934],[4.6666,45.3913],[4.6658,45.3905],[4.6634,45.3894],[4.6595,45.388],[4.6579,45.3872],[4.6543,45.3891],[4.6543,45.3919],[4.6571,45.3944]]]},"properties":{"id_ffco":"6003","nom":"BOIS DE BLACHEMARD","_dept":"42","numero":"1995-D42-66","commune":"ROISEY","echelle":"1/5000","surface":"0.61 km²","annee":"1995","cartographes":"RAIMBAULT L.","proprietaire":"4203 - ORIENT'EXPRESS 42","specialite":"CO à pied","contacts":"CLUB ORIENT-EXPRESS42, 04 74 84 51 29, ljc.le.dreau@free.fr","latitude":"45.39138","longitude":"4.66056","date_saisie":"19/07/2013","valide":"Non","ppo":"Non","obsolete":true}},{"type":"Feature","geometry":{"type":"Polygon","coordinates":[[[4.3384,45.5225],[4.3407,45.5244],[4.3427,45.5274],[4.3529,45.5254],[4.3539,45.5245],[4.3529,45.5169],[4.3536,45.5101],[4.3529,45.5084],[4.3522,45.5058],[4.347,45.5012],[4.3456,45.5004],[4.3347,45.5004],[4.3294,45.5029],[4.3284,45.5036],[4.328,45.5095],[4.3305,45.5144],[4.3338,45.5165],[4.3369,45.5192],[4.3384,45.5225]]]},"properties":{"id_ffco":"6232","nom":"BOIS DE MONICHARD","_dept":"42","numero":"1995-D42-65","commune":"SAINT-HEAND","echelle":"1/10000","surface":"4.4 km²","annee":"1995","cartographes":"Régis ANTOINE","specialite":"CO à pied","contacts":"CLUB N.O.S.E. SAINT ETIENNE, 06 28 51 66 14, cdnose42@yahoo.fr, http://www.nose42.fr/","latitude":"45.51389","longitude":"4.34093","date_saisie":"19/07/2013","valide":"Non","ppo":"Non","obsolete":true}},{"type":"Feature","geometry":{"type":"Polygon","coordinates":[[[4.4405,45.3812],[4.4404,45.3802],[4.4423,45.3783],[4.4437,45.3761],[4.4455,45.3752],[4.4481,45.3727],[4.4483,45.3717],[4.4468,45.3703],[4.4459,45.3688],[4.4457,45.3675],[4.4469,45.3666],[4.4485,45.3652],[4.4514,45.364],[4.451,45.361],[4.4516,45.355],[4.4451,45.3545],[4.44,45.3538],[4.4312,45.3543],[4.4232,45.3544],[4.4221,45.356],[4.4189,45.3559],[4.4187,45.3623],[4.4189,45.3646],[4.4159,45.3657],[4.4161,45.3687],[4.4128,45.3727],[4.4111,45.3734],[4.4108,45.3756],[4.4113,45.3768],[4.4116,45.3775],[4.411,45.3782],[4.4072,45.3793],[4.406,45.3798],[4.403,45.3811],[4.4025,45.3824],[4.4066,45.3861],[4.4122,45.3897],[4.4165,45.3921],[4.4229,45.3898],[4.4261,45.3895],[4.4291,45.3895],[4.4314,45.3885],[4.4336,45.3884],[4.435,45.3879],[4.4348,45.3871],[4.4361,45.3862],[4.4365,45.3845],[4.4378,45.3831],[4.4384,45.3823],[4.4405,45.3812],[4.4405,45.3812]]]},"properties":{"id_ffco":"6192","nom":"LA CROIX DE TREVES","_dept":"42","numero":"1995-D42-63","commune":"PLANFOY","echelle":"1/15000","surface":"9.9 km²","annee":"1995","cartographes":"SHO Cart","proprietaire":"4203 - ORIENT'EXPRESS 42","specialite":"CO à pied","contacts":"CLUB ORIENT-EXPRESS42, 04 74 84 51 29, ljc.le.dreau@free.fr","latitude":"45.37587","longitude":"4.42983","date_saisie":"19/07/2013","valide":"Non","ppo":"Non","obsolete":true}},{"type":"Feature","geometry":{"type":"Polygon","coordinates":[[[4.3976,45.3366],[4.3973,45.3375],[4.395,45.3379],[4.3926,45.3384],[4.3915,45.3396],[4.3904,45.3409],[4.3858,45.3419],[4.3848,45.3425],[4.3857,45.3483],[4.3874,45.3486],[4.3881,45.3494],[4.3882,45.3506],[4.3852,45.352],[4.3835,45.3537],[4.3831,45.3551],[4.384,45.3561],[4.3841,45.3564],[4.383,45.3571],[4.3827,45.3588],[4.3845,45.3589],[4.3857,45.3591],[4.3914,45.3617],[4.3902,45.3629],[4.3865,45.3645],[4.3854,45.3654],[4.3851,45.3663],[4.3879,45.3688],[4.3908,45.3684],[4.3918,45.368],[4.3932,45.369],[4.3944,45.3696],[4.3965,45.3697],[4.3987,45.3694],[4.4008,45.3685],[4.4016,45.3685],[4.4051,45.369],[4.4081,45.3689],[4.4108,45.3685],[4.4117,45.3682],[4.4134,45.3658],[4.4144,45.3659],[4.4165,45.3658],[4.419,45.3645],[4.4186,45.3605],[4.4191,45.3558],[4.4234,45.3555],[4.4231,45.3538],[4.4222,45.3509],[4.4203,45.3495],[4.4169,45.3484],[4.413,45.3485],[4.4098,45.3479],[4.4078,45.3472],[4.4083,45.3439],[4.4109,45.3418],[4.4116,45.3395],[4.4106,45.3355],[4.4099,45.3349],[4.4064,45.3353],[4.4051,45.3359],[4.4028,45.3358],[4.3998,45.3358],[4.3976,45.3366],[4.3976,45.3366]]]},"properties":{"id_ffco":"5839","nom":"BOIS TERNAY","_dept":"42","numero":"1995-D42-62","commune":"SAINT-GENEST-MALIFAUX","echelle":"1/15000","surface":"8.14 km²","annee":"1995","cartographes":"SHO Cart","proprietaire":"4203 - ORIENT'EXPRESS 42","specialite":"CO à pied","contacts":"CLUB ORIENT-EXPRESS42, 04 74 84 51 29, ljc.le.dreau@free.fr","latitude":"45.35192","longitude":"4.40133","date_saisie":"19/07/2013","valide":"Non","ppo":"Non","obsolete":true}},{"type":"Feature","geometry":{"type":"Polygon","coordinates":[[[4.2622,45.4709],[4.2648,45.4715],[4.2664,45.4714],[4.2676,45.4703],[4.2699,45.4709],[4.2715,45.4716],[4.276,45.4718],[4.2782,45.4714],[4.2823,45.4703],[4.2846,45.4701],[4.2861,45.4702],[4.2862,45.4681],[4.2858,45.4667],[4.2835,45.4664],[4.283,45.4637],[4.2829,45.462],[4.2794,45.4603],[4.2785,45.4594],[4.2786,45.4564],[4.2787,45.455],[4.2792,45.4526],[4.2796,45.451],[4.278,45.4495],[4.2779,45.4481],[4.2823,45.4477],[4.2821,45.4455],[4.2733,45.4459],[4.2665,45.4461],[4.2663,45.4488],[4.2636,45.4515],[4.2614,45.4534],[4.2614,45.4556],[4.2615,45.458],[4.2622,45.4637],[4.2591,45.4661],[4.2588,45.4708],[4.2602,45.4709],[4.2603,45.471],[4.2622,45.4709]]]},"properties":{"id_ffco":"6185","nom":"LES CONDAMINES","_dept":"42","numero":"1994-D42-60","commune":"SAINT-ETIENNE","echelle":"1/10000","surface":"4.22 km²","annee":"1994","cartographes":"SHO Cart","proprietaire":"42 - Loire","specialite":"CO à pied","contacts":"CDCO 42, 06 75 41 56 36, cdcoloire@free.fr, http://cdcoloire.free.fr","latitude":"45.45863","longitude":"4.2725","date_saisie":"19/07/2013","valide":"Non","ppo":"Non","obsolete":true}},{"type":"Feature","geometry":{"type":"Polygon","coordinates":[[[4.2615,45.4544],[4.2616,45.4561],[4.2615,45.4586],[4.2601,45.4611],[4.2598,45.4625],[4.2592,45.4639],[4.2586,45.4649],[4.2592,45.4653],[4.2612,45.4646],[4.263,45.4637],[4.2646,45.4637],[4.2659,45.4644],[4.2675,45.4647],[4.2694,45.4627],[4.2724,45.4602],[4.2736,45.4595],[4.2739,45.4504],[4.2643,45.4499],[4.2636,45.4514],[4.2624,45.453],[4.2615,45.4544]]]},"properties":{"id_ffco":"6184","nom":"PLAT DE GUILLAUME","_dept":"42","numero":"1994-D42-58","commune":"SAINT-ETIENNE","echelle":"1/7500","surface":"1.39 km²","annee":"1994","cartographes":"SHO Cart","proprietaire":"42 - Loire","specialite":"CO à pied","contacts":"CDCO 42, 06 75 41 56 36, cdcoloire@free.fr, http://cdcoloire.free.fr","latitude":"45.45762","longitude":"4.26624","date_saisie":"19/07/2013","valide":"Non","ppo":"Non","obsolete":true}},{"type":"Feature","geometry":{"type":"Polygon","coordinates":[[[4.5301,45.4605],[4.5322,45.4583],[4.5325,45.4576],[4.5347,45.4568],[4.5345,45.456],[4.5319,45.4549],[4.5313,45.4542],[4.5316,45.4528],[4.5318,45.4516],[4.5316,45.4496],[4.5303,45.4492],[4.53,45.4478],[4.5296,45.4472],[4.5288,45.4455],[4.5287,45.4447],[4.5262,45.4461],[4.5242,45.4473],[4.5221,45.448],[4.5213,45.4488],[4.5221,45.4517],[4.5217,45.4551],[4.521,45.4582],[4.5207,45.4606],[4.5222,45.4619],[4.5241,45.4611],[4.5252,45.4587],[4.5266,45.4595],[4.5276,45.4603],[4.5287,45.4608],[4.5298,45.4608],[4.5308,45.4602],[4.5301,45.4605],[4.5301,45.4605]]]},"properties":{"id_ffco":"6195","nom":"CRET DES BREBIS","_dept":"42","numero":"1994-D42-57","commune":"SAINT-CHAMOND","echelle":"1/7500","surface":"1.23 km²","annee":"1994","cartographes":"SHO Cart","proprietaire":"42 - Loire","specialite":"CO à pied","contacts":"CDCO 42, 06 75 41 56 36, cdcoloire@free.fr, http://cdcoloire.free.fr","latitude":"45.45419","longitude":"4.52693","date_saisie":"19/07/2013","valide":"Non","ppo":"Non","obsolete":true}},{"type":"Feature","geometry":{"type":"Polygon","coordinates":[[[4.6342,45.4455],[4.635,45.4433],[4.637,45.4423],[4.6424,45.4423],[4.645,45.4388],[4.6511,45.4336],[4.6528,45.4324],[4.6533,45.4261],[4.6452,45.4242],[4.6386,45.4236],[4.6282,45.4231],[4.6295,45.421],[4.6292,45.4201],[4.6321,45.4191],[4.6236,45.4187],[4.624,45.42],[4.6167,45.4248],[4.6162,45.4265],[4.6144,45.428],[4.6104,45.4294],[4.605,45.4306],[4.6097,45.438],[4.6155,45.4373],[4.6224,45.4382],[4.624,45.4396],[4.6312,45.4414],[4.632,45.4456],[4.6342,45.4455]]]},"properties":{"id_ffco":"6242","nom":"LA CROIX DE MONTVIEUX","_dept":"42","numero":"1993-D42-55","commune":"PELUSSIN","echelle":"1/10000","surface":"6.05 km²","annee":"1993","cartographes":"SHO Cart","proprietaire":"4203 - ORIENT'EXPRESS 42","specialite":"CO à pied","contacts":"CLUB ORIENT-EXPRESS42, 04 74 84 51 29, ljc.le.dreau@free.fr","latitude":"45.43214","longitude":"4.62917","date_saisie":"19/07/2013","valide":"Non","ppo":"Non","obsolete":true}},{"type":"Feature","geometry":{"type":"Polygon","coordinates":[[[4.0183,45.6103],[4.0211,45.6102],[4.0238,45.6112],[4.0249,45.6109],[4.0275,45.609],[4.0303,45.6089],[4.034,45.608],[4.0456,45.6068],[4.0433,45.605],[4.0403,45.6022],[4.0373,45.5993],[4.0342,45.5979],[4.0282,45.6005],[4.0231,45.6005],[4.0206,45.5999],[4.0172,45.5999],[4.0131,45.6024],[4.0104,45.6044],[4.0093,45.6053],[4.0058,45.605],[4.0023,45.6061],[3.9985,45.6081],[3.9944,45.6097],[3.9916,45.6102],[3.9891,45.6107],[3.9854,45.6134],[3.9856,45.6152],[3.9875,45.617],[3.9874,45.6184],[3.9847,45.62],[3.9802,45.6211],[3.9776,45.6221],[3.9764,45.6235],[3.9764,45.625],[3.9754,45.6267],[3.9786,45.6291],[3.9817,45.6306],[3.9846,45.6303],[3.9885,45.6314],[3.9892,45.6314],[3.9929,45.6314],[3.9999,45.6301],[4.0034,45.6287],[4.004,45.6263],[4.0047,45.6255],[4.0076,45.624],[4.0108,45.6226],[4.0154,45.6203],[4.0162,45.6173],[4.0185,45.6187],[4.0214,45.6191],[4.0254,45.6182],[4.0265,45.6174],[4.0281,45.6169],[4.0183,45.6103],[4.0183,45.6103]]]},"properties":{"id_ffco":"6240","nom":"BOIS D'HEYRIEUX","_dept":"42","numero":"1993-D42-54","commune":"ESSERTINES-EN-CHATELNEUF","echelle":"1/10000","surface":"8.68 km²","annee":"1993","cartographes":"SHO Cart","proprietaire":"4204 - BOUSSOLE EN FOREZ","specialite":"CO à pied","contacts":"CLUB BOUSSOLE EN FOREZ, 04 77 97 43 75, 06 62 07 43 75, mimiault@wanadoo.fr","latitude":"45.61412","longitude":"4.00433","date_saisie":"19/07/2013","valide":"Non","ppo":"Non","obsolete":true}},{"type":"Feature","geometry":{"type":"Polygon","coordinates":[[[4.3872,45.4168],[4.3905,45.4156],[4.39,45.4146],[4.3874,45.4133],[4.3867,45.4131],[4.3866,45.4152],[4.387,45.4163],[4.3872,45.4168]]]},"properties":{"id_ffco":"6241","nom":"PARC HONORE D'URFE","_dept":"42","numero":"1993-D42-52","commune":"SAINT-ETIENNE","echelle":"1/3000","surface":"0.08 km²","annee":"1993","cartographes":"PERRIN Gilles","specialite":"CO à pied","contacts":"CLUB N.O.S.E. SAINT ETIENNE, 06 28 51 66 14, cdnose42@yahoo.fr, http://www.nose42.fr/","latitude":"45.41495","longitude":"4.38855","date_saisie":"19/07/2013","valide":"Non","ppo":"Non","obsolete":true}},{"type":"Feature","geometry":{"type":"Polygon","coordinates":[[[3.9425,45.5426],[3.9399,45.5436],[3.9381,45.5441],[3.938,45.5453],[3.9411,45.5486],[3.9424,45.5508],[3.9424,45.5517],[3.9383,45.5542],[3.9384,45.5554],[3.937,45.5554],[3.9343,45.5534],[3.9314,45.5539],[3.9288,45.5554],[3.9272,45.5562],[3.9262,45.5574],[3.9262,45.5589],[3.9262,45.5605],[3.9262,45.5625],[3.9258,45.5623],[3.9256,45.5639],[3.9241,45.5643],[3.9235,45.5634],[3.9215,45.563],[3.9213,45.5623],[3.9213,45.5607],[3.9212,45.5585],[3.9207,45.5566],[3.9193,45.5557],[3.9186,45.5554],[3.9161,45.5539],[3.9144,45.5527],[3.9131,45.5518],[3.9092,45.5527],[3.9067,45.5531],[3.9052,45.5536],[3.904,45.5548],[3.9031,45.5562],[3.9029,45.5572],[3.9024,45.5583],[3.902,45.5601],[3.9031,45.563],[3.9039,45.565],[3.9052,45.5661],[3.9042,45.5675],[3.9033,45.5684],[3.9043,45.5696],[3.9085,45.5697],[3.9071,45.5705],[3.9061,45.5714],[3.9056,45.5726],[3.9058,45.5742],[3.907,45.5754],[3.9077,45.5765],[3.9095,45.5789],[3.9106,45.5812],[3.9107,45.5817],[3.9155,45.5813],[3.9197,45.5796],[3.922,45.58],[3.9272,45.5792],[3.9311,45.5799],[3.934,45.5809],[3.9357,45.5807],[3.9391,45.5808],[3.941,45.5804],[3.943,45.5816],[3.9461,45.5823],[3.9505,45.5824],[3.9566,45.5814],[3.9572,45.5807],[3.9582,45.5796],[3.9591,45.578],[3.9594,45.5766],[3.9617,45.5764],[3.9632,45.5745],[3.9627,45.5718],[3.9628,45.5707],[3.9667,45.5706],[3.9691,45.5698],[3.9697,45.5685],[3.9689,45.5672],[3.9689,45.5655],[3.9701,45.5642],[3.97,45.5621],[3.971,45.56],[3.9734,45.5587],[3.9734,45.5576],[3.9726,45.5553],[3.9704,45.5545],[3.9692,45.5547],[3.969,45.5528],[3.9703,45.5516],[3.9702,45.5499],[3.9691,45.5487],[3.9673,45.547],[3.964,45.546],[3.9626,45.546],[3.9595,45.5444],[3.9574,45.5445],[3.9425,45.5426],[3.9425,45.5426]]]},"properties":{"id_ffco":"5828","nom":"BARACUCHET","_dept":"42","numero":"1993-D42-50","commune":"SAINT-ANTHEME","echelle":"1/15000","surface":"16.39 km²","annee":"1993","cartographes":"SHO Cart","proprietaire":"42 - Loire","specialite":"CO à pied","contacts":"CDCO 42, 06 75 41 56 36, cdcoloire@free.fr, http://cdcoloire.free.fr","latitude":"45.56457","longitude":"3.941","date_saisie":"19/07/2013","valide":"Non","ppo":"Non","obsolete":true}},{"type":"Feature","geometry":{"type":"Polygon","coordinates":[[[4.6312,45.5051],[4.6396,45.5101],[4.6406,45.511],[4.6405,45.5101],[4.6446,45.5084],[4.6473,45.5084],[4.6455,45.507],[4.6447,45.5051],[4.6439,45.5035],[4.6432,45.5018],[4.6396,45.4993],[4.6367,45.4988],[4.6361,45.4982],[4.6372,45.497],[4.6341,45.497],[4.6304,45.4976],[4.6273,45.499],[4.6306,45.5002],[4.6322,45.5022],[4.6322,45.5042],[4.631,45.5054],[4.6312,45.5051],[4.6312,45.5051]]]},"properties":{"id_ffco":"6199","nom":"BARRAGE DE COUZON","_dept":"42","numero":"1992-D42-49","commune":"CHATEAUNEUF","echelle":"1/10000","surface":"1.12 km²","annee":"1992","cartographes":"KAJAK Stephane","proprietaire":"42 - Loire","specialite":"CO à pied","contacts":"CDCO 42, 06 75 41 56 36, cdcoloire@free.fr, http://cdcoloire.free.fr","latitude":"45.50355","longitude":"4.6364","date_saisie":"19/07/2013","valide":"Non","ppo":"Non","obsolete":true}},{"type":"Feature","geometry":{"type":"Polygon","coordinates":[[[4.6726,45.3865],[4.6843,45.3981],[4.6824,45.4065],[4.6836,45.4142],[4.6773,45.4177],[4.6609,45.4127],[4.6537,45.4153],[4.6249,45.3999],[4.6256,45.3863],[4.6678,45.3907],[4.6726,45.3865]]]},"properties":{"id_ffco":"6247","nom":"BOIS DE LA VALETTE","_dept":"42","numero":"1991-D42-46","commune":"PELUSSIN","echelle":"1/10000","surface":"11.28 km²","annee":"1991","cartographes":"SHO Cart","proprietaire":"4203 - ORIENT'EXPRESS 42","specialite":"CO à pied","contacts":"CLUB ORIENT-EXPRESS42, 04 74 84 51 29, ljc.le.dreau@free.fr","latitude":"45.402","longitude":"4.6546","date_saisie":"19/07/2013","valide":"Non","ppo":"Non","obsolete":true}},{"type":"Feature","geometry":{"type":"Polygon","coordinates":[[[4.6599,45.4093],[4.6361,45.4123],[4.6122,45.4128],[4.6084,45.391],[4.6038,45.3746],[4.6112,45.3626],[4.6148,45.3538],[4.633,45.3542],[4.6398,45.3624],[4.6596,45.367],[4.6728,45.3691],[4.674,45.3843],[4.668,45.3962],[4.6618,45.4075],[4.6599,45.4093]]]},"properties":{"id_ffco":"6249","nom":"CRET DE L'OEILLON","_dept":"42","numero":"1990-D42-44","commune":"ROISEY","echelle":"1/20000","surface":"27.03 km²","annee":"1990","cartographes":"M Haberkorn","proprietaire":"4203 - ORIENT'EXPRESS 42","specialite":"Rand'O","contacts":"CLUB ORIENT-EXPRESS42, 04 74 84 51 29, ljc.le.dreau@free.fr","latitude":"45.38331","longitude":"4.63889","date_saisie":"19/07/2013","valide":"Non","ppo":"Non","obsolete":true}},{"type":"Feature","geometry":{"type":"Polygon","coordinates":[[[4.6725,45.3807],[4.6721,45.3772],[4.6744,45.3752],[4.6743,45.3718],[4.6683,45.3693],[4.6666,45.3711],[4.6662,45.3805],[4.6725,45.3807]]]},"properties":{"id_ffco":"5821","nom":"BOIS DE PRIAUX","_dept":"42","numero":"1990-D42-43","commune":"VERANNE","echelle":"1/5000","surface":"0.62 km²","annee":"1990","cartographes":"MAREIGNER Franz et Yann","proprietaire":"4203 - ORIENT'EXPRESS 42","specialite":"CO à pied","contacts":"CLUB ORIENT-EXPRESS42, 04 74 84 51 29, ljc.le.dreau@free.fr","latitude":"45.37499","longitude":"4.67031","date_saisie":"19/07/2013","valide":"Non","ppo":"Non","obsolete":true}},{"type":"Feature","geometry":null,"properties":{"id_ffco":"14352","nom":"Montbrison","_dept":"42","numero":"2023-D42-424","commune":"Montbrison","echelle":"1/4000","surface":"None km²","format":"+","annee":"2023","cartographes":"Corentin Roux","proprietaire":"42 - Loire","niveau":"Interrégional","specialite":"CO à pied","contacts":"CDCO 42, 06 75 41 56 36, cdcoloire@free.fr, http://cdcoloire.free.fr","date_saisie":"05/02/2024","valide":"Non","ppo":"Non","type_carte":"Reprise","base":"2020-D42-380 Ville de Montbrison","fond":"Cadastre","obsolete":true}},{"type":"Feature","geometry":{"type":"Polygon","coordinates":[[[4.6619,45.3892],[4.6577,45.3886],[4.6559,45.3886],[4.6562,45.3904],[4.6558,45.3911],[4.6562,45.3923],[4.6577,45.3939],[4.6607,45.3954],[4.6612,45.3957],[4.6632,45.3959],[4.6653,45.3946],[4.6664,45.3943],[4.6679,45.3942],[4.6689,45.3929],[4.6687,45.3916],[4.6668,45.3908],[4.6644,45.3899],[4.6619,45.3892],[4.6619,45.3892]]]},"properties":{"id_ffco":"6252","nom":"BOIS DE BLACHEMARD","_dept":"42","numero":"1990-D42-42","commune":"ROISEY","echelle":"1/5000","surface":"0.56 km²","annee":"1990","cartographes":"NALON Pascal","proprietaire":"4203 - ORIENT'EXPRESS 42","specialite":"CO à pied","contacts":"CLUB ORIENT-EXPRESS42, 04 74 84 51 29, ljc.le.dreau@free.fr","latitude":"45.39059","longitude":"4.6616","date_saisie":"19/07/2013","valide":"Non","ppo":"Non","obsolete":true}},{"type":"Feature","geometry":null,"properties":{"id_ffco":"5776","nom":"CASERNE COMBE","_dept":"42","numero":"1990-D42-41","commune":"ROANNE","echelle":"1/2500","surface":"0.8 km²","annee":"1990","cartographes":"INCONNU","proprietaire":"42 - Loire","specialite":"CO à pied","contacts":"CDCO 42, 06 75 41 56 36, cdcoloire@free.fr, http://cdcoloire.free.fr","latitude":"46.056","longitude":"4.09631","date_saisie":"19/07/2013","valide":"Non","ppo":"Non","obsolete":true}},{"type":"Feature","geometry":{"type":"Polygon","coordinates":[[[3.8334,45.6802],[3.8353,45.6802],[3.8386,45.6819],[3.8403,45.6816],[3.8408,45.6808],[3.84,45.6775],[3.8397,45.6764],[3.8402,45.6758],[3.835,45.6697],[3.8325,45.6625],[3.8303,45.6568],[3.8269,45.6575],[3.8231,45.6591],[3.8185,45.6604],[3.8143,45.6597],[3.8119,45.6612],[3.81,45.6617],[3.8064,45.6618],[3.8001,45.6632],[3.7979,45.6658],[3.8,45.6694],[3.806,45.6711],[3.8106,45.6724],[3.8157,45.6759],[3.8162,45.6808],[3.8208,45.6872],[3.8237,45.6883],[3.8273,45.6882],[3.8292,45.6882],[3.8315,45.6871],[3.8326,45.6857],[3.8321,45.6831],[3.8324,45.6807],[3.8334,45.6802],[3.8334,45.6802]]]},"properties":{"id_ffco":"6130","nom":"LES EPILOBES","_dept":"42","numero":"1990-D42-39","commune":"CHALMAZEL","echelle":"1/15000","surface":"6.14 km²","annee":"1990","cartographes":"MAHONEN A.","proprietaire":"42 - Loire","specialite":"CO à pied","contacts":"CDCO 42, 06 75 41 56 36, cdcoloire@free.fr, http://cdcoloire.free.fr","latitude":"45.66964","longitude":"3.81926","date_saisie":"19/07/2013","valide":"Non","ppo":"Non","obsolete":true}},{"type":"Feature","geometry":{"type":"Polygon","coordinates":[[[3.9463,45.5431],[3.9528,45.546],[3.9548,45.545],[3.9553,45.5423],[3.9584,45.5412],[3.9614,45.5399],[3.9631,45.5387],[3.9642,45.5364],[3.9649,45.5344],[3.9674,45.5357],[3.9769,45.5278],[3.9838,45.5186],[3.9934,45.5175],[3.9934,45.5063],[3.9942,45.4877],[3.9939,45.4779],[3.9853,45.4777],[3.9774,45.4816],[3.9736,45.4873],[3.964,45.49],[3.9468,45.4976],[3.9422,45.4982],[3.9369,45.5036],[3.9396,45.5093],[3.9367,45.5189],[3.9381,45.5246],[3.9422,45.5299],[3.9467,45.5374],[3.9463,45.5431]]]},"properties":{"id_ffco":"6404","nom":"MONTS DU FOREZ","_dept":"42","numero":"1989-D42-37","commune":"GUMIERES","echelle":"1/15000","surface":"20.81 km²","annee":"1989","cartographes":"SHO Cart","proprietaire":"42 - Loire","specialite":"CO à pied","contacts":"CDCO 42, 06 75 41 56 36, cdcoloire@free.fr, http://cdcoloire.free.fr","latitude":"45.51187","longitude":"3.96546","date_saisie":"19/07/2013","valide":"Non","ppo":"Non","obsolete":true}},{"type":"Feature","geometry":{"type":"Polygon","coordinates":[[[4.363,45.4755],[4.3637,45.4755],[4.3646,45.4765],[4.3681,45.4741],[4.3664,45.4733],[4.3644,45.4732],[4.3634,45.473],[4.3626,45.4725],[4.3597,45.4751],[4.3607,45.4758],[4.3616,45.476],[4.363,45.4755]]]},"properties":{"id_ffco":"6099","nom":"PARC JEAN MARC","_dept":"42","numero":"1990-D42-31","commune":"SAINT-ETIENNE","echelle":"1/5000","surface":"0.15 km²","annee":"1990","cartographes":"Régis ANTOINE","specialite":"CO à pied","contacts":"CLUB N.O.S.E. SAINT ETIENNE, 06 28 51 66 14, cdnose42@yahoo.fr, http://www.nose42.fr/","latitude":"45.4745","longitude":"4.36388","date_saisie":"19/07/2013","valide":"Non","ppo":"Non","obsolete":true}},{"type":"Feature","geometry":{"type":"Polygon","coordinates":[[[3.8243,45.6774],[3.8243,45.6784],[3.8246,45.679],[3.8244,45.6799],[3.8212,45.6797],[3.8178,45.6794],[3.8167,45.6785],[3.8149,45.6766],[3.8137,45.6759],[3.8136,45.6746],[3.8141,45.6733],[3.8151,45.6723],[3.8189,45.6723],[3.8225,45.6717],[3.8252,45.6703],[3.8254,45.6692],[3.8263,45.6676],[3.8279,45.6673],[3.8287,45.6659],[3.8289,45.6644],[3.8316,45.663],[3.8343,45.6658],[3.835,45.6682],[3.8364,45.6702],[3.8384,45.6706],[3.8422,45.671],[3.8409,45.6753],[3.8383,45.6759],[3.8349,45.6785],[3.8328,45.6794],[3.8313,45.6797],[3.8306,45.6788],[3.8285,45.6775],[3.8259,45.6776],[3.8243,45.6774]]]},"properties":{"id_ffco":"8724","nom":"Station de Chalmazel II","_dept":"42","numero":"2015-D42-293","commune":"Chalmazel","echelle":"1/10000","surface":"2.1 km²","format":"A4","annee":"2015","cartographes":"Tiago Martins Aeres,Raquel Costa","proprietaire":"42 - Loire","niveau":"National, International","specialite":"CO à pied","contacts":"CDCO 42, Maison départementale des sports, 4, rue des Trois Meules, 42100, Saint-Etienne, 06 75 41 56 36, contact@cdco42.fr, https://cdco42.fr/site/","latitude":"45.6732506252","longitude":"3.8283486523","date_saisie":"17/10/2015","valide":"Non","ppo":"Non","type_carte":"Reprise","base":"2007-D42-189 STATION DE CHALMAZEL","obsolete":true}},{"type":"Feature","geometry":{"type":"Polygon","coordinates":[[[3.8403,45.6754],[3.8427,45.6772],[3.8464,45.6797],[3.8494,45.6756],[3.8488,45.6714],[3.8503,45.6683],[3.8518,45.6675],[3.8516,45.6636],[3.8513,45.6634],[3.8485,45.6648],[3.8441,45.6645],[3.841,45.6639],[3.8415,45.6611],[3.8424,45.657],[3.8407,45.6526],[3.8366,45.6513],[3.8344,45.6501],[3.8309,45.6497],[3.8245,45.6467],[3.8209,45.6459],[3.8185,45.6492],[3.8122,45.6549],[3.8091,45.6557],[3.8141,45.6605],[3.8158,45.6626],[3.8088,45.6635],[3.8039,45.663],[3.802,45.6649],[3.7991,45.6668],[3.7991,45.6686],[3.8009,45.6697],[3.8015,45.6744],[3.8027,45.6751],[3.8025,45.677],[3.8039,45.6787],[3.8046,45.6798],[3.8051,45.6822],[3.8075,45.6844],[3.8039,45.6848],[3.798,45.6846],[3.7946,45.6847],[3.7929,45.6847],[3.7917,45.685],[3.789,45.6851],[3.789,45.6863],[3.7913,45.6904],[3.7925,45.6916],[3.7964,45.6909],[3.7975,45.6925],[3.7989,45.6943],[3.8008,45.6962],[3.8018,45.6983],[3.8026,45.699],[3.8059,45.6992],[3.8079,45.7011],[3.8108,45.7018],[3.8121,45.7024],[3.8156,45.7007],[3.8165,45.6989],[3.8189,45.6979],[3.8198,45.6961],[3.8206,45.6942],[3.8253,45.6926],[3.827,45.692],[3.8287,45.6918],[3.8245,45.6908],[3.8226,45.6907],[3.8223,45.6901],[3.8227,45.6894],[3.8242,45.6884],[3.8278,45.6876],[3.8295,45.6872],[3.83,45.6869],[3.8299,45.6852],[3.827,45.6832],[3.8267,45.6809],[3.8246,45.6799],[3.8222,45.6797],[3.8182,45.6795],[3.8164,45.6781],[3.8147,45.6769],[3.8134,45.6759],[3.8141,45.6742],[3.8149,45.6721],[3.8174,45.6722],[3.8203,45.6722],[3.8228,45.6716],[3.825,45.67],[3.8255,45.6683],[3.8269,45.6675],[3.8279,45.6673],[3.8288,45.6664],[3.8289,45.6646],[3.8298,45.6636],[3.8324,45.663],[3.8338,45.6641],[3.8341,45.6659],[3.8346,45.6675],[3.8352,45.6695],[3.8367,45.6703],[3.8388,45.6704],[3.8398,45.6708],[3.8403,45.6754]]]},"properties":{"id_ffco":"8723","nom":"Les trois vallées","_dept":"42","numero":"2015-D42-292","commune":"Chalmazel","echelle":"1/10000","surface":"12.37 km²","format":"A3","annee":"2015","cartographes":"Tiago Martins Aeres,Raquel Costa","proprietaire":"42 - Loire","niveau":"National, International","specialite":"CO à pied","contacts":"CDCO 42, Maison départementale des sports, 4, rue des Trois Meules, 42100, Saint-Etienne, 06 75 41 56 36, contact@cdco42.fr, https://cdco42.fr/site/","latitude":"45.6734302734","longitude":"3.81949409756","date_saisie":"17/10/2015","valide":"Non","ppo":"Non","type_carte":"Nouvelle carte","fond":"Ortho","obsolete":true}},{"type":"Feature","geometry":{"type":"Polygon","coordinates":[[[4.4089,45.3728],[4.4107,45.378],[4.4088,45.3825],[4.4145,45.3863],[4.4199,45.3905],[4.4254,45.3893],[4.4284,45.3892],[4.4332,45.3884],[4.4351,45.3868],[4.4374,45.3828],[4.4404,45.3793],[4.4437,45.3758],[4.4464,45.3734],[4.4475,45.3707],[4.4511,45.3663],[4.451,45.3609],[4.4503,45.354],[4.4161,45.3534],[4.4161,45.3625],[4.4123,45.3646],[4.4082,45.3677],[4.4089,45.3728]]]},"properties":{"id_ffco":"6403","nom":"PIERRE BEGUSIEUX","_dept":"42","numero":"1988-D42-28","commune":"PLANFOY","echelle":"1/15000","surface":"10.2 km²","annee":"1988","cartographes":"RAIMBAULT L.","proprietaire":"4203 - ORIENT'EXPRESS 42","specialite":"CO à pied","contacts":"CLUB ORIENT-EXPRESS42, 04 74 84 51 29, ljc.le.dreau@free.fr","latitude":"45.37198","longitude":"4.42964","date_saisie":"19/07/2013","valide":"Non","ppo":"Non","obsolete":true}},{"type":"Feature","geometry":{"type":"Polygon","coordinates":[[[4.6676,45.3689],[4.6746,45.3721],[4.6745,45.3763],[4.6719,45.3776],[4.6729,45.3833],[4.6668,45.3854],[4.6634,45.3836],[4.6633,45.3819],[4.6624,45.379],[4.6621,45.3745],[4.6658,45.3715],[4.6643,45.3704],[4.667,45.3686],[4.6676,45.3689]]]},"properties":{"id_ffco":"6402","nom":"BOIS DE PRIOT","_dept":"42","numero":"1988-D42-26","commune":"ROISEY","echelle":"1/5000","surface":"1.28 km²","annee":"1988","cartographes":"NALON Pascal","proprietaire":"4203 - ORIENT'EXPRESS 42","specialite":"CO à pied","contacts":"CLUB ORIENT-EXPRESS42, 04 74 84 51 29, ljc.le.dreau@free.fr","latitude":"45.37717","longitude":"4.66833","date_saisie":"19/07/2013","valide":"Non","ppo":"Non","obsolete":true}},{"type":"Feature","geometry":{"type":"Polygon","coordinates":[[[4.4802,45.3355],[4.4806,45.3364],[4.4816,45.3358],[4.4831,45.335],[4.4841,45.3343],[4.4856,45.3337],[4.4881,45.3336],[4.4903,45.3337],[4.4912,45.3342],[4.4926,45.3347],[4.4945,45.3355],[4.4957,45.3364],[4.4969,45.338],[4.4989,45.3386],[4.5001,45.3394],[4.5001,45.3395],[4.5016,45.3407],[4.5036,45.341],[4.5071,45.3414],[4.5096,45.3419],[4.5108,45.3408],[4.5103,45.3374],[4.5081,45.3373],[4.5069,45.3368],[4.507,45.3342],[4.5078,45.3326],[4.5087,45.3314],[4.5102,45.3298],[4.5103,45.3284],[4.5084,45.3267],[4.507,45.3251],[4.506,45.3245],[4.5062,45.3236],[4.5072,45.3222],[4.5093,45.3209],[4.5103,45.3197],[4.5106,45.3191],[4.5079,45.3192],[4.5057,45.3201],[4.5052,45.3205],[4.5035,45.3207],[4.5007,45.32],[4.4997,45.32],[4.4962,45.3205],[4.4931,45.3222],[4.4909,45.3239],[4.4899,45.3241],[4.4865,45.3241],[4.4844,45.3253],[4.4833,45.3261],[4.4812,45.3267],[4.4806,45.3274],[4.4799,45.3291],[4.48,45.3308],[4.4804,45.3337],[4.4802,45.3355],[4.4802,45.3355]]]},"properties":{"id_ffco":"6401","nom":"LES 3 CROIX","_dept":"42","numero":"1986-D42-22","commune":"LA VERSANNE","echelle":"1/10000","surface":"3.64 km²","annee":"1986","cartographes":"Régis ANTOINE","specialite":"CO à pied","contacts":"CLUB N.O.S.E. SAINT ETIENNE, 06 28 51 66 14, cdnose42@yahoo.fr, http://www.nose42.fr/","latitude":"45.33016","longitude":"4.49619","date_saisie":"19/07/2013","valide":"Non","ppo":"Non","obsolete":true}},{"type":"Feature","geometry":{"type":"Polygon","coordinates":[[[4.1136,45.5241],[4.11,45.5255],[4.1116,45.5296],[4.1133,45.5311],[4.1138,45.5324],[4.1127,45.5327],[4.1098,45.5358],[4.114,45.5395],[4.1167,45.5386],[4.1176,45.5399],[4.1234,45.5433],[4.1277,45.5429],[4.1319,45.5421],[4.1393,45.5419],[4.1461,45.541],[4.1509,45.5361],[4.1498,45.5345],[4.1438,45.53],[4.1437,45.5273],[4.146,45.5247],[4.1467,45.5228],[4.1459,45.5219],[4.1483,45.5178],[4.1436,45.5161],[4.1364,45.5169],[4.129,45.5164],[4.12,45.5189],[4.117,45.5202],[4.1136,45.5241]]]},"properties":{"id_ffco":"6400","nom":"BAZOURGES","_dept":"42","numero":"1986-D42-21","commune":"BOISSET-SAINT-PRIEST","echelle":"1/15000","surface":"7.16 km²","annee":"1986","cartographes":"RAIMBAULT L.","proprietaire":"4203 - ORIENT'EXPRESS 42","specialite":"CO à pied","contacts":"CLUB ORIENT-EXPRESS42, 04 74 84 51 29, ljc.le.dreau@free.fr","latitude":"45.52968","longitude":"4.13034","date_saisie":"19/07/2013","valide":"Non","ppo":"Non","obsolete":true}},{"type":"Feature","geometry":{"type":"Polygon","coordinates":[[[4.4118,45.4554],[4.4066,45.4587],[4.4086,45.46],[4.4101,45.463],[4.4148,45.462],[4.4139,45.4606],[4.4139,45.4592],[4.4146,45.4592],[4.4152,45.4566],[4.4133,45.4552],[4.4127,45.4548],[4.4118,45.4554]]]},"properties":{"id_ffco":"6600","nom":"PARC DE MEONS","_dept":"42","numero":"2009-D42-207","commune":"SAINT ETIENNE","echelle":"1/3500","surface":"0.35 km²","format":"A4","annee":"2009","cartographes":"LAGORCE Georges","proprietaire":"42 - Loire","niveau":"Initiation, Scolaire","specialite":"CO à pied","contacts":"CDCO 42, 06 75 41 56 36, cdcoloire@free.fr, http://cdcoloire.free.fr","latitude":"45.4589","longitude":"4.41087","date_saisie":"19/07/2013","date_depot":"28/07/2010","valide":"Oui","ppo":"Non","type_carte":"Nouvelle carte","fond":"Cadastre","obsolete":true}},{"type":"Feature","geometry":{"type":"Polygon","coordinates":[[[4.4418,45.4287],[4.4436,45.4292],[4.4449,45.4305],[4.4463,45.4303],[4.4469,45.4303],[4.4485,45.4286],[4.449,45.4263],[4.4485,45.4243],[4.4482,45.4237],[4.447,45.4241],[4.4459,45.425],[4.4445,45.4261],[4.4427,45.4269],[4.4401,45.4281],[4.4418,45.4287]]]},"properties":{"id_ffco":"6399","nom":"PARC DE LA PERROTIERE","_dept":"42","numero":"1985-D42-20","commune":"SAINT-ETIENNE","echelle":"1/5000","surface":"0.26 km²","annee":"1985","cartographes":"RAIMBAULT L.","proprietaire":"4203 - ORIENT'EXPRESS 42","specialite":"CO à pied","contacts":"CLUB ORIENT-EXPRESS42, 04 74 84 51 29, ljc.le.dreau@free.fr","latitude":"45.42712","longitude":"4.44455","date_saisie":"19/07/2013","valide":"Non","ppo":"Non","obsolete":true}},{"type":"Feature","geometry":{"type":"Polygon","coordinates":[[[3.7797,45.7514],[3.7808,45.7515],[3.7815,45.7516],[3.7823,45.7518],[3.7845,45.7512],[3.7863,45.7513],[3.7911,45.7525],[3.7921,45.7531],[3.7962,45.7538],[3.7993,45.7539],[3.8019,45.7538],[3.8026,45.7532],[3.8055,45.7532],[3.8077,45.7523],[3.8085,45.7513],[3.8085,45.7507],[3.81,45.7493],[3.8116,45.7481],[3.8137,45.7478],[3.8138,45.7469],[3.815,45.7449],[3.8148,45.7443],[3.8152,45.744],[3.8135,45.7444],[3.8131,45.7435],[3.8112,45.7425],[3.8106,45.7416],[3.8083,45.7411],[3.8059,45.7414],[3.8051,45.7418],[3.8031,45.7387],[3.8022,45.7387],[3.7994,45.7387],[3.798,45.7391],[3.7961,45.7399],[3.7944,45.7396],[3.795,45.7383],[3.7949,45.7379],[3.7927,45.7361],[3.7904,45.7359],[3.7892,45.7345],[3.7906,45.7333],[3.7923,45.7332],[3.7932,45.7328],[3.792,45.7323],[3.785,45.7274],[3.7759,45.7273],[3.7686,45.7309],[3.769,45.7457],[3.7706,45.7468],[3.772,45.7476],[3.7733,45.7484],[3.7735,45.749],[3.7745,45.7493],[3.7755,45.7493],[3.7765,45.7492],[3.7782,45.7497],[3.7796,45.7514],[3.7797,45.7514],[3.7797,45.7514]]]},"properties":{"id_ffco":"6398","nom":"COL DE LA LOGE","_dept":"42","numero":"1985-D42-19","commune":"SAINT-JEAN-LA-VETRE","echelle":"1/15000","surface":"6.61 km²","annee":"1985","cartographes":"DEVRIEUX Michel","proprietaire":"42 - Loire","specialite":"CO à pied","contacts":"CDCO 42, 06 75 41 56 36, cdcoloire@free.fr, http://cdcoloire.free.fr","latitude":"45.74642","longitude":"3.78598","date_saisie":"19/07/2013","valide":"Non","ppo":"Non","obsolete":true}},{"type":"Feature","geometry":{"type":"Polygon","coordinates":[[[4.4112,45.4163],[4.4137,45.4158],[4.4173,45.4162],[4.42,45.4163],[4.4213,45.417],[4.4278,45.4172],[4.4311,45.4173],[4.435,45.4176],[4.4378,45.4173],[4.4404,45.4161],[4.4428,45.4144],[4.4447,45.4124],[4.4417,45.4117],[4.4395,45.4104],[4.4373,45.4111],[4.4353,45.4104],[4.4332,45.4109],[4.4312,45.4107],[4.4279,45.4102],[4.4261,45.4097],[4.4246,45.4089],[4.4219,45.4088],[4.4192,45.4083],[4.4178,45.4087],[4.4134,45.41],[4.4108,45.4105],[4.4082,45.4134],[4.4092,45.4144],[4.4103,45.4146],[4.4112,45.4163]]]},"properties":{"id_ffco":"6397","nom":"CROIX DU PERTHUIS","_dept":"42","numero":"1984-D42-17","commune":"SAINT-ETIENNE","echelle":"1/10000","surface":"1.95 km²","annee":"1984","cartographes":"CHARRAS A","proprietaire":"42 - Loire","specialite":"CO à pied","contacts":"CDCO 42, 06 75 41 56 36, cdcoloire@free.fr, http://cdcoloire.free.fr","latitude":"45.41294","longitude":"4.42645","date_saisie":"19/07/2013","valide":"Non","ppo":"Non","obsolete":true}},{"type":"Feature","geometry":{"type":"Polygon","coordinates":[[[4.3999,45.4712],[4.4026,45.4692],[4.4034,45.4678],[4.4046,45.4677],[4.4053,45.4704],[4.4062,45.4701],[4.4061,45.4677],[4.4091,45.4671],[4.4085,45.4638],[4.4068,45.4649],[4.4045,45.465],[4.4003,45.4669],[4.4,45.4666],[4.3983,45.4669],[4.3972,45.468],[4.3958,45.4693],[4.3956,45.4707],[4.3957,45.4713],[4.3999,45.4712]]]},"properties":{"id_ffco":"6396","nom":"MONTEYNAUD","_dept":"42","numero":"1984-D42-16","commune":"SAINT-ETIENNE","echelle":"1/5000","surface":"0.4 km²","annee":"1984","cartographes":"INCONNU","specialite":"CO à pied","contacts":"CLUB N.O.S.E. SAINT ETIENNE, 06 28 51 66 14, cdnose42@yahoo.fr, http://www.nose42.fr/","latitude":"45.46757","longitude":"4.40234","date_saisie":"19/07/2013","valide":"Non","ppo":"Non","obsolete":true}},{"type":"Feature","geometry":{"type":"Polygon","coordinates":[[[4.5234,45.3684],[4.5293,45.3681],[4.5302,45.3677],[4.5322,45.3648],[4.538,45.3603],[4.5407,45.3585],[4.5404,45.3565],[4.5421,45.3556],[4.5435,45.3554],[4.5442,45.3512],[4.5461,45.3468],[4.546,45.3431],[4.5431,45.3421],[4.54,45.3367],[4.5383,45.3338],[4.533,45.3297],[4.5298,45.3287],[4.5194,45.3288],[4.5107,45.33],[4.5041,45.335],[4.5042,45.34],[4.5031,45.3485],[4.5034,45.3525],[4.5054,45.3535],[4.5073,45.3538],[4.5081,45.3567],[4.5044,45.3599],[4.5042,45.362],[4.5089,45.365],[4.5098,45.3669],[4.5157,45.3688],[4.5234,45.3684],[4.5234,45.3684]]]},"properties":{"id_ffco":"6051","nom":"LE VIEUX TREMPLIN","_dept":"42","numero":"2005-D42-156","commune":"LE BESSAT","echelle":"1/7500","surface":"11.72 km²","annee":"2005","cartographes":"COTIRTA Marian","proprietaire":"42 - Loire","specialite":"CO à pied","contacts":"CDCO 42, 06 75 41 56 36, cdcoloire@free.fr, http://cdcoloire.free.fr","latitude":"45.36201","longitude":"4.51386","date_saisie":"19/07/2013","valide":"Non","ppo":"Non","obsolete":true}},{"type":"Feature","geometry":{"type":"Polygon","coordinates":[[[4.377,45.284],[4.3748,45.2847],[4.3732,45.2855],[4.3739,45.2906],[4.3717,45.2913],[4.3699,45.2942],[4.3714,45.2956],[4.3737,45.2967],[4.3721,45.2986],[4.3728,45.3005],[4.372,45.3017],[4.3717,45.3033],[4.3741,45.3045],[4.3768,45.3042],[4.3839,45.305],[4.3881,45.3034],[4.3875,45.3024],[4.3893,45.3007],[4.3893,45.2984],[4.3886,45.2968],[4.389,45.2925],[4.3875,45.2916],[4.3872,45.2894],[4.3855,45.2888],[4.3886,45.2875],[4.3914,45.2843],[4.3882,45.2843],[4.3821,45.2835],[4.377,45.284]]]},"properties":{"id_ffco":"6395","nom":"BOIS DE MABEUX","_dept":"42","numero":"1984-D42-15","commune":"MARLHES","echelle":"1/10000","surface":"2.86 km²","annee":"1984","cartographes":"Régis ANTOINE","specialite":"CO à pied","contacts":"CLUB N.O.S.E. SAINT ETIENNE, 06 28 51 66 14, cdnose42@yahoo.fr, http://www.nose42.fr/","latitude":"45.29429","longitude":"4.38065","date_saisie":"19/07/2013","valide":"Non","ppo":"Non","obsolete":true}},{"type":"Feature","geometry":{"type":"Polygon","coordinates":[[[4.4295,45.3226],[4.4296,45.3231],[4.4292,45.3236],[4.4285,45.324],[4.4276,45.3247],[4.4271,45.3255],[4.4288,45.3278],[4.4292,45.328],[4.4304,45.3279],[4.4325,45.3275],[4.4346,45.3271],[4.4364,45.3272],[4.4377,45.3271],[4.4396,45.3267],[4.4433,45.3259],[4.4437,45.3271],[4.4461,45.3274],[4.4478,45.3277],[4.4488,45.3277],[4.4514,45.3277],[4.452,45.3278],[4.4546,45.3284],[4.4561,45.3286],[4.4578,45.3285],[4.4591,45.3282],[4.4593,45.3272],[4.4588,45.3234],[4.4594,45.3204],[4.4606,45.3191],[4.4605,45.3137],[4.4567,45.3138],[4.4531,45.3152],[4.4511,45.3163],[4.4491,45.3183],[4.4484,45.3185],[4.4473,45.3185],[4.4436,45.3174],[4.4402,45.3165],[4.4385,45.316],[4.4386,45.3148],[4.4383,45.3125],[4.4374,45.3107],[4.4362,45.3079],[4.4358,45.3068],[4.4338,45.3066],[4.4326,45.3068],[4.4301,45.3067],[4.4264,45.3073],[4.4275,45.3091],[4.4276,45.3101],[4.4276,45.3105],[4.4281,45.3114],[4.428,45.3123],[4.427,45.3129],[4.4241,45.3145],[4.4226,45.3162],[4.4226,45.3175],[4.4241,45.3187],[4.4253,45.3195],[4.4266,45.3218],[4.4283,45.3223],[4.4295,45.3226],[4.4295,45.3226]]]},"properties":{"id_ffco":"5909","nom":"LE TRACOLLET","_dept":"42","numero":"2004-D42-141","commune":"SAINT-GENEST-MALIFAUX","echelle":"1/10000","surface":"4.19 km²","annee":"2004","cartographes":"PLOCKYN Daniel","proprietaire":"42 - Loire","specialite":"CO à pied","contacts":"CDCO 42, 06 75 41 56 36, cdcoloire@free.fr, http://cdcoloire.free.fr","latitude":"45.32192","longitude":"4.43752","date_saisie":"19/07/2013","valide":"Non","ppo":"Non","obsolete":true}},{"type":"Feature","geometry":{"type":"Polygon","coordinates":[[[4.6638,45.4032],[4.6643,45.4038],[4.6643,45.4038],[4.665,45.4039],[4.6658,45.404],[4.6663,45.4041],[4.6668,45.4042],[4.6672,45.4042],[4.6676,45.4041],[4.6682,45.4039],[4.6687,45.4039],[4.67,45.404],[4.6705,45.4038],[4.6704,45.4036],[4.6699,45.4034],[4.6696,45.4033],[4.669,45.4032],[4.6687,45.4031],[4.6687,45.4021],[4.6646,45.4019],[4.6645,45.4022],[4.6644,45.4025],[4.6642,45.4027],[4.6639,45.403],[4.6638,45.4032],[4.6638,45.4032]]]},"properties":{"id_ffco":"6378","nom":"PIERRE JUTON","_dept":"42","numero":"1983-D42-14","commune":"PELUSSIN","echelle":"1/10000","surface":"0.09 km²","annee":"1983","cartographes":"DEVRIEUX Michel","proprietaire":"4203 - ORIENT'EXPRESS 42","specialite":"CO à pied","contacts":"CLUB ORIENT-EXPRESS42, 04 74 84 51 29, ljc.le.dreau@free.fr","latitude":"45.40343","longitude":"4.66891","date_saisie":"19/07/2013","valide":"Non","ppo":"Non","obsolete":true}},{"type":"Feature","geometry":{"type":"Polygon","coordinates":[[[4.4083,45.4578],[4.4083,45.4593],[4.4086,45.4596],[4.4089,45.4596],[4.4095,45.4602],[4.4105,45.4624],[4.4119,45.4627],[4.4154,45.4619],[4.4145,45.4606],[4.4145,45.4593],[4.415,45.4593],[4.4153,45.4583],[4.415,45.4578],[4.4149,45.4575],[4.4155,45.4572],[4.4151,45.4565],[4.4141,45.4556],[4.4136,45.4556],[4.4122,45.4557],[4.4114,45.4559],[4.4089,45.4575],[4.4083,45.4578],[4.4083,45.4578]]]},"properties":{"id_ffco":"6286","nom":"PARC DE MEONS","_dept":"42","numero":"2003-D42-137","commune":"SAINT-ETIENNE","echelle":"1/3000","surface":"0.32 km²","annee":"2003","cartographes":"LAGORCE Georges","specialite":"CO à pied","contacts":"CLUB N.O.S.E. SAINT ETIENNE, 06 28 51 66 14, cdnose42@yahoo.fr, http://www.nose42.fr/","latitude":"45.45975","longitude":"4.41245","date_saisie":"19/07/2013","valide":"Non","ppo":"Non","obsolete":true}},{"type":"Feature","geometry":{"type":"Polygon","coordinates":[[[4.153,45.4449],[4.1544,45.4436],[4.1545,45.4434],[4.1548,45.4429],[4.1548,45.4428],[4.1527,45.4427],[4.1524,45.4434],[4.1514,45.4443],[4.1517,45.4446],[4.1519,45.445],[4.1522,45.4452],[4.1523,45.4454],[4.1526,45.4455],[4.153,45.4455],[4.1534,45.4453],[4.1533,45.4452],[4.1534,45.4449],[4.1534,45.4449],[4.153,45.4449],[4.153,45.4449]]]},"properties":{"id_ffco":"6254","nom":"LE STADE DE PERIGNEUX","_dept":"42","numero":"2003-D42-135","commune":"PERIGNEUX","echelle":"1/1500","surface":"0.04 km²","annee":"2003","cartographes":"MANISSOLLE Y","proprietaire":"42 - Loire","specialite":"CO à pied","contacts":"CDCO 42, 06 75 41 56 36, cdcoloire@free.fr, http://cdcoloire.free.fr","latitude":"45.44401","longitude":"4.15392","date_saisie":"19/07/2013","valide":"Non","ppo":"Non","obsolete":true}},{"type":"Feature","geometry":{"type":"Polygon","coordinates":[[[4.2891,45.3843],[4.291,45.3839],[4.2914,45.3835],[4.2913,45.3828],[4.2908,45.3822],[4.2893,45.382],[4.2883,45.3823],[4.2893,45.3827],[4.2894,45.384],[4.289,45.3842],[4.2891,45.3843],[4.2891,45.3843]]]},"properties":{"id_ffco":"5911","nom":"LA MAISON DE LA CULTURE","_dept":"42","numero":"2003-D42-134","commune":"FIRMINY","echelle":"1/1000","surface":"0.04 km²","annee":"2003","cartographes":"MANISSOLLE Y","proprietaire":"42 - Loire","specialite":"CO à pied","contacts":"CDCO 42, 06 75 41 56 36, cdcoloire@free.fr, http://cdcoloire.free.fr","latitude":"45.3829","longitude":"4.29004","date_saisie":"19/07/2013","valide":"Non","ppo":"Non","obsolete":true}},{"type":"Feature","geometry":null,"properties":{"id_ffco":"6394","nom":"PELUSSIN","_dept":"42","numero":"1983-D42-13","commune":"PELUSSIN","echelle":"1/7500","surface":"1.2 km²","annee":"1983","cartographes":"DEVRIEUX Michel","proprietaire":"SANS ADRESSE","specialite":"CO à pied","contacts":"SANS ADRESSE","latitude":"45.41153","longitude":"4.65397","date_saisie":"19/07/2013","valide":"Non","ppo":"Non","obsolete":true}},{"type":"Feature","geometry":{"type":"Polygon","coordinates":[[[4.6883,45.413],[4.6878,45.4126],[4.687,45.4122],[4.6868,45.4109],[4.6827,45.4111],[4.6821,45.4123],[4.6815,45.4126],[4.6823,45.4132],[4.6832,45.4137],[4.6852,45.4135],[4.6875,45.4135],[4.6883,45.413]]]},"properties":{"id_ffco":"5806","nom":"LE VIEUX MOULIN","_dept":"42","numero":"2003-D42-128","commune":"ROISEY","echelle":"1/2500","surface":"0.11 km²","annee":"2003","cartographes":"PARET Bernard","proprietaire":"4203 - ORIENT'EXPRESS 42","specialite":"CO à pied","contacts":"CLUB ORIENT-EXPRESS42, 04 74 84 51 29, ljc.le.dreau@free.fr","latitude":"45.4123","longitude":"4.68493","date_saisie":"19/07/2013","valide":"Non","ppo":"Non","obsolete":true}},{"type":"Feature","geometry":{"type":"Polygon","coordinates":[[[4.4199,45.3387],[4.4201,45.3385],[4.4203,45.3383],[4.421,45.3383],[4.4216,45.3383],[4.4227,45.3384],[4.4228,45.3384],[4.4237,45.3382],[4.4243,45.3376],[4.4244,45.337],[4.4244,45.3357],[4.4242,45.335],[4.4239,45.3341],[4.4239,45.3335],[4.4239,45.3328],[4.4239,45.3322],[4.4241,45.3319],[4.4222,45.3319],[4.4213,45.3319],[4.421,45.3322],[4.4208,45.3328],[4.4209,45.3333],[4.4204,45.3343],[4.42,45.3348],[4.4197,45.3354],[4.419,45.336],[4.4184,45.3364],[4.4181,45.3366],[4.4181,45.3369],[4.4183,45.3372],[4.4184,45.3374],[4.4183,45.3376],[4.4181,45.3377],[4.4179,45.338],[4.4178,45.3386],[4.4178,45.3389],[4.418,45.3391],[4.4184,45.339],[4.4199,45.3387],[4.4199,45.3387]]]},"properties":{"id_ffco":"5929","nom":"PARC DE LA CROIX DE GARRY","_dept":"42","numero":"2003-D42-127","commune":"SAINT-GENEST-MALIFAUX","echelle":"1/3000","surface":"0.26 km²","annee":"2003","cartographes":"BOURRIN Jean-Baptiste","proprietaire":"42 - Loire","specialite":"CO à pied","contacts":"CDCO 42, 06 75 41 56 36, cdcoloire@free.fr, http://cdcoloire.free.fr","latitude":"45.33585","longitude":"4.42122","date_saisie":"19/07/2013","valide":"Non","ppo":"Non","obsolete":true}},{"type":"Feature","geometry":{"type":"Polygon","coordinates":[[[4.4212,45.3388],[4.4239,45.3372],[4.4247,45.3299],[4.4229,45.3275],[4.4178,45.3276],[4.4184,45.3349],[4.4167,45.3383],[4.4184,45.3392],[4.4213,45.3391],[4.4212,45.3388]]]},"properties":{"id_ffco":"5906","nom":"COMPLEXE SPORTIF","_dept":"42","numero":"2000-D42-124","commune":"SAINT-GENEST-MALIFAUX","echelle":"1/5000","surface":"0.61 km²","annee":"2000","cartographes":"PLOCKYN Daniel","proprietaire":"42 - Loire","specialite":"CO à pied","contacts":"CDCO 42, 06 75 41 56 36, cdcoloire@free.fr, http://cdcoloire.free.fr","latitude":"45.33334","longitude":"4.42067","date_saisie":"19/07/2013","valide":"Non","ppo":"Non","obsolete":true}},{"type":"Feature","geometry":{"type":"Polygon","coordinates":[[[4.693,45.4219],[4.6929,45.4219],[4.6918,45.4215],[4.6911,45.4202],[4.6907,45.4193],[4.6891,45.4168],[4.6883,45.4164],[4.6883,45.4161],[4.6868,45.4157],[4.6862,45.4158],[4.6851,45.4158],[4.6845,45.4156],[4.684,45.4157],[4.6832,45.4158],[4.6826,45.4156],[4.6815,45.4157],[4.6805,45.4157],[4.6799,45.4156],[4.6794,45.4156],[4.6786,45.4157],[4.6781,45.4154],[4.6776,45.4155],[4.677,45.4156],[4.6765,45.4153],[4.6758,45.415],[4.6748,45.415],[4.6739,45.4153],[4.6729,45.4152],[4.672,45.4151],[4.6707,45.4156],[4.6704,45.4155],[4.6697,45.4156],[4.6689,45.4155],[4.6679,45.416],[4.6674,45.4161],[4.6662,45.4167],[4.6658,45.4166],[4.6655,45.4193],[4.6632,45.4205],[4.6632,45.4213],[4.6624,45.4222],[4.6622,45.4235],[4.6619,45.424],[4.6611,45.4239],[4.6609,45.4246],[4.6606,45.4253],[4.6608,45.4264],[4.6611,45.4271],[4.6617,45.4278],[4.6611,45.4279],[4.66,45.4284],[4.6591,45.4288],[4.6593,45.4295],[4.6583,45.4313],[4.6588,45.4315],[4.6608,45.4317],[4.6619,45.4323],[4.6672,45.4322],[4.6678,45.432],[4.6685,45.4319],[4.6696,45.4318],[4.6711,45.4316],[4.6721,45.4316],[4.6735,45.4313],[4.6744,45.4314],[4.6758,45.431],[4.677,45.4305],[4.6782,45.43],[4.6799,45.4298],[4.6808,45.4293],[4.6807,45.4286],[4.6811,45.4283],[4.682,45.4281],[4.6833,45.428],[4.6843,45.4279],[4.6846,45.4275],[4.685,45.4271],[4.6858,45.4267],[4.6866,45.4259],[4.6868,45.4259],[4.6871,45.4257],[4.6872,45.4255],[4.6877,45.4254],[4.6883,45.4251],[4.6888,45.4249],[4.6894,45.4248],[4.6904,45.4239],[4.6909,45.424],[4.6913,45.424],[4.6926,45.4238],[4.6932,45.4234],[4.6933,45.4228],[4.693,45.4219],[4.693,45.4219]]]},"properties":{"id_ffco":"6290","nom":"PELUSSIN TERRAIN DE SPORT","_dept":"42","numero":"2002-D42-123","commune":"PELUSSIN","echelle":"1/2500","surface":"3.5 km²","annee":"2002","cartographes":"PARET Bernard","proprietaire":"4203 - ORIENT'EXPRESS 42","specialite":"CO à pied","contacts":"CLUB ORIENT-EXPRESS42, 04 74 84 51 29, ljc.le.dreau@free.fr","latitude":"45.42141","longitude":"4.67609","date_saisie":"19/07/2013","valide":"Non","ppo":"Non","obsolete":true}},{"type":"Feature","geometry":{"type":"Polygon","coordinates":[[[4.2517,45.5405],[4.2543,45.5406],[4.2553,45.5388],[4.2551,45.5365],[4.2551,45.5348],[4.2565,45.5328],[4.2565,45.531],[4.2554,45.5293],[4.2524,45.5297],[4.2494,45.5297],[4.2484,45.5332],[4.2451,45.5361],[4.2431,45.5375],[4.2409,45.5403],[4.2435,45.5412],[4.2458,45.541],[4.2463,45.5403],[4.2517,45.5405]]]},"properties":{"id_ffco":"5783","nom":"BORDS DE LOIRE","_dept":"42","numero":"2002-D42-122","commune":"ANDREZIEUX BOUTHEON","echelle":"1/5000","surface":"0.94 km²","annee":"2002","cartographes":"BOURRIN Jean-Baptiste","proprietaire":"42 - Loire","specialite":"CO à pied","contacts":"CDCO 42, 06 75 41 56 36, cdcoloire@free.fr, http://cdcoloire.free.fr","latitude":"45.53527","longitude":"4.24866","date_saisie":"19/07/2013","valide":"Non","ppo":"Non","obsolete":true}},{"type":"Feature","geometry":{"type":"Polygon","coordinates":[[[4.4166,45.3165],[4.415,45.3147],[4.4137,45.3114],[4.4136,45.3105],[4.4133,45.309],[4.4126,45.308],[4.4124,45.3069],[4.4122,45.3058],[4.4122,45.3046],[4.4097,45.3022],[4.4091,45.3013],[4.4076,45.3012],[4.4057,45.3013],[4.4042,45.3014],[4.4019,45.3015],[4.4004,45.3015],[4.3983,45.3016],[4.3965,45.3017],[4.3937,45.3018],[4.3914,45.3021],[4.3892,45.3022],[4.3879,45.3022],[4.3865,45.3034],[4.3854,45.304],[4.3849,45.3039],[4.3828,45.304],[4.3809,45.304],[4.3796,45.3046],[4.3791,45.3061],[4.3784,45.3065],[4.3785,45.308],[4.3785,45.3089],[4.3785,45.3098],[4.3788,45.3112],[4.3799,45.3126],[4.3805,45.3143],[4.3829,45.3178],[4.3842,45.3187],[4.3843,45.3195],[4.3844,45.3203],[4.3836,45.3216],[4.3831,45.3222],[4.383,45.3232],[4.3826,45.3243],[4.3834,45.3257],[4.3846,45.3271],[4.3852,45.3285],[4.3862,45.3297],[4.3873,45.3306],[4.3888,45.3309],[4.3894,45.3309],[4.3899,45.3313],[4.3903,45.3326],[4.3936,45.3336],[4.3964,45.3347],[4.3971,45.3347],[4.3977,45.3366],[4.3998,45.336],[4.401,45.336],[4.4031,45.3363],[4.4044,45.3365],[4.4055,45.3363],[4.4067,45.336],[4.4074,45.3356],[4.4079,45.3352],[4.4093,45.3351],[4.4114,45.3362],[4.4127,45.3363],[4.4159,45.3372],[4.4172,45.3372],[4.4208,45.3377],[4.4223,45.3378],[4.4239,45.3378],[4.4242,45.3377],[4.4241,45.336],[4.424,45.3339],[4.424,45.3326],[4.4241,45.3317],[4.4254,45.3304],[4.4258,45.3298],[4.4266,45.3281],[4.4263,45.3265],[4.4259,45.3257],[4.4259,45.325],[4.4247,45.3243],[4.4222,45.3224],[4.4215,45.3216],[4.4203,45.321],[4.4203,45.3199],[4.4198,45.3185],[4.4198,45.3174],[4.4186,45.3165],[4.4166,45.3165],[4.4166,45.3165]]]},"properties":{"id_ffco":"5933","nom":"SAINT-GENEST","_dept":"42","numero":"2002-D42-121","commune":"SAINT-GENEST-MALIFAUX","echelle":"1/10000","surface":"10.62 km²","annee":"2002","cartographes":"PLOCKYN Daniel","proprietaire":"42 - Loire","specialite":"CO à pied","contacts":"CDCO 42, 06 75 41 56 36, cdcoloire@free.fr, http://cdcoloire.free.fr","latitude":"45.32969","longitude":"4.41196","date_saisie":"19/07/2013","valide":"Non","ppo":"Non","obsolete":true}},{"type":"Feature","geometry":{"type":"Polygon","coordinates":[[[4.6836,45.4181],[4.6826,45.4192],[4.6825,45.4198],[4.6831,45.4204],[4.6838,45.4199],[4.6851,45.4194],[4.6851,45.419],[4.6848,45.4185],[4.6842,45.4183],[4.6836,45.4181],[4.6836,45.4181]]]},"properties":{"id_ffco":"5936","nom":"PARC GASTON BATY","_dept":"42","numero":"2002-D42-118","commune":"PELUSSIN","echelle":"1/1500","surface":"0.03 km²","annee":"2002","cartographes":"PARET Bernard","proprietaire":"4203 - ORIENT'EXPRESS 42","specialite":"CO à pied","contacts":"CLUB ORIENT-EXPRESS42, 04 74 84 51 29, ljc.le.dreau@free.fr","latitude":"45.41926","longitude":"4.68394","date_saisie":"19/07/2013","valide":"Non","ppo":"Non","obsolete":true}},{"type":"Feature","geometry":{"type":"Polygon","coordinates":[[[4.7553,45.3868],[4.7563,45.3863],[4.7555,45.3839],[4.754,45.3818],[4.753,45.3818],[4.7508,45.384],[4.75,45.3868],[4.7553,45.3868]]]},"properties":{"id_ffco":"6152","nom":"ST PIERRE DE BOEUF NORD","_dept":"42","numero":"2002-D42-117","commune":"SAINT-PIERRE-DE-BOEUF","echelle":"1/5000","surface":"0.19 km²","annee":"2002","cartographes":"PARET Bernard","proprietaire":"4203 - ORIENT'EXPRESS 42","specialite":"CO à pied","contacts":"CLUB ORIENT-EXPRESS42, 04 74 84 51 29, ljc.le.dreau@free.fr","latitude":"45.38432","longitude":"4.75312","date_saisie":"19/07/2013","valide":"Non","ppo":"Non","obsolete":true}},{"type":"Feature","geometry":{"type":"Polygon","coordinates":[[[4.2724,45.3904],[4.2702,45.3904],[4.2698,45.3901],[4.2678,45.3903],[4.2671,45.3894],[4.2689,45.3885],[4.2711,45.3882],[4.2732,45.3882],[4.2725,45.3904],[4.2724,45.3904]]]},"properties":{"id_ffco":"5825","nom":"FRAISSES","_dept":"42","numero":"2001-D42-116","commune":"FRAISSES","echelle":"1/1250","surface":"0.09 km²","annee":"2001","cartographes":"INCONNU","proprietaire":"42 - Loire","specialite":"CO à pied","contacts":"CDCO 42, 06 75 41 56 36, cdcoloire@free.fr, http://cdcoloire.free.fr","latitude":"45.38928","longitude":"4.2701","date_saisie":"19/07/2013","valide":"Non","ppo":"Non","obsolete":true}},{"type":"Feature","geometry":{"type":"Polygon","coordinates":[[[4.5293,45.3687],[4.5286,45.3688],[4.5286,45.3706],[4.528,45.3722],[4.5277,45.374],[4.5359,45.374],[4.5357,45.3709],[4.5365,45.3701],[4.5354,45.37],[4.5344,45.3696],[4.5329,45.3692],[4.5313,45.369],[4.531,45.369],[4.5304,45.3688],[4.5296,45.3688],[4.5294,45.3688],[4.5293,45.3687],[4.5293,45.3687]]]},"properties":{"id_ffco":"6294","nom":"LE CHALET DES ALPES","_dept":"42","numero":"2001-D42-115","commune":"LE BESSAT","echelle":"1/3000","surface":"0.32 km²","annee":"2001","cartographes":"PARET Bernard","proprietaire":"42 - Loire","specialite":"CO à pied","contacts":"CDCO 42, 06 75 41 56 36, cdcoloire@free.fr, http://cdcoloire.free.fr","latitude":"45.37202","longitude":"4.53235","date_saisie":"19/07/2013","valide":"Non","ppo":"Non","obsolete":true}},{"type":"Feature","geometry":{"type":"Polygon","coordinates":[[[4.7367,45.4138],[4.7386,45.4142],[4.74,45.4143],[4.741,45.4143],[4.7416,45.4144],[4.7426,45.41],[4.7465,45.4049],[4.7447,45.4041],[4.7436,45.404],[4.7404,45.4046],[4.7395,45.4053],[4.7382,45.4055],[4.7372,45.4055],[4.7366,45.4138],[4.7367,45.4138],[4.7367,45.4138]]]},"properties":{"id_ffco":"6219","nom":"CHAVANAY  (LE PORT VIEUX) 2","_dept":"42","numero":"2001-D42-114","commune":"CHAVANAY","echelle":"1/5000","surface":"0.55 km²","annee":"2001","cartographes":"PARET Bernard","proprietaire":"4203 - ORIENT'EXPRESS 42","specialite":"CO à pied","contacts":"CLUB ORIENT-EXPRESS42, 04 74 84 51 29, ljc.le.dreau@free.fr","latitude":"45.4083","longitude":"4.73955","date_saisie":"19/07/2013","valide":"Non","ppo":"Non","obsolete":true}},{"type":"Feature","geometry":{"type":"Polygon","coordinates":[[[4.7517,45.3841],[4.7513,45.3842],[4.7513,45.3849],[4.7515,45.3852],[4.7523,45.3853],[4.7531,45.3854],[4.7536,45.3857],[4.7546,45.3861],[4.7554,45.3866],[4.7558,45.3869],[4.7562,45.3868],[4.756,45.3859],[4.7553,45.3841],[4.755,45.3829],[4.7556,45.3818],[4.756,45.3815],[4.7568,45.3814],[4.7571,45.3809],[4.7564,45.3791],[4.7553,45.3756],[4.7543,45.3727],[4.7538,45.3727],[4.7533,45.3729],[4.7531,45.3736],[4.753,45.3744],[4.7536,45.377],[4.7546,45.3798],[4.7549,45.3808],[4.7548,45.3816],[4.7545,45.3818],[4.7537,45.3815],[4.7531,45.3823],[4.7528,45.3832],[4.7523,45.3837],[4.7516,45.384],[4.7517,45.3841],[4.7517,45.3841]]]},"properties":{"id_ffco":"5945","nom":"BASE DE LOISIRS","_dept":"42","numero":"2001-D42-113","commune":"SAINT-PIERRE-DE-BOEUF","echelle":"1/5000","surface":"0.27 km²","annee":"2001","cartographes":"KAJAK Stephane","proprietaire":"4203 - ORIENT'EXPRESS 42","specialite":"CO à pied","contacts":"CLUB ORIENT-EXPRESS42, 04 74 84 51 29, ljc.le.dreau@free.fr","latitude":"45.38384","longitude":"4.75421","date_saisie":"19/07/2013","valide":"Non","ppo":"Non","obsolete":true}},{"type":"Feature","geometry":{"type":"Polygon","coordinates":[[[4.6931,45.4219],[4.6929,45.4219],[4.6918,45.4215],[4.6912,45.4202],[4.6907,45.4193],[4.6891,45.4168],[4.6883,45.4164],[4.6883,45.4161],[4.6868,45.4157],[4.6862,45.4158],[4.6851,45.4158],[4.6845,45.4156],[4.684,45.4157],[4.6832,45.4158],[4.6826,45.4156],[4.6815,45.4157],[4.6805,45.4157],[4.6799,45.4156],[4.6794,45.4156],[4.6786,45.4157],[4.6781,45.4154],[4.6776,45.4155],[4.677,45.4156],[4.6765,45.4153],[4.6758,45.415],[4.6748,45.415],[4.6739,45.4153],[4.6729,45.4152],[4.672,45.4151],[4.6707,45.4156],[4.6704,45.4155],[4.6697,45.4156],[4.6689,45.4154],[4.6679,45.416],[4.6674,45.4161],[4.6662,45.4167],[4.6658,45.4166],[4.6655,45.4193],[4.6632,45.4205],[4.6632,45.4213],[4.6624,45.4222],[4.6622,45.4235],[4.6619,45.424],[4.6611,45.4239],[4.6609,45.4246],[4.6606,45.4253],[4.6608,45.4264],[4.6611,45.4271],[4.6617,45.4278],[4.6611,45.4279],[4.66,45.4284],[4.6591,45.4288],[4.6593,45.4295],[4.6583,45.4313],[4.6588,45.4315],[4.6608,45.4317],[4.6619,45.4323],[4.6672,45.4322],[4.6678,45.432],[4.6685,45.4319],[4.6696,45.4318],[4.6711,45.4316],[4.672,45.4316],[4.6735,45.4313],[4.6744,45.4314],[4.6758,45.431],[4.677,45.4305],[4.6782,45.43],[4.6799,45.4298],[4.6808,45.4293],[4.6807,45.4286],[4.6811,45.4283],[4.682,45.4281],[4.6833,45.428],[4.6843,45.4279],[4.6846,45.4275],[4.6851,45.4271],[4.6858,45.4267],[4.6866,45.4259],[4.6868,45.4258],[4.6871,45.4257],[4.6872,45.4255],[4.6877,45.4254],[4.6883,45.4251],[4.6888,45.4249],[4.6894,45.4248],[4.6904,45.4239],[4.6909,45.424],[4.6913,45.424],[4.6926,45.4238],[4.6932,45.4234],[4.6933,45.4228],[4.6931,45.4219],[4.6931,45.4219]]]},"properties":{"id_ffco":"6265","nom":"PELUSSIN VILLE","_dept":"42","numero":"2001-D42-112","commune":"PELUSSIN","echelle":"1/10000","surface":"3.5 km²","annee":"2001","cartographes":"PARET Bernard","proprietaire":"4203 - ORIENT'EXPRESS 42","specialite":"CO à pied","contacts":"CLUB ORIENT-EXPRESS42, 04 74 84 51 29, ljc.le.dreau@free.fr","latitude":"45.42367","longitude":"4.67581","date_saisie":"19/07/2013","valide":"Non","ppo":"Non","obsolete":true}},{"type":"Feature","geometry":{"type":"Polygon","coordinates":[[[4.5154,45.3722],[4.4845,45.3596],[4.4666,45.3577],[4.4701,45.3524],[4.4543,45.3495],[4.4282,45.3435],[4.4251,45.3186],[4.4258,45.2988],[4.4443,45.2848],[4.4738,45.2848],[4.4931,45.3022],[4.492,45.3164],[4.5178,45.3162],[4.5422,45.3338],[4.5367,45.357],[4.5631,45.3673],[4.5926,45.3611],[4.6177,45.3948],[4.6153,45.4033],[4.5964,45.4038],[4.5672,45.4066],[4.56,45.4038],[4.5404,45.3963],[4.5168,45.3734],[4.5154,45.3722]]]},"properties":{"id_ffco":"6156","nom":"20° RAID  MASSIF DU PILAT","_dept":"42","numero":"2001-D42-111","commune":"LE BESSAT","echelle":"1/20000","surface":"83.2 km²","annee":"2001","cartographes":"PLOCKYN Daniel","proprietaire":"RA - Rhône-Alpes","specialite":"Raid'O","contacts":"LIGUE RHONE-ALPES CO, 04 72 34 56 68, lraco@free.fr, http://www.lraco.net","latitude":"45.34572","longitude":"4.52139","date_saisie":"19/07/2013","valide":"Non","ppo":"Non","obsolete":true}},{"type":"Feature","geometry":{"type":"Polygon","coordinates":[[[4.2615,45.7964],[4.2619,45.7989],[4.2586,45.8005],[4.2567,45.801],[4.2553,45.8009],[4.2519,45.8001],[4.2509,45.7989],[4.2495,45.7977],[4.2483,45.7972],[4.2476,45.7966],[4.2502,45.7953],[4.2542,45.7957],[4.2615,45.7964]]]},"properties":{"id_ffco":"5812","nom":"BOIS DE MONTJEAN","_dept":"42","numero":"2001-D42-110","commune":"Rozier en Donzy","echelle":"1/5000","surface":"0.46 km²","format":"A5","annee":"2001","cartographes":"INCONNU","proprietaire":"42 - Loire","niveau":"Initiation, Scolaire","specialite":"CO à pied","contacts":"CDCO 42, 06 75 41 56 36, cdcoloire@free.fr, http://cdcoloire.free.fr","latitude":"45.7979989813","longitude":"4.2552823361","date_saisie":"19/07/2013","valide":"Non","ppo":"Non","type_carte":"Nouvelle carte","fond":"Cadastre","obsolete":true}},{"type":"Feature","geometry":{"type":"Polygon","coordinates":[[[4.4114,45.4163],[4.4144,45.4156],[4.4174,45.4161],[4.4196,45.416],[4.4204,45.4161],[4.4211,45.4159],[4.4226,45.4159],[4.4241,45.418],[4.4242,45.4187],[4.4255,45.4192],[4.4268,45.4205],[4.4277,45.4207],[4.4281,45.4204],[4.428,45.42],[4.428,45.4196],[4.4279,45.4187],[4.4281,45.4188],[4.4284,45.4189],[4.4298,45.4176],[4.4296,45.4174],[4.4298,45.4171],[4.4328,45.4174],[4.4344,45.4176],[4.4378,45.4174],[4.4414,45.4157],[4.4439,45.4141],[4.4453,45.4125],[4.4461,45.4106],[4.4461,45.4104],[4.4449,45.4113],[4.4428,45.4116],[4.4414,45.4112],[4.4409,45.4109],[4.4403,45.4103],[4.4398,45.4103],[4.4379,45.4112],[4.4357,45.4103],[4.4339,45.411],[4.4319,45.4106],[4.4311,45.4106],[4.4286,45.4103],[4.4261,45.4095],[4.4255,45.4089],[4.4239,45.4088],[4.4224,45.4088],[4.4209,45.4083],[4.4191,45.4085],[4.4179,45.4087],[4.4167,45.4087],[4.4143,45.4099],[4.4137,45.4101],[4.4123,45.4103],[4.4113,45.4109],[4.4099,45.4123],[4.409,45.4131],[4.4092,45.4137],[4.4103,45.4143],[4.4106,45.4146],[4.4114,45.4162],[4.4114,45.4163],[4.4114,45.4163]]]},"properties":{"id_ffco":"6289","nom":"LA CROIX DU PERTHUIS","_dept":"42","numero":"2001-D42-109","commune":"SAINT-ETIENNE","echelle":"1/7500","surface":"2.05 km²","annee":"2001","cartographes":"MAREIGNER Franz et Yann","specialite":"CO à pied","contacts":"CLUB N.O.S.E. SAINT ETIENNE, 06 28 51 66 14, cdnose42@yahoo.fr, http://www.nose42.fr/","latitude":"45.41365","longitude":"4.42541","date_saisie":"19/07/2013","valide":"Non","ppo":"Non","obsolete":true}},{"type":"Feature","geometry":{"type":"Polygon","coordinates":[[[4.4539,45.5044],[4.4524,45.5059],[4.4523,45.5085],[4.4522,45.5141],[4.4581,45.5142],[4.4639,45.5146],[4.468,45.5152],[4.4733,45.5189],[4.4751,45.5201],[4.4776,45.5207],[4.4806,45.5208],[4.4851,45.5211],[4.4902,45.5208],[4.4929,45.5182],[4.4958,45.5195],[4.5027,45.5205],[4.5048,45.5212],[4.5076,45.5198],[4.511,45.5171],[4.5111,45.511],[4.5104,45.5071],[4.5095,45.5055],[4.5067,45.5043],[4.5025,45.5027],[4.5034,45.5017],[4.5008,45.4986],[4.4963,45.4951],[4.4927,45.4951],[4.4887,45.4955],[4.4821,45.4986],[4.4777,45.4991],[4.4734,45.4999],[4.4697,45.4989],[4.4677,45.4962],[4.4668,45.4957],[4.4645,45.4965],[4.4585,45.4969],[4.4564,45.4975],[4.4558,45.4981],[4.4548,45.4997],[4.4545,45.5021],[4.4539,45.5044],[4.4539,45.5044]]]},"properties":{"id_ffco":"5768","nom":"CHAVANNE","_dept":"42","numero":"2001-D42-108","commune":"SAINT-CHAMOND","echelle":"1/15000","surface":"10.02 km²","annee":"2001","cartographes":"PLOCKYN Daniel","proprietaire":"42 - Loire","specialite":"CO à pied","contacts":"CDCO 42, 06 75 41 56 36, cdcoloire@free.fr, http://cdcoloire.free.fr","latitude":"45.50763","longitude":"4.47754","date_saisie":"19/07/2013","valide":"Non","ppo":"Non","obsolete":true}},{"type":"Feature","geometry":{"type":"Polygon","coordinates":[[[4.4351,45.4399],[4.435,45.4399],[4.434,45.4408],[4.4335,45.4406],[4.4333,45.441],[4.435,45.4416],[4.4355,45.4415],[4.4362,45.4412],[4.4365,45.4408],[4.4364,45.4403],[4.4351,45.4399],[4.4351,45.4399]]]},"properties":{"id_ffco":"6101","nom":"COLLEGE DE TERRENOIRE","_dept":"42","numero":"2000-D42-107","commune":"SAINT-ETIENNE","echelle":"1/2000","surface":"0.03 km²","annee":"2000","cartographes":"BOURRIN Jean-Baptiste","proprietaire":"42 - Loire","specialite":"CO à pied","contacts":"CDCO 42, 06 75 41 56 36, cdcoloire@free.fr, http://cdcoloire.free.fr","latitude":"45.44091","longitude":"4.4352","date_saisie":"19/07/2013","valide":"Non","ppo":"Non","obsolete":true}},{"type":"Feature","geometry":{"type":"Polygon","coordinates":[[[4.3333,45.4477],[4.3324,45.4479],[4.3323,45.4483],[4.3318,45.4486],[4.3315,45.4483],[4.3297,45.4496],[4.3288,45.4503],[4.3283,45.4508],[4.3285,45.4509],[4.3289,45.4508],[4.3292,45.4509],[4.3294,45.451],[4.3293,45.4514],[4.3295,45.4514],[4.3297,45.4516],[4.3298,45.4518],[4.3304,45.4517],[4.331,45.4519],[4.3309,45.4522],[4.3312,45.4523],[4.3315,45.452],[4.3318,45.4519],[4.3321,45.452],[4.3322,45.4518],[4.3324,45.4513],[4.3325,45.4513],[4.3332,45.4512],[4.3334,45.4512],[4.3336,45.451],[4.3339,45.4507],[4.3342,45.4499],[4.3343,45.4496],[4.3344,45.4493],[4.3345,45.4488],[4.3346,45.4483],[4.3345,45.448],[4.334,45.448],[4.3336,45.4479],[4.3334,45.4477],[4.3333,45.4477],[4.3333,45.4477]]]},"properties":{"id_ffco":"5939","nom":"St GENEST LERPT LE MINOIS","_dept":"42","numero":"2000-D42-106","commune":"SAINT-GENEST-LERPT","echelle":"1/4000","surface":"0.14 km²","annee":"2000","cartographes":"BOURRIN Jean-Baptiste","proprietaire":"42 - Loire","specialite":"CO à pied","contacts":"CDCO 42, 06 75 41 56 36, cdcoloire@free.fr, http://cdcoloire.free.fr","latitude":"45.45002","longitude":"4.33173","date_saisie":"19/07/2013","valide":"Non","ppo":"Non","obsolete":true}},{"type":"Feature","geometry":{"type":"Polygon","coordinates":[[[4.7477,45.385],[4.7477,45.3849],[4.7474,45.3858],[4.7469,45.3889],[4.7459,45.3919],[4.7438,45.3945],[4.7403,45.3968],[4.7385,45.3984],[4.7376,45.4015],[4.7375,45.4104],[4.7367,45.4124],[4.7419,45.4129],[4.7425,45.4101],[4.7452,45.4064],[4.7499,45.4016],[4.7525,45.3987],[4.7557,45.3941],[4.7575,45.3891],[4.7577,45.387],[4.7571,45.3843],[4.7504,45.3844],[4.7498,45.3849],[4.7477,45.385],[4.7477,45.385]]]},"properties":{"id_ffco":"5930","nom":"LA PLAINE","_dept":"42","numero":"2000-D42-105","commune":"CHAVANAY","echelle":"1/10000","surface":"2.47 km²","annee":"2000","cartographes":"KAJAK Stephane","proprietaire":"4203 - ORIENT'EXPRESS 42","specialite":"CO à pied","contacts":"CLUB ORIENT-EXPRESS42, 04 74 84 51 29, ljc.le.dreau@free.fr","latitude":"45.39861","longitude":"4.74719","date_saisie":"19/07/2013","valide":"Non","ppo":"Non","obsolete":true}},{"type":"Feature","geometry":{"type":"Polygon","coordinates":[[[4.636,45.4396],[4.6425,45.4417],[4.6487,45.4353],[4.6529,45.432],[4.6521,45.4312],[4.6531,45.4303],[4.6515,45.4296],[4.652,45.4279],[4.6504,45.4271],[4.6494,45.4259],[4.644,45.4256],[4.6435,45.4259],[4.6425,45.4254],[4.6373,45.4247],[4.6373,45.4237],[4.6322,45.4238],[4.6321,45.4284],[4.6326,45.4284],[4.6311,45.4343],[4.6335,45.4367],[4.6361,45.4384],[4.636,45.4396]]]},"properties":{"id_ffco":"6270","nom":"BOIS DE NEUFOND","_dept":"42","numero":"2000-D42-104","commune":"PELUSSIN","echelle":"1/10000","surface":"2.26 km²","annee":"2000","cartographes":"KAJAK Stephane","proprietaire":"4203 - ORIENT'EXPRESS 42","specialite":"CO à pied","contacts":"CLUB ORIENT-EXPRESS42, 04 74 84 51 29, ljc.le.dreau@free.fr","latitude":"45.43272","longitude":"4.64213","date_saisie":"19/07/2013","valide":"Non","ppo":"Non","obsolete":true}},{"type":"Feature","geometry":{"type":"Polygon","coordinates":[[[4.6141,45.4314],[4.6143,45.4314],[4.6158,45.4297],[4.6166,45.4293],[4.6171,45.4288],[4.6128,45.4288],[4.6115,45.4296],[4.6062,45.4306],[4.6064,45.433],[4.608,45.434],[4.6089,45.434],[4.609,45.4348],[4.6105,45.4361],[4.6134,45.4375],[4.6154,45.4371],[4.6175,45.4374],[4.6203,45.4379],[4.6233,45.4377],[4.6246,45.4353],[4.6218,45.4348],[4.6195,45.434],[4.6194,45.4321],[4.6169,45.4323],[4.6159,45.4321],[4.6141,45.4314],[4.6141,45.4314]]]},"properties":{"id_ffco":"5769","nom":"BOIS DE VEYLON","_dept":"42","numero":"2000-D42-103","commune":"DOIZIEUX","echelle":"1/5000","surface":"0.8 km²","annee":"2000","cartographes":"KAJAK Stephane","proprietaire":"4203 - ORIENT'EXPRESS 42","specialite":"CO à pied","contacts":"CLUB ORIENT-EXPRESS42, 04 74 84 51 29, ljc.le.dreau@free.fr","latitude":"45.43457","longitude":"4.61634","date_saisie":"19/07/2013","valide":"Non","ppo":"Non","obsolete":true}},{"type":"Feature","geometry":{"type":"Polygon","coordinates":[[[4.6236,45.4392],[4.6277,45.4402],[4.6315,45.4416],[4.632,45.4429],[4.6324,45.4457],[4.6343,45.4457],[4.635,45.4447],[4.6364,45.4429],[4.6394,45.4427],[4.6428,45.4427],[4.648,45.4364],[4.6535,45.4321],[4.654,45.431],[4.6525,45.4277],[4.6509,45.4262],[4.6424,45.4251],[4.6382,45.4244],[4.63,45.4246],[4.6257,45.4242],[4.6279,45.4211],[4.6252,45.4199],[4.6152,45.4211],[4.6165,45.4253],[4.6148,45.4278],[4.6106,45.4293],[4.6059,45.4303],[4.6046,45.4311],[4.6063,45.4335],[4.6099,45.4367],[4.6135,45.4379],[4.6229,45.4379],[4.6236,45.4392],[4.6236,45.4392]]]},"properties":{"id_ffco":"6253","nom":"L'EAU QUI BRUIT","_dept":"42","numero":"2000-D42-102","commune":"PELUSSIN","echelle":"1/5000","surface":"5.9 km²","annee":"2000","cartographes":"KAJAK Stephane","proprietaire":"4203 - ORIENT'EXPRESS 42","specialite":"CO à pied","contacts":"CLUB ORIENT-EXPRESS42, 04 74 84 51 29, ljc.le.dreau@free.fr","latitude":"45.43271","longitude":"4.64722","date_saisie":"19/07/2013","valide":"Non","ppo":"Non","obsolete":true}},{"type":"Feature","geometry":{"type":"Polygon","coordinates":[[[4.6762,45.3713],[4.6763,45.3713],[4.6782,45.3709],[4.6791,45.3709],[4.6803,45.3687],[4.6802,45.368],[4.6792,45.3668],[4.6792,45.3668],[4.6788,45.3667],[4.6781,45.3671],[4.6779,45.3672],[4.6769,45.367],[4.6757,45.367],[4.6749,45.3671],[4.6743,45.3675],[4.6734,45.3677],[4.6729,45.3676],[4.6725,45.3677],[4.6726,45.3697],[4.6732,45.37],[4.6751,45.3705],[4.6757,45.3708],[4.6758,45.3713],[4.6762,45.3713],[4.6762,45.3713]]]},"properties":{"id_ffco":"5798","nom":"LE BUISSON","_dept":"42","numero":"2000-D42-100","commune":"VERANNE","echelle":"1/4000","surface":"0.22 km²","annee":"2000","cartographes":"PARET Bernard","proprietaire":"4203 - ORIENT'EXPRESS 42","specialite":"CO à pied","contacts":"CLUB ORIENT-EXPRESS42, 04 74 84 51 29, ljc.le.dreau@free.fr","latitude":"45.36886","longitude":"4.67781","date_saisie":"19/07/2013","valide":"Non","ppo":"Non","obsolete":true}},{"type":"Feature","geometry":{"type":"Polygon","coordinates":[[[4.3011,45.6328],[4.314,45.6343],[4.3212,45.6337],[4.3238,45.6352],[4.3298,45.6347],[4.3363,45.6314],[4.3324,45.6233],[4.3266,45.6151],[4.3211,45.6058],[4.3126,45.6067],[4.3097,45.614],[4.3064,45.6195],[4.3066,45.6239],[4.3014,45.631],[4.3011,45.6328]]]},"properties":{"id_ffco":"6393","nom":"ST GALMIER","_dept":"42","numero":"1979-D42-08","commune":"ST GALMIER","echelle":"1/15000","surface":"5.46 km²","annee":"1979","cartographes":"DEVRIEUX Michel","proprietaire":"SANS ADRESSE","specialite":"CO à pied","contacts":"SANS ADRESSE","latitude":"45.62052","longitude":"4.3187","date_saisie":"19/07/2013","valide":"Non","ppo":"Non","obsolete":true}},{"type":"Feature","geometry":null,"properties":{"id_ffco":"6336","nom":"LA PERROTIERE","_dept":"42","numero":"1977-D42-04","commune":"SAINT-ETIENNE","echelle":"1/2500","surface":"0.2 km²","annee":"1977","cartographes":"INCONNU","proprietaire":"42 - Loire","specialite":"CO à pied","contacts":"CDCO 42, 06 75 41 56 36, cdcoloire@free.fr, http://cdcoloire.free.fr","latitude":"45.44629","longitude":"4.41929","date_saisie":"19/07/2013","valide":"Non","ppo":"Non","obsolete":true}},{"type":"Feature","geometry":null,"properties":{"id_ffco":"6370","nom":"BOIS DE LA RIVE","_dept":"42","numero":"1976-D42-03","commune":"SAINT-PAUL-EN-CORNILLON","echelle":"1/5000","surface":"0.5 km²","annee":"1976","cartographes":"INCONNU","proprietaire":"SANS ADRESSE","specialite":"CO à pied","contacts":"SANS ADRESSE","latitude":"45.39804","longitude":"4.25104","date_saisie":"19/07/2013","valide":"Non","ppo":"Non","obsolete":true}},{"type":"Feature","geometry":null,"properties":{"id_ffco":"6360","nom":"RALLYE SNE 73","_dept":"42","numero":"1973-D42-01","commune":"LE BESSAT","echelle":"1/25000","surface":"41.2 km²","annee":"1973","cartographes":"INCONNU","proprietaire":"SANS ADRESSE","specialite":"Rand'O","contacts":"SANS ADRESSE","latitude":"45.37636","longitude":"4.5233","date_saisie":"19/07/2013","valide":"Non","ppo":"Non","obsolete":true}}]}