{"type":"FeatureCollection","features":[{"type":"Feature","geometry":{"type":"Polygon","coordinates":[[[4.3102,45.3474],[4.3145,45.3444],[4.3151,45.3424],[4.3168,45.3405],[4.3197,45.3382],[4.3202,45.3368],[4.3204,45.3339],[4.3139,45.3344],[4.3081,45.3364],[4.3081,45.3403],[4.307,45.3434],[4.3078,45.3439],[4.3102,45.3474]]]},"properties":{"id_ffco":"2026-D43-64","nom":"Saint Just Malmont (village)","_dept":"43","numero":"2026-D43-64","commune":"Saint Just Malmont","echelle":"1/4000","surface":"0.92 km²","format":"A4","annee":"2026","proprietaire":"43 - Haute-Loire","niveau":"National, International","specialite":"CO à pied","latitude":"45.339574706","longitude":"4.31312666989","date_saisie":"02/02/2026","valide":"Non","ppo":"Non","type_carte":"Nouvelle carte","fond":"Ortho","obsolete":false}},{"type":"Feature","geometry":{"type":"Polygon","coordinates":[[[4.2661,45.3017],[4.2663,45.3025],[4.2684,45.3032],[4.27,45.3037],[4.2716,45.3039],[4.2724,45.3036],[4.2733,45.3049],[4.2771,45.3042],[4.2794,45.3031],[4.2798,45.3015],[4.2833,45.3016],[4.282,45.3],[4.2816,45.2986],[4.2801,45.2982],[4.2787,45.2996],[4.2777,45.2995],[4.2768,45.299],[4.2761,45.2993],[4.2732,45.299],[4.2707,45.2986],[4.2661,45.3017]]]},"properties":{"id_ffco":"2025-D43-63","nom":"Saint Didier en Velay (village)","_dept":"43","numero":"2025-D43-63","commune":"Saint Didier en Velay","echelle":"1/4000","surface":"0.58 km²","format":"A4","annee":"2025","niveau":"National, International","specialite":"Sprint (ISSOM)","contacts":"CDCO 43, 19, rue des jardiniers, 43750, VALS, 0687227117, 06 08 90 33 07, comitedepartementalco43@gmail.com","latitude":"45.3014344101","longitude":"4.27445477516","date_saisie":"29/01/2026","date_depot":"25/02/2026","valide":"Oui","ppo":"Non","type_carte":"Nouvelle carte","fond":"Ortho","obsolete":false}},{"type":"Feature","geometry":{"type":"Polygon","coordinates":[[[4.0608,45.0371],[4.0617,45.0401],[4.0605,45.0415],[4.0594,45.0428],[4.0643,45.0437],[4.0665,45.0449],[4.0665,45.0459],[4.0629,45.0479],[4.0631,45.0513],[4.0634,45.0536],[4.0613,45.0563],[4.0639,45.0638],[4.0665,45.0675],[4.0673,45.0692],[4.0703,45.0723],[4.0715,45.0756],[4.068,45.0803],[4.0653,45.0861],[4.0634,45.0896],[4.067,45.0946],[4.0766,45.0959],[4.0826,45.0974],[4.0878,45.0958],[4.0912,45.095],[4.0943,45.0926],[4.0934,45.0896],[4.0928,45.086],[4.0964,45.082],[4.0989,45.0821],[4.1005,45.0898],[4.1043,45.0932],[4.1118,45.0949],[4.1168,45.0941],[4.1204,45.0932],[4.1238,45.0921],[4.1269,45.0924],[4.1329,45.0902],[4.1384,45.0904],[4.1427,45.0881],[4.1444,45.0849],[4.1432,45.0825],[4.1424,45.0796],[4.1415,45.074],[4.1492,45.0643],[4.1533,45.0589],[4.1568,45.0562],[4.158,45.0523],[4.1599,45.049],[4.158,45.0477],[4.1587,45.0451],[4.1564,45.0428],[4.1573,45.0413],[4.1587,45.0393],[4.1599,45.0382],[4.158,45.0368],[4.1566,45.0339],[4.1484,45.0311],[4.1389,45.0313],[4.1307,45.0325],[4.1269,45.0318],[4.1243,45.0311],[4.1223,45.0278],[4.1144,45.0272],[4.0998,45.0314],[4.0974,45.0285],[4.0933,45.0286],[4.0876,45.0259],[4.0842,45.0271],[4.078,45.0257],[4.072,45.0274],[4.0675,45.0285],[4.0641,45.032],[4.0601,45.0329],[4.0608,45.0371]]]},"properties":{"id_ffco":"2025-D43-62","nom":"Massif du Meygal","_dept":"43","numero":"2025-D43-62","commune":"Saint Julien Chapteuil","echelle":"1/20000","surface":"47.7 km²","format":"+","annee":"2025","cartographes":"Corentin ROUX, Marian COTIRTA","proprietaire":"43 - Haute-Loire","niveau":"National, International","specialite":"Raid'O","contacts":"CDCO 43, 19, rue des jardiniers, 43750, VALS, 0687227117, 06 08 90 33 07, comitedepartementalco43@gmail.com","latitude":"45.0593650927","longitude":"4.10673410063","date_saisie":"17/06/2025","date_depot":"17/09/2025","valide":"Oui","ppo":"Non","type_carte":"Nouvelle carte","fond":"Ortho","obsolete":false}},{"type":"Feature","geometry":{"type":"Polygon","coordinates":[[[4.1231,45.1335],[4.1234,45.1347],[4.1238,45.1354],[4.1244,45.1353],[4.1251,45.1348],[4.1265,45.1345],[4.1287,45.1334],[4.1303,45.1327],[4.1308,45.1315],[4.1309,45.1309],[4.1309,45.1303],[4.1306,45.1301],[4.1298,45.1299],[4.1298,45.1296],[4.1296,45.1292],[4.1295,45.1288],[4.1293,45.1287],[4.1284,45.1286],[4.1272,45.1283],[4.1266,45.1281],[4.1261,45.1279],[4.1257,45.1279],[4.1251,45.1279],[4.1249,45.1283],[4.1244,45.129],[4.1241,45.1293],[4.1229,45.1295],[4.1219,45.1295],[4.121,45.1294],[4.1212,45.1302],[4.1218,45.1311],[4.1226,45.1321],[4.1231,45.1335]]]},"properties":{"id_ffco":"2023-D43-61","nom":"Choumouroux","_dept":"43","numero":"2023-D43-61","commune":"Yssingeaux","echelle":"1/4000","surface":"0.39 km²","format":"A4","annee":"2023","cartographes":"Corentin ROUX","proprietaire":"43 - Haute-Loire","niveau":"Départemental","specialite":"CO à pied","contacts":"CDCO 43, 19, rue des jardiniers, 43750, VALS, 0687227117, 06 08 90 33 07, comitedepartementalco43@gmail.com","latitude":"45.1313640713","longitude":"4.1261308517","date_saisie":"13/12/2024","date_depot":"25/02/2026","valide":"Oui","ppo":"Non","type_carte":"Nouvelle carte","fond":"Ortho","obsolete":false}},{"type":"Feature","geometry":{"type":"Polygon","coordinates":[[[3.8269,45.2635],[3.827,45.2642],[3.8268,45.2647],[3.8282,45.2654],[3.8293,45.2662],[3.8297,45.2663],[3.8298,45.2659],[3.8298,45.2654],[3.83,45.2652],[3.8299,45.265],[3.83,45.2648],[3.8301,45.2645],[3.8305,45.2644],[3.8307,45.2642],[3.8307,45.2639],[3.8306,45.2637],[3.8304,45.2635],[3.8303,45.2632],[3.8303,45.2629],[3.8304,45.2628],[3.8308,45.2629],[3.8312,45.263],[3.8316,45.263],[3.8319,45.263],[3.832,45.2628],[3.8321,45.2625],[3.8321,45.2623],[3.8321,45.2621],[3.8319,45.2618],[3.8318,45.2616],[3.8315,45.2614],[3.8313,45.2612],[3.831,45.2609],[3.8309,45.2607],[3.8308,45.2604],[3.8308,45.2601],[3.8307,45.2599],[3.8306,45.2597],[3.8303,45.2596],[3.83,45.2597],[3.8296,45.2599],[3.8293,45.2602],[3.8293,45.2604],[3.8293,45.2606],[3.829,45.2606],[3.8287,45.2607],[3.8283,45.2604],[3.828,45.2601],[3.8277,45.2599],[3.8272,45.2597],[3.827,45.2598],[3.827,45.2603],[3.827,45.2609],[3.8269,45.2616],[3.8268,45.2622],[3.8268,45.2626],[3.8269,45.2631],[3.8269,45.2635]]]},"properties":{"id_ffco":"2024-D43-59","nom":"Chomelix Village","_dept":"43","numero":"2024-D43-59","commune":"Chomelix","echelle":"1/4000","surface":"0.19 km²","format":"A4","annee":"2024","cartographes":"Thomas PARDOEN","proprietaire":"43 - Haute-Loire","niveau":"Départemental","specialite":"CO à pied","contacts":"CDCO 43, 19, rue des jardiniers, 43750, VALS, 0687227117, 06 08 90 33 07, comitedepartementalco43@gmail.com","latitude":"45.2626312099","longitude":"3.82904871118","date_saisie":"12/12/2024","date_depot":"19/06/2025","valide":"Oui","ppo":"Non","type_carte":"Nouvelle carte","fond":"Ortho","obsolete":false}},{"type":"Feature","geometry":{"type":"Polygon","coordinates":[[[3.8289,45.2605],[3.8285,45.2605],[3.8272,45.26],[3.8269,45.2642],[3.8269,45.2647],[3.8278,45.2654],[3.8287,45.2664],[3.8298,45.2666],[3.8305,45.2665],[3.8312,45.2657],[3.8316,45.2653],[3.8316,45.2648],[3.8313,45.2641],[3.8312,45.2636],[3.8316,45.2632],[3.8324,45.263],[3.8334,45.2628],[3.8338,45.2624],[3.8342,45.2619],[3.8336,45.2609],[3.8338,45.259],[3.8335,45.2575],[3.8334,45.2564],[3.832,45.2553],[3.8301,45.2565],[3.8295,45.2573],[3.8291,45.2581],[3.829,45.2585],[3.8293,45.259],[3.8295,45.2593],[3.8293,45.2604],[3.8289,45.2605]]]},"properties":{"id_ffco":"2024-D43-58","nom":"Les rives de l'Arzon","_dept":"43","numero":"2024-D43-58","commune":"Chomelix","echelle":"1/5000","surface":"0.43 km²","format":"A4","annee":"2024","cartographes":"Thomas PARDOEN","proprietaire":"43 - Haute-Loire","niveau":"Départemental","specialite":"CO à pied","contacts":"CDCO 43, 19, rue des jardiniers, 43750, VALS, 0687227117, 06 08 90 33 07, comitedepartementalco43@gmail.com","latitude":"45.2611733368","longitude":"3.83054494009","date_saisie":"12/12/2024","date_depot":"19/06/2025","valide":"Oui","ppo":"Non","type_carte":"Nouvelle carte","fond":"Ortho","obsolete":false}},{"type":"Feature","geometry":{"type":"Polygon","coordinates":[[[3.876,45.0481],[3.8754,45.0489],[3.873,45.0484],[3.8734,45.0477],[3.8713,45.0475],[3.8709,45.0465],[3.8727,45.0462],[3.8739,45.0457],[3.8752,45.0455],[3.876,45.0472],[3.8762,45.0475],[3.8783,45.0477],[3.8793,45.048],[3.8796,45.0484],[3.88,45.0485],[3.8811,45.0488],[3.8812,45.0491],[3.8813,45.0493],[3.8814,45.0496],[3.8814,45.05],[3.8814,45.0503],[3.8811,45.0504],[3.8809,45.0507],[3.8806,45.0509],[3.8801,45.0507],[3.8797,45.0505],[3.8791,45.0501],[3.8788,45.0499],[3.8786,45.0494],[3.8783,45.0491],[3.876,45.0481]]]},"properties":{"id_ffco":"2023-D43-57","nom":"Les rives de la Borne","_dept":"43","numero":"2023-D43-57","commune":"Le Puy en Velay","echelle":"1/3000","surface":"0.16 km²","format":"A4","annee":"2023","cartographes":"Olivier Bonnet","proprietaire":"43 - Haute-Loire","niveau":"Initiation, Scolaire","specialite":"CO à pied","contacts":"Le Puy en Velay Tourisme, 2, place du Clauzel, 43000, Le puy en Velay, 0471093841, contact@lepuyenvelay-tourisme.fr, http://www.lepuyenvelay-tourisme.fr/","latitude":"45.0479753919","longitude":"3.87623380492","date_saisie":"11/12/2024","date_depot":"19/06/2025","valide":"Oui","ppo":"Non","type_carte":"Nouvelle carte","fond":"Ortho","obsolete":false}},{"type":"Feature","geometry":{"type":"Polygon","coordinates":[[[3.991,44.942],[3.9933,44.9434],[3.9956,44.9423],[3.9966,44.9415],[3.9968,44.941],[3.9975,44.9403],[3.9977,44.9395],[3.9977,44.9384],[3.999,44.9363],[3.9991,44.9356],[3.9992,44.9353],[3.9995,44.935],[4.0,44.9345],[3.9997,44.9339],[3.9988,44.9334],[3.9975,44.9341],[3.9968,44.9344],[3.9959,44.9346],[3.9953,44.9352],[3.9951,44.9357],[3.9948,44.9367],[3.9941,44.9382],[3.9931,44.9391],[3.9927,44.9393],[3.9925,44.9399],[3.9922,44.9403],[3.9911,44.9421],[3.991,44.942]]]},"properties":{"id_ffco":"2024-D43-56","nom":"Le Monastier","_dept":"43","numero":"2024-D43-56","commune":"Le Monastier sur Gazeille","echelle":"1/4000","surface":"0.34 km²","format":"A4","annee":"2024","cartographes":"Olivier Bonnet","proprietaire":"43 - Haute-Loire","niveau":"Départemental","specialite":"CO à pied","contacts":"CDCO 43, 19, rue des jardiniers, 43750, VALS, 0687227117, 06 08 90 33 07, comitedepartementalco43@gmail.com","latitude":"44.9386385629","longitude":"3.99565122922","date_saisie":"10/12/2024","date_depot":"19/06/2025","valide":"Oui","ppo":"Non","type_carte":"Nouvelle carte","fond":"Ortho","obsolete":false}},{"type":"Feature","geometry":{"type":"Polygon","coordinates":[[[4.2411,45.0507],[4.2422,45.0509],[4.2435,45.0508],[4.2447,45.0504],[4.2456,45.0501],[4.2459,45.0495],[4.2458,45.0489],[4.2449,45.0485],[4.2439,45.0483],[4.243,45.0486],[4.2422,45.0488],[4.2413,45.0489],[4.2408,45.0496],[4.2407,45.0505],[4.2411,45.0507]]]},"properties":{"id_ffco":"2023-D43-55","nom":"Le Mazet Saint Voy","_dept":"43","numero":"2023-D43-55","commune":"Le Mazet Saint Voy","echelle":"1/4000","surface":"0.08 km²","format":"A4","annee":"2023","cartographes":"Olivier Bonnet","proprietaire":"43 - Haute-Loire","niveau":"Initiation, Scolaire","specialite":"CO à pied","contacts":"CDCO 43, 19, rue des jardiniers, 43750, VALS, 0687227117, 06 08 90 33 07, comitedepartementalco43@gmail.com","latitude":"45.049637507","longitude":"4.24328850297","date_saisie":"11/12/2024","date_depot":"19/06/2025","valide":"Oui","ppo":"Non","type_carte":"Nouvelle carte","fond":"Ortho","obsolete":false}},{"type":"Feature","geometry":{"type":"Polygon","coordinates":[[[4.1529,44.9039],[4.1546,44.903],[4.1576,44.902],[4.1583,44.9017],[4.1617,44.9053],[4.1648,44.907],[4.1703,44.9115],[4.1713,44.9115],[4.1721,44.9134],[4.1764,44.9147],[4.1802,44.9159],[4.1802,44.9167],[4.1742,44.918],[4.1726,44.9175],[4.1651,44.9163],[4.1483,44.9114],[4.1488,44.9078],[4.1488,44.9059],[4.1529,44.9039]]]},"properties":{"id_ffco":"2023-D43-54","nom":"Les Estables","_dept":"43","numero":"2023-D43-54","commune":"Les Estables","echelle":"1/10000","surface":"2.02 km²","format":"A4","annee":"2023","cartographes":"PARDOEN Thomas, BONNET Olivier","proprietaire":"43 - Haute-Loire","niveau":"Départemental","specialite":"CO à pied","contacts":"CDCO 43, 19, rue des jardiniers, 43750, VALS, 0687227117, 06 08 90 33 07, comitedepartementalco43@gmail.com","latitude":"44.9105709431","longitude":"4.16140294391","date_saisie":"03/12/2024","date_depot":"19/06/2025","valide":"Oui","ppo":"Non","type_carte":"Nouvelle carte","fond":"Ortho","obsolete":false}},{"type":"Feature","geometry":{"type":"Polygon","coordinates":[[[3.9378,45.2238],[3.9396,45.2241],[3.9415,45.2247],[3.9441,45.225],[3.9455,45.2248],[3.9476,45.2241],[3.9479,45.2236],[3.9481,45.2222],[3.9489,45.221],[3.9486,45.2202],[3.9477,45.2195],[3.9407,45.2175],[3.9398,45.2182],[3.9394,45.2196],[3.9395,45.2218],[3.9395,45.2225],[3.9378,45.2238]]]},"properties":{"id_ffco":"2023-D43-53","nom":"Roche en Regnier","_dept":"43","numero":"2023-D43-53","commune":"Roche en Regnier","echelle":"1/5000","surface":"0.48 km²","format":"A4","annee":"2023","cartographes":"BONNET Oliver","proprietaire":"43 - Haute-Loire","niveau":"Initiation, Scolaire","specialite":"CO à pied","contacts":"CDCO 43, 19, rue des jardiniers, 43750, VALS, 0687227117, 06 08 90 33 07, comitedepartementalco43@gmail.com","latitude":"45.2215602815","longitude":"3.94350836311","date_saisie":"14/08/2024","date_depot":"19/06/2025","valide":"Oui","ppo":"Non","type_carte":"Nouvelle carte","base":"2023-D43-53 Roche en Regnier","fond":"Ortho","obsolete":false}},{"type":"Feature","geometry":{"type":"Polygon","coordinates":[[[3.9586,45.239],[3.9638,45.2399],[3.9682,45.2424],[3.9719,45.2418],[3.9764,45.2398],[3.9844,45.2377],[3.9816,45.2358],[3.984,45.2334],[3.9853,45.2298],[3.9883,45.2262],[3.989,45.2238],[3.9929,45.2206],[3.9944,45.2156],[3.9918,45.2151],[3.9849,45.2163],[3.9802,45.2148],[3.9771,45.2144],[3.9744,45.2136],[3.9725,45.2123],[3.9721,45.2116],[3.97,45.2116],[3.9683,45.2119],[3.9659,45.2117],[3.9634,45.2124],[3.96,45.2134],[3.9575,45.2155],[3.9506,45.2183],[3.9483,45.221],[3.9473,45.2245],[3.9504,45.2269],[3.952,45.2269],[3.9528,45.2263],[3.9561,45.2275],[3.9578,45.2276],[3.9595,45.232],[3.9596,45.2352],[3.9586,45.239]]]},"properties":{"id_ffco":"2022-D43-52","nom":"Foret de Miaune","_dept":"43","numero":"2022-D43-52","commune":"Roche en Regnier","echelle":"1/10000","surface":"7.57 km²","format":"A3","annee":"2022","cartographes":"Corentin ROUX","proprietaire":"43 - Haute-Loire","niveau":"Régional","specialite":"CO à pied","contacts":"CDCO 43, 19, rue des jardiniers, 43750, VALS, 0687227117, 06 08 90 33 07, comitedepartementalco43@gmail.com","latitude":"45.2254785685","longitude":"3.9707766048","date_saisie":"12/08/2024","date_depot":"19/06/2025","valide":"Oui","ppo":"Oui (20 postes)","type_carte":"Nouvelle carte","fond":"Ortho","obsolete":false}},{"type":"Feature","geometry":{"type":"Polygon","coordinates":[[[3.2681,45.3895],[3.2673,45.3869],[3.2646,45.3822],[3.2626,45.3809],[3.2609,45.3807],[3.2581,45.3799],[3.2545,45.3794],[3.2505,45.3821],[3.2502,45.3824],[3.2526,45.3854],[3.2549,45.3856],[3.2562,45.3862],[3.2577,45.3877],[3.2573,45.3883],[3.2574,45.3887],[3.2583,45.3892],[3.2631,45.3894],[3.266,45.3902],[3.267,45.3901],[3.2681,45.3895]]]},"properties":{"id_ffco":"2023-D43-51","nom":"Lempdes sur Allagnon","_dept":"43","numero":"2023-D43-51","commune":"Lempdes sur Allagnon","echelle":"1/7500","surface":"0.98 km²","format":"A4","annee":"2023","cartographes":"PARDOEN Thomas","proprietaire":"43 - Haute-Loire","niveau":"Initiation, Scolaire","specialite":"CO à pied","latitude":"45.3846647888","longitude":"3.25966919258","date_saisie":"27/11/2023","date_depot":"25/02/2026","valide":"Oui","ppo":"Non","type_carte":"Nouvelle carte","fond":"Ortho","obsolete":false}},{"type":"Feature","geometry":{"type":"Polygon","coordinates":[[[4.0505,45.1089],[4.0535,45.1091],[4.0559,45.11],[4.0567,45.111],[4.0603,45.1088],[4.0602,45.1073],[4.0607,45.1065],[4.0619,45.1057],[4.0604,45.1048],[4.0613,45.1003],[4.0609,45.0992],[4.0602,45.0988],[4.0602,45.0983],[4.0584,45.0974],[4.056,45.0961],[4.0552,45.0959],[4.0525,45.0958],[4.0509,45.0957],[4.0454,45.0969],[4.0436,45.0979],[4.0417,45.0981],[4.0405,45.0976],[4.0395,45.0982],[4.0385,45.0986],[4.0378,45.0987],[4.0366,45.0983],[4.0362,45.0986],[4.0385,45.1003],[4.0397,45.1013],[4.0403,45.1022],[4.0401,45.1038],[4.0412,45.1046],[4.0416,45.1055],[4.0461,45.1073],[4.0463,45.1078],[4.0479,45.1093],[4.0505,45.1089]]]},"properties":{"id_ffco":"2022-D43-50","nom":"Mont Losegal - le Pertuis","_dept":"43","numero":"2022-D43-50","commune":"Le Pertuis","echelle":"1/10000","surface":"2.14 km²","format":"A4","annee":"2022","cartographes":"Corentin Roux","proprietaire":"43 - Haute-Loire","niveau":"Interrégional","specialite":"CO à pied","latitude":"45.1025696859","longitude":"4.05101108936","date_saisie":"30/11/2022","date_depot":"07/06/2023","valide":"Oui","ppo":"Oui (30 postes)","type_carte":"Nouvelle carte","fond":"Ortho","url":"https://elo.lauraco.fr/","obsolete":false}},{"type":"Feature","geometry":{"type":"Polygon","coordinates":[[[3.507,45.3633],[3.506,45.3646],[3.5041,45.3648],[3.5027,45.3654],[3.4991,45.3662],[3.4972,45.3669],[3.4972,45.3687],[3.4948,45.3693],[3.4917,45.371],[3.4908,45.3728],[3.4892,45.3735],[3.4876,45.3722],[3.4855,45.3717],[3.4868,45.3743],[3.4886,45.3766],[3.4893,45.3777],[3.5022,45.3824],[3.5047,45.3817],[3.5039,45.3808],[3.5042,45.3762],[3.504,45.3736],[3.5052,45.3719],[3.504,45.3692],[3.5064,45.3673],[3.5089,45.3666],[3.5082,45.3638],[3.507,45.3633]]]},"properties":{"id_ffco":"2022-D43-48","nom":"Bois de la Jarosse","_dept":"43","numero":"2022-D43-48","commune":"Champagnac le Vieux","echelle":"1/10000","surface":"1.78 km²","format":"A4","annee":"2022","cartographes":"Rui Antunes","niveau":"Initiation, Scolaire","specialite":"CO à pied","contacts":"CDCO 43, 19, rue des jardiniers, 43750, VALS, 0687227117, 06 08 90 33 07, comitedepartementalco43@gmail.com","latitude":"45.3734682857","longitude":"3.49832047764","date_saisie":"08/12/2022","date_depot":"07/06/2023","valide":"Oui","ppo":"Non","type_carte":"Nouvelle carte","fond":"Ortho","obsolete":false}},{"type":"Feature","geometry":{"type":"Polygon","coordinates":[[[4.3231,45.067],[4.3184,45.0661],[4.314,45.0652],[4.3098,45.0648],[4.3058,45.0673],[4.3047,45.0706],[4.3045,45.0712],[4.3056,45.0731],[4.3044,45.0748],[4.304,45.0767],[4.3047,45.0774],[4.3048,45.0795],[4.3086,45.0799],[4.3117,45.0807],[4.3133,45.0816],[4.3147,45.0814],[4.3225,45.0821],[4.3215,45.0803],[4.3217,45.0779],[4.3225,45.0764],[4.3225,45.0745],[4.3241,45.0732],[4.3231,45.067]]]},"properties":{"id_ffco":"2022-D43-47","nom":"Bois de Peybrousson","_dept":"43","numero":"2022-D43-47","commune":"Le Chambon sur Lignon","echelle":"1/10000","surface":"2.36 km²","format":"A4","annee":"2022","cartographes":"Rui Antunes","proprietaire":"43 - Haute-Loire","niveau":"Régional","specialite":"CO à pied","latitude":"45.0733309577","longitude":"4.31408313951","date_saisie":"30/11/2022","date_depot":"07/06/2023","valide":"Oui","ppo":"Non","type_carte":"Nouvelle carte","fond":"Ortho","obsolete":false}},{"type":"Feature","geometry":{"type":"Polygon","coordinates":[[[4.3005,45.1272],[4.3001,45.1281],[4.2987,45.1287],[4.2987,45.1298],[4.2994,45.1311],[4.3001,45.1313],[4.3003,45.1324],[4.3009,45.1329],[4.3025,45.1321],[4.3043,45.1318],[4.3065,45.1292],[4.3121,45.1275],[4.3139,45.1247],[4.3152,45.1242],[4.3137,45.1215],[4.3119,45.1212],[4.31,45.1216],[4.31,45.1225],[4.3087,45.1227],[4.3074,45.1228],[4.3073,45.1224],[4.3067,45.1225],[4.3061,45.1224],[4.3051,45.1233],[4.3018,45.1252],[4.3012,45.1251],[4.299,45.1267],[4.2996,45.127],[4.3005,45.1272]]]},"properties":{"id_ffco":"2021-D43-46","nom":"Bois de Crouzilhac","_dept":"43","numero":"2021-D43-46","commune":"Tence","echelle":"1/7500","surface":"0.84 km²","format":"A3","annee":"2021","cartographes":"Corentin Roux","proprietaire":"43 - Haute-Loire","niveau":"Départemental","specialite":"CO à pied","latitude":"45.1265773249","longitude":"4.30637211609","date_saisie":"10/02/2022","date_depot":"17/05/2023","valide":"Oui","ppo":"Non","type_carte":"Nouvelle carte","fond":"Ortho","obsolete":false}},{"type":"Feature","geometry":{"type":"Polygon","coordinates":[[[4.1675,45.2946],[4.1666,45.2941],[4.1668,45.294],[4.1668,45.2936],[4.1668,45.2934],[4.1677,45.2932],[4.1671,45.2937],[4.1678,45.2942],[4.1675,45.2946]]]},"properties":{"id_ffco":"2021-D43-45","nom":"Parc du château","_dept":"43","numero":"2021-D43-45","commune":"Monistrol sur Loire","echelle":"1/1000","surface":"0.01 km²","format":"A5","annee":"2021","cartographes":"Olivier Bonnet","proprietaire":"43 - Haute-Loire","niveau":"Initiation, Scolaire","specialite":"CO à pied","latitude":"45.2939625006","longitude":"4.16720124774","date_saisie":"30/11/2022","date_depot":"07/06/2023","valide":"Oui","ppo":"Non","type_carte":"Nouvelle carte","fond":"Ortho","obsolete":false}},{"type":"Feature","geometry":{"type":"Polygon","coordinates":[[[4.0461,45.0205],[4.0462,45.0222],[4.0463,45.023],[4.0474,45.0238],[4.0484,45.024],[4.0488,45.0231],[4.0498,45.0226],[4.0496,45.0213],[4.0492,45.0204],[4.0491,45.0198],[4.0482,45.0194],[4.0468,45.0192],[4.046,45.0204],[4.0461,45.0205]]]},"properties":{"id_ffco":"2020-D43-44","nom":"Auteyrac sud","_dept":"43","numero":"2020-D43-44","commune":"Saint Julien Chapteuil","echelle":"1/4000","surface":"0.11 km²","format":"A4","annee":"2020","cartographes":"Toma Pardoen","proprietaire":"43 - Haute-Loire","niveau":"Départemental","specialite":"CO à pied","latitude":"45.0215229282","longitude":"4.04778638461","date_saisie":"10/02/2022","date_depot":"07/06/2023","valide":"Oui","ppo":"Non","type_carte":"Nouvelle carte","fond":"Ortho","obsolete":false}},{"type":"Feature","geometry":{"type":"Polygon","coordinates":[[[3.8826,45.0411],[3.8829,45.041],[3.8829,45.0409],[3.8829,45.0406],[3.8835,45.0405],[3.8842,45.0405],[3.8844,45.0409],[3.8848,45.0409],[3.8843,45.0383],[3.8819,45.0385],[3.8821,45.04],[3.8826,45.0411]]]},"properties":{"id_ffco":"2019-D43-43","nom":"Jardin Henri Vinay","_dept":"43","numero":"2019-D43-43","commune":"Le Puy en Velay","echelle":"1/2500","surface":"0.05 km²","format":"A5","annee":"2019","cartographes":"Toma PARDOEN","proprietaire":"43 - Haute-Loire","niveau":"Initiation, Scolaire","specialite":"CO à pied","latitude":"45.0395313093","longitude":"3.88332534352","date_saisie":"10/05/2020","date_depot":"09/03/2021","valide":"Oui","ppo":"Non","type_carte":"Nouvelle carte","fond":"Cadastre","obsolete":false}},{"type":"Feature","geometry":{"type":"Polygon","coordinates":[[[3.8235,45.0597],[3.8252,45.0591],[3.8267,45.0591],[3.8291,45.0592],[3.8305,45.0597],[3.831,45.06],[3.8306,45.0609],[3.8307,45.0615],[3.8313,45.0622],[3.8318,45.063],[3.8313,45.0635],[3.8307,45.0637],[3.8284,45.0635],[3.8273,45.0631],[3.8256,45.062],[3.8242,45.0607],[3.8235,45.0597]]]},"properties":{"id_ffco":"2020-D43-42","nom":"Pinatelle","_dept":"43","numero":"2020-D43-42","commune":"Polignac","echelle":"1/4000","surface":"0.22 km²","format":"A3","annee":"2020","cartographes":"Toma Pardoen","proprietaire":"43 - Haute-Loire","niveau":"Départemental","specialite":"CO à pied","latitude":"45.0611860632","longitude":"3.82794734884","date_saisie":"10/02/2022","date_depot":"17/05/2023","valide":"Oui","ppo":"Non","type_carte":"Nouvelle carte","fond":"Ortho","obsolete":false}},{"type":"Feature","geometry":{"type":"Polygon","coordinates":[[[3.8834,45.0514],[3.8842,45.0515],[3.8848,45.0515],[3.8853,45.0515],[3.8849,45.0523],[3.8848,45.053],[3.8846,45.0533],[3.8844,45.0536],[3.8842,45.0537],[3.884,45.0537],[3.8838,45.0536],[3.8832,45.0532],[3.8828,45.0529],[3.8834,45.0514]]]},"properties":{"id_ffco":"2019-D43-41","nom":"Stade d'Aiguilhe","_dept":"43","numero":"2019-D43-41","commune":"AIGUILHE","echelle":"1/2500","surface":"0.03 km²","format":"A5","annee":"2019","cartographes":"Toma PARDOEN","proprietaire":"43 - Haute-Loire","niveau":"Initiation, Scolaire","specialite":"CO à pied","latitude":"45.0524553832","longitude":"3.88398327823","date_saisie":"10/05/2020","date_depot":"09/03/2021","valide":"Oui","ppo":"Non","type_carte":"Nouvelle carte","fond":"Ortho","obsolete":false}},{"type":"Feature","geometry":{"type":"Polygon","coordinates":[[[3.8989,45.0384],[3.8982,45.0385],[3.8976,45.0386],[3.897,45.0387],[3.8965,45.039],[3.8961,45.0393],[3.8959,45.0395],[3.8957,45.0398],[3.8962,45.04],[3.8965,45.0401],[3.8967,45.0402],[3.8966,45.0401],[3.8967,45.0402],[3.8967,45.0403],[3.8967,45.0404],[3.8967,45.0404],[3.8967,45.0405],[3.8968,45.0405],[3.8969,45.0405],[3.897,45.0406],[3.8972,45.0408],[3.8974,45.0409],[3.8976,45.0411],[3.8977,45.0411],[3.898,45.0411],[3.8982,45.0411],[3.8988,45.041],[3.8992,45.041],[3.8994,45.0409],[3.8995,45.0409],[3.8998,45.0407],[3.8998,45.0405],[3.8998,45.0404],[3.8998,45.0403],[3.8999,45.0402],[3.9003,45.0401],[3.9003,45.0399],[3.9003,45.0398],[3.9002,45.0396],[3.8995,45.0397],[3.8995,45.0396],[3.8995,45.0394],[3.8996,45.0391],[3.8996,45.0388],[3.8996,45.0386],[3.8996,45.0383],[3.8989,45.0384]]]},"properties":{"id_ffco":"2019-D43-40","nom":"Bois de Bonneterre","_dept":"43","numero":"2019-D43-40","commune":"Le Puy en Velay","echelle":"1/2500","surface":"0.07 km²","format":"A3","annee":"2019","cartographes":"Toma PARDOEN","proprietaire":"43 - Haute-Loire","niveau":"Initiation, Scolaire","specialite":"CO à pied","latitude":"45.0397367797","longitude":"3.89814230085","date_saisie":"08/05/2020","date_depot":"09/03/2021","valide":"Oui","ppo":"Non","type_carte":"Nouvelle carte","fond":"Ortho","obsolete":false}},{"type":"Feature","geometry":{"type":"Polygon","coordinates":[[[4.0575,45.0367],[4.0594,45.0366],[4.0605,45.0365],[4.0609,45.0366],[4.0604,45.037],[4.0611,45.0374],[4.0616,45.0373],[4.0618,45.0383],[4.0618,45.0388],[4.0614,45.0394],[4.0614,45.04],[4.0619,45.0399],[4.0628,45.0397],[4.0637,45.04],[4.0645,45.0401],[4.0652,45.0402],[4.0657,45.0404],[4.066,45.0391],[4.0653,45.0379],[4.0658,45.0363],[4.0634,45.0358],[4.0631,45.0351],[4.0634,45.0349],[4.0634,45.0345],[4.063,45.0342],[4.063,45.0338],[4.0632,45.0334],[4.0633,45.0329],[4.0633,45.0328],[4.0632,45.0327],[4.0626,45.0329],[4.0621,45.0329],[4.0614,45.0329],[4.0603,45.033],[4.0596,45.0335],[4.0588,45.0348],[4.0583,45.0357],[4.0565,45.0359],[4.0565,45.0366],[4.0575,45.0367]]]},"properties":{"id_ffco":"2018-D43-38","nom":"Saint Julien Chapteuil village","_dept":"43","numero":"2018-D43-38","commune":"Saint Julien Chapteuil","echelle":"1/5000","surface":"0.29 km²","format":"A3","annee":"2018","cartographes":"Christophe Néel","proprietaire":"43 - Haute-Loire","niveau":"Départemental","specialite":"CO à pied","latitude":"45.0364918471","longitude":"4.06212921103","date_saisie":"10/02/2022","date_depot":"17/05/2023","valide":"Oui","ppo":"Non","type_carte":"Nouvelle carte","fond":"Cadastre","obsolete":false}},{"type":"Feature","geometry":{"type":"Polygon","coordinates":[[[4.0484,45.0255],[4.0476,45.0249],[4.046,45.0248],[4.0438,45.0246],[4.0423,45.0267],[4.0421,45.0273],[4.0405,45.0287],[4.0402,45.0298],[4.042,45.0304],[4.0441,45.0306],[4.0457,45.03],[4.047,45.0275],[4.0484,45.0257],[4.0484,45.0255]]]},"properties":{"id_ffco":"2018-D43-37","nom":"Bois d'Auteyrac","_dept":"43","numero":"2018-D43-37","commune":"Saint Julien Chapteuil","echelle":"1/4000","surface":"0.26 km²","format":"A5","annee":"2018","cartographes":"Toma PARDOEN","proprietaire":"43 - Haute-Loire","niveau":"Départemental","specialite":"CO à pied","latitude":"45.0276183835","longitude":"4.04433675025","date_saisie":"10/05/2020","date_depot":"09/03/2021","valide":"Oui","ppo":"Non","type_carte":"Nouvelle carte","fond":"IGN","obsolete":false}},{"type":"Feature","geometry":{"type":"Polygon","coordinates":[[[4.218,45.1528],[4.2185,45.1524],[4.2195,45.1521],[4.2196,45.1518],[4.22,45.1515],[4.2193,45.1511],[4.2189,45.1515],[4.2185,45.1516],[4.2181,45.1514],[4.218,45.151],[4.2183,45.1505],[4.2181,45.1497],[4.2181,45.1491],[4.2178,45.1489],[4.2172,45.149],[4.2164,45.1495],[4.216,45.1497],[4.2164,45.1502],[4.2163,45.1509],[4.2172,45.1518],[4.2177,45.1523],[4.218,45.1528]]]},"properties":{"id_ffco":"2022-D43-35","nom":"Base de loisirs de Lavalette","_dept":"43","numero":"2022-D43-35","commune":"Chenereilles","echelle":"1/2500","surface":"0.06 km²","format":"A5","annee":"2022","cartographes":"CDCO 42","proprietaire":"Conseil départemental de la Haute Loire","niveau":"Initiation, Scolaire","specialite":"CO à pied","latitude":"45.1508174901","longitude":"4.21769872941","date_saisie":"08/12/2022","date_depot":"07/06/2023","valide":"Oui","ppo":"Non","type_carte":"Nouvelle carte","fond":"Ortho","obsolete":false}},{"type":"Feature","geometry":{"type":"Polygon","coordinates":[[[3.3436,44.9836],[3.3462,44.986],[3.3471,44.9868],[3.3523,44.9882],[3.3563,44.9883],[3.3619,44.988],[3.3654,44.9854],[3.3722,44.9839],[3.3786,44.9825],[3.3816,44.9812],[3.3808,44.9792],[3.3808,44.974],[3.379,44.9734],[3.3734,44.9754],[3.362,44.971],[3.3476,44.9736],[3.3472,44.975],[3.3483,44.9768],[3.3476,44.9778],[3.3474,44.9788],[3.3459,44.9798],[3.3463,44.9824],[3.3436,44.9836]]]},"properties":{"id_ffco":"2017-D43-33","nom":"Mont Mouchet","_dept":"43","numero":"2017-D43-33","commune":"Auvers","echelle":"1/10000","surface":"3.88 km²","format":"A4","annee":"2017","cartographes":"Rémi Lequint","proprietaire":"43 - Haute-Loire","niveau":"Départemental","specialite":"CO à pied","latitude":"44.9797058856","longitude":"3.36168203318","date_saisie":"30/11/2022","date_depot":"19/06/2025","valide":"Oui","ppo":"Non","type_carte":"Nouvelle carte","fond":"Ortho","obsolete":false}},{"type":"Feature","geometry":{"type":"Polygon","coordinates":[[[4.1503,44.9067],[4.1516,44.9074],[4.1528,44.9063],[4.1538,44.9071],[4.1546,44.9081],[4.1556,44.9086],[4.1568,44.9089],[4.1571,44.9077],[4.1592,44.9074],[4.1586,44.9056],[4.1611,44.905],[4.1607,44.9036],[4.1585,44.9013],[4.1569,44.9013],[4.1511,44.9037],[4.149,44.9055],[4.1503,44.9067]]]},"properties":{"id_ffco":"2015-D43-32","nom":"Les Estables village","_dept":"43","numero":"2015-D43-32","commune":"Les Estables","echelle":"1/4000","surface":"0.45 km²","format":"A3","annee":"2015","cartographes":"Toma Pardoen","proprietaire":"43 - Haute-Loire","niveau":"Départemental","specialite":"CO à pied","latitude":"44.904870853","longitude":"4.15548977748","date_saisie":"10/02/2022","date_depot":"17/05/2023","valide":"Oui","ppo":"Non","type_carte":"Nouvelle carte","fond":"Ortho","obsolete":false}},{"type":"Feature","geometry":{"type":"Polygon","coordinates":[[[4.1709,44.9117],[4.1725,44.9097],[4.1914,44.9106],[4.1922,44.9273],[4.1565,44.929],[4.1467,44.928],[4.142,44.9208],[4.1449,44.9139],[4.1709,44.9117]]]},"properties":{"id_ffco":"2014-D43-31","nom":"Les Estables Ski orientation","_dept":"43","numero":"2014-D43-31","commune":"Les Estables","echelle":"1/12500","surface":"6.95 km²","format":"A4","annee":"2014","cartographes":"Toma PARDOËN","proprietaire":"43 - Haute-Loire","niveau":"National, International","specialite":"CO à ski","contacts":"Communauté de communes Mezenc Loire Meygal, 10 place Saint Robert, 43260, SAINT JULIEN CHAPTEUIL, 04 71 06 08 45, https://www.mezencloiremeygal.fr/","latitude":"44.919902228","longitude":"4.16867109823","date_saisie":"25/06/2018","date_depot":"05/04/2019","valide":"Oui","ppo":"Non","type_carte":"Nouvelle carte","fond":"Ortho","obsolete":false}},{"type":"Feature","geometry":{"type":"Polygon","coordinates":[[[3.8708,45.0465],[3.8711,45.0475],[3.8734,45.0476],[3.8744,45.0476],[3.874,45.0482],[3.8754,45.0487],[3.8759,45.0481],[3.875,45.0478],[3.8751,45.0475],[3.8753,45.0475],[3.8759,45.0475],[3.8755,45.0469],[3.8754,45.0466],[3.8752,45.0466],[3.8748,45.046],[3.8751,45.0459],[3.875,45.0456],[3.8741,45.0458],[3.8732,45.046],[3.8723,45.0464],[3.8715,45.0465],[3.871,45.0466],[3.8708,45.0465]]]},"properties":{"id_ffco":"2022-D43-26","nom":"Stade Massot","_dept":"43","numero":"2022-D43-26","commune":"Le Puy en Velay","echelle":"1/2000","surface":"0.07 km²","format":"A4","annee":"2022","cartographes":"Roger Taillebois, Olivier Bonnet","proprietaire":"43 - Haute-Loire","niveau":"Initiation, Scolaire","specialite":"CO à pied","latitude":"45.0470224114","longitude":"3.87370557391","date_saisie":"10/02/2022","date_depot":"07/06/2023","valide":"Oui","ppo":"Non","type_carte":"Reprise","base":"2022-D43-26 Stade Massot","fond":"Ortho","obsolete":false}},{"type":"Feature","geometry":{"type":"Polygon","coordinates":[[[3.7629,45.2917],[3.7669,45.2797],[3.7655,45.2757],[3.7703,45.2702],[3.7749,45.2641],[3.7775,45.2603],[3.7865,45.2597],[3.7931,45.2579],[3.7992,45.258],[3.7943,45.2678],[3.7932,45.2728],[3.7918,45.276],[3.7896,45.2785],[3.7876,45.2817],[3.7833,45.2887],[3.7757,45.2916],[3.7703,45.2931],[3.7659,45.2928],[3.7629,45.2917]]]},"properties":{"id_ffco":"2019-D43-17","nom":"Suc de Barret - Chomelix (43)","_dept":"43","numero":"2019-D43-17","commune":"Chomelix","echelle":"1/10000","surface":"6.27 km²","format":"A4","annee":"2019","cartographes":"ACSO, Bruno MERCIER, Corentin ROUX mise aux normes ISOM 2017","proprietaire":"43 - Haute-Loire","niveau":"Interrégional","specialite":"CO à pied","contacts":"CDCO 43, 19, rue des jardiniers, 43750, VALS, 0687227117, 06 08 90 33 07, comitedepartementalco43@gmail.com","latitude":"45.2751370526","longitude":"3.77989770259","date_saisie":"13/10/2005","date_depot":"25/10/2005","valide":"Oui","ppo":"Non","type_carte":"Reprise","base":"2019-D43-17 Suc de Barret - Chomelix (43)","fond":"Ortho","obsolete":false}}]}