{"type":"FeatureCollection","features":[{"type":"Feature","geometry":null,"properties":{"id_ffco":"264","nom":"Parcours CO","_dept":"43","numero":"????-D43-9999","commune":"Les Estables","surface":"None km²","latitude":"44.9042615","longitude":"4.1541205","valide":"Non","ppo":"Oui","obsolete":true}},{"type":"Feature","geometry":null,"properties":{"id_ffco":"262","nom":"Centre multiactivités","_dept":"43","numero":"????-D43-9998","commune":"Chomelix","surface":"None km²","latitude":"45.2623382","longitude":"3.8284657","valide":"Non","ppo":"Oui","obsolete":true}},{"type":"Feature","geometry":null,"properties":{"id_ffco":"263","nom":"Le VERNET Bois Grand-La Durande","_dept":"43","numero":"2000-D43-9997","commune":"Le Puy en Velay","surface":"None km²","annee":"2000","specialite":"Raid'O","contacts":"OT, 04 71 09 38 41, http://www.ot-lepuyenvelay.fr/carrefour-des-chemins-de-grande-randonnee/parcours-d-orientation.html","latitude":"45.0436777","longitude":"3.8852493","valide":"Non","ppo":"Oui","obsolete":true}},{"type":"Feature","geometry":{"type":"Polygon","coordinates":[[[3.7946,46.0049],[3.7954,46.0052],[3.7952,46.0068],[3.7955,46.0094],[3.7981,46.0115],[3.8001,46.0111],[3.8023,46.0146],[3.8065,46.0146],[3.8072,46.0028],[3.8007,45.9999],[3.7964,45.9999],[3.794,46.0043],[3.7946,46.0049]]]},"properties":{"id_ffco":"5743","nom":"LA LOGE DES GARDES","_dept":"43","numero":"2000-D43-97","commune":"SAINT-NICOLAS-DES-BIEFS","echelle":"1/5000","surface":"1.2 km²","annee":"2000","cartographes":"COTIRTA Marian","proprietaire":"42 - Loire","specialite":"CO à pied","contacts":"CDCO 42, 06 75 41 56 36, cdcoloire@free.fr, http://cdcoloire.free.fr","latitude":"46.00725","longitude":"3.80058","date_saisie":"19/07/2013","valide":"Non","ppo":"Non","obsolete":true}},{"type":"Feature","geometry":{"type":"Polygon","coordinates":[[[3.7937,46.0233],[3.7874,46.0127],[3.7963,45.9929],[3.8183,45.9902],[3.8291,45.9986],[3.8129,46.0228],[3.7956,46.0243],[3.7937,46.0233]]]},"properties":{"id_ffco":"5845","nom":"LA LOGE DES GARDES","_dept":"43","numero":"2000-D43-95","commune":"LAPRUGNE","echelle":"1/10000","surface":"8.28 km²","annee":"2000","cartographes":"COTIRTA Marian","proprietaire":"42 - Loire","specialite":"CO à pied","contacts":"CDCO 42, 06 75 41 56 36, cdcoloire@free.fr, http://cdcoloire.free.fr","latitude":"46.00721","longitude":"3.80822","date_saisie":"19/07/2013","valide":"Non","ppo":"Non","obsolete":true}},{"type":"Feature","geometry":null,"properties":{"id_ffco":"4119","nom":"Forêt de Miaune","_dept":"43","numero":"2003-D43-18","commune":"Le Puy","echelle":"1/10000","surface":"3.7 km²","annee":"2003","cartographes":"F et Y Mareigner,S Beaulieu","proprietaire":"43 - Haute-Loire","specialite":"CO à pied","latitude":"45.0436777","longitude":"3.8852493","date_saisie":"13/10/2005","date_depot":"25/10/2005","valide":"Non","ppo":"Non","obsolete":true}},{"type":"Feature","geometry":null,"properties":{"id_ffco":"1746","nom":"BLACHE","_dept":"43","numero":"1987-D43-01","commune":"PUY VELAY","echelle":"1/10000","surface":"1.0 km²","annee":"1987","proprietaire":"42 - Loire","specialite":"CO à pied","latitude":"45.0436777","longitude":"3.8852493","valide":"Non","ppo":"Non","obsolete":true}},{"type":"Feature","geometry":null,"properties":{"id_ffco":"261","nom":"Site du Lizieux","_dept":"43","numero":"????-D43-00","commune":"Araules","surface":"None km²","latitude":"45.0899118","longitude":"4.1738579","valide":"Non","ppo":"Oui","obsolete":true}}]}