{"type":"FeatureCollection","features":[{"type":"Feature","geometry":null,"properties":{"id_ffco":"265","nom":"Parc du Château de la Tour","_dept":"44","numero":"2003-D44-84","commune":"ORVAULT","echelle":"1/4000","surface":"None km²","format":"A4","annee":"2003","niveau":"Initiation, Scolaire","specialite":"CO à pied","latitude":"47.2807011375","longitude":"-1.63069108272","valide":"Non","ppo":"Oui","obsolete":true}},{"type":"Feature","geometry":{"type":"Polygon","coordinates":[[[-1.821,47.6218],[-1.8204,47.629],[-1.8131,47.6293],[-1.8123,47.628],[-1.8122,47.6267],[-1.7963,47.6254],[-1.796,47.6216],[-1.7974,47.621],[-1.7969,47.6201],[-1.7958,47.6195],[-1.7958,47.6185],[-1.7968,47.6179],[-1.7966,47.6173],[-1.7947,47.6151],[-1.7936,47.6141],[-1.7923,47.6129],[-1.7923,47.6115],[-1.7927,47.6108],[-1.7948,47.6109],[-1.7971,47.6109],[-1.8016,47.6135],[-1.805,47.6152],[-1.8091,47.6166],[-1.8155,47.619],[-1.8179,47.6198],[-1.821,47.6218]]]},"properties":{"id_ffco":"11739","nom":"Rocs de Gascaigne","_dept":"44","numero":"2019-D44-66","commune":"Guémené-Penfao","echelle":"1/7500","surface":"2.35 km²","format":"A4","annee":"2019","cartographes":"Rémi LEQUINT","proprietaire":"4403 - NANTES ATLANTIQUE ORIENTATION","niveau":"Interrégional","specialite":"CO à pied","contacts":"NAO 4403PL, nao4403@gmail.com","latitude":"47.6208970975","longitude":"-1.80677308097","date_saisie":"08/11/2019","date_depot":"02/05/2024","valide":"Oui","ppo":"Non","type_carte":"Nouvelle carte","fond":"Cadastre","obsolete":true}},{"type":"Feature","geometry":{"type":"Polygon","coordinates":[[[-1.5655,47.2079],[-1.5623,47.2044],[-1.5705,47.2036],[-1.5718,47.2039],[-1.5707,47.2054],[-1.57,47.206],[-1.5688,47.2066],[-1.567,47.2073],[-1.5655,47.2079]]]},"properties":{"id_ffco":"6998","nom":"Les Chantiers Navals","_dept":"44","numero":"2013-D44-20","commune":"NANTES","echelle":"1/4000","surface":"0.19 km²","format":"A4","annee":"2013","cartographes":"Olivier TARDY (2013)","proprietaire":"4403 - NANTES ATLANTIQUE ORIENTATION","niveau":"Régional","specialite":"Sprint (ISSOM)","contacts":"NAO 4403PL, nao4403@gmail.com","latitude":"47.2053839011","longitude":"-1.56704946254","date_saisie":"13/11/2013","date_depot":"15/05/2014","valide":"Oui","ppo":"Non","type_carte":"Nouvelle carte","base":"2013-D44-20 Les Chantiers Navals","fond":"Ortho","obsolete":true}},{"type":"Feature","geometry":{"type":"Polygon","coordinates":[[[-1.6152,47.2382],[-1.6159,47.2364],[-1.6175,47.2352],[-1.6179,47.2338],[-1.6191,47.2332],[-1.617,47.23],[-1.6117,47.2307],[-1.6105,47.232],[-1.6101,47.2321],[-1.607,47.2309],[-1.6068,47.2312],[-1.6045,47.2305],[-1.6035,47.2298],[-1.5984,47.2295],[-1.5975,47.2292],[-1.5967,47.2298],[-1.5961,47.2315],[-1.5972,47.2321],[-1.5971,47.2335],[-1.5994,47.2339],[-1.6018,47.2347],[-1.6042,47.2363],[-1.6068,47.2372],[-1.6081,47.2375],[-1.6102,47.237],[-1.6111,47.237],[-1.6127,47.2376],[-1.6139,47.2381],[-1.6152,47.2382]]]},"properties":{"id_ffco":"6997","nom":"Val de Chézine","_dept":"44","numero":"2013-D44-19","commune":"SAINT-HERBLAIN","echelle":"1/7500","surface":"1.03 km²","format":"A4","annee":"2013","cartographes":"Hervé MARECHAL","proprietaire":"4403 - NANTES ATLANTIQUE ORIENTATION","niveau":"Régional","specialite":"CO à pied","contacts":"NAO 4403PL, nao4403@gmail.com","latitude":"47.23341616","longitude":"-1.60811863764","date_saisie":"13/11/2013","date_depot":"15/05/2014","valide":"Oui","ppo":"Non","type_carte":"Nouvelle carte","fond":"Cadastre","obsolete":true}},{"type":"Feature","geometry":{"type":"Polygon","coordinates":[[[-1.6357,47.2563],[-1.6373,47.254],[-1.6367,47.2532],[-1.6383,47.2527],[-1.6391,47.2527],[-1.6406,47.2517],[-1.6415,47.2513],[-1.6429,47.2503],[-1.6453,47.2462],[-1.6382,47.2437],[-1.6353,47.2445],[-1.6343,47.2487],[-1.6289,47.2548],[-1.6357,47.2563]]]},"properties":{"id_ffco":"271","nom":"Parc de la Gournerie","_dept":"44","numero":"2013-D44-18","commune":"SAINT-HERBLAIN","echelle":"1/6000","surface":"0.83 km²","format":"A4","annee":"2013","cartographes":"Christian ALVAREZ","proprietaire":"4403 - NANTES ATLANTIQUE ORIENTATION","niveau":"Départemental","specialite":"CO à pied","contacts":"NAO 4403PL, nao4403@gmail.com","latitude":"47.249791195","longitude":"-1.63732147276","date_depot":"15/05/2014","valide":"Oui","ppo":"Non","type_carte":"Nouvelle carte","fond":"Cadastre","obsolete":true}},{"type":"Feature","geometry":{"type":"Polygon","coordinates":[[[-2.4313,47.3228],[-2.4324,47.3205],[-2.4326,47.3203],[-2.4339,47.3204],[-2.4341,47.3203],[-2.4351,47.3206],[-2.4354,47.3204],[-2.4355,47.32],[-2.4362,47.3203],[-2.4354,47.3211],[-2.4344,47.3215],[-2.4338,47.3215],[-2.4332,47.3223],[-2.4323,47.3227],[-2.4313,47.3228]]]},"properties":{"id_ffco":"6942","nom":"Lycée La Mennais","_dept":"44","numero":"2006-D44-17","commune":"GUERANDE","echelle":"1/2000","surface":"0.05 km²","format":"A4","annee":"2006","cartographes":"Gérard Crochet,Gueraud Thierry","proprietaire":"Collège St Jean Baptiste","niveau":"Initiation, Scolaire","specialite":"CO à pied","latitude":"47.3212911469","longitude":"-2.43339308167","date_saisie":"25/09/2013","valide":"Non","ppo":"Non","type_carte":"Nouvelle carte","fond":"Cadastre","obsolete":true}},{"type":"Feature","geometry":{"type":"Polygon","coordinates":[[[-1.8661,47.4989],[-1.8391,47.5063],[-1.8227,47.4977],[-1.8284,47.495],[-1.8336,47.4857],[-1.8507,47.4864],[-1.8564,47.4894],[-1.8661,47.4989]]]},"properties":{"id_ffco":"3959","nom":"PONT DE CURUN V","_dept":"44","numero":"2005-D44-16","commune":"BLAIN","echelle":"1/10000","surface":"4.52 km²","format":"A3","annee":"2005","cartographes":"MASSON Philippe,Henri GANDON,Christian ALVAREZ","proprietaire":"4403 - NANTES ATLANTIQUE ORIENTATION","niveau":"Interrégional","specialite":"CO à pied","latitude":"47.4956435505","longitude":"-1.84396843712","date_saisie":"26/07/2005","date_depot":"27/07/2005","valide":"Oui","ppo":"Non","type_carte":"Reprise","base":"1997-D44-13 CURUN IV","fond":"Cadastre","obsolete":true}},{"type":"Feature","geometry":{"type":"Polygon","coordinates":[[[-1.7793,47.5003],[-1.7682,47.5052],[-1.7699,47.5063],[-1.77,47.5076],[-1.7685,47.5085],[-1.766,47.5088],[-1.761,47.509],[-1.7607,47.5102],[-1.7614,47.5121],[-1.7543,47.5149],[-1.7542,47.5162],[-1.7534,47.517],[-1.7528,47.5181],[-1.7538,47.5195],[-1.7611,47.5206],[-1.7682,47.5221],[-1.7701,47.5236],[-1.7717,47.5248],[-1.7846,47.5213],[-1.7988,47.5172],[-1.8026,47.5163],[-1.7793,47.5003]]]},"properties":{"id_ffco":"3076","nom":"LA GRACINAIS","_dept":"44","numero":"1998-D44-15","commune":"BLAIN","echelle":"1/15000","surface":"5.23 km²","format":"A4","annee":"1998","cartographes":"Alain FRANGEUL,Philippe FRIOU","proprietaire":"44 - Loire-Atlantique","niveau":"Interrégional","specialite":"CO à pied","latitude":"47.5137467726","longitude":"-1.77684282651","valide":"Non","ppo":"Non","obsolete":true}},{"type":"Feature","geometry":{"type":"Polygon","coordinates":[[[-2.3633,47.2884],[-2.3661,47.2869],[-2.3666,47.286],[-2.3645,47.2851],[-2.3624,47.2827],[-2.3577,47.2806],[-2.3541,47.2826],[-2.3536,47.2834],[-2.3536,47.2854],[-2.3573,47.286],[-2.3584,47.2856],[-2.3586,47.2855],[-2.3596,47.2861],[-2.3597,47.2868],[-2.3623,47.2876],[-2.3633,47.2884]]]},"properties":{"id_ffco":"6941","nom":"Forêt de La Baule Escoublac","_dept":"44","numero":"1997-D44-14","commune":"LA BAULE","echelle":"1/5000","surface":"0.43 km²","format":"A4","annee":"1997","cartographes":"C. ALVAREZ,JP LEROY,L. FRIOU,P. FRIOU","proprietaire":"4403 - NANTES ATLANTIQUE ORIENTATION","niveau":"Initiation, Scolaire","specialite":"CO à pied","latitude":"47.2844415938","longitude":"-2.35964649159","date_saisie":"25/09/2013","valide":"Non","ppo":"Non","type_carte":"Nouvelle carte","fond":"Cadastre","obsolete":true}},{"type":"Feature","geometry":{"type":"Polygon","coordinates":[[[-1.8387,47.5061],[-1.8225,47.4979],[-1.8246,47.4974],[-1.8285,47.4947],[-1.8341,47.486],[-1.8507,47.4864],[-1.8568,47.4899],[-1.8721,47.5048],[-1.8677,47.5096],[-1.8506,47.5124],[-1.8387,47.5061]]]},"properties":{"id_ffco":"3209","nom":"CURUN IV","_dept":"44","numero":"1997-D44-13","commune":"BLAIN","echelle":"1/15000","surface":"6.52 km²","format":"A4","annee":"1997","cartographes":"Alain FRANGEUL,Christian ALVAREZ,Luc FRIOU,Philippe FRIOU","proprietaire":"4403 - NANTES ATLANTIQUE ORIENTATION","niveau":"Interrégional","specialite":"CO à pied","latitude":"47.4990229231","longitude":"-1.84824851025","valide":"Non","ppo":"Non","type_carte":"Reprise","base":"1995-D44-10 CURUN III","fond":"IGN","ref_ign":"inconnue","obsolete":true}},{"type":"Feature","geometry":null,"properties":{"id_ffco":"268","nom":"Bois de la Desnerie","_dept":"44","numero":"1996-D44-12","commune":"Nantes","echelle":"1/5000","surface":"0.25 km²","format":"A4","annee":"1996","cartographes":"C. ALVAREZ,L. FRIOU,B. Girard,S. Testevuide","proprietaire":"44 - Loire-Atlantique","niveau":"Initiation, Scolaire","specialite":"CO à pied","latitude":"47.2662422454","longitude":"-1.54282845471","valide":"Non","ppo":"Non","obsolete":true}},{"type":"Feature","geometry":{"type":"Polygon","coordinates":[[[-1.4216,47.4963],[-1.4346,47.4919],[-1.4423,47.4852],[-1.5033,47.4836],[-1.504,47.5199],[-1.5083,47.5271],[-1.5258,47.5479],[-1.5247,47.5529],[-1.51,47.5533],[-1.5035,47.5552],[-1.4669,47.555],[-1.448,47.5596],[-1.4295,47.5603],[-1.4209,47.5609],[-1.4097,47.5604],[-1.4022,47.5595],[-1.4046,47.5575],[-1.406,47.5498],[-1.3993,47.5406],[-1.4003,47.536],[-1.3967,47.5223],[-1.3996,47.5168],[-1.3999,47.5059],[-1.3991,47.5031],[-1.4032,47.4976],[-1.4073,47.4956],[-1.4163,47.4963],[-1.4216,47.4963]]]},"properties":{"id_ffco":"3208","nom":"VIOREAU","_dept":"44","numero":"1996-D44-11","commune":"JOUE SUR ERDRE","echelle":"1/20000","surface":"63.39 km²","format":"+","annee":"1996","cartographes":"ASOR Nantes,Luc FRIOU,Alain FRANGEUL","proprietaire":"44 - Loire-Atlantique","niveau":"Interrégional","specialite":"CO à pied","latitude":"47.5238212029","longitude":"-1.45642320308","valide":"Non","ppo":"Non","type_carte":"Nouvelle carte","fond":"IGN","ref_ign":"inconnue","obsolete":true}},{"type":"Feature","geometry":{"type":"Polygon","coordinates":[[[-1.8387,47.5061],[-1.8226,47.4978],[-1.8246,47.4974],[-1.8286,47.4949],[-1.834,47.4859],[-1.8506,47.4864],[-1.8563,47.4896],[-1.8722,47.5049],[-1.8683,47.5089],[-1.8481,47.511],[-1.8387,47.5061]]]},"properties":{"id_ffco":"1454","nom":"CURUN III","_dept":"44","numero":"1995-D44-10","commune":"BLAIN","echelle":"1/15000","surface":"6.33 km²","format":"A4","annee":"1995","cartographes":"Alain FRANGEUL,Luc FRIOU,Philippe FRIOU","proprietaire":"44 - Loire-Atlantique","niveau":"Interrégional","specialite":"CO à pied","latitude":"47.4986765501","longitude":"-1.84804206026","valide":"Non","ppo":"Non","type_carte":"Reprise","base":"1991-D44-05 CURUN II","fond":"IGN","ref_ign":"inconnue","obsolete":true}},{"type":"Feature","geometry":null,"properties":{"id_ffco":"6943","nom":"COËT-CARET","_dept":"44","numero":"1995-D44-09","commune":"HERBIGNAC","echelle":"1/10000","surface":"None km²","annee":"1995","proprietaire":"44 - Loire-Atlantique","specialite":"CO à pied","latitude":"47.4187549436","longitude":"-2.30335788727","date_saisie":"26/09/2013","valide":"Non","ppo":"Non","obsolete":true}},{"type":"Feature","geometry":null,"properties":{"id_ffco":"269","nom":"La HAZARDIERE","_dept":"44","numero":"1995-D44-08","commune":"Joué sur Erdre","echelle":"1/10000","surface":"4.5 km²","format":"A4","annee":"1995","proprietaire":"44 - Loire-Atlantique","niveau":"Départemental","specialite":"CO à pied","latitude":"47.5542988766","longitude":"-1.42323947502","valide":"Non","ppo":"Non","type_carte":"Reprise","base":"1991-D44-04 LA HAZARDIERE","fond":"IGN","ref_ign":"inconnue","obsolete":true}},{"type":"Feature","geometry":{"type":"Polygon","coordinates":[[[-1.7795,47.5454],[-1.7835,47.5507],[-1.7874,47.556],[-1.7888,47.5581],[-1.7912,47.5654],[-1.7884,47.5731],[-1.7734,47.5799],[-1.7523,47.5785],[-1.7681,47.5592],[-1.7795,47.5454]]]},"properties":{"id_ffco":"819","nom":"LE PILIER","_dept":"44","numero":"1994-D44-07","commune":"BLAIN","echelle":"1/15000","surface":"5.87 km²","format":"A4","annee":"1994","cartographes":"Alain FRANGEUL","proprietaire":"PL - Pays de la Loire","niveau":"Interrégional","specialite":"CO à pied","latitude":"47.566280035","longitude":"-1.77488519981","valide":"Non","ppo":"Non","type_carte":"Nouvelle carte","fond":"IGN","ref_ign":"inconnue","obsolete":true}},{"type":"Feature","geometry":{"type":"Polygon","coordinates":[[[-1.622,47.154],[-1.622,47.1568],[-1.6216,47.1584],[-1.621,47.1596],[-1.6233,47.1588],[-1.6239,47.1596],[-1.6269,47.1576],[-1.6273,47.1572],[-1.6265,47.1563],[-1.6248,47.1552],[-1.6231,47.1543],[-1.622,47.154]]]},"properties":{"id_ffco":"2540","nom":"VILLE AU DENIS","_dept":"44","numero":"1992-D44-06","commune":"BOUGUENAIS","echelle":"1/5000","surface":"0.16 km²","format":"A5","annee":"1992","cartographes":"Alain FRANGEUL","proprietaire":"4403 - NANTES ATLANTIQUE ORIENTATION","niveau":"Initiation, Scolaire","specialite":"CO à pied","contacts":"Mairie de Bouguenais","latitude":"47.1570130911","longitude":"-1.62391258701","valide":"Non","ppo":"Non","type_carte":"Nouvelle carte","fond":"IGN","ref_ign":"inconnue","obsolete":true}},{"type":"Feature","geometry":null,"properties":{"id_ffco":"818","nom":"CURUN II","_dept":"44","numero":"1991-D44-05","commune":"BLAIN","echelle":"1/15000","surface":"7.5 km²","format":"A4","annee":"1991","proprietaire":"44 - Loire-Atlantique","niveau":"Interrégional","specialite":"CO à pied","latitude":"47.5065385696","longitude":"-1.8390471204","valide":"Non","ppo":"Non","type_carte":"Reprise","base":"1984-D44-02 LE CARHEIL (CURUN I)","fond":"IGN","ref_ign":"inconnue","obsolete":true}},{"type":"Feature","geometry":null,"properties":{"id_ffco":"817","nom":"LA HAZARDIERE","_dept":"44","numero":"1991-D44-04","commune":"Joué sur Erdre","echelle":"1/10000","surface":"4.5 km²","format":"A4","annee":"1991","proprietaire":"44 - Loire-Atlantique","niveau":"Départemental","specialite":"CO à pied","latitude":"47.5542902178","longitude":"-1.42306110268","valide":"Non","ppo":"Non","type_carte":"Reprise","base":"1991-D44-03 VIOREAU","fond":"IGN","ref_ign":"Inconnue","obsolete":true}},{"type":"Feature","geometry":null,"properties":{"id_ffco":"2538","nom":"VIOREAU","_dept":"44","numero":"1991-D44-03","commune":"Joué sur Erdre","echelle":"1/5000","surface":"0.7 km²","format":"A4","annee":"1991","cartographes":"A. Frangeul","proprietaire":"44 - Loire-Atlantique","niveau":"Départemental","specialite":"CO à pied","latitude":"47.5313753243","longitude":"-1.43748065834","valide":"Non","ppo":"Non","type_carte":"Nouvelle carte","fond":"IGN","ref_ign":"inconnue","obsolete":true}},{"type":"Feature","geometry":{"type":"Polygon","coordinates":[[[-1.8387,47.5061],[-1.8225,47.4979],[-1.8246,47.4973],[-1.8288,47.4945],[-1.834,47.4858],[-1.8508,47.4864],[-1.8562,47.4895],[-1.8722,47.5047],[-1.8674,47.5096],[-1.8628,47.5112],[-1.8615,47.5105],[-1.8596,47.5112],[-1.8594,47.5108],[-1.8574,47.5112],[-1.8559,47.5132],[-1.854,47.5141],[-1.8387,47.5061]]]},"properties":{"id_ffco":"527","nom":"LE CARHEIL (CURUN I)","_dept":"44","numero":"1984-D44-02","commune":"BLAIN","echelle":"1/15000","surface":"6.62 km²","format":"A4","annee":"1984","cartographes":"Chauveau,Kerboul,Laret,Nicolas,Valin,Frangeul","proprietaire":"PL - Pays de la Loire","niveau":"Interrégional","specialite":"CO à pied","latitude":"47.4991586002","longitude":"-1.84835434709","valide":"Non","ppo":"Non","type_carte":"Nouvelle carte","fond":"IGN","ref_ign":"inconnue","obsolete":true}},{"type":"Feature","geometry":null,"properties":{"id_ffco":"1453","nom":"LE JEANNEAU","_dept":"44","numero":"1980-D44-01","commune":"RIAILLE","echelle":"1/15000","surface":"6.0 km²","format":"A4","annee":"1980","cartographes":"JC Pereira,P. Valence,A. Frangeul","niveau":"Interrégional","specialite":"CO à pied","latitude":"47.5174786","longitude":"-1.293415","valide":"Non","ppo":"Non","obsolete":true}},{"type":"Feature","geometry":null,"properties":{"id_ffco":"2539","nom":"Doublon à supprimer","_dept":"44","numero":"????-D44-0000","surface":"None km²","latitude":"47.5750016","longitude":"-1.2059791","valide":"Non","ppo":"Non","obsolete":true}},{"type":"Feature","geometry":null,"properties":{"id_ffco":"2539","nom":"Doublon à supprimer","_dept":"44","numero":"????-D44-0000","surface":"None km²","latitude":"47.4754743","longitude":"-1.7646641","valide":"Non","ppo":"Non","obsolete":true}},{"type":"Feature","geometry":null,"properties":{"id_ffco":"2539","nom":"Doublon à supprimer","_dept":"44","numero":"????-D44-0000","surface":"None km²","latitude":"47.5198841","longitude":"-1.7460058","valide":"Non","ppo":"Non","obsolete":true}},{"type":"Feature","geometry":null,"properties":{"id_ffco":"2539","nom":"Doublon à supprimer","_dept":"44","numero":"????-D44-0000","surface":"None km²","latitude":"47.4754743","longitude":"-1.7646641","valide":"Non","ppo":"Non","obsolete":true}},{"type":"Feature","geometry":null,"properties":{"id_ffco":"2539","nom":"Doublon à supprimer","_dept":"44","numero":"????-D44-0000","surface":"None km²","latitude":"47.1794007","longitude":"-1.6231554","valide":"Non","ppo":"Non","obsolete":true}}]}