{"type":"FeatureCollection","features":[{"type":"Feature","geometry":{"type":"Polygon","coordinates":[[[1.3325,44.7874],[1.3319,44.7871],[1.331,44.7871],[1.3285,44.7859],[1.3269,44.7841],[1.3269,44.7825],[1.3275,44.7817],[1.3281,44.7802],[1.3286,44.7797],[1.33,44.7798],[1.3302,44.7801],[1.3308,44.78],[1.3311,44.7796],[1.3305,44.7788],[1.331,44.7776],[1.3316,44.7772],[1.3319,44.7773],[1.3324,44.7769],[1.3329,44.7766],[1.3343,44.7761],[1.3368,44.7756],[1.3384,44.7753],[1.3421,44.7749],[1.3426,44.7751],[1.3431,44.7759],[1.3429,44.7767],[1.3432,44.7776],[1.344,44.7784],[1.3444,44.7783],[1.3463,44.7784],[1.3485,44.7794],[1.3509,44.78],[1.35,44.7817],[1.3496,44.7836],[1.3499,44.7848],[1.3504,44.7851],[1.3516,44.784],[1.3527,44.7836],[1.3548,44.7827],[1.356,44.7818],[1.3575,44.7813],[1.3582,44.7811],[1.3592,44.7805],[1.3614,44.7845],[1.3596,44.7848],[1.3582,44.7857],[1.3554,44.7867],[1.3542,44.7874],[1.3527,44.788],[1.3515,44.788],[1.3497,44.7884],[1.349,44.7887],[1.3484,44.7895],[1.3473,44.79],[1.3467,44.7907],[1.3462,44.7915],[1.3453,44.7922],[1.344,44.7928],[1.3425,44.7934],[1.3426,44.7931],[1.3435,44.7922],[1.3438,44.792],[1.3423,44.7904],[1.3425,44.7898],[1.3423,44.7892],[1.3419,44.7888],[1.3408,44.7885],[1.3415,44.7886],[1.3403,44.7885],[1.3406,44.7887],[1.3401,44.7894],[1.3395,44.79],[1.3366,44.7889],[1.3387,44.7876],[1.3372,44.7873],[1.3364,44.787],[1.3359,44.7867],[1.3349,44.7862],[1.3345,44.7864],[1.3335,44.7865],[1.3325,44.7874]]]},"properties":{"id_ffco":"2019-D46-79","nom":"ROQUEDEVAL","_dept":"46","numero":"2019-D46-79","commune":"NADAILLAC","echelle":"1/10000","surface":"2.64 km²","format":"A4","annee":"2019","cartographes":"Bruno MARCHEGEAY","proprietaire":"46 - Lot","niveau":"Interrégional","specialite":"CO à pied","latitude":"44.7832519262","longitude":"1.34196725724","date_saisie":"05/11/2019","date_depot":"15/11/2019","valide":"Oui","ppo":"Non","type_carte":"Nouvelle carte","fond":"Ortho","obsolete":false}},{"type":"Feature","geometry":{"type":"Polygon","coordinates":[[[1.6886,44.4995],[1.6845,44.4986],[1.6818,44.4969],[1.6804,44.4956],[1.6773,44.4946],[1.6741,44.4949],[1.6734,44.4964],[1.6722,44.4964],[1.6696,44.4961],[1.669,44.4967],[1.6682,44.4976],[1.6668,44.4981],[1.6658,44.4987],[1.6645,44.4995],[1.6645,44.5011],[1.6641,44.5022],[1.661,44.5031],[1.6592,44.505],[1.658,44.506],[1.6577,44.5074],[1.6592,44.5083],[1.6623,44.5073],[1.6636,44.507],[1.6644,44.5086],[1.6646,44.5099],[1.666,44.5112],[1.6679,44.5118],[1.6706,44.5123],[1.6716,44.5129],[1.6711,44.5156],[1.6709,44.5168],[1.6705,44.5184],[1.6756,44.5183],[1.6776,44.5175],[1.6781,44.5165],[1.6801,44.5162],[1.6828,44.5162],[1.6837,44.5157],[1.686,44.5151],[1.6876,44.5146],[1.6937,44.5136],[1.6937,44.5118],[1.6924,44.5106],[1.6903,44.5087],[1.6912,44.5069],[1.6924,44.5062],[1.6902,44.5051],[1.6928,44.5014],[1.6886,44.4995]]]},"properties":{"id_ffco":"2018-D46-77","nom":"CABRERETS VTT'O","_dept":"46","numero":"2018-D46-77","commune":"CABRERETS","echelle":"1/15000","surface":"4.55 km²","format":"A4","annee":"2018","cartographes":"S CAZELLE","proprietaire":"4601 - FIGEAC NATURE ORIENTATION","niveau":"National, International","specialite":"CO à VTT","latitude":"44.5063005584","longitude":"1.67723392987","date_saisie":"29/12/2018","date_depot":"28/01/2019","valide":"Oui","ppo":"Non","type_carte":"Nouvelle carte","fond":"Ortho","obsolete":false}},{"type":"Feature","geometry":{"type":"Polygon","coordinates":[[[1.9562,44.5264],[1.9563,44.5277],[1.9572,44.5289],[1.9564,44.5295],[1.9574,44.53],[1.9588,44.5304],[1.9602,44.5305],[1.962,44.5318],[1.964,44.5343],[1.9654,44.5363],[1.9656,44.5385],[1.9675,44.5386],[1.9673,44.54],[1.9651,44.5427],[1.9649,44.5443],[1.9649,44.5456],[1.9645,44.5464],[1.9634,44.5476],[1.9621,44.5482],[1.9621,44.5486],[1.9627,44.5493],[1.9628,44.5499],[1.9598,44.5533],[1.9605,44.5539],[1.9584,44.554],[1.956,44.5543],[1.9552,44.5552],[1.9545,44.5575],[1.9532,44.5577],[1.9512,44.5581],[1.9502,44.5587],[1.949,44.5591],[1.9484,44.5592],[1.9466,44.5549],[1.951,44.5547],[1.9535,44.55],[1.9525,44.5477],[1.9507,44.5459],[1.95,44.5452],[1.9508,44.5425],[1.9487,44.5417],[1.9443,44.5415],[1.9436,44.5401],[1.9423,44.539],[1.9412,44.5372],[1.9412,44.536],[1.9422,44.5348],[1.9426,44.5341],[1.9425,44.5329],[1.9441,44.531],[1.9467,44.53],[1.949,44.5298],[1.9499,44.5299],[1.951,44.5295],[1.9519,44.5283],[1.952,44.5274],[1.9524,44.5261],[1.9529,44.5249],[1.9562,44.5264]]]},"properties":{"id_ffco":"2019-D46-71","nom":"LES GARIGUES","_dept":"46","numero":"2019-D46-71","commune":"FRONTENAC","echelle":"1/10000","surface":"3.93 km²","format":"A4","annee":"2019","cartographes":"Bruno MARCHEGEAY","proprietaire":"4601 - FIGEAC NATURE ORIENTATION","niveau":"Interrégional","specialite":"CO à pied","latitude":"44.5406075559","longitude":"1.95475168389","date_saisie":"05/11/2019","date_depot":"15/11/2019","valide":"Oui","ppo":"Non","type_carte":"Nouvelle carte","fond":"Ortho","obsolete":false}},{"type":"Feature","geometry":{"type":"Polygon","coordinates":[[[2.0388,44.6523],[2.0383,44.6535],[2.0364,44.6557],[2.036,44.6569],[2.0345,44.6586],[2.034,44.6587],[2.0282,44.6574],[2.0243,44.6556],[2.0251,44.6524],[2.0253,44.651],[2.0274,44.6505],[2.0299,44.6511],[2.0344,44.6531],[2.0354,44.653],[2.035,44.6518],[2.0353,44.6508],[2.0371,44.6515],[2.038,44.652],[2.0388,44.6523]]]},"properties":{"id_ffco":"2017-D46-70","nom":"Boule Blanche","_dept":"46","numero":"2017-D46-70","commune":"Planioles","echelle":"1/7500","surface":"0.67 km²","format":"A4","annee":"2017","cartographes":"Brono Marchegeay","proprietaire":"46 - Lot","niveau":"Régional","specialite":"CO à pied","latitude":"44.6544372932","longitude":"2.03108477414","date_saisie":"05/05/2017","date_depot":"21/06/2018","valide":"Oui","ppo":"Non","type_carte":"Nouvelle carte","fond":"Ortho","obsolete":false}},{"type":"Feature","geometry":{"type":"Polygon","coordinates":[[[1.7042,44.6525],[1.7065,44.6516],[1.7124,44.6517],[1.7203,44.6491],[1.7276,44.6454],[1.7289,44.6449],[1.732,44.6456],[1.7323,44.6449],[1.7312,44.644],[1.7288,44.6436],[1.7243,44.6416],[1.7203,44.6364],[1.7035,44.6285],[1.7017,44.6275],[1.6994,44.6312],[1.6985,44.6369],[1.6961,44.6414],[1.6967,44.6447],[1.7036,44.6515],[1.7042,44.6525]]]},"properties":{"id_ffco":"2016-D46-67","nom":"QUISSAC - LA BRAUNHIE","_dept":"46","numero":"2016-D46-67","commune":"Quissac","echelle":"1/10000","surface":"4.22 km²","format":"A4","annee":"2016","cartographes":"Bruno Marchegay","proprietaire":"4601 - FIGEAC NATURE ORIENTATION","niveau":"National, International","specialite":"CO à pied","latitude":"44.6414174199","longitude":"1.71019344876","date_saisie":"05/05/2017","date_depot":"21/06/2018","valide":"Oui","ppo":"Non","type_carte":"Nouvelle carte","fond":"Ortho","obsolete":false}},{"type":"Feature","geometry":{"type":"Polygon","coordinates":[[[2.0283,44.61],[2.0279,44.6092],[2.0295,44.6089],[2.0299,44.6096],[2.0283,44.61]]]},"properties":{"id_ffco":"2015-D46-66","nom":"JARDINS DE L'HOPITAL","_dept":"46","numero":"2015-D46-66","commune":"FIGEAC","echelle":"1/500","surface":"0.01 km²","format":"A4","annee":"2015","cartographes":"Martin et Frédéric RAMBI7RE","proprietaire":"4601 - FIGEAC NATURE ORIENTATION","niveau":"Initiation, Scolaire","specialite":"CO à pied","latitude":"44.609413071","longitude":"2.02888375588","date_saisie":"13/03/2018","date_depot":"21/06/2018","valide":"Oui","ppo":"Non","type_carte":"Nouvelle carte","fond":"Ortho","obsolete":false}},{"type":"Feature","geometry":{"type":"Polygon","coordinates":[[[1.6884,44.4995],[1.6851,44.4986],[1.6824,44.4976],[1.6808,44.4961],[1.6788,44.4951],[1.6766,44.4947],[1.6747,44.4948],[1.674,44.4952],[1.6733,44.4962],[1.6719,44.4964],[1.6702,44.4962],[1.669,44.496],[1.6681,44.4973],[1.6673,44.4979],[1.6659,44.4987],[1.6648,44.4991],[1.6646,44.4998],[1.6639,44.5024],[1.6622,44.5029],[1.6607,44.5036],[1.6616,44.5053],[1.665,44.5066],[1.6672,44.5072],[1.669,44.5091],[1.67,44.5108],[1.6716,44.5122],[1.6755,44.516],[1.6834,44.5149],[1.692,44.5149],[1.6969,44.5133],[1.6952,44.5094],[1.6915,44.5076],[1.692,44.5067],[1.697,44.5078],[1.6988,44.5065],[1.6994,44.5036],[1.6884,44.4995]]]},"properties":{"id_ffco":"2018-D46-64","nom":"CABRERETS","_dept":"46","numero":"2018-D46-64","commune":"CABRERETS","echelle":"1/10000","surface":"4.5 km²","format":"A4","annee":"2018","cartographes":"I ZINCA, M. COTIRTA? B. MARCHEGAY","proprietaire":"4601 - FIGEAC NATURE ORIENTATION","niveau":"National, International","specialite":"CO à pied","latitude":"44.505674787","longitude":"1.6803754866","date_saisie":"29/12/2018","date_depot":"28/01/2019","valide":"Oui","ppo":"Non","type_carte":"Nouvelle carte","fond":"Ortho","obsolete":false}},{"type":"Feature","geometry":{"type":"Polygon","coordinates":[[[1.4417,44.4402],[1.4423,44.4397],[1.4458,44.4385],[1.4485,44.4384],[1.4509,44.4376],[1.4521,44.4384],[1.4549,44.4388],[1.4563,44.4394],[1.4588,44.439],[1.4603,44.4376],[1.4623,44.4368],[1.4654,44.4373],[1.4671,44.4376],[1.4685,44.4372],[1.4691,44.4377],[1.4695,44.4371],[1.47,44.4369],[1.4694,44.4383],[1.4705,44.4391],[1.4688,44.4399],[1.4698,44.4411],[1.4715,44.4418],[1.4724,44.4431],[1.4749,44.445],[1.4727,44.4467],[1.4745,44.4474],[1.4745,44.4483],[1.4726,44.449],[1.4707,44.4514],[1.4697,44.4536],[1.4695,44.4551],[1.466,44.4542],[1.4636,44.4542],[1.4638,44.4527],[1.4628,44.4524],[1.4624,44.453],[1.4606,44.4519],[1.4599,44.4525],[1.4558,44.4527],[1.4549,44.4527],[1.4536,44.4523],[1.4487,44.4525],[1.4484,44.4489],[1.4494,44.4481],[1.4502,44.4463],[1.4505,44.445],[1.45,44.444],[1.4491,44.4429],[1.4476,44.4418],[1.445,44.4407],[1.4434,44.4398],[1.4431,44.4405],[1.4417,44.4402]]]},"properties":{"id_ffco":"2015-D46-62","nom":"Mont Saint Cyr","_dept":"46","numero":"2015-D46-62","commune":"CAHORS","echelle":"1/10000","surface":"3.16 km²","format":"A4","annee":"2015","cartographes":"Bruno MARCHEGAY","proprietaire":"46 - Lot","niveau":"Régional","specialite":"CO à pied","contacts":"CDCO46, Chez Frédéric RAMBLIERE, La Graville Basse, La Graville Basse, 46100, FAYCELLE, 05 65 34 18 80 , 06 73 46 19 61 , fred.rambliere@wanadoo.fr, http://www.fino46.org/","latitude":"44.4454027054","longitude":"1.46043309867","date_saisie":"15/11/2015","date_depot":"19/04/2016","valide":"Oui","ppo":"Non","type_carte":"Nouvelle carte","fond":"Ortho","obsolete":false}},{"type":"Feature","geometry":{"type":"Polygon","coordinates":[[[1.839,44.4858],[1.8384,44.4852],[1.8382,44.4844],[1.8376,44.4832],[1.8394,44.4801],[1.8423,44.4824],[1.846,44.4835],[1.8461,44.4858],[1.846,44.4888],[1.8451,44.4883],[1.8408,44.4868],[1.839,44.4858]]]},"properties":{"id_ffco":"2014-D46-61","nom":"CAJARC","_dept":"46","numero":"2014-D46-61","commune":"CAJARC","echelle":"1/4000","surface":"0.36 km²","format":"A4","annee":"2014","cartographes":"MARCHEGAY Bruno","proprietaire":"46 - Lot","niveau":"Régional","specialite":"Sprint (ISSOM)","contacts":"CDCO46, Chez Frédéric RAMBLIERE, La Graville Basse, La Graville Basse, 46100, FAYCELLE, 05 65 34 18 80 , 06 73 46 19 61 , fred.rambliere@wanadoo.fr, http://www.fino46.org/","latitude":"44.4845705635","longitude":"1.84206486458","date_saisie":"30/08/2015","date_depot":"19/04/2016","valide":"Oui","ppo":"Non","type_carte":"Nouvelle carte","fond":"Ortho","obsolete":false}},{"type":"Feature","geometry":{"type":"Polygon","coordinates":[[[1.9551,44.5273],[1.9552,44.5282],[1.957,44.529],[1.9572,44.5303],[1.9584,44.5304],[1.9587,44.5305],[1.9598,44.5309],[1.9658,44.5384],[1.9675,44.5386],[1.9642,44.5448],[1.9642,44.5462],[1.9631,44.5476],[1.9616,44.548],[1.9604,44.5468],[1.9581,44.5454],[1.9595,44.5435],[1.959,44.5429],[1.9576,44.5428],[1.9566,44.5421],[1.9551,44.5419],[1.9536,44.5414],[1.9522,44.542],[1.9511,44.5426],[1.9493,44.5418],[1.9443,44.5409],[1.9443,44.5402],[1.9426,44.5388],[1.9422,44.5377],[1.9414,44.5369],[1.9417,44.5358],[1.9425,44.5348],[1.9428,44.5343],[1.9427,44.5332],[1.9441,44.5313],[1.9461,44.5303],[1.9469,44.5302],[1.948,44.5299],[1.9497,44.53],[1.9509,44.5297],[1.9514,44.5297],[1.9526,44.5278],[1.9529,44.526],[1.9533,44.5262],[1.9551,44.5262],[1.9551,44.5273]]]},"properties":{"id_ffco":"2014-D46-60","nom":"Les Garrigues","_dept":"46","numero":"2014-D46-60","commune":"SAINT PIERRE TOIRAC","echelle":"1/10000","surface":"2.53 km²","format":"A4","annee":"2014","cartographes":"MARCHEGAY Bruno","proprietaire":"46 - Lot","niveau":"Régional","specialite":"CO à pied","latitude":"44.5368636564","longitude":"1.9545182796","date_saisie":"30/08/2015","date_depot":"19/04/2016","valide":"Oui","ppo":"Non","type_carte":"Nouvelle carte","fond":"Ortho","obsolete":false}},{"type":"Feature","geometry":{"type":"Polygon","coordinates":[[[1.8286,44.6642],[1.8323,44.6633],[1.835,44.6631],[1.8419,44.6608],[1.8425,44.6588],[1.8423,44.658],[1.8414,44.657],[1.8413,44.6558],[1.8416,44.655],[1.8418,44.6544],[1.8419,44.6533],[1.8411,44.6532],[1.8396,44.6524],[1.8386,44.6517],[1.8378,44.6516],[1.8374,44.651],[1.8375,44.6507],[1.8366,44.6508],[1.8362,44.6506],[1.8359,44.6502],[1.8353,44.6499],[1.8324,44.6515],[1.8321,44.6523],[1.8321,44.6614],[1.8289,44.6637],[1.8286,44.6642]]]},"properties":{"id_ffco":"2013-D46-58","nom":"Livernon","_dept":"46","numero":"2013-D46-58","commune":"Livernon","echelle":"1/7500","surface":"0.97 km²","format":"A4","annee":"2013","cartographes":"Michelle BARRAL","proprietaire":"4601 - FIGEAC NATURE ORIENTATION","niveau":"Initiation, Scolaire","specialite":"CO à pied","contacts":"CDCO46, Chez Frédéric RAMBLIERE, La Graville Basse, La Graville Basse, 46100, FAYCELLE, 05 65 34 18 80 , 06 73 46 19 61 , fred.rambliere@wanadoo.fr, http://www.fino46.org/","latitude":"44.6570964205","longitude":"1.83638880905","date_saisie":"15/11/2015","date_depot":"24/10/2016","valide":"Oui","ppo":"Non","type_carte":"Nouvelle carte","fond":"Ortho","obsolete":false}},{"type":"Feature","geometry":{"type":"Polygon","coordinates":[[[1.7284,44.7861],[1.7287,44.7864],[1.7295,44.7878],[1.7308,44.7867],[1.7316,44.7858],[1.7312,44.7853],[1.7315,44.7848],[1.7329,44.7835],[1.7323,44.7834],[1.7301,44.785],[1.7286,44.7861],[1.7284,44.7861]]]},"properties":{"id_ffco":"2012-D46-57","nom":"Complexe sportif de Gramat","_dept":"46","numero":"2012-D46-57","commune":"Gramat","echelle":"1/2000","surface":"0.05 km²","format":"A4","annee":"2012","cartographes":"F. Ramblière","niveau":"Initiation, Scolaire","specialite":"CO à pied","contacts":"CDCO46, Chez Frédéric RAMBLIERE, La Graville Basse, La Graville Basse, 46100, FAYCELLE, 05 65 34 18 80 , 06 73 46 19 61 , fred.rambliere@wanadoo.fr, http://www.fino46.org/","latitude":"44.7857585711","longitude":"1.73039772467","date_saisie":"15/09/2016","date_depot":"05/10/2016","valide":"Oui","ppo":"Non","type_carte":"Nouvelle carte","fond":"Cadastre","obsolete":false}},{"type":"Feature","geometry":{"type":"Polygon","coordinates":[[[1.4687,44.8888],[1.4688,44.8897],[1.4683,44.8907],[1.4675,44.8917],[1.4692,44.8944],[1.4727,44.8931],[1.4726,44.8922],[1.473,44.8914],[1.4723,44.8886],[1.4687,44.8888]]]},"properties":{"id_ffco":"2010-D46-56","nom":"Plaine des jeux de Souillac","_dept":"46","numero":"2010-D46-56","commune":"Souillac","echelle":"1/4000","surface":"0.2 km²","format":"A4","annee":"2010","cartographes":"B. Cottret","niveau":"Initiation, Scolaire","specialite":"CO à pied","contacts":"CDCO46, Chez Frédéric RAMBLIERE, La Graville Basse, La Graville Basse, 46100, FAYCELLE, 05 65 34 18 80 , 06 73 46 19 61 , fred.rambliere@wanadoo.fr, http://www.fino46.org/","latitude":"44.8913297936","longitude":"1.47042666256","date_saisie":"15/09/2016","date_depot":"05/10/2016","valide":"Oui","ppo":"Non","type_carte":"Nouvelle carte","fond":"Cadastre","obsolete":false}},{"type":"Feature","geometry":{"type":"Polygon","coordinates":[[[1.1901,44.506],[1.1899,44.5066],[1.1899,44.5068],[1.1898,44.5076],[1.191,44.5081],[1.1919,44.5079],[1.1929,44.5081],[1.1936,44.5064],[1.1932,44.506],[1.1924,44.5057],[1.1919,44.5058],[1.1916,44.5059],[1.1904,44.5055],[1.1901,44.506]]]},"properties":{"id_ffco":"2016-D46-55","nom":"Complexe Sportif de PRAYSSAC","_dept":"46","numero":"2016-D46-55","commune":"Prayssac","echelle":"1/2000","surface":"0.06 km²","format":"A4","annee":"2016","cartographes":"F. Ramblière","proprietaire":"46 - Lot","niveau":"Initiation, Scolaire","specialite":"CO à pied","contacts":"CDCO46, Chez Frédéric RAMBLIERE, La Graville Basse, La Graville Basse, 46100, FAYCELLE, 05 65 34 18 80 , 06 73 46 19 61 , fred.rambliere@wanadoo.fr, http://www.fino46.org/","latitude":"44.5068584811","longitude":"1.19161812769","date_saisie":"15/09/2016","date_depot":"02/11/2016","valide":"Oui","ppo":"Non","type_carte":"Nouvelle carte","fond":"Ortho","obsolete":false}},{"type":"Feature","geometry":{"type":"Polygon","coordinates":[[[1.9262,44.6338],[1.9251,44.6331],[1.9243,44.6323],[1.9239,44.6313],[1.9236,44.6306],[1.9229,44.6299],[1.9222,44.6289],[1.9219,44.6281],[1.921,44.6274],[1.9199,44.6271],[1.9189,44.6269],[1.918,44.6268],[1.918,44.6266],[1.9198,44.6261],[1.9204,44.6257],[1.9213,44.625],[1.922,44.6244],[1.9225,44.6238],[1.9236,44.6237],[1.9245,44.6239],[1.9253,44.6239],[1.9259,44.624],[1.9262,44.6242],[1.9277,44.6276],[1.9295,44.6281],[1.9308,44.6289],[1.9325,44.6295],[1.9339,44.6295],[1.9352,44.6296],[1.9354,44.6315],[1.9343,44.6315],[1.9318,44.6324],[1.9299,44.6329],[1.9272,44.6337],[1.9264,44.634],[1.9272,44.6364],[1.924,44.6362],[1.9237,44.6351],[1.9246,44.6345],[1.926,44.634],[1.9262,44.6338]]]},"properties":{"id_ffco":"2011-D46-54","nom":"Etangs de Puy-Blanc","_dept":"46","numero":"2011-D46-54","commune":"cambes","echelle":"1/5000","surface":"0.73 km²","format":"A4","annee":"2011","cartographes":"COTIRTA","proprietaire":"4601 - FIGEAC NATURE ORIENTATION","niveau":"Initiation, Scolaire","specialite":"CO à pied","contacts":"CDCO46, Chez Frédéric RAMBLIERE, La Graville Basse, La Graville Basse, 46100, FAYCELLE, 05 65 34 18 80 , 06 73 46 19 61 , fred.rambliere@wanadoo.fr, http://www.fino46.org/","latitude":"44.6294497867","longitude":"1.92660491397","date_saisie":"25/07/2015","date_depot":"24/10/2016","valide":"Oui","ppo":"Non","type_carte":"Nouvelle carte","base":"2011-D46-54 Etangs de Puy-Blanc","fond":"Ortho","obsolete":false}},{"type":"Feature","geometry":{"type":"Polygon","coordinates":[[[2.0194,44.6097],[2.0193,44.6097],[2.0192,44.6097],[2.019,44.6102],[2.0189,44.6105],[2.0193,44.6106],[2.0194,44.6104],[2.0199,44.61],[2.0194,44.6097]]]},"properties":{"id_ffco":"2011-D46-53","nom":"Ecole Louis BARRIE","_dept":"46","numero":"2011-D46-53","commune":"Figeac","echelle":"1/500","surface":"0.0 km²","format":"A4","annee":"2011","cartographes":"Philippe BAILLY","proprietaire":"4601 - FIGEAC NATURE ORIENTATION","niveau":"Initiation, Scolaire","specialite":"CO à pied","contacts":"CDCO46, Chez Frédéric RAMBLIERE, La Graville Basse, La Graville Basse, 46100, FAYCELLE, 05 65 34 18 80 , 06 73 46 19 61 , fred.rambliere@wanadoo.fr, http://www.fino46.org/","latitude":"44.6101280315","longitude":"2.01936587767","date_saisie":"15/11/2015","date_depot":"19/04/2016","valide":"Oui","ppo":"Non","type_carte":"Nouvelle carte","fond":"Ortho","obsolete":false}},{"type":"Feature","geometry":{"type":"Polygon","coordinates":[[[2.0296,44.6089],[2.0296,44.6091],[2.0298,44.6094],[2.0299,44.6095],[2.03,44.6095],[2.0302,44.6099],[2.0304,44.6099],[2.0301,44.6088],[2.0296,44.6089]]]},"properties":{"id_ffco":"2011-D46-52","nom":"Ecole Paul BERT","_dept":"46","numero":"2011-D46-52","commune":"Figeac","echelle":"1/500","surface":"0.0 km²","format":"A4","annee":"2011","cartographes":"Michelle BARRAL","proprietaire":"4601 - FIGEAC NATURE ORIENTATION","niveau":"Initiation, Scolaire","specialite":"CO à pied","contacts":"CDCO46, Chez Frédéric RAMBLIERE, La Graville Basse, La Graville Basse, 46100, FAYCELLE, 05 65 34 18 80 , 06 73 46 19 61 , fred.rambliere@wanadoo.fr, http://www.fino46.org/","latitude":"44.6093147606","longitude":"2.03003064672","date_saisie":"15/11/2015","date_depot":"19/04/2016","valide":"Oui","ppo":"Non","type_carte":"Nouvelle carte","fond":"Ortho","obsolete":false}},{"type":"Feature","geometry":{"type":"Polygon","coordinates":[[[2.0285,44.609],[2.0293,44.6088],[2.0291,44.6084],[2.0283,44.6086],[2.0285,44.609]]]},"properties":{"id_ffco":"2011-D46-51","nom":"Ecole Jacque CHAPOU","_dept":"46","numero":"2011-D46-51","commune":"Figeac","echelle":"1/400","surface":"0.0 km²","format":"A4","annee":"2011","cartographes":"Frédéric RAMBLIERE","proprietaire":"4601 - FIGEAC NATURE ORIENTATION","niveau":"Initiation, Scolaire","specialite":"CO à pied","contacts":"CDCO46, Chez Frédéric RAMBLIERE, La Graville Basse, La Graville Basse, 46100, FAYCELLE, 05 65 34 18 80 , 06 73 46 19 61 , fred.rambliere@wanadoo.fr, http://www.fino46.org/","latitude":"44.6086794764","longitude":"2.02879639395","date_saisie":"15/11/2015","date_depot":"19/04/2016","valide":"Oui","ppo":"Non","type_carte":"Nouvelle carte","fond":"Ortho","obsolete":false}},{"type":"Feature","geometry":{"type":"Polygon","coordinates":[[[1.3245,44.5464],[1.3254,44.5471],[1.3247,44.5483],[1.3246,44.5491],[1.3267,44.5525],[1.3282,44.5518],[1.3287,44.5522],[1.3295,44.5515],[1.3305,44.5523],[1.3337,44.554],[1.3368,44.5554],[1.3371,44.5549],[1.34,44.5546],[1.3404,44.554],[1.3405,44.5533],[1.3426,44.5513],[1.3442,44.5501],[1.3447,44.5501],[1.3472,44.5487],[1.3486,44.5466],[1.3515,44.5433],[1.3538,44.542],[1.3539,44.5414],[1.3532,44.5401],[1.3533,44.5385],[1.3498,44.5325],[1.3483,44.5324],[1.3461,44.5329],[1.3449,44.5339],[1.3429,44.5338],[1.3424,44.5343],[1.3402,44.5351],[1.3394,44.5355],[1.3391,44.5352],[1.338,44.5351],[1.3352,44.5365],[1.3333,44.538],[1.3318,44.5391],[1.3298,44.5401],[1.3295,44.5405],[1.3299,44.5415],[1.3279,44.5427],[1.3266,44.5434],[1.3245,44.5464]]]},"properties":{"id_ffco":"2011-D46-50","nom":"Lac Vert","_dept":"46","numero":"2011-D46-50","commune":"Catus","echelle":"1/10000","surface":"3.56 km²","format":"A3","annee":"2011","cartographes":"Rui ANTUNES","proprietaire":"46 - Lot","niveau":"Régional","specialite":"CO à pied","contacts":"CDCO46, Chez Frédéric RAMBLIERE, La Graville Basse, La Graville Basse, 46100, FAYCELLE, 05 65 34 18 80 , 06 73 46 19 61 , fred.rambliere@wanadoo.fr, http://www.fino46.org/","latitude":"44.5438084829","longitude":"1.33936207936","date_saisie":"15/11/2015","date_depot":"24/10/2016","valide":"Oui","ppo":"Non","type_carte":"Nouvelle carte","fond":"Ortho","obsolete":false}},{"type":"Feature","geometry":{"type":"Polygon","coordinates":[[[2.0341,44.6121],[2.0346,44.6118],[2.0345,44.6117],[2.0344,44.6118],[2.0343,44.6117],[2.0343,44.6116],[2.0344,44.6115],[2.0343,44.6114],[2.0343,44.6114],[2.0342,44.6113],[2.0342,44.6112],[2.034,44.6112],[2.0339,44.6108],[2.0338,44.6108],[2.0336,44.6107],[2.0334,44.6107],[2.0334,44.6107],[2.0326,44.6106],[2.0325,44.6108],[2.0336,44.6121],[2.0341,44.6121]]]},"properties":{"id_ffco":"2011-D46-49","nom":"Lycée Jeanne d'Arc","_dept":"46","numero":"2011-D46-49","commune":"Figeac","echelle":"1/1000","surface":"0.01 km²","format":"A4","annee":"2011","cartographes":"M. COTIRTA, Michelle BARRAL","proprietaire":"4601 - FIGEAC NATURE ORIENTATION","niveau":"Initiation, Scolaire","specialite":"CO à pied","contacts":"CDCO46, Chez Frédéric RAMBLIERE, La Graville Basse, La Graville Basse, 46100, FAYCELLE, 05 65 34 18 80 , 06 73 46 19 61 , fred.rambliere@wanadoo.fr, http://www.fino46.org/","latitude":"44.6113212815","longitude":"2.03356541154","date_saisie":"15/11/2015","date_depot":"19/04/2016","valide":"Oui","ppo":"Non","type_carte":"Nouvelle carte","fond":"Ortho","obsolete":false}},{"type":"Feature","geometry":{"type":"Polygon","coordinates":[[[1.3549,44.4522],[1.3565,44.4512],[1.3565,44.4507],[1.3556,44.4488],[1.3551,44.4481],[1.3547,44.446],[1.3545,44.4433],[1.3533,44.4414],[1.3521,44.4399],[1.3518,44.4383],[1.3505,44.4358],[1.3496,44.4342],[1.3497,44.433],[1.3492,44.4323],[1.3441,44.4296],[1.3426,44.4283],[1.3415,44.4266],[1.3414,44.425],[1.3386,44.4238],[1.3322,44.4262],[1.3334,44.4275],[1.3249,44.4276],[1.3264,44.4292],[1.327,44.4307],[1.3275,44.4314],[1.3274,44.4329],[1.3264,44.4345],[1.3268,44.4359],[1.3268,44.4367],[1.3272,44.4374],[1.3274,44.438],[1.3268,44.4384],[1.3262,44.44],[1.3254,44.4416],[1.3253,44.4428],[1.3257,44.4431],[1.3301,44.444],[1.3302,44.4447],[1.3301,44.4452],[1.3305,44.4463],[1.3312,44.4512],[1.3329,44.4512],[1.3333,44.4548],[1.333,44.4559],[1.3334,44.4576],[1.341,44.4574],[1.3411,44.4562],[1.3428,44.4561],[1.3439,44.4557],[1.3466,44.4562],[1.3501,44.4565],[1.3526,44.458],[1.3526,44.4568],[1.3532,44.456],[1.3534,44.4546],[1.3551,44.4525],[1.3549,44.4522]]]},"properties":{"id_ffco":"2010-D46-48","nom":"Trespoux","_dept":"46","numero":"2010-D46-48","commune":"Trespoux Rassiels","echelle":"1/10000","surface":"6.21 km²","format":"A3","annee":"2010","cartographes":"M. COTIRTA","proprietaire":"46 - Lot","niveau":"Régional","specialite":"CO à pied","contacts":"CDCO46, Chez Frédéric RAMBLIERE, La Graville Basse, La Graville Basse, 46100, FAYCELLE, 05 65 34 18 80 , 06 73 46 19 61 , fred.rambliere@wanadoo.fr, http://www.fino46.org/","latitude":"44.441875418","longitude":"1.34037345564","date_saisie":"15/11/2015","date_depot":"24/10/2016","valide":"Oui","ppo":"Non","type_carte":"Nouvelle carte","fond":"Ortho","obsolete":false}},{"type":"Feature","geometry":{"type":"Polygon","coordinates":[[[1.9235,44.5711],[1.9255,44.5706],[1.9266,44.5705],[1.9271,44.5705],[1.9271,44.5729],[1.9297,44.5756],[1.9309,44.575],[1.9313,44.5755],[1.9324,44.5752],[1.9341,44.5747],[1.9362,44.576],[1.9361,44.5764],[1.9361,44.5774],[1.9343,44.579],[1.933,44.5792],[1.9326,44.5794],[1.9271,44.5787],[1.9256,44.5786],[1.9238,44.5778],[1.9222,44.5768],[1.9239,44.5746],[1.924,44.574],[1.9235,44.5711]]]},"properties":{"id_ffco":"2010-D46-47","nom":"Combe Longue","_dept":"46","numero":"2010-D46-47","commune":"Béduer","echelle":"1/5000","surface":"0.56 km²","format":"A4","annee":"2010","cartographes":"M. CORTITA","proprietaire":"46 - Lot","niveau":"National, International","specialite":"CO à pied","latitude":"44.5759213313","longitude":"1.92862007558","date_saisie":"15/11/2015","date_depot":"24/10/2016","valide":"Oui","ppo":"Non","type_carte":"Nouvelle carte","fond":"Ortho","obsolete":false}},{"type":"Feature","geometry":{"type":"Polygon","coordinates":[[[1.733,44.6817],[1.7317,44.6831],[1.731,44.6866],[1.7316,44.6888],[1.7297,44.6906],[1.7282,44.6911],[1.7261,44.693],[1.7253,44.6947],[1.7226,44.6973],[1.725,44.6984],[1.7255,44.699],[1.7253,44.6992],[1.7264,44.7006],[1.7278,44.7028],[1.7307,44.703],[1.7328,44.7043],[1.7353,44.7052],[1.7368,44.7051],[1.7371,44.7054],[1.7371,44.7061],[1.7378,44.7065],[1.739,44.7075],[1.7396,44.7075],[1.7426,44.7087],[1.7433,44.7101],[1.7447,44.7119],[1.7452,44.713],[1.7477,44.7075],[1.7474,44.7058],[1.7478,44.7041],[1.7473,44.6998],[1.7476,44.6986],[1.7478,44.6974],[1.7475,44.6965],[1.7476,44.6923],[1.748,44.6914],[1.7479,44.6911],[1.7483,44.6895],[1.7453,44.6882],[1.7432,44.6867],[1.7421,44.6865],[1.7397,44.6853],[1.7392,44.6848],[1.7357,44.6832],[1.7345,44.6821],[1.733,44.6817]]]},"properties":{"id_ffco":"2010-D46-46","nom":"LAC DES FARGUES","_dept":"46","numero":"2010-D46-46","commune":"REILHAC","echelle":"1/10000","surface":"3.82 km²","format":"A3","annee":"2010","cartographes":"CORTIRTA","proprietaire":"46 - Lot","niveau":"National, International","specialite":"CO à pied","contacts":"CDCO46, Chez Frédéric RAMBLIERE, La Graville Basse, La Graville Basse, 46100, FAYCELLES, +33673461961, +33673461961","latitude":"44.6963882692","longitude":"1.73771584751","date_saisie":"25/07/2015","date_depot":"24/10/2016","valide":"Oui","ppo":"Non","type_carte":"Nouvelle carte","fond":"Ortho","obsolete":false}},{"type":"Feature","geometry":{"type":"Polygon","coordinates":[[[1.3439,44.7235],[1.345,44.7233],[1.3454,44.7236],[1.3468,44.7237],[1.3481,44.7239],[1.3501,44.7242],[1.3496,44.7268],[1.3501,44.729],[1.3523,44.7308],[1.3519,44.7318],[1.3502,44.734],[1.3496,44.7344],[1.3493,44.7344],[1.3481,44.7342],[1.3454,44.7335],[1.3439,44.7332],[1.3424,44.7333],[1.3416,44.7333],[1.3404,44.7332],[1.3393,44.7331],[1.3388,44.7332],[1.3387,44.7327],[1.3376,44.7326],[1.337,44.7326],[1.3365,44.7326],[1.3355,44.7325],[1.3345,44.7325],[1.3332,44.7327],[1.3323,44.7328],[1.3312,44.7327],[1.3298,44.733],[1.3289,44.7331],[1.3285,44.7328],[1.328,44.7328],[1.3275,44.7323],[1.3274,44.7318],[1.3274,44.7312],[1.3269,44.7308],[1.3264,44.7306],[1.326,44.7303],[1.3255,44.7303],[1.3251,44.7302],[1.325,44.727],[1.3251,44.7265],[1.3262,44.727],[1.3273,44.7269],[1.3277,44.7266],[1.3283,44.7249],[1.3288,44.7244],[1.3292,44.7238],[1.3295,44.7233],[1.3296,44.7227],[1.3294,44.7219],[1.3297,44.7219],[1.3302,44.7222],[1.3311,44.7224],[1.3321,44.7227],[1.333,44.7229],[1.3341,44.7232],[1.3352,44.7236],[1.3358,44.7238],[1.3367,44.7241],[1.3379,44.7237],[1.3386,44.7237],[1.34,44.7235],[1.3413,44.7233],[1.3418,44.7235],[1.3426,44.7237],[1.3431,44.7236],[1.3439,44.7235]]]},"properties":{"id_ffco":"2010-D46-44","nom":"Pied Noir","_dept":"46","numero":"2010-D46-44","commune":"Gourdon","echelle":"1/10000","surface":"2.03 km²","format":"A4","annee":"2010","cartographes":"M. Cotirta","proprietaire":"46 - Lot","niveau":"Régional","specialite":"CO à pied","contacts":"CDCO46, Chez Frédéric RAMBLIERE, La Graville Basse, La Graville Basse, 46100, FAYCELLE, 05 65 34 18 80 , 06 73 46 19 61 , fred.rambliere@wanadoo.fr, http://www.fino46.org/","latitude":"44.7284453103","longitude":"1.33877771849","date_saisie":"25/11/2015","date_depot":"24/10/2016","valide":"Oui","ppo":"Non","type_carte":"Extrait","base":"2010-D46-44 Pied Noir","fond":"Cadastre","obsolete":false}},{"type":"Feature","geometry":{"type":"Polygon","coordinates":[[[1.3795,44.7464],[1.3798,44.7463],[1.3809,44.7462],[1.3812,44.7457],[1.3849,44.746],[1.3845,44.7466],[1.3845,44.7475],[1.3839,44.7481],[1.3846,44.7484],[1.3836,44.7488],[1.3827,44.7494],[1.3818,44.7505],[1.3797,44.7518],[1.3796,44.7521],[1.3773,44.7532],[1.3769,44.7528],[1.3779,44.7509],[1.3789,44.7497],[1.3791,44.7494],[1.3792,44.7481],[1.3795,44.7473],[1.3797,44.7468],[1.3795,44.7464]]]},"properties":{"id_ffco":"2010-D46-43","nom":"Lac Laumel","_dept":"46","numero":"2010-D46-43","commune":"Gourdon","echelle":"1/4000","surface":"0.23 km²","format":"A4","annee":"2010","cartographes":"M. Cotirta","proprietaire":"46 - Lot","niveau":"Initiation, Scolaire","specialite":"CO à pied","contacts":"CDCO46, Chez Frédéric RAMBLIERE, La Graville Basse, La Graville Basse, 46100, FAYCELLE, 05 65 34 18 80 , 06 73 46 19 61 , fred.rambliere@wanadoo.fr, http://www.fino46.org/","latitude":"44.7488445628","longitude":"1.3809815884","date_saisie":"25/11/2015","date_depot":"24/10/2016","valide":"Oui","ppo":"Non","type_carte":"Extrait","base":"2010-D46-43 Lac Laumel","fond":"Cadastre","obsolete":false}},{"type":"Feature","geometry":{"type":"Polygon","coordinates":[[[1.7731,44.6384],[1.7734,44.6397],[1.7736,44.641],[1.7742,44.6431],[1.7717,44.645],[1.7701,44.646],[1.7689,44.6461],[1.7664,44.647],[1.7647,44.6486],[1.759,44.6497],[1.7585,44.6485],[1.7587,44.6462],[1.7505,44.6465],[1.7459,44.6457],[1.7455,44.6455],[1.746,44.6433],[1.7449,44.6413],[1.7446,44.6403],[1.7439,44.6323],[1.7458,44.6324],[1.7462,44.6309],[1.748,44.6297],[1.7488,44.6291],[1.7508,44.6295],[1.754,44.6305],[1.7573,44.6319],[1.7617,44.6336],[1.7655,44.6352],[1.766,44.6352],[1.7665,44.6345],[1.7672,44.6339],[1.7681,44.6338],[1.7689,44.6335],[1.77,44.6332],[1.7715,44.6328],[1.7729,44.6325],[1.7727,44.6339],[1.7727,44.6359],[1.7731,44.6384]]]},"properties":{"id_ffco":"2010-D46-42","nom":"Pech des Agards","_dept":"46","numero":"2010-D46-42","commune":"Espédaillac","echelle":"1/10000","surface":"3.67 km²","format":"A3","annee":"2010","cartographes":"M. Cotirta","proprietaire":"46 - Lot","niveau":"Régional","specialite":"CO à pied","contacts":"CDCO46, Chez Frédéric RAMBLIERE, La Graville Basse, La Graville Basse, 46100, FAYCELLE, 05 65 34 18 80 , 06 73 46 19 61 , fred.rambliere@wanadoo.fr, http://www.fino46.org/","latitude":"44.6394111556","longitude":"1.75828660936","date_saisie":"25/11/2015","date_depot":"24/10/2016","valide":"Oui","ppo":"Non","type_carte":"Nouvelle carte","fond":"Cadastre","obsolete":false}},{"type":"Feature","geometry":{"type":"Polygon","coordinates":[[[1.4081,44.6981],[1.4093,44.6971],[1.4116,44.6985],[1.4137,44.6991],[1.4149,44.6998],[1.4165,44.6999],[1.4178,44.7001],[1.4189,44.7012],[1.4201,44.7013],[1.4212,44.7012],[1.4216,44.7022],[1.4236,44.7046],[1.4222,44.7066],[1.4186,44.71],[1.4171,44.711],[1.416,44.7143],[1.4147,44.7155],[1.4117,44.7161],[1.4066,44.7142],[1.4051,44.713],[1.4034,44.7125],[1.4032,44.7113],[1.4041,44.7101],[1.4041,44.7095],[1.4045,44.7088],[1.4048,44.7085],[1.4042,44.7076],[1.4034,44.7015],[1.404,44.701],[1.4081,44.6981]]]},"properties":{"id_ffco":"2009-D46-41","nom":"Saint Clair","_dept":"46","numero":"2009-D46-41","commune":"Saint-Cirq Souillaget","echelle":"1/10000","surface":"2.2 km²","format":"A4","annee":"2009","cartographes":"N.Bonnemain","proprietaire":"46 - Lot","niveau":"Régional","specialite":"CO à pied","contacts":"CDCO46, Chez Frédéric RAMBLIERE, La Graville Basse, La Graville Basse, 46100, FAYCELLE, 05 65 34 18 80 , 06 73 46 19 61 , fred.rambliere@wanadoo.fr, http://www.fino46.org/","latitude":"44.7065521933","longitude":"1.41207688158","date_saisie":"25/11/2015","date_depot":"24/10/2016","valide":"Oui","ppo":"Non","type_carte":"Extrait","base":"2009-D46-41 Saint Clair","fond":"Cadastre","obsolete":false}},{"type":"Feature","geometry":{"type":"Polygon","coordinates":[[[1.3752,44.4145],[1.3724,44.414],[1.3701,44.4138],[1.3686,44.4135],[1.3673,44.4131],[1.3654,44.412],[1.3651,44.4115],[1.3615,44.4135],[1.3626,44.4139],[1.3607,44.417],[1.3612,44.4172],[1.3611,44.4188],[1.3626,44.4192],[1.3633,44.4187],[1.3637,44.4188],[1.365,44.4183],[1.3657,44.4183],[1.3663,44.4181],[1.3667,44.4178],[1.3671,44.4177],[1.3672,44.418],[1.367,44.4184],[1.3677,44.4191],[1.3682,44.4184],[1.3752,44.4145]]]},"properties":{"id_ffco":"2008-D46-40","nom":"Mairie de les Roques","_dept":"46","numero":"2008-D46-40","commune":"Trespoux Rassiels","echelle":"1/4000","surface":"0.51 km²","format":"A4","annee":"2008","cartographes":"Bruno COTTRET","proprietaire":"46 - Lot","niveau":"Initiation, Scolaire","specialite":"CO à pied","contacts":"CDCO46, Chez Frédéric RAMBLIERE, La Graville Basse, La Graville Basse, 46100, FAYCELLE, 05 65 34 18 80 , 06 73 46 19 61 , fred.rambliere@wanadoo.fr, http://www.fino46.org/","latitude":"44.4155854029","longitude":"1.3665044449","date_saisie":"15/11/2015","date_depot":"10/06/2016","valide":"Oui","ppo":"Non","type_carte":"Nouvelle carte","fond":"Ortho","obsolete":false}},{"type":"Feature","geometry":{"type":"Polygon","coordinates":[[[1.986,44.5667],[1.987,44.5663],[1.9882,44.5658],[1.9883,44.5638],[1.9882,44.5636],[1.9879,44.5636],[1.9877,44.5637],[1.9872,44.5643],[1.9864,44.5645],[1.9856,44.5645],[1.9853,44.5645],[1.985,44.5644],[1.9837,44.5641],[1.9837,44.5646],[1.9836,44.565],[1.9836,44.5654],[1.9837,44.5659],[1.9852,44.5664],[1.986,44.5667]]]},"properties":{"id_ffco":"2008-D46-39","nom":"Faycelles","_dept":"46","numero":"2008-D46-39","commune":"FAYCELLES","echelle":"1/2000","surface":"0.08 km²","format":"A4","annee":"2008","cartographes":"F.Ramblière","proprietaire":"46 - Lot","niveau":"Départemental","specialite":"Sprint (ISSOM)","contacts":"CDCO46, Chez Frédéric RAMBLIERE, La Graville Basse, La Graville Basse, 46100, FAYCELLE, 05 65 34 18 80 , 06 73 46 19 61 , fred.rambliere@wanadoo.fr, http://www.fino46.org/","latitude":"44.5652521649","longitude":"1.98604166239","date_saisie":"07/09/2015","date_depot":"19/04/2016","valide":"Oui","ppo":"Non","type_carte":"Nouvelle carte","fond":"Cadastre","obsolete":false}},{"type":"Feature","geometry":{"type":"Polygon","coordinates":[[[1.4055,44.5257],[1.4071,44.5252],[1.4089,44.5252],[1.4103,44.5249],[1.411,44.5242],[1.4119,44.5244],[1.4131,44.524],[1.4146,44.5233],[1.415,44.5228],[1.414,44.5216],[1.414,44.521],[1.4141,44.5203],[1.4146,44.5195],[1.4149,44.5181],[1.415,44.517],[1.4158,44.5164],[1.4168,44.5158],[1.4175,44.5157],[1.4187,44.5151],[1.4191,44.5142],[1.4191,44.5134],[1.4198,44.5129],[1.4209,44.5125],[1.4214,44.5121],[1.4223,44.5122],[1.4233,44.5118],[1.4241,44.5114],[1.4257,44.5114],[1.4278,44.5117],[1.4299,44.512],[1.4312,44.512],[1.4323,44.5112],[1.4346,44.51],[1.4364,44.5092],[1.4375,44.5087],[1.44,44.5078],[1.4434,44.5076],[1.4459,44.5077],[1.4461,44.5085],[1.4455,44.5095],[1.4446,44.5106],[1.444,44.5119],[1.4441,44.5139],[1.4443,44.5159],[1.4449,44.5173],[1.4478,44.518],[1.4491,44.5192],[1.45,44.5208],[1.4512,44.5224],[1.4521,44.5232],[1.4539,44.5236],[1.4551,44.5242],[1.4549,44.5248],[1.4545,44.5254],[1.4533,44.5263],[1.4524,44.5267],[1.4525,44.5275],[1.452,44.5281],[1.4512,44.5282],[1.4497,44.5277],[1.448,44.5283],[1.4467,44.5283],[1.4419,44.5296],[1.4404,44.5298],[1.4392,44.5293],[1.4365,44.5283],[1.4337,44.5271],[1.4315,44.5266],[1.4291,44.5267],[1.4272,44.5279],[1.424,44.5286],[1.4213,44.5299],[1.42,44.5299],[1.4185,44.5288],[1.4174,44.5278],[1.4145,44.5279],[1.4117,44.5285],[1.4115,44.5289],[1.4121,44.5292],[1.4137,44.5293],[1.4146,44.5296],[1.4139,44.5299],[1.4125,44.5315],[1.4108,44.5307],[1.4085,44.5292],[1.4076,44.5288],[1.4072,44.5285],[1.4078,44.527],[1.4055,44.5257]]]},"properties":{"id_ffco":"2007-D46-32","nom":"Auzole","_dept":"46","numero":"2007-D46-32","commune":"Calamane et Saint Pierre Lafeuille","echelle":"1/10000","surface":"5.55 km²","format":"A3","annee":"2007","cartographes":"A. Pellegry, B. Cottret","proprietaire":"46 - Lot","niveau":"Régional","specialite":"CO à pied","contacts":"CDCO46, Chez Frédéric RAMBLIERE, La Graville Basse, La Graville Basse, 46100, FAYCELLE, 05 65 34 18 80 , 06 73 46 19 61 , fred.rambliere@wanadoo.fr, http://www.fino46.org/","latitude":"44.5205408493","longitude":"1.43175465041","date_saisie":"25/11/2015","date_depot":"24/10/2016","valide":"Oui","ppo":"Non","type_carte":"Extrait","base":"2007-D46-32 Auzole","fond":"Cadastre","obsolete":false}},{"type":"Feature","geometry":{"type":"Polygon","coordinates":[[[1.4446,44.3787],[1.4455,44.379],[1.4456,44.3781],[1.4473,44.3783],[1.4471,44.379],[1.4468,44.3797],[1.4484,44.3802],[1.4488,44.3797],[1.4494,44.3799],[1.4497,44.3807],[1.4527,44.382],[1.4526,44.3842],[1.4519,44.3844],[1.4518,44.3847],[1.4524,44.3853],[1.4529,44.3852],[1.4528,44.3856],[1.4522,44.3867],[1.4515,44.3895],[1.4512,44.3918],[1.4512,44.394],[1.452,44.3958],[1.4521,44.3982],[1.4516,44.3991],[1.4502,44.4009],[1.449,44.4016],[1.4445,44.4035],[1.444,44.4038],[1.4435,44.404],[1.4425,44.4041],[1.4419,44.4041],[1.4413,44.4046],[1.4389,44.4044],[1.4384,44.4041],[1.4382,44.4037],[1.438,44.4029],[1.4382,44.4024],[1.4378,44.4016],[1.4371,44.4009],[1.4368,44.3995],[1.4362,44.3976],[1.4357,44.396],[1.4356,44.3954],[1.4363,44.3948],[1.4366,44.3944],[1.4358,44.3944],[1.4351,44.3945],[1.4338,44.3934],[1.4332,44.3926],[1.4334,44.3912],[1.4357,44.3906],[1.4355,44.3902],[1.4344,44.3896],[1.4355,44.3881],[1.4358,44.3875],[1.4341,44.3861],[1.433,44.3844],[1.4314,44.3835],[1.4298,44.3826],[1.4289,44.3821],[1.4293,44.3815],[1.4301,44.3814],[1.4306,44.3807],[1.4309,44.3802],[1.4328,44.3791],[1.4342,44.3792],[1.4351,44.3794],[1.4361,44.3788],[1.4364,44.3793],[1.4383,44.3795],[1.4406,44.3783],[1.4412,44.378],[1.442,44.3781],[1.4446,44.3787]]]},"properties":{"id_ffco":"2006-D46-31","nom":"Le Moulin De Lacoste","_dept":"46","numero":"2006-D46-31","commune":"Le Montat","echelle":"1/10000","surface":"3.66 km²","format":"A4","annee":"2006","cartographes":"A. Pellegry, B. Cottret","proprietaire":"46 - Lot","niveau":"Régional","specialite":"CO à pied","contacts":"CDCO46, Chez Frédéric RAMBLIERE, La Graville Basse, La Graville Basse, 46100, FAYCELLE, 05 65 34 18 80 , 06 73 46 19 61 , fred.rambliere@wanadoo.fr, http://www.fino46.org/","latitude":"44.3902054814","longitude":"1.44269498203","date_saisie":"25/11/2015","date_depot":"05/10/2016","valide":"Oui","ppo":"Non","type_carte":"Extrait","base":"2006-D46-31 Le Moulin De Lacoste","fond":"Cadastre","obsolete":false}},{"type":"Feature","geometry":{"type":"Polygon","coordinates":[[[1.382,44.7388],[1.3831,44.7388],[1.3841,44.7386],[1.3849,44.7385],[1.386,44.7386],[1.3869,44.7386],[1.3877,44.7385],[1.388,44.7382],[1.3876,44.7366],[1.3879,44.7359],[1.3879,44.7354],[1.3882,44.7351],[1.3886,44.7347],[1.388,44.7333],[1.3882,44.7324],[1.3888,44.7315],[1.3893,44.7273],[1.3894,44.726],[1.3892,44.7258],[1.3877,44.7262],[1.3864,44.7269],[1.3857,44.7266],[1.3842,44.7262],[1.3833,44.726],[1.383,44.7258],[1.3829,44.7253],[1.3793,44.7253],[1.3789,44.7252],[1.3789,44.7259],[1.3786,44.7266],[1.3779,44.7274],[1.3776,44.7279],[1.3771,44.7283],[1.3764,44.7287],[1.3758,44.7291],[1.3753,44.7294],[1.3749,44.7298],[1.3748,44.7302],[1.3743,44.7309],[1.3744,44.7323],[1.3771,44.7351],[1.3773,44.7355],[1.3776,44.7361],[1.3767,44.7373],[1.3775,44.7377],[1.3788,44.738],[1.382,44.7388]]]},"properties":{"id_ffco":"2006-D46-29","nom":"Gourdon","_dept":"46","numero":"2006-D46-29","commune":"Gourdon","echelle":"1/5000","surface":"1.34 km²","format":"A3","annee":"2006","cartographes":"N.Bonnemain","proprietaire":"46 - Lot","niveau":"Régional","specialite":"Sprint (ISSOM)","contacts":"CDCO46, Chez Frédéric RAMBLIERE, La Graville Basse, La Graville Basse, 46100, FAYCELLE, 05 65 34 18 80 , 06 73 46 19 61 , fred.rambliere@wanadoo.fr, http://www.fino46.org/","latitude":"44.7320272406","longitude":"1.38236982495","date_saisie":"25/11/2015","date_depot":"24/10/2016","valide":"Oui","ppo":"Non","type_carte":"Extrait","base":"2006-D46-29 Gourdon","fond":"Cadastre","obsolete":false}},{"type":"Feature","geometry":{"type":"Polygon","coordinates":[[[1.8204,44.677],[1.8145,44.6753],[1.8121,44.6779],[1.8107,44.6783],[1.8099,44.6798],[1.8086,44.6797],[1.8018,44.6842],[1.8022,44.6855],[1.8013,44.6872],[1.8023,44.6888],[1.8023,44.6914],[1.8025,44.6918],[1.8029,44.6922],[1.8038,44.694],[1.8041,44.6945],[1.8074,44.6953],[1.81,44.6944],[1.8109,44.6939],[1.8113,44.6936],[1.8124,44.6936],[1.8139,44.6932],[1.8146,44.6932],[1.8152,44.6937],[1.8165,44.6945],[1.8177,44.6944],[1.8187,44.6941],[1.8198,44.6942],[1.8202,44.6946],[1.8213,44.695],[1.8221,44.6952],[1.8229,44.6952],[1.8237,44.6952],[1.8242,44.6949],[1.8228,44.6931],[1.8226,44.6925],[1.823,44.692],[1.8237,44.6919],[1.8237,44.6916],[1.8253,44.6912],[1.8262,44.6898],[1.832,44.6823],[1.8308,44.6821],[1.8302,44.6818],[1.8289,44.6817],[1.8265,44.6807],[1.8242,44.6797],[1.8217,44.6775],[1.8204,44.677]]]},"properties":{"id_ffco":"2006-D46-28","nom":"Los Mas Del Pechômén","_dept":"46","numero":"2006-D46-28","commune":"Viazac Livernon","echelle":"1/10000","surface":"3.44 km²","format":"A4","annee":"2006","cartographes":"A. Pellegry","proprietaire":"46 - Lot","niveau":"Départemental","specialite":"CO à pied","contacts":"CDCO46, Chez Frédéric RAMBLIERE, La Graville Basse, La Graville Basse, 46100, FAYCELLE, 05 65 34 18 80 , 06 73 46 19 61 , fred.rambliere@wanadoo.fr, http://www.fino46.org/","latitude":"44.68605917","longitude":"1.8154623443","date_saisie":"19/11/2015","date_depot":"05/10/2016","valide":"Oui","ppo":"Non","type_carte":"Extrait","base":"2006-D46-28 Los Mas Del Pechômén","fond":"Cadastre","obsolete":false}},{"type":"Feature","geometry":{"type":"Polygon","coordinates":[[[1.3786,44.7439],[1.3745,44.7437],[1.3742,44.7459],[1.3741,44.7472],[1.3738,44.7478],[1.3737,44.7483],[1.3728,44.7492],[1.3721,44.7501],[1.3718,44.7506],[1.3715,44.7509],[1.3712,44.7514],[1.3676,44.7529],[1.3681,44.7535],[1.3684,44.7537],[1.3709,44.7542],[1.3739,44.7552],[1.376,44.7554],[1.3794,44.7552],[1.3813,44.7553],[1.3867,44.7536],[1.3874,44.7533],[1.3861,44.7512],[1.386,44.7499],[1.3865,44.7489],[1.3876,44.7472],[1.3874,44.7469],[1.3847,44.746],[1.3786,44.7439]]]},"properties":{"id_ffco":"2005-D46-27","nom":"Ecoute si il pleut","_dept":"46","numero":"2005-D46-27","commune":"Gourdon","echelle":"1/3000","surface":"1.31 km²","format":"A4","annee":"2005","cartographes":"L. Brillant, N. Bonnemain","proprietaire":"46 - Lot","niveau":"Initiation, Scolaire","specialite":"CO à pied","contacts":"CDCO46, Chez Frédéric RAMBLIERE, La Graville Basse, La Graville Basse, 46100, FAYCELLE, 05 65 34 18 80 , 06 73 46 19 61 , fred.rambliere@wanadoo.fr, http://www.fino46.org/","latitude":"44.7501784411","longitude":"1.37878833207","date_saisie":"07/09/2015","date_depot":"24/10/2016","valide":"Oui","ppo":"Non","type_carte":"Nouvelle carte","fond":"Cadastre","obsolete":false}},{"type":"Feature","geometry":{"type":"Polygon","coordinates":[[[1.991,44.6249],[1.9919,44.6262],[1.9935,44.6276],[1.9957,44.6292],[1.9972,44.6296],[1.9985,44.6313],[2.0017,44.6327],[2.004,44.6338],[2.0048,44.6346],[2.0042,44.6357],[2.0044,44.636],[2.0061,44.6368],[2.008,44.6361],[2.0106,44.6362],[2.0133,44.636],[2.0134,44.6342],[2.0123,44.6341],[2.0134,44.631],[2.0131,44.6278],[2.0128,44.6265],[2.0138,44.6261],[2.0139,44.624],[2.0133,44.6235],[2.0127,44.623],[2.0124,44.6221],[2.0122,44.6206],[2.0114,44.6204],[2.0106,44.6194],[2.0104,44.6184],[2.0103,44.618],[2.009,44.6181],[2.0081,44.6181],[2.0065,44.6189],[2.0051,44.6196],[2.0049,44.6194],[2.0043,44.6172],[2.004,44.6163],[2.0031,44.616],[1.999,44.6164],[1.9967,44.6156],[1.9949,44.6162],[1.9932,44.6168],[1.9924,44.6173],[1.9917,44.6188],[1.9926,44.6195],[1.991,44.6231],[1.991,44.6251],[1.991,44.6249]]]},"properties":{"id_ffco":"2005-D46-26","nom":"LA VITATERNE","_dept":"46","numero":"2005-D46-26","commune":"Lissac et Mouret","echelle":"1/10000","surface":"2.91 km²","format":"A4","annee":"2005","cartographes":"Michèle BARRAL","proprietaire":"4601 - FIGEAC NATURE ORIENTATION","niveau":"Initiation, Scolaire","specialite":"CO à pied","contacts":"CDCO46, Chez Frédéric RAMBLIERE, La Graville Basse, La Graville Basse, 46100, FAYCELLES, +33673461961, +33673461961","latitude":"44.6254537668","longitude":"2.00320030424","date_saisie":"02/10/2016","date_depot":"24/10/2016","valide":"Oui","ppo":"Non","type_carte":"Nouvelle carte","fond":"Cadastre","obsolete":false}},{"type":"Feature","geometry":{"type":"Polygon","coordinates":[[[1.9621,44.5277],[1.9236,44.528],[1.9144,44.5303],[1.9068,44.533],[1.9044,44.5346],[1.9029,44.5351],[1.8988,44.5352],[1.8975,44.5372],[1.898,44.5391],[1.8986,44.5404],[1.8989,44.5415],[1.8981,44.5429],[1.8957,44.5454],[1.8928,44.5462],[1.8923,44.5502],[1.8936,44.5532],[1.8947,44.5546],[1.8966,44.5556],[1.8992,44.5564],[1.9014,44.5571],[1.9054,44.5569],[1.9081,44.5571],[1.9099,44.5573],[1.9107,44.5595],[1.9131,44.5588],[1.9146,44.5588],[1.9166,44.5598],[1.9204,44.5604],[1.9241,44.562],[1.9263,44.5634],[1.9293,44.5648],[1.932,44.5658],[1.9344,44.5666],[1.9566,44.567],[1.9612,44.5633],[1.9643,44.5615],[1.9681,44.5611],[1.9686,44.5555],[1.9655,44.5546],[1.9614,44.5531],[1.9608,44.5525],[1.963,44.5494],[1.9662,44.5485],[1.9684,44.5469],[1.9699,44.5455],[1.9716,44.5446],[1.9709,44.5423],[1.9715,44.5402],[1.973,44.539],[1.9719,44.5382],[1.9673,44.5339],[1.9656,44.5308],[1.9621,44.5277]]]},"properties":{"id_ffco":"2005-D46-25","nom":"VTTO Carayac","_dept":"46","numero":"2005-D46-25","commune":"St Pierre de Toirac","echelle":"1/20000","surface":"20.99 km²","format":"A4","annee":"2005","cartographes":"BARAL Michelle, RAMBIERE Frederic, BAILLY Philippe","proprietaire":"4601 - FIGEAC NATURE ORIENTATION","niveau":"National, International","specialite":"CO à VTT","latitude":"44.5462362979","longitude":"1.93486558055","date_saisie":"28/07/2016","date_depot":"04/10/2016","valide":"Oui","ppo":"Non","type_carte":"Nouvelle carte","fond":"Ortho","obsolete":false}},{"type":"Feature","geometry":{"type":"Polygon","coordinates":[[[2.02,44.6043],[2.0196,44.605],[2.0181,44.606],[2.0164,44.6053],[2.0153,44.6056],[2.0141,44.605],[2.0133,44.6048],[2.0133,44.6043],[2.0135,44.6037],[2.0139,44.6021],[2.0186,44.6031],[2.0191,44.6033],[2.0189,44.6037],[2.0198,44.6042],[2.02,44.6043]]]},"properties":{"id_ffco":"2005-D46-24","nom":"Plaine des sports de Londieu","_dept":"46","numero":"2005-D46-24","commune":"Figeac","echelle":"1/2500","surface":"0.14 km²","format":"A4","annee":"2005","cartographes":"P. Bailly, M. Barral, F. Ramblière","proprietaire":"46 - Lot","niveau":"Initiation, Scolaire","specialite":"CO à pied","contacts":"CDCO46, Chez Frédéric RAMBLIERE, La Graville Basse, La Graville Basse, 46100, FAYCELLE, 05 65 34 18 80 , 06 73 46 19 61 , fred.rambliere@wanadoo.fr, http://www.fino46.org/","latitude":"44.6040864881","longitude":"2.01638213276","date_saisie":"15/09/2016","date_depot":"05/10/2016","valide":"Oui","ppo":"Non","type_carte":"Nouvelle carte","fond":"Cadastre","obsolete":false}},{"type":"Feature","geometry":{"type":"Polygon","coordinates":[[[2.0408,44.6187],[2.0428,44.6182],[2.0445,44.6181],[2.0453,44.6188],[2.0459,44.6189],[2.0475,44.6184],[2.0489,44.6184],[2.0479,44.6203],[2.0472,44.6218],[2.0463,44.6222],[2.0448,44.6232],[2.0435,44.6239],[2.0431,44.623],[2.0422,44.6222],[2.0408,44.6187]]]},"properties":{"id_ffco":"2005-D46-21","nom":"Panafé","_dept":"46","numero":"2005-D46-21","commune":"Figeac","echelle":"1/3000","surface":"0.24 km²","format":"A4","annee":"2005","cartographes":"Michèle BARRAL","niveau":"Initiation, Scolaire","specialite":"CO à pied","contacts":"CDCO46, Chez Frédéric RAMBLIERE, La Graville Basse, La Graville Basse, 46100, FAYCELLE, 05 65 34 18 80 , 06 73 46 19 61 , fred.rambliere@wanadoo.fr, http://www.fino46.org/","latitude":"44.620464817","longitude":"2.04458487645","date_saisie":"02/10/2016","date_depot":"24/10/2016","valide":"Oui","ppo":"Non","type_carte":"Nouvelle carte","fond":"Cadastre","obsolete":false}},{"type":"Feature","geometry":{"type":"Polygon","coordinates":[[[1.9987,44.5941],[1.9978,44.5944],[1.9967,44.5945],[1.9957,44.5946],[1.9947,44.595],[1.9947,44.5972],[1.9911,44.5992],[1.9918,44.5996],[1.9938,44.5998],[1.9936,44.603],[1.9918,44.6028],[1.9908,44.6029],[1.9901,44.6043],[1.989,44.6046],[1.9884,44.605],[1.9888,44.6069],[1.9886,44.6079],[1.9878,44.6086],[1.989,44.6097],[1.9902,44.611],[1.9908,44.6102],[1.9921,44.6112],[1.9933,44.6115],[1.9942,44.6119],[1.9947,44.6129],[1.9951,44.614],[1.996,44.6148],[1.9966,44.6157],[1.9955,44.6172],[1.9971,44.6171],[1.9989,44.6167],[2.0004,44.6164],[2.0021,44.6161],[2.0032,44.6162],[2.0038,44.617],[2.0044,44.6173],[2.006,44.6169],[2.0065,44.6159],[2.007,44.6154],[2.009,44.615],[2.0113,44.6142],[2.0115,44.6137],[2.0119,44.6124],[2.0122,44.6112],[2.012,44.6103],[2.0114,44.6094],[2.0106,44.6087],[2.0101,44.6082],[2.0114,44.6072],[2.0108,44.6065],[2.0104,44.6057],[2.0104,44.6049],[2.0108,44.6048],[2.0125,44.6046],[2.012,44.6028],[2.0114,44.6015],[2.0104,44.6002],[2.0076,44.5988],[2.0033,44.5965],[2.0001,44.5946],[1.9987,44.5941]]]},"properties":{"id_ffco":"2004-D46-20","nom":"LE CAUSSE DE NAYRAC II","_dept":"46","numero":"2004-D46-20","commune":"FIGEAC","echelle":"1/10000","surface":"3.32 km²","format":"A4","annee":"2004","proprietaire":"4601 - FIGEAC NATURE ORIENTATION","niveau":"Interrégional","specialite":"CO à pied","latitude":"44.6062335018","longitude":"2.00097623955","date_depot":"03/06/2016","valide":"Oui","ppo":"Non","type_carte":"Reprise","base":"2004-D46-20 LE CAUSSE DE NAYRAC II","fond":"Ortho","obsolete":false}},{"type":"Feature","geometry":{"type":"Polygon","coordinates":[[[1.9486,44.5595],[1.9538,44.5578],[1.9547,44.5595],[1.956,44.5595],[1.9594,44.5569],[1.9619,44.5545],[1.9612,44.5538],[1.9649,44.5489],[1.9678,44.5457],[1.9676,44.5439],[1.9672,44.5376],[1.9651,44.5339],[1.9629,44.5308],[1.9602,44.5281],[1.9561,44.5277],[1.9541,44.5274],[1.9519,44.5285],[1.9508,44.53],[1.9469,44.5305],[1.9433,44.5318],[1.9414,44.537],[1.9438,44.5414],[1.9421,44.5469],[1.9445,44.5543],[1.9445,44.5578],[1.9481,44.5599],[1.946,44.563],[1.9486,44.5595]]]},"properties":{"id_ffco":"2005-D46-19","nom":"Marmont","_dept":"46","numero":"2005-D46-19","commune":"Saint-Pierre Toirac","echelle":"1/15000","surface":"5.6 km²","format":"A4","annee":"2005","cartographes":"Michèle BARRAL","proprietaire":"4601 - FIGEAC NATURE ORIENTATION","niveau":"Départemental","specialite":"Raid'O","contacts":"CDCO46, Chez Frédéric RAMBLIERE, La Graville Basse, La Graville Basse, 46100, FAYCELLE, 05 65 34 18 80 , 06 73 46 19 61 , fred.rambliere@wanadoo.fr, http://www.fino46.org/","latitude":"44.5431802487","longitude":"1.95418398794","date_saisie":"02/10/2016","date_depot":"24/10/2016","valide":"Oui","ppo":"Non","type_carte":"Nouvelle carte","fond":"Cadastre","obsolete":false}},{"type":"Feature","geometry":{"type":"Polygon","coordinates":[[[1.8044,44.7167],[1.8075,44.7151],[1.8138,44.715],[1.8161,44.7156],[1.8194,44.7155],[1.8165,44.7127],[1.8171,44.7091],[1.8164,44.7087],[1.8131,44.709],[1.8116,44.7088],[1.8103,44.7091],[1.8083,44.7084],[1.8061,44.7089],[1.8054,44.7089],[1.8054,44.7099],[1.8035,44.7138],[1.8044,44.7167]]]},"properties":{"id_ffco":"2005-D46-18","nom":"Pisserattes","_dept":"46","numero":"2005-D46-18","commune":"Durbans","echelle":"1/5000","surface":"0.74 km²","format":"A5","annee":"2005","cartographes":"Philippe VERGE","proprietaire":"4601 - FIGEAC NATURE ORIENTATION","niveau":"Départemental","specialite":"CO à pied","latitude":"44.7123028851","longitude":"1.81075778761","date_saisie":"11/07/2015","date_depot":"10/06/2016","valide":"Oui","ppo":"Non","type_carte":"Nouvelle carte","fond":"Ortho","obsolete":false}},{"type":"Feature","geometry":{"type":"Polygon","coordinates":[[[1.8109,44.7012],[1.8124,44.7],[1.8154,44.6993],[1.8182,44.6985],[1.8199,44.6974],[1.8213,44.6963],[1.8223,44.6951],[1.8219,44.6932],[1.822,44.6914],[1.8247,44.691],[1.8282,44.6909],[1.8314,44.6901],[1.8354,44.6901],[1.8377,44.6889],[1.84,44.6867],[1.8433,44.6869],[1.8455,44.6864],[1.8488,44.6899],[1.8578,44.6885],[1.8594,44.691],[1.8609,44.6939],[1.8667,44.696],[1.8687,44.698],[1.8715,44.7013],[1.8726,44.7041],[1.8709,44.7104],[1.8679,44.7136],[1.867,44.7139],[1.8654,44.7142],[1.8607,44.714],[1.8586,44.7145],[1.8571,44.715],[1.853,44.7152],[1.8515,44.7166],[1.8494,44.7185],[1.8423,44.7195],[1.8387,44.721],[1.8366,44.7196],[1.8317,44.7196],[1.8307,44.7171],[1.8209,44.7166],[1.8184,44.7164],[1.8175,44.7144],[1.8155,44.7126],[1.8154,44.7093],[1.811,44.7091],[1.8109,44.7012]]]},"properties":{"id_ffco":"2002-D46-14","nom":"Théminettes","_dept":"46","numero":"2002-D46-14","commune":"Théminettes","echelle":"1/20000","surface":"12.68 km²","format":"A4","annee":"2002","cartographes":"Philippe VERGE","proprietaire":"4601 - FIGEAC NATURE ORIENTATION","niveau":"Régional","specialite":"CO à VTT","latitude":"44.7039918478","longitude":"1.84177833602","date_saisie":"02/10/2016","date_depot":"24/10/2016","valide":"Oui","ppo":"Non","type_carte":"Nouvelle carte","fond":"Cadastre","obsolete":false}},{"type":"Feature","geometry":{"type":"Polygon","coordinates":[[[1.6679,44.4982],[1.6652,44.4996],[1.6643,44.5023],[1.6616,44.5031],[1.6586,44.5059],[1.6589,44.5073],[1.658,44.5079],[1.659,44.5087],[1.6612,44.5079],[1.6638,44.507],[1.6642,44.5074],[1.6642,44.5094],[1.665,44.5106],[1.6679,44.5119],[1.6712,44.5126],[1.6715,44.5133],[1.6707,44.5164],[1.6702,44.5181],[1.6698,44.5203],[1.6711,44.521],[1.6726,44.5205],[1.6735,44.5199],[1.6746,44.5205],[1.6751,44.5216],[1.6765,44.5219],[1.6776,44.5209],[1.6787,44.5201],[1.6827,44.5165],[1.6845,44.5156],[1.6929,44.5169],[1.6946,44.5177],[1.6968,44.5186],[1.6978,44.5193],[1.6996,44.5192],[1.702,44.518],[1.7042,44.5167],[1.7063,44.5153],[1.7079,44.514],[1.7084,44.513],[1.7083,44.5117],[1.7069,44.5106],[1.7062,44.5094],[1.7074,44.5082],[1.708,44.5063],[1.7073,44.505],[1.7052,44.5052],[1.7013,44.5044],[1.699,44.5043],[1.697,44.5025],[1.6934,44.5021],[1.6905,44.5006],[1.6887,44.4993],[1.6854,44.4992],[1.6824,44.4979],[1.6803,44.4963],[1.6761,44.4951],[1.6739,44.4954],[1.6727,44.4965],[1.6696,44.4963],[1.6679,44.4982]]]},"properties":{"id_ffco":"2003-D46-12","nom":"Monclar","_dept":"46","numero":"2003-D46-12","commune":"Orniac","echelle":"1/10000","surface":"6.78 km²","format":"A3","annee":"2003","cartographes":"Aecanis","proprietaire":"46 - Lot","niveau":"Interrégional","specialite":"CO à pied","latitude":"44.5083275421","longitude":"1.68359766542","date_saisie":"19/06/2003","date_depot":"23/06/2003","valide":"Oui","ppo":"Non","type_carte":"Nouvelle carte","fond":"Ortho","obsolete":false}},{"type":"Feature","geometry":{"type":"Polygon","coordinates":[[[1.4808,44.4631],[1.4798,44.4634],[1.4742,44.4633],[1.4712,44.4633],[1.463,44.4654],[1.4611,44.4658],[1.4601,44.4652],[1.4574,44.4627],[1.4533,44.4591],[1.4512,44.4572],[1.4502,44.4565],[1.449,44.4561],[1.4485,44.4549],[1.4486,44.4529],[1.4483,44.4494],[1.4488,44.4489],[1.45,44.4466],[1.4502,44.4448],[1.4498,44.4436],[1.4485,44.4425],[1.4453,44.4409],[1.4446,44.4406],[1.4434,44.4408],[1.4421,44.4398],[1.4441,44.4393],[1.4461,44.4386],[1.4484,44.4385],[1.4499,44.4378],[1.4511,44.4377],[1.4523,44.4384],[1.4539,44.4386],[1.4558,44.4393],[1.4571,44.4392],[1.4587,44.4389],[1.4599,44.4378],[1.4615,44.437],[1.4632,44.4369],[1.4662,44.4372],[1.4677,44.4372],[1.4701,44.4365],[1.47,44.4373],[1.4694,44.4387],[1.4697,44.4411],[1.472,44.4435],[1.474,44.4447],[1.4735,44.4457],[1.4733,44.4465],[1.4766,44.4469],[1.4795,44.447],[1.4813,44.4473],[1.4814,44.4479],[1.4805,44.4508],[1.4811,44.4521],[1.482,44.4537],[1.4811,44.4559],[1.4807,44.4577],[1.4808,44.4631]]]},"properties":{"id_ffco":"2026-D46-112","nom":"Mont St Cyr VTT","_dept":"46","numero":"2026-D46-112","commune":"Cahors","echelle":"1/15000","surface":"6.4 km²","format":"A4","annee":"2026","cartographes":"Sébastien Cazelle","proprietaire":"46 - Lot","niveau":"Régional","specialite":"CO à VTT","latitude":"44.4512119455","longitude":"1.46397508288","date_saisie":"06/03/2026","valide":"Non","ppo":"Non","type_carte":"Reprise","base":"2024-D46-101 Pech Castanié","fond":"Laser","obsolete":false}},{"type":"Feature","geometry":{"type":"Polygon","coordinates":[[[1.4423,44.44],[1.4441,44.4411],[1.4456,44.4424],[1.4473,44.444],[1.4482,44.4455],[1.4481,44.4479],[1.4481,44.4497],[1.4483,44.4537],[1.4482,44.4555],[1.4489,44.4562],[1.4505,44.4568],[1.452,44.4585],[1.4547,44.4611],[1.4578,44.4634],[1.4592,44.4651],[1.4606,44.466],[1.4633,44.4657],[1.468,44.4643],[1.471,44.4636],[1.4725,44.4633],[1.4732,44.4617],[1.4741,44.4607],[1.4745,44.4595],[1.4742,44.4595],[1.4749,44.4574],[1.4751,44.4562],[1.4761,44.4535],[1.4765,44.4523],[1.4773,44.4516],[1.4789,44.4508],[1.4797,44.4497],[1.4808,44.448],[1.4812,44.4474],[1.4802,44.445],[1.4809,44.4436],[1.4806,44.4426],[1.4804,44.4417],[1.4796,44.4419],[1.4777,44.4417],[1.4768,44.4415],[1.4755,44.4403],[1.4744,44.4398],[1.4736,44.4397],[1.4728,44.439],[1.4723,44.4384],[1.4711,44.4383],[1.4688,44.4378],[1.4679,44.4378],[1.461,44.4384],[1.4589,44.4381],[1.4583,44.4388],[1.4564,44.4391],[1.4548,44.4387],[1.453,44.4383],[1.4519,44.4383],[1.4509,44.4376],[1.4496,44.4378],[1.4475,44.4382],[1.4455,44.4383],[1.444,44.4389],[1.4433,44.4392],[1.4423,44.44]]]},"properties":{"id_ffco":"2001-D46-11","nom":"CAMPDES MONGES","_dept":"46","numero":"2001-D46-11","commune":"CAHORS","echelle":"1/10000","surface":"6.41 km²","format":"A3","annee":"2001","cartographes":"ESCUDIE Christian","proprietaire":"4602 - CAHORS LOT ORIENTATION","niveau":"Interrégional","specialite":"CO à pied","latitude":"44.449999942","longitude":"1.46283151707","date_saisie":"09/03/2002","date_depot":"16/04/2002","valide":"Oui","ppo":"Non","type_carte":"Nouvelle carte","fond":"Ortho","obsolete":false}},{"type":"Feature","geometry":{"type":"Polygon","coordinates":[[[1.4392,44.4536],[1.4398,44.4524],[1.44,44.4515],[1.44,44.4506],[1.4399,44.4494],[1.44,44.4484],[1.4402,44.4475],[1.4405,44.4469],[1.4412,44.446],[1.4415,44.4452],[1.4416,44.4445],[1.4419,44.4436],[1.4422,44.4429],[1.4429,44.4429],[1.4437,44.4429],[1.444,44.4429],[1.445,44.4436],[1.4453,44.4442],[1.4454,44.4452],[1.4453,44.446],[1.445,44.4465],[1.4443,44.4476],[1.4436,44.4483],[1.4433,44.4488],[1.4429,44.4498],[1.4427,44.4504],[1.4426,44.4508],[1.4421,44.4514],[1.4414,44.4521],[1.4408,44.4528],[1.4401,44.4539],[1.4392,44.4536]]]},"properties":{"id_ffco":"2024-D46-105","nom":"Cahors Sprint","_dept":"46","numero":"2024-D46-105","commune":"Cahors","echelle":"1/4000","surface":"0.29 km²","format":"A4","annee":"2024","cartographes":"Sébastien Cazelle","proprietaire":"46 - Lot","niveau":"Régional","specialite":"CO à pied","latitude":"44.4475721375","longitude":"1.44230512344","date_saisie":"03/01/2025","valide":"Non","ppo":"Non","type_carte":"Nouvelle carte","fond":"Ortho","obsolete":false}},{"type":"Feature","geometry":{"type":"Polygon","coordinates":[[[1.4641,44.4473],[1.4697,44.4474],[1.4736,44.4475],[1.4754,44.4485],[1.4758,44.4497],[1.4758,44.4521],[1.4755,44.4552],[1.4754,44.4633],[1.4729,44.4633],[1.47,44.4636],[1.4639,44.4652],[1.4612,44.4648],[1.4599,44.4634],[1.4601,44.4585],[1.4599,44.4546],[1.46,44.4504],[1.4602,44.4487],[1.4641,44.4473]]]},"properties":{"id_ffco":"2024-D46-101","nom":"Pech Castanié","_dept":"46","numero":"2024-D46-101","commune":"Cahors","echelle":"1/10000","surface":"2.27 km²","format":"A3","annee":"2024","cartographes":"Sébastien Cazelle","proprietaire":"46 - Lot","niveau":"Régional","specialite":"CO à pied","latitude":"44.4558786958","longitude":"1.46764905768","date_saisie":"12/12/2024","valide":"Non","ppo":"Non","type_carte":"Reprise","base":"2001-D46-11 CAMPDES MONGES","fond":"Ortho","obsolete":false}},{"type":"Feature","geometry":{"type":"Polygon","coordinates":[[[1.4521,44.4583],[1.4581,44.4633],[1.4597,44.465],[1.4609,44.4658],[1.465,44.4649],[1.468,44.4643],[1.472,44.4633],[1.4729,44.4625],[1.4747,44.4598],[1.4742,44.4597],[1.4749,44.4562],[1.4758,44.4546],[1.4762,44.4534],[1.4765,44.4523],[1.4777,44.4515],[1.4791,44.4504],[1.4803,44.4488],[1.4812,44.4477],[1.4813,44.4466],[1.4805,44.4452],[1.4804,44.4444],[1.4809,44.4436],[1.4805,44.4429],[1.4801,44.4423],[1.4521,44.4418],[1.4521,44.4583]]]},"properties":{"id_ffco":"2001-D46-10","nom":"SIMELE","_dept":"46","numero":"2001-D46-10","commune":"CAHORS","echelle":"1/10000","surface":"4.76 km²","format":"A4","annee":"2001","cartographes":"ESCUDIE Christian","proprietaire":"4602 - CAHORS LOT ORIENTATION","niveau":"Interrégional","specialite":"CO à pied","latitude":"44.4521271206","longitude":"1.46504891834","date_saisie":"09/03/2002","date_depot":"16/04/2002","valide":"Oui","ppo":"Non","type_carte":"Nouvelle carte","fond":"Ortho","obsolete":false}},{"type":"Feature","geometry":{"type":"Polygon","coordinates":[[[2.0058,44.6152],[2.0067,44.615],[2.0065,44.6148],[2.0068,44.6146],[2.0067,44.6142],[2.0062,44.6141],[2.0059,44.6139],[2.0053,44.6139],[2.0052,44.6143],[2.0053,44.6146],[2.0057,44.6148],[2.0057,44.6152],[2.0058,44.6152]]]},"properties":{"id_ffco":"2023-D46-095","nom":"Centre équestre de Nayrac","_dept":"46","numero":"2023-D46-095","commune":"Figeac","echelle":"1/1000","surface":"0.01 km²","format":"A4","annee":"2023","cartographes":"Loïc MARTY","niveau":"Initiation, Scolaire","specialite":"CO à pied","contacts":"CDCO46, Chez Frédéric RAMBLIERE, La Graville Basse, La Graville Basse, 46100, FAYCELLE, 05 65 34 18 80 , 06 73 46 19 61 , fred.rambliere@wanadoo.fr, http://www.fino46.org/","latitude":"44.6144977208","longitude":"2.00597850143","date_saisie":"12/08/2023","date_depot":"02/05/2024","valide":"Oui","ppo":"Non","type_carte":"Nouvelle carte","fond":"Cadastre","obsolete":false}},{"type":"Feature","geometry":{"type":"Polygon","coordinates":[[[2.03,44.6117],[2.0313,44.6127],[2.0328,44.6122],[2.0342,44.6122],[2.0359,44.6115],[2.0373,44.6099],[2.0379,44.6088],[2.038,44.6081],[2.0378,44.6076],[2.0358,44.6071],[2.0341,44.607],[2.0311,44.6073],[2.031,44.6068],[2.0299,44.6065],[2.0291,44.6067],[2.0271,44.607],[2.0261,44.6068],[2.0261,44.6071],[2.0274,44.6074],[2.0288,44.6072],[2.0308,44.6069],[2.0309,44.6073],[2.0314,44.6083],[2.0301,44.6087],[2.0305,44.6099],[2.0293,44.6105],[2.03,44.6117]]]},"properties":{"id_ffco":"2023-D46-094","nom":"Figeac Ville","_dept":"46","numero":"2023-D46-094","commune":"FIGEAC","echelle":"1/4000","surface":"0.32 km²","format":"A4","annee":"2023","cartographes":"Cotirta","proprietaire":"4601 - FIGEAC NATURE ORIENTATION","niveau":"National, International","specialite":"Sprint (ISSOM)","contacts":"CDCO46, Chez Frédéric RAMBLIERE, La Graville Basse, La Graville Basse, 46100, FAYCELLE, 05 65 34 18 80 , 06 73 46 19 61 , fred.rambliere@wanadoo.fr, http://www.fino46.org/","latitude":"44.6095017824","longitude":"2.03338984772","date_saisie":"07/09/2015","date_depot":"24/10/2016","valide":"Oui","ppo":"Non","type_carte":"Reprise","base":"2023-D46-094 Figeac Ville","fond":"Cadastre","obsolete":false}},{"type":"Feature","geometry":{"type":"Polygon","coordinates":[[[1.448,44.4484],[1.4484,44.4471],[1.4482,44.4463],[1.4482,44.445],[1.4476,44.4441],[1.4462,44.443],[1.445,44.4419],[1.4442,44.4412],[1.4432,44.4408],[1.4424,44.4403],[1.4415,44.4401],[1.442,44.4397],[1.4433,44.4393],[1.4443,44.439],[1.4458,44.4385],[1.4474,44.4383],[1.4486,44.4383],[1.4499,44.4377],[1.451,44.4375],[1.4514,44.4378],[1.4521,44.4382],[1.4534,44.4383],[1.4548,44.4386],[1.456,44.4391],[1.4568,44.4391],[1.4581,44.4388],[1.4588,44.4387],[1.4594,44.4381],[1.4599,44.4375],[1.4607,44.4377],[1.4625,44.4373],[1.4641,44.4373],[1.465,44.4372],[1.4665,44.4373],[1.4675,44.4372],[1.4683,44.437],[1.4693,44.4374],[1.4691,44.4383],[1.4691,44.439],[1.469,44.44],[1.4692,44.441],[1.4718,44.444],[1.4724,44.4448],[1.4723,44.446],[1.4729,44.4469],[1.4734,44.4476],[1.4735,44.448],[1.473,44.4489],[1.4723,44.4499],[1.4715,44.451],[1.4705,44.452],[1.4699,44.4531],[1.4697,44.4539],[1.4697,44.4551],[1.4697,44.4559],[1.4507,44.4568],[1.4493,44.4563],[1.4486,44.4558],[1.4483,44.4552],[1.4485,44.4533],[1.4482,44.4503],[1.4483,44.4486],[1.448,44.4484]]]},"properties":{"id_ffco":"2001-D46-09","nom":"MONT ST CYR","_dept":"46","numero":"2001-D46-09","commune":"CAHORS","echelle":"1/10000","surface":"3.88 km²","format":"A4","annee":"2001","cartographes":"ESCUDIE Christian","proprietaire":"4602 - CAHORS LOT ORIENTATION","niveau":"Interrégional","specialite":"CO à pied","latitude":"44.4468432428","longitude":"1.45903634177","date_saisie":"09/03/2002","date_depot":"16/04/2002","valide":"Oui","ppo":"Non","type_carte":"Nouvelle carte","fond":"Ortho","obsolete":false}},{"type":"Feature","geometry":{"type":"Polygon","coordinates":[[[1.8305,44.576],[1.8331,44.5764],[1.8352,44.5734],[1.8416,44.5721],[1.8473,44.5719],[1.8501,44.5711],[1.867,44.5675],[1.8655,44.5655],[1.868,44.5606],[1.8647,44.56],[1.8611,44.5587],[1.8561,44.5573],[1.849,44.5579],[1.8449,44.5565],[1.8332,44.556],[1.8299,44.556],[1.8268,44.5589],[1.8257,44.5611],[1.8255,44.563],[1.8242,44.5646],[1.8273,44.5649],[1.8288,44.565],[1.8311,44.5667],[1.8311,44.568],[1.8309,44.5703],[1.8314,44.5736],[1.833,44.5741],[1.8317,44.5755],[1.8331,44.5763],[1.8305,44.576]]]},"properties":{"id_ffco":"2022-D46-089","nom":"Barthas Redon","_dept":"46","numero":"2022-D46-089","commune":"Brengues","echelle":"1/15000","surface":"4.71 km²","format":"A3","annee":"2022","cartographes":"Bruno MARCHEGAY","proprietaire":"46 - Lot","niveau":"National, International","specialite":"CO à pied","contacts":"CDCO46, Chez Frédéric RAMBLIERE, La Graville Basse, La Graville Basse, 46100, FAYCELLE, 05 65 34 18 80 , 06 73 46 19 61 , fred.rambliere@wanadoo.fr, http://www.fino46.org/","latitude":"44.5641307313","longitude":"1.84510558702","date_saisie":"12/08/2023","date_depot":"02/05/2024","valide":"Oui","ppo":"Non","type_carte":"Nouvelle carte","fond":"Ortho","obsolete":false}},{"type":"Feature","geometry":{"type":"Polygon","coordinates":[[[1.9081,44.6301],[1.9076,44.6294],[1.9076,44.6277],[1.9077,44.6273],[1.9075,44.6263],[1.9055,44.6261],[1.9038,44.6264],[1.898,44.6267],[1.8976,44.6281],[1.8957,44.6313],[1.8909,44.6332],[1.8881,44.6334],[1.8893,44.6362],[1.9005,44.6374],[1.9027,44.6331],[1.9042,44.6318],[1.9081,44.6301]]]},"properties":{"id_ffco":"2023-D46-088","nom":"Les Imbarcous","_dept":"46","numero":"2023-D46-088","commune":"Cambes","echelle":"1/7500","surface":"1.03 km²","format":"A4","annee":"2023","cartographes":"Sébastien Cazelle","proprietaire":"4601 - FIGEAC NATURE ORIENTATION","niveau":"Régional","specialite":"CO à pied","contacts":"CDCO46, Chez Frédéric RAMBLIERE, La Graville Basse, La Graville Basse, 46100, FAYCELLE, 05 65 34 18 80 , 06 73 46 19 61 , fred.rambliere@wanadoo.fr, http://www.fino46.org/","latitude":"44.6318735104","longitude":"1.89901098992","date_saisie":"13/01/2023","date_depot":"28/02/2023","valide":"Oui","ppo":"Non","type_carte":"Nouvelle carte","fond":"Ortho","obsolete":false}},{"type":"Feature","geometry":{"type":"Polygon","coordinates":[[[1.456,44.9043],[1.4531,44.9069],[1.4518,44.9078],[1.4502,44.9084],[1.4499,44.9098],[1.4485,44.9101],[1.4466,44.913],[1.4429,44.9141],[1.4428,44.915],[1.4417,44.916],[1.4415,44.9186],[1.4483,44.9184],[1.4596,44.9184],[1.4641,44.9135],[1.4711,44.9056],[1.4719,44.9041],[1.4694,44.9017],[1.4658,44.9029],[1.4619,44.903],[1.4585,44.9039],[1.456,44.9043]]]},"properties":{"id_ffco":"2021-D46-085","nom":"Les Grèzes","_dept":"46","numero":"2021-D46-085","commune":"Souillac","echelle":"1/10000","surface":"2.43 km²","format":"A4","annee":"2021","cartographes":"Sébastien Cazelle","proprietaire":"46 - Lot","niveau":"Départemental","specialite":"CO à pied","latitude":"44.911016358","longitude":"1.45721438641","date_saisie":"27/09/2022","date_depot":"12/01/2023","valide":"Oui","ppo":"Non","type_carte":"Nouvelle carte","fond":"Ortho","obsolete":false}},{"type":"Feature","geometry":{"type":"Polygon","coordinates":[[[2.0624,44.5436],[2.0652,44.5444],[2.0652,44.5453],[2.0635,44.5482],[2.0632,44.5511],[2.0632,44.5529],[2.0626,44.5551],[2.0562,44.5532],[2.0531,44.5521],[2.0545,44.5513],[2.0553,44.5494],[2.0528,44.5497],[2.0545,44.5468],[2.0562,44.5453],[2.0559,44.5448],[2.055,44.544],[2.0544,44.5425],[2.052,44.5437],[2.0507,44.5438],[2.0481,44.5434],[2.0514,44.54],[2.0517,44.5393],[2.0577,44.5392],[2.0585,44.54],[2.0595,44.5403],[2.0612,44.5424],[2.0624,44.5436]]]},"properties":{"id_ffco":"2020-D46-082","nom":"Le Bancarel","_dept":"46","numero":"2020-D46-082","commune":"Capdenac","echelle":"1/10000","surface":"1.22 km²","format":"A4","annee":"2020","cartographes":"Sébastien Cazelle","proprietaire":"46 - Lot","niveau":"Départemental","specialite":"CO à pied","latitude":"44.546495726","longitude":"2.0580277395","date_saisie":"26/09/2022","date_depot":"12/01/2023","valide":"Oui","ppo":"Non","type_carte":"Nouvelle carte","fond":"Ortho","obsolete":false}},{"type":"Feature","geometry":{"type":"Polygon","coordinates":[[[1.9181,44.5576],[1.9166,44.5567],[1.9143,44.5551],[1.9127,44.5539],[1.9113,44.5531],[1.915,44.55],[1.9135,44.5482],[1.9167,44.5473],[1.9155,44.5428],[1.9118,44.5413],[1.9088,44.541],[1.9063,44.5407],[1.905,44.5423],[1.9045,44.544],[1.9028,44.5445],[1.8984,44.5435],[1.8967,44.545],[1.8936,44.5468],[1.8924,44.548],[1.8941,44.5532],[1.898,44.5567],[1.8996,44.5574],[1.9057,44.5597],[1.9067,44.5616],[1.9098,44.5603],[1.9117,44.5585],[1.9151,44.5588],[1.9169,44.5591],[1.9181,44.5576]]]},"properties":{"id_ffco":"2023-D46-081","nom":"La Borderie","_dept":"46","numero":"2023-D46-081","commune":"Gréalou","echelle":"1/10000","surface":"2.88 km²","format":"A4","annee":"2023","cartographes":"Sébastien Cazelle","proprietaire":"46 - Lot","niveau":"National, International","specialite":"CO à pied","contacts":"CDCO46, Chez Frédéric RAMBLIERE, La Graville Basse, La Graville Basse, 46100, FAYCELLE, 05 65 34 18 80 , 06 73 46 19 61 , fred.rambliere@wanadoo.fr, http://www.fino46.org/","latitude":"44.5506448951","longitude":"1.90554776422","date_saisie":"26/09/2022","date_depot":"12/01/2023","valide":"Oui","ppo":"Non","type_carte":"Nouvelle carte","fond":"Ortho","obsolete":false}},{"type":"Feature","geometry":{"type":"Polygon","coordinates":[[[1.4577,44.4689],[1.457,44.4691],[1.4549,44.4687],[1.4543,44.4683],[1.4547,44.4677],[1.4554,44.4673],[1.4559,44.4668],[1.4564,44.4665],[1.4542,44.4645],[1.4541,44.4642],[1.4543,44.4639],[1.4549,44.4635],[1.4551,44.4636],[1.4553,44.4638],[1.4558,44.464],[1.4562,44.4638],[1.4564,44.4641],[1.4568,44.464],[1.4572,44.4643],[1.457,44.4645],[1.4573,44.4649],[1.4574,44.4653],[1.4574,44.4655],[1.4584,44.4665],[1.4579,44.4668],[1.4585,44.4676],[1.4577,44.4689]]]},"properties":{"id_ffco":"2001-D46-08","nom":"STADE ILBERT","_dept":"46","numero":"2001-D46-08","commune":"CAHORS","echelle":"1/2500","surface":"0.12 km²","format":"A4","annee":"2001","cartographes":"ESCUDIE Christian","proprietaire":"4602 - CAHORS LOT ORIENTATION","niveau":"Initiation, Scolaire","specialite":"CO à pied","latitude":"44.4665592607","longitude":"1.45636888471","date_saisie":"09/03/2002","date_depot":"16/04/2002","valide":"Oui","ppo":"Non","type_carte":"Nouvelle carte","fond":"Ortho","obsolete":false}},{"type":"Feature","geometry":{"type":"Polygon","coordinates":[[[1.442,44.4599],[1.4402,44.4597],[1.4406,44.4577],[1.4405,44.4567],[1.4407,44.4558],[1.4414,44.4541],[1.4421,44.4531],[1.4426,44.4526],[1.443,44.4525],[1.4435,44.4526],[1.4433,44.4538],[1.4434,44.4546],[1.4434,44.4559],[1.4432,44.4568],[1.4429,44.4575],[1.4426,44.4586],[1.4422,44.4595],[1.442,44.4599]]]},"properties":{"id_ffco":"2001-D46-07","nom":"STADE DESPRATS","_dept":"46","numero":"2001-D46-07","commune":"CAHORS","echelle":"1/2500","surface":"0.14 km²","format":"A4","annee":"2001","cartographes":"ESCUDIE Christian","proprietaire":"4602 - CAHORS LOT ORIENTATION","niveau":"Initiation, Scolaire","specialite":"CO à pied","latitude":"44.4563663749","longitude":"1.44195734177","date_saisie":"09/03/2002","date_depot":"16/04/2002","valide":"Oui","ppo":"Non","type_carte":"Nouvelle carte","fond":"Ortho","obsolete":false}},{"type":"Feature","geometry":{"type":"Polygon","coordinates":[[[1.4373,44.448],[1.4369,44.4486],[1.438,44.4487],[1.4379,44.4487],[1.4381,44.4487],[1.4383,44.4487],[1.4386,44.4488],[1.4387,44.4485],[1.4382,44.4485],[1.4382,44.4483],[1.4383,44.4483],[1.4384,44.4481],[1.4373,44.448]]]},"properties":{"id_ffco":"2001-D46-06","nom":"PARC TASSART","_dept":"46","numero":"2001-D46-06","commune":"CAHORS","echelle":"1/600","surface":"0.01 km²","format":"A4","annee":"2001","cartographes":"ESCUDIE Christian","proprietaire":"4602 - CAHORS LOT ORIENTATION","niveau":"Initiation, Scolaire","specialite":"CO à pied","latitude":"44.4484096251","longitude":"1.43775157716","date_saisie":"09/03/2002","date_depot":"16/04/2002","valide":"Oui","ppo":"Non","type_carte":"Nouvelle carte","fond":"Ortho","obsolete":false}},{"type":"Feature","geometry":{"type":"Polygon","coordinates":[[[1.993,44.6789],[1.9928,44.6793],[1.9935,44.6796],[1.9947,44.6796],[1.995,44.6807],[1.9955,44.6816],[1.9948,44.6826],[1.9944,44.6833],[1.9951,44.684],[1.9952,44.6852],[1.9963,44.6859],[1.9947,44.6877],[1.9933,44.6883],[1.9938,44.6893],[1.994,44.6904],[1.9935,44.691],[1.9935,44.6918],[1.9936,44.6931],[1.9975,44.693],[1.9977,44.6929],[1.9989,44.6941],[2.0014,44.6938],[2.0018,44.6947],[2.0026,44.6958],[2.0072,44.696],[2.0091,44.6962],[2.0111,44.6961],[2.0126,44.696],[2.0132,44.6952],[2.0137,44.6936],[2.0135,44.6926],[2.0138,44.6922],[2.0138,44.6914],[2.0147,44.6909],[2.0162,44.6909],[2.0167,44.69],[2.0169,44.6889],[2.0182,44.6878],[2.0191,44.6864],[2.0203,44.6854],[2.0211,44.6845],[2.0211,44.6841],[2.0218,44.6838],[2.0223,44.6829],[2.0227,44.682],[2.0237,44.6812],[2.0245,44.6812],[2.0258,44.6813],[2.0262,44.6804],[2.0256,44.6794],[2.0269,44.677],[2.0272,44.6748],[2.0273,44.6737],[2.0265,44.6725],[2.0278,44.6708],[2.0279,44.6698],[2.0303,44.6687],[2.0291,44.6683],[2.0276,44.6683],[2.025,44.6685],[2.0235,44.6692],[2.0224,44.6693],[2.0214,44.6684],[2.0196,44.6684],[2.0185,44.6681],[2.0177,44.6679],[2.0172,44.6677],[2.0158,44.6681],[2.0153,44.6677],[2.0154,44.6666],[2.0153,44.6655],[2.0146,44.6645],[2.0131,44.6642],[2.0097,44.6646],[2.008,44.6648],[2.0082,44.6653],[2.0081,44.6661],[2.0069,44.6675],[2.0051,44.6686],[2.0043,44.6691],[2.0049,44.6695],[2.0054,44.6702],[2.0062,44.6704],[2.0066,44.6707],[2.0058,44.6713],[2.0045,44.6714],[2.0032,44.6728],[1.9999,44.6755],[1.9993,44.6761],[1.9985,44.6767],[1.9978,44.6767],[1.9972,44.6767],[1.9969,44.6764],[1.9964,44.6763],[1.9959,44.6763],[1.9941,44.6772],[1.9938,44.6776],[1.9941,44.678],[1.9939,44.6784],[1.993,44.6789]]]},"properties":{"id_ffco":"2001-D46-05","nom":"CARDAILLAC","_dept":"46","numero":"2001-D46-05","commune":"Cardaillac","echelle":"1/15000","surface":"6.17 km²","format":"A4","annee":"2001","cartographes":"G. Venon","proprietaire":"4601 - FIGEAC NATURE ORIENTATION","niveau":"Interrégional","specialite":"CO à pied","latitude":"44.6805810546","longitude":"2.01009698852","date_saisie":"05/02/2002","date_depot":"10/06/2016","valide":"Oui","ppo":"Non","type_carte":"Nouvelle carte","fond":"Ortho","obsolete":false}},{"type":"Feature","geometry":{"type":"Polygon","coordinates":[[[1.9236,44.5723],[1.9246,44.5727],[1.9252,44.5732],[1.9266,44.5728],[1.9271,44.5729],[1.9281,44.5747],[1.9282,44.5767],[1.9276,44.5764],[1.927,44.5764],[1.9269,44.5765],[1.9268,44.5767],[1.9263,44.5766],[1.926,44.5762],[1.925,44.5762],[1.9241,44.5762],[1.923,44.576],[1.9226,44.5759],[1.9231,44.5753],[1.9236,44.5748],[1.9239,44.5742],[1.9236,44.5725],[1.9236,44.5723]]]},"properties":{"id_ffco":"2000-D46-04","nom":"COMBE LONGUE","_dept":"46","numero":"2000-D46-04","commune":"BEDUER","echelle":"1/5000","surface":"0.13 km²","format":"A4","annee":"2000","cartographes":"VENON GERARD","proprietaire":"4601 - FIGEAC NATURE ORIENTATION","niveau":"O+","specialite":"CO à pied","latitude":"44.5747322","longitude":"1.92569723481","date_saisie":"28/01/2016","date_depot":"10/06/2016","valide":"Oui","ppo":"Non","type_carte":"Nouvelle carte","fond":"Ortho","obsolete":false}},{"type":"Feature","geometry":{"type":"Polygon","coordinates":[[[1.9172,44.596],[1.9176,44.5954],[1.9171,44.5944],[1.9172,44.5929],[1.9173,44.592],[1.917,44.591],[1.9166,44.5898],[1.9168,44.5884],[1.9175,44.5871],[1.9181,44.5861],[1.9184,44.5849],[1.9187,44.5833],[1.9195,44.5811],[1.9195,44.5791],[1.9209,44.5774],[1.9227,44.5762],[1.9241,44.5738],[1.9239,44.5726],[1.9235,44.571],[1.9248,44.5708],[1.927,44.5705],[1.9291,44.5713],[1.93,44.5721],[1.9328,44.5737],[1.9377,44.5771],[1.9396,44.5801],[1.9434,44.5814],[1.9464,44.5813],[1.9465,44.582],[1.9439,44.585],[1.9425,44.5857],[1.9417,44.5875],[1.94,44.5887],[1.9392,44.5896],[1.9377,44.5905],[1.9375,44.5911],[1.9365,44.5914],[1.9364,44.592],[1.9368,44.5931],[1.9348,44.5941],[1.9341,44.594],[1.9326,44.5946],[1.9318,44.5945],[1.9297,44.5952],[1.9289,44.5952],[1.9284,44.5947],[1.9233,44.5954],[1.9229,44.5964],[1.9198,44.5958],[1.9173,44.5964],[1.9172,44.596]]]},"properties":{"id_ffco":"2000-D46-03","nom":"LES GARIOTTES","_dept":"46","numero":"2000-D46-03","commune":"BEDUER","echelle":"1/10000","surface":"4.08 km²","format":"A4","annee":"2000","cartographes":"CORTITA","proprietaire":"46 - Lot","niveau":"Régional","specialite":"CO à pied","contacts":"CDCO46, Chez Frédéric RAMBLIERE, La Graville Basse, La Graville Basse, 46100, FAYCELLE, 05 65 34 18 80 , 06 73 46 19 61 , fred.rambliere@wanadoo.fr, http://www.fino46.org/","latitude":"44.5844936397","longitude":"1.92921617334","date_saisie":"25/07/2015","date_depot":"10/06/2016","valide":"Oui","ppo":"Non","type_carte":"Nouvelle carte","fond":"Ortho","obsolete":false}},{"type":"Feature","geometry":{"type":"Polygon","coordinates":[[[1.4158,44.3701],[1.4123,44.3708],[1.4138,44.3733],[1.4141,44.3746],[1.4143,44.3757],[1.4157,44.3767],[1.4172,44.3773],[1.4184,44.3781],[1.4195,44.3795],[1.4199,44.3795],[1.421,44.3791],[1.4219,44.3789],[1.4227,44.3795],[1.4238,44.3794],[1.4253,44.3792],[1.4272,44.3794],[1.4292,44.3796],[1.4308,44.3804],[1.4316,44.3803],[1.4325,44.3796],[1.433,44.3794],[1.4344,44.3798],[1.4354,44.3798],[1.4361,44.3795],[1.4371,44.3796],[1.4384,44.3796],[1.4394,44.3791],[1.4404,44.3786],[1.4411,44.3785],[1.4421,44.3785],[1.444,44.3788],[1.4446,44.3788],[1.4439,44.3749],[1.4435,44.3732],[1.4426,44.3716],[1.4412,44.3698],[1.4408,44.368],[1.4409,44.3668],[1.4419,44.3652],[1.4427,44.3625],[1.442,44.3607],[1.4413,44.359],[1.4408,44.3574],[1.4418,44.3561],[1.4417,44.3552],[1.4374,44.3549],[1.4332,44.355],[1.4326,44.3552],[1.4308,44.3549],[1.4271,44.355],[1.427,44.3557],[1.4271,44.3566],[1.4258,44.3571],[1.4247,44.3572],[1.4235,44.3583],[1.4211,44.3606],[1.4199,44.3618],[1.4197,44.3637],[1.4186,44.3658],[1.4158,44.3701]]]},"properties":{"id_ffco":"2000-D46-02","nom":"LPA  le Montat Lacoste","_dept":"46","numero":"2000-D46-02","commune":"Le Montat","echelle":"1/15000","surface":"5.13 km²","format":"A4","annee":"2000","cartographes":"ESCUDIE Christian","proprietaire":"46 - Lot","niveau":"Interrégional","specialite":"CO à pied","latitude":"44.3684314489","longitude":"1.43009442833","date_depot":"23/06/2016","valide":"Oui","ppo":"Oui (30 postes)","type_carte":"Nouvelle carte","fond":"Ortho","obsolete":false}},{"type":"Feature","geometry":{"type":"Polygon","coordinates":[[[1.9984,44.5941],[1.9981,44.5943],[1.9962,44.5944],[1.9939,44.5952],[1.9944,44.5969],[1.991,44.5992],[1.9926,44.5997],[1.9944,44.6003],[1.9922,44.6028],[1.9912,44.6028],[1.9904,44.6042],[1.989,44.6048],[1.9884,44.605],[1.9887,44.6068],[1.9893,44.6079],[1.9886,44.6085],[1.9885,44.6094],[1.9896,44.6107],[1.9904,44.6111],[1.9909,44.6102],[1.992,44.6112],[1.9932,44.6114],[1.9941,44.612],[1.9951,44.6136],[1.9958,44.6146],[1.9963,44.6149],[1.9966,44.6157],[1.9981,44.6163],[1.9993,44.6165],[2.0013,44.6162],[2.0029,44.6161],[2.0044,44.6158],[2.0059,44.6154],[2.0083,44.6149],[2.0098,44.6146],[2.0111,44.6141],[2.0114,44.6135],[2.0119,44.6122],[2.012,44.6105],[2.0117,44.6098],[2.0103,44.609],[2.0091,44.608],[2.0084,44.6072],[2.0097,44.6068],[2.0107,44.6064],[2.0104,44.6048],[2.0102,44.6038],[2.012,44.6031],[2.0114,44.6016],[2.0102,44.6003],[2.0006,44.5949],[1.9984,44.5941]]]},"properties":{"id_ffco":"1998-D46-01","nom":"LE CAUSSE DE NAYAC","_dept":"46","numero":"1998-D46-01","commune":"FIGEAC","echelle":"1/10000","surface":"3.21 km²","format":"A4","annee":"1998","cartographes":"VENON GERARD","proprietaire":"4601 - FIGEAC NATURE ORIENTATION","niveau":"Interrégional","specialite":"CO à pied","latitude":"44.6059231889","longitude":"2.00069982821","date_saisie":"28/01/2016","date_depot":"10/06/2016","valide":"Oui","ppo":"Non","type_carte":"Nouvelle carte","fond":"Ortho","obsolete":false}}]}