{"type":"FeatureCollection","features":[{"type":"Feature","geometry":{"type":"Polygon","coordinates":[[[2.0312,44.6071],[2.0304,44.6072],[2.0293,44.6074],[2.0283,44.6075],[2.0272,44.6074],[2.0263,44.6073],[2.026,44.6073],[2.026,44.6069],[2.0261,44.6066],[2.0273,44.6064],[2.0286,44.6062],[2.0292,44.6062],[2.0299,44.6062],[2.0301,44.6061],[2.0305,44.6061],[2.0309,44.6061],[2.031,44.6064],[2.0312,44.6071]]]},"properties":{"id_ffco":"8887","nom":"Les Pratges","_dept":"46","numero":"2016-D46-72","commune":"Figeac","echelle":"1/500","surface":"0.05 km²","format":"A4","annee":"2016","cartographes":"Philippe BAILLY","proprietaire":"4601 - FIGEAC NATURE ORIENTATION","niveau":"Initiation, Scolaire","specialite":"CO à pied","contacts":"CDCO46, Chez Frédéric RAMBLIERE, La Graville Basse, La Graville Basse, 46100, FAYCELLE, 05 65 34 18 80 , 06 73 46 19 61 , fred.rambliere@wanadoo.fr, http://www.fino46.org/","latitude":"44.6068163244","longitude":"2.02869363515","date_saisie":"15/11/2015","date_depot":"21/06/2018","valide":"Oui","ppo":"Non","type_carte":"Nouvelle carte","fond":"Ortho","obsolete":true}},{"type":"Feature","geometry":null,"properties":{"id_ffco":"9538","nom":"Laramière","_dept":"46","numero":"2007-D46-68","commune":"Trespoux-Rassiels","echelle":"1/10000","surface":"None km²","format":"A4","annee":"2007","niveau":"Initiation, Scolaire","specialite":"CO à pied","date_saisie":"19/04/2016","date_depot":"21/06/2018","valide":"Non","ppo":"Non","type_carte":"Nouvelle carte","fond":"Cadastre","obsolete":true}},{"type":"Feature","geometry":null,"properties":{"id_ffco":"276","nom":"Foret de Monclar  A CONTACTER","_dept":"46","numero":"????-D46-00","commune":"Cabreret","surface":"None km²","latitude":"44.505591","longitude":"1.6561314","valide":"Non","ppo":"Oui","obsolete":true}}]}