{"type":"FeatureCollection","features":[{"type":"Feature","geometry":{"type":"Polygon","coordinates":[[[3.4694,44.5141],[3.4738,44.5144],[3.4763,44.5157],[3.48,44.5174],[3.4792,44.5186],[3.476,44.5196],[3.4747,44.5203],[3.4714,44.52],[3.4703,44.5189],[3.471,44.5171],[3.47,44.516],[3.4691,44.5147],[3.4694,44.5141]]]},"properties":{"id_ffco":"2000-D48-905","nom":"Le Chapitre","_dept":"48","numero":"2000-D48-905","commune":"Mende","echelle":"1/4000","surface":"0.36 km²","format":"A4","annee":"2000","cartographes":"Marian Cotirta","proprietaire":"48 - Lozère","niveau":"Initiation, Scolaire","specialite":"CO à pied","latitude":"44.5172643411","longitude":"3.47405282807","date_saisie":"19/02/2002","date_depot":"11/03/2002","valide":"Oui","ppo":"Non","type_carte":"Nouvelle carte","fond":"Ortho","obsolete":false}},{"type":"Feature","geometry":null,"properties":{"id_ffco":"2001-D48-903","nom":"CHANGEFEGE","_dept":"48","numero":"2001-D48-903","commune":"BALSIEGES","echelle":"1/15000","surface":"11.5 km²","annee":"2001","proprietaire":"48 - Lozère","specialite":"CO à pied","latitude":"44.4806411","longitude":"3.4565397","date_saisie":"19/02/2002","date_depot":"11/03/2002","valide":"Non","ppo":"Non","obsolete":false}},{"type":"Feature","geometry":null,"properties":{"id_ffco":"1991-D48-04","nom":"LE CHAPITRE","_dept":"48","numero":"1991-D48-04","commune":"MENDE","echelle":"1/5000","surface":"4.0 km²","annee":"1991","proprietaire":"LR - Languedoc-Roussillon","specialite":"CO à pied","latitude":"44.5180049","longitude":"3.4985238","valide":"Non","ppo":"Non","obsolete":false}},{"type":"Feature","geometry":null,"properties":{"id_ffco":"2000-D48-04","nom":"LA CAUSSE D'AUGE","_dept":"48","numero":"2000-D48-04","commune":"MENDE","echelle":"1/10000","surface":"3.0 km²","annee":"2000","proprietaire":"48 - Lozère","specialite":"CO à pied","latitude":"44.5180049","longitude":"3.4985238","date_saisie":"19/02/2002","date_depot":"11/03/2002","valide":"Non","ppo":"Non","obsolete":false}},{"type":"Feature","geometry":{"type":"Polygon","coordinates":[[[3.3325,44.8543],[3.3344,44.8549],[3.3362,44.8546],[3.3388,44.8536],[3.3413,44.8525],[3.3425,44.8509],[3.343,44.8501],[3.3441,44.8486],[3.3451,44.8483],[3.3425,44.8465],[3.3437,44.8445],[3.3438,44.8432],[3.3448,44.8418],[3.344,44.8409],[3.343,44.8412],[3.3422,44.8398],[3.3407,44.8382],[3.3391,44.8382],[3.3366,44.8384],[3.3353,44.8386],[3.335,44.8394],[3.3336,44.8406],[3.3326,44.8425],[3.3314,44.8442],[3.3311,44.8446],[3.332,44.8466],[3.3311,44.8476],[3.3307,44.8489],[3.3324,44.8484],[3.3323,44.8492],[3.3317,44.8501],[3.3341,44.8487],[3.3356,44.8475],[3.3369,44.8468],[3.3382,44.8489],[3.3388,44.8497],[3.3371,44.851],[3.3348,44.853],[3.3325,44.8536],[3.3325,44.8543]]]},"properties":{"id_ffco":"2026-D48-039","nom":"Le Bois de Ganigal","_dept":"48","numero":"2026-D48-039","commune":"Le Malzieu-Ville","echelle":"1/7500","surface":"1.24 km²","format":"A4","annee":"2026","cartographes":"Ray Hulse","proprietaire":"48 - Lozère","niveau":"Régional","specialite":"CO à pied","latitude":"44.845657534","longitude":"3.3380683163","date_saisie":"06/03/2026","valide":"Non","ppo":"Non","type_carte":"Reprise","base":"2001-D48-018 Le Malzieu Ville Perfectionnement","fond":"Laser","obsolete":false}},{"type":"Feature","geometry":{"type":"Polygon","coordinates":[[[3.5178,44.4397],[3.5192,44.4402],[3.5201,44.4413],[3.5209,44.4417],[3.5231,44.4418],[3.5244,44.4412],[3.5252,44.4404],[3.5257,44.4405],[3.5257,44.4416],[3.5262,44.4423],[3.5271,44.4427],[3.5266,44.4434],[3.5265,44.4441],[3.5269,44.4452],[3.5276,44.4459],[3.5289,44.4466],[3.5298,44.4471],[3.5309,44.4473],[3.5322,44.4465],[3.5341,44.4465],[3.5356,44.4463],[3.5367,44.446],[3.5376,44.4454],[3.5389,44.4449],[3.5396,44.4449],[3.5403,44.4455],[3.5409,44.4459],[3.5423,44.4452],[3.5435,44.445],[3.5451,44.4444],[3.5456,44.4435],[3.5462,44.4428],[3.5474,44.4432],[3.5487,44.4434],[3.5497,44.4437],[3.5498,44.4427],[3.5489,44.442],[3.549,44.4408],[3.55,44.4401],[3.5506,44.439],[3.5501,44.4377],[3.5502,44.4365],[3.5504,44.4358],[3.5488,44.4362],[3.547,44.437],[3.5441,44.4366],[3.5418,44.4359],[3.5402,44.4355],[3.5385,44.4359],[3.5363,44.4361],[3.5333,44.4364],[3.5295,44.4367],[3.5273,44.4363],[3.5243,44.4358],[3.5216,44.4357],[3.519,44.4358],[3.5178,44.4359],[3.5167,44.4367],[3.5162,44.4374],[3.517,44.4382],[3.5172,44.4392],[3.5178,44.4397]]]},"properties":{"id_ffco":"2025-D48-038","nom":"El Mejon 2025","_dept":"48","numero":"2025-D48-038","commune":"St Etienne du Valdonnez","echelle":"1/10000","surface":"2.31 km²","format":"A4","annee":"2025","cartographes":"Matthieu Puech","proprietaire":"OC - Occitanie","niveau":"Régional","specialite":"CO à pied","latitude":"44.4404237723","longitude":"3.5344821759","date_saisie":"23/12/2025","valide":"Non","ppo":"Non","type_carte":"Reprise","base":"2009-D48-027 El Mejon","fond":"Laser","obsolete":false}},{"type":"Feature","geometry":{"type":"Polygon","coordinates":[[[3.7743,44.5933],[3.7735,44.5921],[3.7721,44.5927],[3.7675,44.5926],[3.7673,44.594],[3.7656,44.5947],[3.7642,44.5957],[3.7627,44.5982],[3.7644,44.5988],[3.7678,44.6004],[3.7677,44.6014],[3.767,44.6023],[3.7667,44.6035],[3.7659,44.6051],[3.7653,44.6065],[3.7672,44.6075],[3.7702,44.6082],[3.7709,44.6077],[3.7713,44.6055],[3.7726,44.6039],[3.7736,44.6039],[3.7762,44.6057],[3.7777,44.6066],[3.7775,44.6051],[3.7785,44.6027],[3.7787,44.6002],[3.7785,44.598],[3.7776,44.5959],[3.775,44.594],[3.7743,44.5933]]]},"properties":{"id_ffco":"2022-D48-037","nom":"Mercoire","_dept":"48","numero":"2022-D48-037","commune":"Les Chazeaux","echelle":"1/10000","surface":"1.41 km²","format":"A4","annee":"2022","cartographes":"Ray Hulse","proprietaire":"48 - Lozère","niveau":"Régional","specialite":"CO à pied","latitude":"44.5996468256","longitude":"3.77143676178","date_saisie":"09/07/2022","date_depot":"12/01/2023","valide":"Oui","ppo":"Non","type_carte":"Nouvelle carte","fond":"Laser","obsolete":false}},{"type":"Feature","geometry":{"type":"Polygon","coordinates":[[[3.871,44.3853],[3.8712,44.3842],[3.8709,44.3828],[3.8731,44.381],[3.876,44.3794],[3.8787,44.3804],[3.8828,44.3809],[3.8836,44.3797],[3.887,44.3799],[3.8858,44.381],[3.8865,44.3819],[3.8891,44.3824],[3.8907,44.3768],[3.892,44.3711],[3.8976,44.3718],[3.9038,44.3735],[3.9033,44.3757],[3.9029,44.3763],[3.8978,44.3777],[3.8973,44.3803],[3.8948,44.3823],[3.8949,44.3856],[3.8949,44.3867],[3.8965,44.3884],[3.895,44.3882],[3.8933,44.387],[3.8926,44.3872],[3.8914,44.3884],[3.8929,44.389],[3.8936,44.3901],[3.894,44.3907],[3.8927,44.3922],[3.8889,44.3933],[3.8856,44.3937],[3.8823,44.3938],[3.8795,44.3941],[3.8759,44.3936],[3.8727,44.3947],[3.8701,44.3963],[3.8687,44.3968],[3.865,44.397],[3.8646,44.3964],[3.8648,44.3938],[3.8637,44.3934],[3.8622,44.394],[3.861,44.3942],[3.8613,44.3927],[3.8606,44.3911],[3.8593,44.3905],[3.8575,44.3897],[3.8562,44.3906],[3.8537,44.3938],[3.8542,44.3954],[3.854,44.396],[3.8532,44.3957],[3.8524,44.3944],[3.8514,44.3929],[3.8517,44.3908],[3.8498,44.3899],[3.8496,44.3882],[3.852,44.3845],[3.8538,44.3826],[3.8558,44.3832],[3.8581,44.3834],[3.8613,44.3833],[3.8633,44.3835],[3.8655,44.3839],[3.8698,44.3851],[3.871,44.3853]]]},"properties":{"id_ffco":"2020-D48-036","nom":"Mas de la Barque","_dept":"48","numero":"2020-D48-036","commune":"48220 Vialas","echelle":"1/10000","surface":"5.24 km²","format":"A3","annee":"2020","cartographes":"Mathieu Barthelemy, Franck Dechavanne","proprietaire":"Pole pleine nature Mont Lozère","niveau":"Régional","specialite":"CO à pied","contacts":"CDCO48 // Pôle pleine nature Mont Lozère, 48800, Villefort","latitude":"44.3860812768","longitude":"3.8771893513","date_saisie":"09/07/2022","valide":"Non","ppo":"Oui (46 postes)","type_carte":"Nouvelle carte","fond":"Ortho","obsolete":false}},{"type":"Feature","geometry":{"type":"Polygon","coordinates":[[[3.7476,44.4498],[3.7504,44.4498],[3.7508,44.4521],[3.7521,44.4533],[3.7547,44.4535],[3.7565,44.4551],[3.7576,44.4568],[3.7579,44.4579],[3.7588,44.4594],[3.7589,44.46],[3.7585,44.4604],[3.7593,44.4631],[3.7581,44.4639],[3.755,44.4641],[3.7519,44.4645],[3.7494,44.4647],[3.747,44.4657],[3.7461,44.4674],[3.7443,44.4672],[3.7431,44.4661],[3.7376,44.467],[3.7349,44.4673],[3.7321,44.4671],[3.7317,44.4663],[3.7307,44.4651],[3.7306,44.4641],[3.7306,44.4613],[3.7334,44.4603],[3.7342,44.4583],[3.7348,44.4578],[3.7352,44.457],[3.7364,44.4566],[3.7378,44.4568],[3.7385,44.4567],[3.7414,44.4567],[3.7423,44.4565],[3.7435,44.4567],[3.745,44.4571],[3.7466,44.4556],[3.747,44.4547],[3.7467,44.4532],[3.7454,44.4505],[3.7454,44.4496],[3.7476,44.4498]]]},"properties":{"id_ffco":"2020-D48-035","nom":"Station du Mont Lozère","_dept":"48","numero":"2020-D48-035","commune":"48190 Le Bleymard","echelle":"1/10000","surface":"2.57 km²","format":"A4","annee":"2020","cartographes":"Mathieu Barthelemy, Franck Dechavanne, Franz Mareigner","proprietaire":"Pôle pleine nature Mont Lozère, Syndicat Mixte d'Aménagement du Mont Lozère","niveau":"Régional","specialite":"CO à pied","contacts":"CDCO48 // Pôle pleine nature Mont Lozère, 48800, Villefort","latitude":"44.4602240441","longitude":"3.74538374905","date_saisie":"09/07/2022","date_depot":"12/01/2023","valide":"Oui","ppo":"Oui (26 postes)","type_carte":"Nouvelle carte","fond":"Laser","obsolete":false}},{"type":"Feature","geometry":{"type":"Polygon","coordinates":[[[3.9319,44.4427],[3.931,44.4429],[3.9277,44.4423],[3.9265,44.4422],[3.9242,44.4419],[3.9236,44.4432],[3.9226,44.4437],[3.9194,44.4435],[3.9142,44.4432],[3.9113,44.4428],[3.9108,44.4426],[3.9125,44.4419],[3.9138,44.4414],[3.914,44.4409],[3.9134,44.4401],[3.9132,44.4394],[3.9128,44.4383],[3.9138,44.4373],[3.9141,44.4365],[3.9158,44.4366],[3.917,44.4369],[3.9178,44.4378],[3.9193,44.438],[3.9197,44.4374],[3.9201,44.4369],[3.9215,44.4362],[3.9234,44.4346],[3.9248,44.4352],[3.9264,44.4355],[3.9274,44.4344],[3.9277,44.4337],[3.9275,44.4326],[3.9266,44.4322],[3.9265,44.4315],[3.9266,44.4312],[3.9287,44.4312],[3.9295,44.4311],[3.93,44.4307],[3.9311,44.4308],[3.9319,44.4311],[3.9327,44.4317],[3.9332,44.432],[3.9342,44.4316],[3.9351,44.4305],[3.9369,44.4302],[3.9387,44.4305],[3.9403,44.4309],[3.9415,44.4314],[3.9443,44.4323],[3.9429,44.4331],[3.9411,44.4336],[3.9409,44.4353],[3.9406,44.4356],[3.9398,44.4356],[3.9376,44.436],[3.9359,44.4375],[3.9347,44.4382],[3.9337,44.4394],[3.933,44.4413],[3.9329,44.4421],[3.9319,44.4427]]]},"properties":{"id_ffco":"2020-D48-034","nom":"Villefort","_dept":"48","numero":"2020-D48-034","commune":"48800 Villefort","echelle":"1/10000","surface":"1.92 km²","format":"A4","annee":"2020","cartographes":"Franz Mareigner, Franck Dechavanne","proprietaire":"Pôle pleine nature Mont Lozère, Syndicat Mixte d'Aménagement du Mont Lozère","niveau":"Départemental","specialite":"CO à pied","contacts":"CDCO48 // Pôle pleine nature Mont Lozère, 48800, Villefort","latitude":"44.437364588","longitude":"3.92751866649","date_saisie":"08/07/2022","date_depot":"12/01/2023","valide":"Oui","ppo":"Oui (20 postes)","type_carte":"Nouvelle carte","fond":"Laser","obsolete":false}},{"type":"Feature","geometry":{"type":"Polygon","coordinates":[[[3.736,44.4914],[3.7377,44.4904],[3.7378,44.4898],[3.74,44.4891],[3.7372,44.4875],[3.7378,44.4863],[3.7399,44.4841],[3.7406,44.4833],[3.7392,44.4825],[3.7399,44.4809],[3.7406,44.4793],[3.7411,44.4779],[3.7405,44.4772],[3.7401,44.4753],[3.7391,44.4743],[3.7388,44.4738],[3.7365,44.4736],[3.7354,44.4731],[3.7341,44.4728],[3.7311,44.4721],[3.7302,44.4713],[3.7286,44.4708],[3.7269,44.4709],[3.7262,44.4724],[3.7273,44.4746],[3.7271,44.4759],[3.7252,44.4766],[3.7238,44.4775],[3.7225,44.4791],[3.7216,44.48],[3.7203,44.4809],[3.719,44.4807],[3.7186,44.481],[3.7182,44.4816],[3.7169,44.4816],[3.716,44.4808],[3.7142,44.4802],[3.7124,44.4797],[3.7114,44.481],[3.7119,44.4827],[3.7123,44.4843],[3.7124,44.4857],[3.7136,44.4866],[3.7147,44.4882],[3.716,44.4907],[3.7166,44.4918],[3.7176,44.4917],[3.719,44.4913],[3.7212,44.4911],[3.7229,44.4905],[3.7246,44.4896],[3.7273,44.4884],[3.7296,44.4889],[3.7337,44.4901],[3.736,44.4914]]]},"properties":{"id_ffco":"2020-D48-033","nom":"Le Bleymard","_dept":"48","numero":"2020-D48-033","commune":"48190 Le Bleymard","echelle":"1/10000","surface":"3.29 km²","format":"+","annee":"2020","cartographes":"Mathieu Barthelemy, Franck Dechavanne","proprietaire":"Pôle pleine nature Mont Lozère, Syndicat Mixte d'Aménagement du Mont Lozère","niveau":"Départemental","specialite":"CO à pied","contacts":"CDCO48 // Pôle pleine nature Mont Lozère, 48800, Villefort","latitude":"44.4824133605","longitude":"3.72787750152","date_saisie":"08/07/2022","date_depot":"12/01/2023","valide":"Oui","ppo":"Oui (26 postes)","type_carte":"Nouvelle carte","fond":"Laser","obsolete":false}},{"type":"Feature","geometry":{"type":"Polygon","coordinates":[[[3.8946,44.3314],[3.8964,44.3321],[3.8986,44.333],[3.8991,44.3337],[3.8977,44.3352],[3.8974,44.3363],[3.8971,44.3366],[3.896,44.3363],[3.8949,44.3354],[3.8946,44.3348],[3.8942,44.3337],[3.8932,44.333],[3.8924,44.3322],[3.8925,44.3316],[3.8931,44.331],[3.8946,44.3314]]]},"properties":{"id_ffco":"2020-D48-032","nom":"Vialas","_dept":"48","numero":"2020-D48-032","commune":"Vialas","echelle":"1/4000","surface":"0.17 km²","format":"A4","annee":"2020","cartographes":"Franz Mareigner","proprietaire":"Pôle pleine nature Mont Lozère, Syndicat Mixte d'Aménagement du Mont Lozère","niveau":"Départemental","specialite":"CO à pied","contacts":"Pôle pleine nature Mont Lozère, Syndicat Mixte d'Aménagement du Mont Lozère , 48800, Villefort","latitude":"44.3336421699","longitude":"3.89581826622","date_saisie":"08/07/2022","date_depot":"12/01/2023","valide":"Oui","ppo":"Oui (12 postes)","type_carte":"Nouvelle carte","fond":"Cadastre","obsolete":false}},{"type":"Feature","geometry":{"type":"Polygon","coordinates":[[[3.2171,44.2502],[3.2174,44.2518],[3.2182,44.2535],[3.2181,44.2573],[3.2187,44.2591],[3.2155,44.2601],[3.2135,44.258],[3.21,44.2616],[3.2077,44.2583],[3.2032,44.2596],[3.202,44.2588],[3.202,44.258],[3.199,44.2584],[3.196,44.2577],[3.1943,44.2576],[3.1924,44.2596],[3.1905,44.2598],[3.19,44.2592],[3.1877,44.26],[3.1827,44.2594],[3.182,44.2569],[3.1817,44.2555],[3.1817,44.2545],[3.1809,44.2534],[3.1814,44.2523],[3.1811,44.2501],[3.1822,44.2485],[3.182,44.2464],[3.1826,44.2451],[3.1851,44.2433],[3.1884,44.2405],[3.1923,44.239],[3.1926,44.2397],[3.1938,44.2403],[3.1941,44.2409],[3.1947,44.2406],[3.1965,44.2414],[3.1978,44.2434],[3.1991,44.2445],[3.1999,44.2463],[3.1997,44.2479],[3.2005,44.2494],[3.2023,44.2498],[3.2056,44.2496],[3.2065,44.2487],[3.2073,44.249],[3.2073,44.2497],[3.2102,44.2505],[3.2132,44.2504],[3.2137,44.2508],[3.2171,44.2502]]]},"properties":{"id_ffco":"2019-D48-031","nom":"Cauvel","_dept":"48","numero":"2019-D48-031","commune":"St Rome de Dolan","echelle":"1/10000","surface":"4.24 km²","format":"A3","annee":"2019","cartographes":"Ray Hulse","proprietaire":"48 - Lozère","niveau":"National, International","specialite":"CO à pied","latitude":"44.2518900348","longitude":"3.19711649765","date_saisie":"17/01/2019","valide":"Non","ppo":"Non","type_carte":"Nouvelle carte","fond":"Ortho","obsolete":false}},{"type":"Feature","geometry":{"type":"Polygon","coordinates":[[[3.2611,44.4489],[3.2625,44.4477],[3.2631,44.4464],[3.2639,44.4456],[3.2638,44.4437],[3.2632,44.4432],[3.2619,44.4433],[3.262,44.4424],[3.2624,44.4417],[3.264,44.4411],[3.2639,44.4401],[3.2634,44.4392],[3.2633,44.4379],[3.2631,44.437],[3.2641,44.4362],[3.2648,44.4347],[3.2654,44.4343],[3.2661,44.4331],[3.2671,44.4326],[3.2692,44.4316],[3.269,44.4312],[3.2705,44.4309],[3.2717,44.4301],[3.2722,44.4298],[3.273,44.4297],[3.2747,44.4291],[3.2752,44.4285],[3.276,44.4284],[3.277,44.4284],[3.278,44.4283],[3.2792,44.4289],[3.2798,44.4291],[3.2793,44.43],[3.2789,44.4306],[3.2791,44.4315],[3.2793,44.4317],[3.2808,44.4331],[3.2815,44.4332],[3.2826,44.4344],[3.2831,44.4346],[3.2834,44.4354],[3.2841,44.4358],[3.2842,44.4364],[3.2845,44.4373],[3.2846,44.4384],[3.2856,44.4396],[3.2867,44.4419],[3.286,44.4432],[3.2859,44.4444],[3.2854,44.4453],[3.2857,44.4463],[3.2852,44.4478],[3.2838,44.4483],[3.2817,44.4485],[3.2806,44.449],[3.2789,44.4497],[3.2768,44.4498],[3.2734,44.4498],[3.2713,44.45],[3.269,44.45],[3.2682,44.4506],[3.2681,44.4508],[3.2671,44.4511],[3.2662,44.4516],[3.2652,44.4509],[3.2634,44.4505],[3.2621,44.4496],[3.2611,44.4489]]]},"properties":{"id_ffco":"2016-D48-030","nom":"Ressimplet","_dept":"48","numero":"2016-D48-030","commune":"La Canourgue","echelle":"1/10000","surface":"3.55 km²","format":"A4","annee":"2016","cartographes":"Ray Hulse","proprietaire":"48 - Lozère","niveau":"Régional","specialite":"CO à pied","latitude":"44.4407513107","longitude":"3.27396910965","date_saisie":"15/10/2016","date_depot":"20/06/2018","valide":"Oui","ppo":"Non","type_carte":"Nouvelle carte","fond":"Ortho","obsolete":false}},{"type":"Feature","geometry":{"type":"Polygon","coordinates":[[[3.9186,44.2473],[3.9174,44.2456],[3.9156,44.2445],[3.9154,44.2435],[3.916,44.2428],[3.9177,44.2418],[3.9206,44.2414],[3.9222,44.2416],[3.9224,44.243],[3.9239,44.2441],[3.9253,44.244],[3.9264,44.2442],[3.9274,44.2443],[3.9278,44.2461],[3.9277,44.2472],[3.927,44.2472],[3.9254,44.2455],[3.9228,44.246],[3.9186,44.2473]]]},"properties":{"id_ffco":"2012-D48-029","nom":"Le Collet-de-Dèze","_dept":"48","numero":"2012-D48-029","commune":"Le Collet-de-Dèze","echelle":"1/5000","surface":"0.37 km²","format":"A4","annee":"2012","cartographes":"Ray Hulse","proprietaire":"48 - Lozère","niveau":"Initiation, Scolaire","specialite":"Sprint (ISSOM)","latitude":"44.2443880251","longitude":"3.92095702463","date_saisie":"14/10/2015","date_depot":"20/06/2018","valide":"Oui","ppo":"Non","type_carte":"Nouvelle carte","fond":"Cadastre","obsolete":false}},{"type":"Feature","geometry":{"type":"Polygon","coordinates":[[[3.5956,44.3263],[3.5971,44.3246],[3.5987,44.3223],[3.6003,44.3205],[3.5997,44.3195],[3.599,44.3186],[3.5974,44.3189],[3.596,44.3205],[3.5955,44.3209],[3.593,44.3213],[3.5907,44.3209],[3.5898,44.3215],[3.5896,44.3226],[3.5906,44.3235],[3.5905,44.324],[3.5907,44.3248],[3.5912,44.3261],[3.5905,44.3266],[3.592,44.3274],[3.5926,44.3267],[3.595,44.3271],[3.5956,44.3263]]]},"properties":{"id_ffco":"2012-D48-028","nom":"Florac","_dept":"48","numero":"2012-D48-028","commune":"Florac","echelle":"1/4000","surface":"0.43 km²","format":"A4","annee":"2012","cartographes":"Ray Hulse","proprietaire":"48 - Lozère","niveau":"Régional","specialite":"Sprint (ISSOM)","latitude":"44.3230574193","longitude":"3.59466206957","date_saisie":"14/10/2015","date_depot":"20/06/2018","valide":"Oui","ppo":"Non","type_carte":"Nouvelle carte","fond":"Cadastre","obsolete":false}},{"type":"Feature","geometry":{"type":"Polygon","coordinates":[[[3.543,44.4362],[3.5403,44.4359],[3.5324,44.4366],[3.5294,44.437],[3.5267,44.4366],[3.5244,44.4376],[3.5203,44.4374],[3.5182,44.436],[3.5162,44.4375],[3.5175,44.4397],[3.5194,44.4405],[3.521,44.4418],[3.5233,44.4418],[3.5252,44.4405],[3.5255,44.4413],[3.5263,44.4423],[3.5268,44.4426],[3.5263,44.4436],[3.5271,44.4457],[3.5284,44.4464],[3.5304,44.4473],[3.5315,44.4466],[3.5324,44.4458],[3.5359,44.4461],[3.5374,44.4454],[3.5391,44.445],[3.5406,44.4456],[3.5412,44.4459],[3.5422,44.4451],[3.5439,44.4451],[3.5452,44.4434],[3.5463,44.4426],[3.5474,44.4431],[3.5491,44.4436],[3.5498,44.4429],[3.5493,44.441],[3.5508,44.4396],[3.5504,44.4373],[3.5507,44.4361],[3.5494,44.436],[3.5484,44.4369],[3.547,44.4375],[3.543,44.4362]]]},"properties":{"id_ffco":"2009-D48-027","nom":"El Mejon","_dept":"48","numero":"2009-D48-027","commune":"St Etienne du Valdonnez","echelle":"1/10000","surface":"2.16 km²","format":"A4","annee":"2009","cartographes":"Benjamin Monier, Ray Hulse","proprietaire":"48 - Lozère","niveau":"Régional","specialite":"CO à pied","latitude":"44.4406297051","longitude":"3.53504548072","date_saisie":"14/10/2015","date_depot":"20/06/2018","valide":"Oui","ppo":"Non","type_carte":"Nouvelle carte","fond":"Ortho","obsolete":false}},{"type":"Feature","geometry":{"type":"Polygon","coordinates":[[[3.2248,44.3981],[3.2263,44.3987],[3.2294,44.3981],[3.2314,44.3971],[3.2322,44.3963],[3.2331,44.3961],[3.234,44.3935],[3.2353,44.3928],[3.2358,44.3914],[3.2357,44.3903],[3.2353,44.3898],[3.236,44.3892],[3.2346,44.3882],[3.2344,44.3864],[3.2355,44.3834],[3.2353,44.3811],[3.2347,44.3803],[3.2339,44.3806],[3.2319,44.3803],[3.2315,44.3806],[3.2308,44.3805],[3.2297,44.381],[3.2283,44.3816],[3.2276,44.3811],[3.2271,44.3806],[3.2263,44.381],[3.2248,44.3813],[3.2227,44.381],[3.2209,44.3814],[3.2174,44.3829],[3.2151,44.3841],[3.2148,44.3853],[3.2134,44.3869],[3.2134,44.3876],[3.2151,44.3889],[3.2156,44.3895],[3.2161,44.3921],[3.2161,44.3936],[3.2165,44.3953],[3.2171,44.397],[3.2189,44.3968],[3.2215,44.3978],[3.2226,44.3983],[3.2248,44.3981]]]},"properties":{"id_ffco":"2007-D48-026","nom":"Les Rougesparets","_dept":"48","numero":"2007-D48-026","commune":"La Canourgue","echelle":"1/7500","surface":"2.77 km²","format":"A3","annee":"2007","cartographes":"Ray Hulse","proprietaire":"48 - Lozère","niveau":"Régional","specialite":"CO à pied","latitude":"44.3892203597","longitude":"3.22540065031","date_saisie":"14/10/2015","date_depot":"20/06/2018","valide":"Oui","ppo":"Non","type_carte":"Reprise","base":"2001-D48-009 Causse de Sauveterre","fond":"Ortho","obsolete":false}},{"type":"Feature","geometry":{"type":"Polygon","coordinates":[[[3.4943,44.511],[3.4969,44.5091],[3.4996,44.5087],[3.5016,44.5069],[3.5038,44.5057],[3.5072,44.5056],[3.5079,44.5076],[3.511,44.5085],[3.5128,44.5084],[3.5203,44.5107],[3.5206,44.5112],[3.524,44.5123],[3.5237,44.5153],[3.5247,44.5158],[3.5315,44.5164],[3.5364,44.5155],[3.5426,44.5135],[3.5442,44.512],[3.5455,44.5104],[3.5452,44.5078],[3.5438,44.5064],[3.5403,44.5073],[3.5385,44.5071],[3.5392,44.5053],[3.5396,44.5036],[3.5381,44.5029],[3.5383,44.5024],[3.5407,44.5018],[3.5411,44.5012],[3.5419,44.5001],[3.5414,44.4983],[3.5406,44.4965],[3.5378,44.4958],[3.53,44.4959],[3.5264,44.4954],[3.5255,44.4945],[3.523,44.4936],[3.5219,44.4939],[3.5198,44.4945],[3.5173,44.4919],[3.5155,44.4914],[3.5122,44.4925],[3.5112,44.4916],[3.51,44.4901],[3.5077,44.4891],[3.5037,44.4881],[3.5024,44.4874],[3.4985,44.4875],[3.4928,44.4831],[3.4887,44.4844],[3.4853,44.485],[3.4833,44.485],[3.4812,44.4858],[3.4731,44.4864],[3.4704,44.4874],[3.4712,44.4894],[3.4718,44.4914],[3.4706,44.493],[3.4722,44.4964],[3.4706,44.4974],[3.4704,44.4999],[3.4703,44.5013],[3.4706,44.5041],[3.4725,44.5057],[3.4748,44.5069],[3.4767,44.5074],[3.478,44.5081],[3.4799,44.5082],[3.481,44.5097],[3.4836,44.5105],[3.4853,44.5106],[3.4882,44.5106],[3.4897,44.5101],[3.4929,44.5103],[3.4943,44.511]]]},"properties":{"id_ffco":"2006-D48-025","nom":"Le Causse de Mende & Chapieu VTT","_dept":"48","numero":"2006-D48-025","commune":"Mende","echelle":"1/15000","surface":"12.94 km²","format":"A3","annee":"2006","cartographes":"Ray Hulse, Benjamin Monier","proprietaire":"48 - Lozère","niveau":"Régional","specialite":"CO à VTT","latitude":"44.5000977501","longitude":"3.50484267326","date_saisie":"14/10/2015","date_depot":"20/06/2018","valide":"Oui","ppo":"Non","type_carte":"Reprise","base":"2006-D48-023 Le Causse de Mende","fond":"Ortho","obsolete":false}},{"type":"Feature","geometry":{"type":"Polygon","coordinates":[[[3.5533,44.5157],[3.557,44.5133],[3.5592,44.511],[3.5603,44.5098],[3.5606,44.5078],[3.5603,44.5074],[3.5579,44.5071],[3.5564,44.5068],[3.5559,44.5057],[3.5563,44.5035],[3.5564,44.5028],[3.5544,44.5016],[3.5533,44.5008],[3.5529,44.5003],[3.5512,44.5009],[3.5483,44.501],[3.5472,44.5014],[3.5465,44.5028],[3.5445,44.5042],[3.5443,44.505],[3.5427,44.5052],[3.5415,44.5063],[3.5397,44.5053],[3.54,44.5034],[3.539,44.503],[3.5397,44.5025],[3.5415,44.5019],[3.5417,44.501],[3.542,44.4995],[3.5412,44.4981],[3.5401,44.4966],[3.5373,44.4959],[3.5325,44.4958],[3.5295,44.4958],[3.5271,44.4956],[3.5267,44.495],[3.5245,44.494],[3.5223,44.4935],[3.5203,44.4944],[3.5191,44.4932],[3.5106,44.4934],[3.5104,44.5083],[3.5125,44.5082],[3.5161,44.509],[3.5205,44.5107],[3.5205,44.5109],[3.5228,44.5118],[3.524,44.5127],[3.5238,44.5156],[3.5267,44.516],[3.5325,44.5165],[3.5364,44.5155],[3.5426,44.5137],[3.5473,44.5134],[3.5513,44.5144],[3.5533,44.5157]]]},"properties":{"id_ffco":"2006-D48-024","nom":"Chapieu","_dept":"48","numero":"2006-D48-024","commune":"Mende","echelle":"1/10000","surface":"6.66 km²","format":"A3","annee":"2006","cartographes":"Ray Hulse","proprietaire":"48 - Lozère","niveau":"Régional","specialite":"CO à pied","latitude":"44.505227548","longitude":"3.53263658109","date_saisie":"14/10/2015","date_depot":"20/06/2018","valide":"Oui","ppo":"Non","type_carte":"Reprise","base":"1994-D48-902 CHAPIEU","fond":"Ortho","obsolete":false}},{"type":"Feature","geometry":{"type":"Polygon","coordinates":[[[3.5102,44.5081],[3.5118,44.5044],[3.5139,44.5029],[3.5163,44.5012],[3.5168,44.4993],[3.5177,44.4983],[3.5193,44.4971],[3.5197,44.4957],[3.5198,44.4945],[3.5196,44.4936],[3.5166,44.4917],[3.5152,44.4913],[3.5121,44.4926],[3.5116,44.4925],[3.5107,44.4906],[3.5099,44.4901],[3.5082,44.489],[3.5068,44.489],[3.5061,44.4889],[3.504,44.488],[3.5026,44.4871],[3.501,44.4874],[3.4981,44.4874],[3.4964,44.4862],[3.4902,44.4861],[3.4815,44.4858],[3.4688,44.4868],[3.4708,44.4877],[3.4718,44.4902],[3.4706,44.4928],[3.4712,44.4944],[3.472,44.4966],[3.4706,44.4972],[3.4708,44.4986],[3.4701,44.5009],[3.4706,44.5026],[3.4704,44.5041],[3.4714,44.5051],[3.4736,44.5063],[3.4746,44.5069],[3.4765,44.5072],[3.4779,44.5081],[3.4794,44.508],[3.4807,44.5094],[3.4827,44.5106],[3.4852,44.5106],[3.4873,44.5104],[3.4895,44.5102],[3.4928,44.5105],[3.494,44.511],[3.4975,44.5089],[3.5002,44.5084],[3.5003,44.5075],[3.5001,44.5065],[3.5022,44.5057],[3.504,44.5056],[3.5074,44.5056],[3.5081,44.5076],[3.5102,44.5081]]]},"properties":{"id_ffco":"2006-D48-023","nom":"Le Causse de Mende","_dept":"48","numero":"2006-D48-023","commune":"Mende","echelle":"1/10000","surface":"8.31 km²","format":"A3","annee":"2006","cartographes":"Ray Hulse","proprietaire":"48 - Lozère","niveau":"Régional","specialite":"CO à pied","latitude":"44.4976154021","longitude":"3.49230287057","date_saisie":"14/10/2015","date_depot":"20/06/2018","valide":"Oui","ppo":"Non","type_carte":"Reprise","base":"2000-D48-006 Causse de Mende (Randonnée)","fond":"Ortho","obsolete":false}},{"type":"Feature","geometry":{"type":"Polygon","coordinates":[[[3.5939,44.3363],[3.5924,44.3358],[3.5896,44.3355],[3.5871,44.336],[3.5874,44.3369],[3.5885,44.337],[3.5896,44.3376],[3.5912,44.3374],[3.5939,44.3369],[3.5939,44.3363]]]},"properties":{"id_ffco":"2001-D48-022","nom":"Florac Initiation","_dept":"48","numero":"2001-D48-022","commune":"Florac","echelle":"1/2000","surface":"0.09 km²","format":"A4","annee":"2001","cartographes":"Marian Cotirta","proprietaire":"48 - Lozère","niveau":"Initiation, Scolaire","specialite":"CO à pied","latitude":"44.3364931435","longitude":"3.59047166299","date_saisie":"04/07/2002","date_depot":"04/07/2002","valide":"Oui","ppo":"Non","type_carte":"Nouvelle carte","fond":"Cadastre","obsolete":false}},{"type":"Feature","geometry":{"type":"Polygon","coordinates":[[[3.5386,44.3444],[3.5437,44.3451],[3.5466,44.3429],[3.5509,44.3416],[3.5517,44.3411],[3.5534,44.3387],[3.5546,44.3368],[3.5564,44.3349],[3.5582,44.3348],[3.5602,44.3353],[3.5621,44.3346],[3.5626,44.3341],[3.5638,44.3338],[3.5652,44.332],[3.5648,44.3301],[3.5655,44.3293],[3.5666,44.3278],[3.5651,44.3262],[3.5642,44.3258],[3.564,44.3248],[3.5646,44.3238],[3.5639,44.3225],[3.5628,44.3216],[3.5624,44.3205],[3.5611,44.3172],[3.5605,44.3165],[3.5597,44.3154],[3.5589,44.3146],[3.5576,44.3139],[3.557,44.3132],[3.5558,44.3127],[3.5548,44.3123],[3.5534,44.3125],[3.5518,44.3121],[3.5514,44.3113],[3.5507,44.3118],[3.5499,44.3112],[3.5481,44.3115],[3.5474,44.3118],[3.5468,44.3114],[3.5451,44.3108],[3.5439,44.3107],[3.5434,44.3105],[3.5427,44.3105],[3.5418,44.31],[3.5407,44.31],[3.5385,44.3096],[3.5374,44.3097],[3.5358,44.3101],[3.5348,44.3102],[3.5342,44.3112],[3.5335,44.3117],[3.5323,44.3114],[3.5312,44.3117],[3.5303,44.3111],[3.5291,44.3108],[3.5281,44.3105],[3.5272,44.3087],[3.5264,44.3079],[3.5257,44.3074],[3.5246,44.3062],[3.5223,44.3053],[3.519,44.3037],[3.5164,44.303],[3.5137,44.3019],[3.5113,44.3009],[3.5093,44.3002],[3.5059,44.298],[3.5025,44.2955],[3.5015,44.2952],[3.5007,44.2954],[3.5002,44.2952],[3.4993,44.295],[3.4973,44.2942],[3.497,44.2932],[3.496,44.2919],[3.4959,44.2912],[3.4954,44.2907],[3.4952,44.2903],[3.4948,44.2902],[3.4946,44.2898],[3.4925,44.2891],[3.4886,44.2882],[3.4861,44.2874],[3.4852,44.2875],[3.4795,44.2869],[3.4785,44.2871],[3.4773,44.2871],[3.4766,44.2868],[3.4753,44.287],[3.4738,44.287],[3.4715,44.2865],[3.471,44.2885],[3.4713,44.291],[3.472,44.2933],[3.4727,44.295],[3.4723,44.296],[3.473,44.2996],[3.4742,44.3009],[3.4746,44.302],[3.4755,44.3033],[3.4753,44.3048],[3.476,44.3063],[3.4763,44.3079],[3.4778,44.3095],[3.4785,44.3104],[3.4775,44.3122],[3.4776,44.3137],[3.4767,44.3153],[3.4766,44.3166],[3.4764,44.3183],[3.4768,44.3194],[3.4772,44.32],[3.4778,44.3213],[3.4789,44.3219],[3.4799,44.3229],[3.4809,44.3246],[3.4827,44.3239],[3.4837,44.3235],[3.4852,44.3238],[3.488,44.3239],[3.4899,44.3247],[3.491,44.3243],[3.4921,44.3231],[3.4944,44.3227],[3.4952,44.3229],[3.4956,44.3224],[3.4974,44.322],[3.4997,44.3222],[3.5013,44.3221],[3.5024,44.3219],[3.5043,44.3224],[3.5063,44.3223],[3.5089,44.3219],[3.5108,44.3222],[3.5131,44.3227],[3.5144,44.3226],[3.5158,44.3222],[3.5173,44.3222],[3.5173,44.323],[3.5164,44.3244],[3.5149,44.3263],[3.5142,44.3272],[3.514,44.3322],[3.5164,44.3327],[3.517,44.3332],[3.5168,44.3342],[3.5179,44.3347],[3.5179,44.3351],[3.5188,44.3352],[3.5189,44.3361],[3.5201,44.3373],[3.5198,44.3384],[3.52,44.3393],[3.5198,44.3399],[3.5215,44.3417],[3.527,44.3383],[3.5301,44.3386],[3.5314,44.339],[3.5318,44.3422],[3.5331,44.3425],[3.5338,44.339],[3.5354,44.3394],[3.5354,44.3406],[3.537,44.3427],[3.5386,44.3444]]]},"properties":{"id_ffco":"2001-D48-021","nom":"Florac Randonnée","_dept":"48","numero":"2001-D48-021","commune":"Florac","echelle":"1/20000","surface":"23.47 km²","format":"+","annee":"2001","cartographes":"Marian Cotirta","proprietaire":"48 - Lozère","niveau":"Régional","specialite":"CO à pied","latitude":"44.3165099535","longitude":"3.51712790609","date_saisie":"04/07/2002","date_depot":"04/07/2002","valide":"Non","ppo":"Non","type_carte":"Nouvelle carte","fond":"Ortho","obsolete":false}},{"type":"Feature","geometry":{"type":"Polygon","coordinates":[[[3.5292,44.3143],[3.5294,44.3136],[3.5307,44.312],[3.5309,44.3115],[3.5303,44.311],[3.528,44.3106],[3.5276,44.3093],[3.5267,44.3079],[3.5252,44.3071],[3.5246,44.3062],[3.5188,44.3035],[3.5121,44.3014],[3.5109,44.3007],[3.5087,44.2999],[3.5039,44.2966],[3.5017,44.2952],[3.5007,44.2954],[3.5,44.2952],[3.4992,44.295],[3.4977,44.2944],[3.4973,44.2936],[3.496,44.292],[3.4961,44.2912],[3.4956,44.291],[3.4953,44.2905],[3.4949,44.2903],[3.4944,44.2898],[3.4932,44.2893],[3.4922,44.2891],[3.4911,44.2912],[3.4892,44.2943],[3.488,44.2961],[3.4884,44.2985],[3.4915,44.3015],[3.4928,44.3036],[3.4931,44.3068],[3.4927,44.3077],[3.491,44.3086],[3.4909,44.3092],[3.4911,44.3101],[3.4899,44.3112],[3.4898,44.3128],[3.4909,44.3135],[3.4925,44.3135],[3.4944,44.3134],[3.4967,44.3137],[3.4977,44.3136],[3.5001,44.3145],[3.5292,44.3143]]]},"properties":{"id_ffco":"2001-D48-020","nom":"Florac Perfectionnement","_dept":"48","numero":"2001-D48-020","commune":"Florac","echelle":"1/10000","surface":"5.03 km²","format":"+","annee":"2001","cartographes":"Marian Cotirta","proprietaire":"48 - Lozère","niveau":"Régional","specialite":"CO à pied","latitude":"44.3055919266","longitude":"3.50577193844","date_saisie":"04/07/2002","date_depot":"04/07/2002","valide":"Non","ppo":"Non","type_carte":"Nouvelle carte","fond":"Ortho","obsolete":false}},{"type":"Feature","geometry":{"type":"Polygon","coordinates":[[[3.3253,44.8511],[3.3247,44.8501],[3.3249,44.8474],[3.3242,44.8462],[3.3213,44.8447],[3.3199,44.8421],[3.3163,44.8365],[3.3151,44.8348],[3.3119,44.8318],[3.3115,44.8313],[3.3108,44.8308],[3.3102,44.83],[3.3088,44.8292],[3.3083,44.8286],[3.3079,44.8276],[3.3074,44.8271],[3.306,44.8264],[3.3016,44.8199],[3.3002,44.8182],[3.2977,44.8154],[3.2969,44.8154],[3.2955,44.8157],[3.2931,44.8156],[3.2918,44.8151],[3.2914,44.8141],[3.2914,44.8105],[3.2901,44.8095],[3.2865,44.8085],[3.2809,44.8074],[3.2804,44.806],[3.2804,44.8046],[3.2797,44.8041],[3.2759,44.8053],[3.2753,44.8054],[3.2706,44.8055],[3.2696,44.8042],[3.2723,44.8013],[3.2762,44.7981],[3.277,44.7985],[3.2769,44.7993],[3.2756,44.7998],[3.2762,44.8004],[3.2771,44.8013],[3.2789,44.8008],[3.2813,44.8025],[3.2842,44.8018],[3.2852,44.801],[3.2867,44.8004],[3.2879,44.8004],[3.2926,44.798],[3.2944,44.7974],[3.299,44.797],[3.3007,44.7965],[3.303,44.7987],[3.3033,44.7994],[3.3032,44.8005],[3.3042,44.8018],[3.3045,44.803],[3.3063,44.8029],[3.3077,44.8035],[3.3091,44.8048],[3.3104,44.8055],[3.3114,44.805],[3.3115,44.8057],[3.314,44.8068],[3.3161,44.8067],[3.3171,44.8087],[3.3182,44.8095],[3.319,44.8107],[3.3205,44.8116],[3.321,44.8125],[3.3223,44.8136],[3.3228,44.8151],[3.3237,44.8145],[3.3236,44.816],[3.323,44.8165],[3.3229,44.8173],[3.3243,44.8169],[3.3272,44.8183],[3.3298,44.8196],[3.3338,44.8207],[3.3375,44.8223],[3.3386,44.8232],[3.3396,44.8237],[3.3405,44.8255],[3.3422,44.8255],[3.3438,44.8261],[3.3441,44.8273],[3.3448,44.8306],[3.3466,44.8313],[3.3489,44.8325],[3.3506,44.8328],[3.3496,44.834],[3.3477,44.8355],[3.3472,44.8379],[3.3493,44.8405],[3.3502,44.8434],[3.3511,44.8449],[3.3515,44.8471],[3.3504,44.8494],[3.3489,44.8497],[3.3473,44.8504],[3.3456,44.8503],[3.3447,44.85],[3.3436,44.8507],[3.3427,44.8501],[3.3415,44.8522],[3.3385,44.8537],[3.3361,44.8545],[3.3343,44.8547],[3.3318,44.8536],[3.3299,44.8533],[3.3269,44.854],[3.3265,44.8531],[3.3253,44.8511]]]},"properties":{"id_ffco":"2001-D48-019","nom":"Le Malzieu Ville Randonnée","_dept":"48","numero":"2001-D48-019","commune":"Le Malzieu Ville","echelle":"1/20000","surface":"14.56 km²","format":"+","annee":"2001","cartographes":"Marian Cotirta, Alain Pellegry","proprietaire":"48 - Lozère","niveau":"Départemental","specialite":"CO à pied","latitude":"44.8253325143","longitude":"3.31895235449","date_saisie":"04/07/2002","date_depot":"04/07/2002","valide":"Oui","ppo":"Non","type_carte":"Nouvelle carte","fond":"Ortho","obsolete":false}},{"type":"Feature","geometry":{"type":"Polygon","coordinates":[[[3.325,44.8508],[3.3246,44.8498],[3.3251,44.847],[3.3213,44.8445],[3.3178,44.8384],[3.3188,44.8374],[3.3186,44.8361],[3.3195,44.8348],[3.32,44.8331],[3.3207,44.8319],[3.3207,44.8308],[3.321,44.8302],[3.3213,44.8281],[3.3232,44.8275],[3.3268,44.8279],[3.3278,44.8285],[3.3296,44.8286],[3.3311,44.828],[3.3332,44.8275],[3.3363,44.8273],[3.3382,44.8265],[3.3392,44.8264],[3.3404,44.8256],[3.3428,44.8259],[3.3438,44.8259],[3.3447,44.8271],[3.3436,44.8283],[3.3446,44.8291],[3.3448,44.8308],[3.3472,44.833],[3.3503,44.8331],[3.348,44.8349],[3.3471,44.8375],[3.3482,44.8394],[3.35,44.8427],[3.3506,44.8446],[3.3513,44.847],[3.3502,44.8495],[3.3476,44.8497],[3.3458,44.8486],[3.344,44.8484],[3.3423,44.8508],[3.3413,44.8525],[3.3374,44.8541],[3.3347,44.8547],[3.3324,44.8539],[3.3301,44.8533],[3.3269,44.8539],[3.3268,44.8533],[3.3279,44.8529],[3.325,44.8508]]]},"properties":{"id_ffco":"2001-D48-018","nom":"Le Malzieu Ville Perfectionnement","_dept":"48","numero":"2001-D48-018","commune":"Le Malzieu Ville","echelle":"1/10000","surface":"5.93 km²","format":"A3","annee":"2001","cartographes":"Marian Cotirta, Alain Pellegry","proprietaire":"48 - Lozère","niveau":"Départemental","specialite":"CO à pied","latitude":"44.8398769949","longitude":"3.33458676006","date_saisie":"04/07/2002","date_depot":"04/07/2002","valide":"Oui","ppo":"Non","type_carte":"Nouvelle carte","fond":"Ortho","obsolete":false}},{"type":"Feature","geometry":{"type":"Polygon","coordinates":[[[3.3427,44.85],[3.3409,44.8488],[3.3402,44.8502],[3.3392,44.8506],[3.3383,44.8504],[3.337,44.8511],[3.3359,44.8522],[3.3366,44.8529],[3.3358,44.8536],[3.3356,44.8539],[3.3344,44.8543],[3.3359,44.8546],[3.3391,44.8533],[3.3401,44.8524],[3.3418,44.8514],[3.3427,44.85]]]},"properties":{"id_ffco":"2001-D48-017","nom":"Le Malzieu Ville Initiation","_dept":"48","numero":"2001-D48-017","commune":"Le Malzieu Ville","echelle":"1/3000","surface":"0.15 km²","format":"A4","annee":"2001","cartographes":"Marian Cotirta, Alain Pellegry","proprietaire":"48 - Lozère","niveau":"Initiation, Scolaire","specialite":"CO à pied","latitude":"44.8518107325","longitude":"3.33886313798","date_saisie":"04/07/2002","date_depot":"04/07/2002","valide":"Oui","ppo":"Non","type_carte":"Nouvelle carte","fond":"Ortho","obsolete":false}},{"type":"Feature","geometry":{"type":"Polygon","coordinates":[[[3.2739,44.8003],[3.2748,44.8005],[3.2745,44.8013],[3.2738,44.802],[3.2744,44.8021],[3.2742,44.8025],[3.2721,44.8039],[3.2703,44.8049],[3.2697,44.8043],[3.2708,44.8026],[3.2726,44.8011],[3.2739,44.8003]]]},"properties":{"id_ffco":"2001-D48-016","nom":"Saint Chély D'Apcher Initiation","_dept":"48","numero":"2001-D48-016","commune":"Saint Chely d'Apcher","echelle":"1/2500","surface":"0.09 km²","format":"A4","annee":"2001","cartographes":"Marian Cotirta, Alain Pellegry","proprietaire":"48 - Lozère","niveau":"Initiation, Scolaire","specialite":"CO à pied","latitude":"44.8025574573","longitude":"3.2723000768","date_saisie":"04/07/2002","date_depot":"04/07/2002","valide":"Oui","ppo":"Non","type_carte":"Nouvelle carte","fond":"Ortho","obsolete":false}},{"type":"Feature","geometry":{"type":"Polygon","coordinates":[[[3.8699,44.6766],[3.8687,44.6767],[3.8674,44.6767],[3.8676,44.6759],[3.8653,44.6746],[3.8637,44.6741],[3.8621,44.6736],[3.8592,44.6748],[3.8582,44.6746],[3.8567,44.6736],[3.8562,44.6725],[3.8556,44.6718],[3.8465,44.6714],[3.8453,44.6757],[3.8435,44.6753],[3.8408,44.6742],[3.8398,44.6734],[3.8396,44.6728],[3.8374,44.6726],[3.8374,44.6739],[3.8362,44.6754],[3.8341,44.6764],[3.8329,44.6769],[3.832,44.6787],[3.8323,44.6794],[3.8349,44.681],[3.8338,44.6828],[3.8335,44.6852],[3.8333,44.6889],[3.8332,44.6911],[3.8323,44.6948],[3.8326,44.6958],[3.8342,44.6957],[3.836,44.6967],[3.8369,44.6982],[3.8368,44.7005],[3.8363,44.7009],[3.8354,44.7024],[3.8356,44.7037],[3.8368,44.7036],[3.8381,44.7047],[3.8397,44.7065],[3.8388,44.7072],[3.8384,44.708],[3.8404,44.7088],[3.8413,44.7097],[3.8403,44.7107],[3.8404,44.7119],[3.8412,44.713],[3.8407,44.7142],[3.8403,44.7147],[3.8404,44.7157],[3.8415,44.7175],[3.8425,44.7195],[3.8441,44.7211],[3.8465,44.7217],[3.8466,44.7221],[3.849,44.7223],[3.8506,44.7228],[3.854,44.7255],[3.8549,44.7259],[3.856,44.725],[3.8566,44.7229],[3.8587,44.7208],[3.8599,44.7194],[3.8601,44.7183],[3.8612,44.7175],[3.8618,44.7158],[3.8599,44.7134],[3.86,44.7118],[3.8609,44.7103],[3.8631,44.7092],[3.8661,44.7085],[3.868,44.7076],[3.8699,44.7064],[3.8694,44.7054],[3.867,44.7041],[3.8661,44.7028],[3.8666,44.7011],[3.868,44.7002],[3.8683,44.6989],[3.8675,44.6967],[3.868,44.6959],[3.8708,44.6952],[3.873,44.6959],[3.8762,44.6957],[3.8779,44.6957],[3.8798,44.6965],[3.8826,44.6971],[3.8838,44.6966],[3.8838,44.6948],[3.8827,44.6937],[3.8818,44.6924],[3.8802,44.6908],[3.8777,44.6903],[3.8754,44.6879],[3.875,44.6867],[3.8747,44.6851],[3.8733,44.6839],[3.8717,44.6819],[3.8707,44.6802],[3.8694,44.6792],[3.8688,44.6783],[3.8692,44.6771],[3.8699,44.6766]]]},"properties":{"id_ffco":"2001-D48-015","nom":"Langogne Randonnée","_dept":"48","numero":"2001-D48-015","commune":"Langogne","echelle":"1/15000","surface":"13.9 km²","format":"A3","annee":"2001","cartographes":"Marian Cotirta, Alain Pellegry","proprietaire":"48 - Lozère","niveau":"Départemental","specialite":"CO à pied","latitude":"44.6948100471","longitude":"3.85333264673","date_saisie":"04/07/2002","date_depot":"04/07/2002","valide":"Non","ppo":"Non","type_carte":"Nouvelle carte","fond":"Ortho","obsolete":false}},{"type":"Feature","geometry":{"type":"Polygon","coordinates":[[[3.8427,44.6793],[3.8443,44.6824],[3.8449,44.6843],[3.8463,44.6866],[3.8458,44.6885],[3.8467,44.6922],[3.8481,44.6921],[3.8513,44.694],[3.8534,44.6961],[3.8568,44.6951],[3.8589,44.6939],[3.8592,44.6933],[3.8583,44.6929],[3.8591,44.6923],[3.86,44.6929],[3.8605,44.6936],[3.8626,44.694],[3.8638,44.6952],[3.865,44.6958],[3.8673,44.6962],[3.8687,44.6957],[3.8707,44.695],[3.8729,44.6958],[3.8755,44.6958],[3.8771,44.6955],[3.8798,44.6964],[3.8823,44.697],[3.8835,44.6966],[3.8836,44.6949],[3.8825,44.694],[3.8817,44.6923],[3.8796,44.6907],[3.8771,44.6901],[3.8758,44.6886],[3.875,44.6874],[3.8749,44.6858],[3.8741,44.6846],[3.8734,44.6839],[3.873,44.6833],[3.8718,44.6821],[3.8711,44.6804],[3.8695,44.6794],[3.8689,44.6783],[3.8691,44.6773],[3.8699,44.6765],[3.8689,44.6765],[3.8675,44.6768],[3.8671,44.6754],[3.8646,44.6745],[3.8629,44.6737],[3.8615,44.6737],[3.8595,44.6746],[3.8586,44.6754],[3.8576,44.6741],[3.8568,44.6733],[3.8459,44.6735],[3.8454,44.6756],[3.8437,44.6756],[3.843,44.6774],[3.8441,44.6777],[3.8427,44.6793]]]},"properties":{"id_ffco":"2001-D48-014","nom":"Langogne Perfectionnement","_dept":"48","numero":"2001-D48-014","commune":"Langogne","echelle":"1/10000","surface":"5.41 km²","format":"+","annee":"2001","cartographes":"Marian Cotirta, Alain Pellegry","proprietaire":"48 - Lozère","niveau":"Départemental","specialite":"CO à pied","latitude":"44.6853270157","longitude":"3.86049402641","date_saisie":"04/07/2002","date_depot":"04/07/2002","valide":"Non","ppo":"Non","type_carte":"Nouvelle carte","fond":"Ortho","obsolete":false}},{"type":"Feature","geometry":{"type":"Polygon","coordinates":[[[3.8392,44.7251],[3.8406,44.7266],[3.8403,44.7283],[3.8397,44.7304],[3.8401,44.7318],[3.8391,44.7344],[3.8367,44.7367],[3.8333,44.7392],[3.8329,44.7388],[3.8355,44.7325],[3.8356,44.73],[3.8356,44.728],[3.8368,44.7258],[3.8392,44.7251]]]},"properties":{"id_ffco":"2001-D48-013","nom":"Langogne Initiation","_dept":"48","numero":"2001-D48-013","commune":"Langogne","echelle":"1/5000","surface":"0.45 km²","format":"A4","annee":"2001","cartographes":"Marian Cotirta, Alain Pellegry","proprietaire":"48 - Lozère","niveau":"Initiation, Scolaire","specialite":"CO à pied","latitude":"44.7315973326","longitude":"3.83724048542","date_saisie":"04/07/2002","date_depot":"04/07/2002","valide":"Oui","ppo":"Non","type_carte":"Nouvelle carte","fond":"Ortho","obsolete":false}},{"type":"Feature","geometry":{"type":"Polygon","coordinates":[[[3.2917,44.5514],[3.2897,44.5514],[3.2892,44.552],[3.2877,44.5523],[3.2868,44.5521],[3.2864,44.55],[3.2854,44.5475],[3.2838,44.5466],[3.2812,44.5462],[3.2777,44.5466],[3.2749,44.5457],[3.2707,44.5478],[3.2673,44.5488],[3.2662,44.5506],[3.265,44.5525],[3.264,44.554],[3.2611,44.5598],[3.2617,44.5609],[3.264,44.5619],[3.2638,44.5639],[3.2659,44.5662],[3.2724,44.57],[3.2769,44.5718],[3.2777,44.5721],[3.2802,44.5707],[3.2812,44.5706],[3.2826,44.5695],[3.2831,44.5683],[3.2847,44.5687],[3.286,44.5697],[3.2862,44.5708],[3.2875,44.571],[3.2882,44.5727],[3.2902,44.5718],[3.292,44.5712],[3.2924,44.5729],[3.2922,44.5741],[3.2931,44.5754],[3.2934,44.5772],[3.2911,44.5784],[3.2916,44.5808],[3.2925,44.5827],[3.2952,44.5848],[3.2952,44.587],[3.2972,44.5888],[3.299,44.591],[3.298,44.5934],[3.2987,44.5941],[3.3013,44.5939],[3.3033,44.5943],[3.3059,44.5948],[3.3077,44.5945],[3.3103,44.5945],[3.3117,44.5943],[3.3134,44.5943],[3.315,44.5933],[3.317,44.5922],[3.3192,44.5914],[3.3225,44.5897],[3.3241,44.5887],[3.3259,44.5885],[3.3277,44.5894],[3.3286,44.5885],[3.3297,44.5881],[3.3317,44.589],[3.3334,44.5882],[3.3345,44.5888],[3.3367,44.5881],[3.3383,44.5876],[3.3402,44.5878],[3.3416,44.585],[3.3398,44.584],[3.3383,44.5809],[3.3368,44.5798],[3.3362,44.5789],[3.3332,44.5774],[3.3307,44.5778],[3.3288,44.5778],[3.3262,44.577],[3.3253,44.5765],[3.3227,44.5762],[3.3216,44.575],[3.3204,44.5749],[3.3201,44.5744],[3.3201,44.5736],[3.3188,44.5722],[3.3176,44.5718],[3.3173,44.5707],[3.3175,44.5678],[3.3145,44.5659],[3.312,44.5636],[3.3116,44.5625],[3.3128,44.5595],[3.3117,44.5586],[3.3118,44.5571],[3.3111,44.5557],[3.3111,44.5543],[3.3075,44.5539],[3.305,44.5535],[3.304,44.5545],[3.3035,44.5543],[3.303,44.5526],[3.3011,44.5522],[3.2996,44.5517],[3.2988,44.5519],[3.2981,44.5513],[3.2962,44.5509],[3.2947,44.5504],[3.2956,44.5483],[3.2929,44.5478],[3.2937,44.5511],[3.293,44.5518],[3.2923,44.5518],[3.2917,44.5514]]]},"properties":{"id_ffco":"2001-D48-012","nom":"Marvejols Randonnée","_dept":"48","numero":"2001-D48-012","commune":"Marvejols","echelle":"1/15000","surface":"16.0 km²","format":"+","annee":"2001","cartographes":"Marian Cotirta, Alain Pellegry","proprietaire":"48 - Lozère","niveau":"Départemental","specialite":"Rand'O","latitude":"44.5700040226","longitude":"3.29884077521","date_saisie":"04/07/2002","date_depot":"04/07/2002","valide":"Oui","ppo":"Non","type_carte":"Nouvelle carte","fond":"Ortho","obsolete":false}},{"type":"Feature","geometry":{"type":"Polygon","coordinates":[[[3.2776,44.5722],[3.2802,44.5705],[3.2812,44.5707],[3.2832,44.5695],[3.283,44.5687],[3.2835,44.5681],[3.2848,44.5688],[3.2859,44.5689],[3.2856,44.5674],[3.2865,44.5661],[3.2875,44.5648],[3.2864,44.5625],[3.2856,44.5615],[3.2852,44.56],[3.2857,44.5587],[3.286,44.5575],[3.2854,44.5558],[3.2849,44.5545],[3.2858,44.5515],[3.2863,44.5496],[3.2856,44.5478],[3.284,44.5467],[3.2816,44.5463],[3.278,44.5467],[3.2772,44.5464],[3.276,44.5457],[3.2749,44.5458],[3.2726,44.5473],[3.2699,44.548],[3.2672,44.5492],[3.2665,44.5504],[3.2655,44.551],[3.2654,44.5523],[3.2644,44.553],[3.264,44.5544],[3.2633,44.5553],[3.2626,44.5563],[3.2618,44.5581],[3.2606,44.5596],[3.2616,44.5601],[3.262,44.5612],[3.2635,44.5614],[3.2641,44.5619],[3.2635,44.5641],[3.2632,44.5645],[3.265,44.5667],[3.269,44.5688],[3.2722,44.5699],[3.2742,44.5701],[3.275,44.5708],[3.2776,44.5722]]]},"properties":{"id_ffco":"2001-D48-011","nom":"Marvejols Perfectionnement","_dept":"48","numero":"2001-D48-011","commune":"Marvejols","echelle":"1/10000","surface":"4.35 km²","format":"A3","annee":"2001","cartographes":"Marian Cotirta, Alain Pellegry","proprietaire":"48 - Lozère","niveau":"Départemental","specialite":"CO à pied","latitude":"44.5586286144","longitude":"3.27523017213","date_saisie":"04/07/2002","date_depot":"04/07/2002","valide":"Oui","ppo":"Non","type_carte":"Nouvelle carte","fond":"Ortho","obsolete":false}},{"type":"Feature","geometry":{"type":"Polygon","coordinates":[[[3.295,44.5486],[3.2932,44.5482],[3.2922,44.5461],[3.2918,44.5447],[3.2919,44.544],[3.2935,44.5443],[3.2942,44.5462],[3.2949,44.5475],[3.2958,44.5479],[3.295,44.5486]]]},"properties":{"id_ffco":"2001-D48-010","nom":"Marvejols Initiation","_dept":"48","numero":"2001-D48-010","commune":"Marvejols","echelle":"1/2500","surface":"0.08 km²","format":"A4","annee":"2001","cartographes":"Marian Cotirta, Alain Pellegry","proprietaire":"48 - Lozère","niveau":"Initiation, Scolaire","specialite":"CO à pied","latitude":"44.5464070757","longitude":"3.29345486634","date_saisie":"04/07/2002","date_depot":"04/07/2002","valide":"Oui","ppo":"Non","type_carte":"Nouvelle carte","fond":"Cadastre","obsolete":false}},{"type":"Feature","geometry":{"type":"Polygon","coordinates":[[[3.2125,44.3988],[3.2121,44.4043],[3.212,44.406],[3.2131,44.4086],[3.2143,44.4101],[3.2129,44.413],[3.2117,44.4161],[3.2108,44.4185],[3.209,44.4216],[3.2082,44.422],[3.2096,44.4235],[3.2114,44.4214],[3.2143,44.4184],[3.216,44.4174],[3.2188,44.4163],[3.2221,44.4149],[3.2248,44.4138],[3.2265,44.4133],[3.229,44.4116],[3.2307,44.41],[3.2335,44.4083],[3.2361,44.4072],[3.2378,44.4073],[3.2386,44.4069],[3.2379,44.4061],[3.2388,44.4059],[3.2403,44.4058],[3.2419,44.4044],[3.2439,44.404],[3.2442,44.4052],[3.2444,44.4063],[3.2468,44.4062],[3.2499,44.4069],[3.2519,44.4081],[3.2541,44.408],[3.2554,44.4083],[3.256,44.4094],[3.258,44.4091],[3.2589,44.4087],[3.2608,44.4096],[3.2627,44.41],[3.2651,44.4109],[3.2669,44.4111],[3.268,44.4107],[3.2717,44.4105],[3.2741,44.4101],[3.2755,44.4097],[3.2762,44.4089],[3.2789,44.4078],[3.2809,44.4075],[3.2838,44.4067],[3.2849,44.4074],[3.2865,44.4072],[3.2877,44.4059],[3.2896,44.4039],[3.2898,44.4031],[3.2908,44.4025],[3.2918,44.4015],[3.2932,44.4007],[3.2934,44.3994],[3.293,44.3989],[3.2931,44.3969],[3.2923,44.396],[3.2917,44.3952],[3.2914,44.3937],[3.2904,44.3916],[3.2913,44.3907],[3.2909,44.3899],[3.2894,44.3895],[3.2872,44.3875],[3.2858,44.3861],[3.2836,44.3854],[3.2818,44.3838],[3.2802,44.3817],[3.2781,44.381],[3.2772,44.38],[3.2756,44.3799],[3.275,44.3789],[3.274,44.3783],[3.2734,44.3773],[3.2714,44.3761],[3.2695,44.3751],[3.2685,44.375],[3.267,44.3752],[3.265,44.3747],[3.2628,44.3733],[3.2611,44.3726],[3.2601,44.3725],[3.2591,44.3721],[3.2577,44.3722],[3.2563,44.3717],[3.254,44.3737],[3.253,44.3722],[3.2522,44.3721],[3.2518,44.3718],[3.2518,44.3709],[3.2504,44.3715],[3.2499,44.3713],[3.2488,44.3715],[3.2481,44.3712],[3.2468,44.3718],[3.2454,44.3722],[3.2455,44.3732],[3.245,44.3733],[3.2441,44.373],[3.2418,44.373],[3.2404,44.3727],[3.2396,44.3736],[3.239,44.3744],[3.2386,44.3756],[3.2375,44.3762],[3.237,44.3768],[3.2361,44.3768],[3.2352,44.377],[3.2337,44.3765],[3.2329,44.3762],[3.2317,44.3771],[3.2307,44.3781],[3.2303,44.379],[3.2296,44.3791],[3.2287,44.3788],[3.2269,44.3797],[3.2268,44.3807],[3.2256,44.3813],[3.2239,44.3812],[3.2219,44.3811],[3.22,44.3818],[3.215,44.3842],[3.2141,44.3861],[3.2131,44.3872],[3.2138,44.3881],[3.2153,44.389],[3.2159,44.3907],[3.2161,44.3922],[3.2149,44.3934],[3.2144,44.3951],[3.2133,44.3956],[3.2125,44.3988]]]},"properties":{"id_ffco":"2001-D48-009","nom":"Causse de Sauveterre","_dept":"48","numero":"2001-D48-009","commune":"La Canourgue","echelle":"1/20000","surface":"21.95 km²","format":"A3","annee":"2001","cartographes":"Marian Cotirta, Alain Pellegry","proprietaire":"48 - Lozère","niveau":"Régional","specialite":"CO à pied","latitude":"44.3937663117","longitude":"3.25011990883","date_saisie":"19/02/2002","date_depot":"11/03/2002","valide":"Oui","ppo":"Non","type_carte":"Nouvelle carte","fond":"Ortho","obsolete":false}},{"type":"Feature","geometry":{"type":"Polygon","coordinates":[[[3.2907,44.4029],[3.2897,44.4033],[3.2897,44.4042],[3.2874,44.4063],[3.2866,44.4072],[3.285,44.4073],[3.2838,44.4068],[3.2814,44.4075],[3.2776,44.4082],[3.2774,44.4069],[3.2784,44.4059],[3.2785,44.404],[3.2777,44.4023],[3.2771,44.4011],[3.274,44.4002],[3.2739,44.3995],[3.2752,44.3996],[3.2753,44.3987],[3.2744,44.3983],[3.2747,44.3974],[3.2728,44.3963],[3.272,44.3962],[3.2714,44.3959],[3.2707,44.394],[3.2689,44.3945],[3.2668,44.3941],[3.2657,44.3944],[3.2663,44.3954],[3.2648,44.3957],[3.2648,44.3948],[3.265,44.3901],[3.2649,44.3883],[3.2628,44.3874],[3.2634,44.3862],[3.2618,44.3851],[3.2611,44.3841],[3.2624,44.3833],[3.2627,44.3821],[3.2608,44.3808],[3.2609,44.3803],[3.2592,44.3791],[3.2603,44.3764],[3.2617,44.3759],[3.2629,44.3748],[3.2651,44.3753],[3.2669,44.3752],[3.2688,44.3749],[3.2704,44.3755],[3.2735,44.377],[3.2742,44.3786],[3.276,44.3799],[3.2773,44.3801],[3.2782,44.381],[3.2799,44.3815],[3.2814,44.3833],[3.2837,44.3855],[3.2856,44.3862],[3.2871,44.3872],[3.289,44.3877],[3.2901,44.3891],[3.2915,44.3904],[3.2904,44.3915],[3.2916,44.3952],[3.293,44.3964],[3.2929,44.399],[3.2935,44.3995],[3.2931,44.4008],[3.291,44.4022],[3.2907,44.4029]]]},"properties":{"id_ffco":"2001-D48-008","nom":"Fontjulien","_dept":"48","numero":"2001-D48-008","commune":"La Canourgue","echelle":"1/10000","surface":"5.24 km²","format":"A3","annee":"2001","cartographes":"Marian Cotirta, Alain Pellegry","proprietaire":"48 - Lozère","niveau":"Régional","specialite":"CO à pied","latitude":"44.3908395245","longitude":"3.27707080104","date_saisie":"19/02/2002","date_depot":"11/03/2002","valide":"Oui","ppo":"Non","type_carte":"Nouvelle carte","fond":"Ortho","obsolete":false}},{"type":"Feature","geometry":{"type":"Polygon","coordinates":[[[3.2141,44.4332],[3.2143,44.4322],[3.2158,44.4308],[3.218,44.4295],[3.2188,44.4284],[3.22,44.4291],[3.2213,44.4291],[3.2221,44.4287],[3.2226,44.4275],[3.2263,44.4276],[3.2269,44.4283],[3.227,44.4326],[3.2239,44.432],[3.2218,44.4322],[3.2206,44.434],[3.2153,44.4347],[3.2149,44.4338],[3.2141,44.4332]]]},"properties":{"id_ffco":"2001-D48-007","nom":"La Canourgue","_dept":"48","numero":"2001-D48-007","commune":"La Canourgue","echelle":"1/5000","surface":"0.49 km²","format":"A4","annee":"2001","cartographes":"Marian Cotirta, Alain Pellegry","proprietaire":"48 - Lozère","niveau":"Initiation, Scolaire","specialite":"CO à pied","latitude":"44.4310578799","longitude":"3.22090620778","date_saisie":"19/02/2002","date_depot":"11/03/2002","valide":"Oui","ppo":"Non","type_carte":"Nouvelle carte","fond":"Ortho","obsolete":false}},{"type":"Feature","geometry":{"type":"Polygon","coordinates":[[[3.5105,44.5207],[3.5094,44.5188],[3.508,44.5182],[3.5071,44.5192],[3.5043,44.5211],[3.5015,44.5219],[3.5005,44.5216],[3.4994,44.5213],[3.4974,44.5216],[3.4947,44.5207],[3.4922,44.5199],[3.4893,44.518],[3.4875,44.5181],[3.4871,44.5175],[3.4848,44.5163],[3.4818,44.5154],[3.4779,44.514],[3.4725,44.512],[3.4681,44.5103],[3.4637,44.508],[3.4603,44.5059],[3.4598,44.5046],[3.4611,44.5034],[3.4624,44.5027],[3.4625,44.5009],[3.4626,44.4991],[3.4633,44.4965],[3.4636,44.4953],[3.4651,44.4929],[3.4689,44.493],[3.4718,44.4927],[3.4717,44.491],[3.4712,44.489],[3.4715,44.4878],[3.4736,44.4871],[3.4788,44.4854],[3.4818,44.4842],[3.4846,44.4844],[3.4887,44.484],[3.4924,44.4831],[3.494,44.4835],[3.4959,44.4845],[3.4966,44.4867],[3.4982,44.4874],[3.5023,44.4873],[3.5042,44.4881],[3.5066,44.4888],[3.5084,44.4889],[3.5109,44.4902],[3.5118,44.4918],[3.5121,44.4925],[3.5156,44.4911],[3.5173,44.4917],[3.5189,44.4929],[3.5204,44.4941],[3.5214,44.4936],[3.5224,44.493],[3.5242,44.4936],[3.5264,44.4944],[3.5271,44.4953],[3.5305,44.4956],[3.5373,44.4957],[3.5486,44.4989],[3.5526,44.4999],[3.5547,44.5016],[3.5564,44.5025],[3.5562,44.5042],[3.5559,44.5061],[3.5566,44.507],[3.5586,44.5072],[3.5604,44.5077],[3.5601,44.5099],[3.5574,44.5129],[3.5559,44.514],[3.5538,44.5158],[3.5517,44.5148],[3.549,44.5144],[3.5455,44.5149],[3.5409,44.5165],[3.5377,44.5188],[3.5325,44.5208],[3.5236,44.5215],[3.5218,44.5214],[3.5196,44.5211],[3.5177,44.5214],[3.5147,44.521],[3.5128,44.5206],[3.5105,44.5207]]]},"properties":{"id_ffco":"2000-D48-006","nom":"Causse de Mende (Randonnée)","_dept":"48","numero":"2000-D48-006","commune":"Mende","echelle":"1/20000","surface":"21.76 km²","format":"A3","annee":"2000","cartographes":"Marian Cotirta, Laurent Thuillier","proprietaire":"48 - Lozère","niveau":"Initiation, Scolaire","specialite":"CO à pied","latitude":"44.5042768383","longitude":"3.50709993455","date_saisie":"19/02/2002","date_depot":"11/03/2002","valide":"Oui","ppo":"Non","type_carte":"Reprise","base":"1993-D48-005 Le Causse de Mende","fond":"Ortho","obsolete":false}},{"type":"Feature","geometry":{"type":"Polygon","coordinates":[[[3.5115,44.5049],[3.5074,44.5058],[3.5038,44.5056],[3.5014,44.507],[3.5009,44.5075],[3.5006,44.5079],[3.4988,44.5089],[3.4955,44.5099],[3.4945,44.5106],[3.4929,44.5101],[3.4898,44.5103],[3.4879,44.5102],[3.4844,44.5105],[3.4821,44.5101],[3.4802,44.5087],[3.4779,44.508],[3.4766,44.5071],[3.4746,44.5068],[3.4706,44.5043],[3.4705,44.5034],[3.4703,44.5015],[3.4702,44.5004],[3.4707,44.4994],[3.4705,44.4972],[3.4716,44.4956],[3.471,44.4944],[3.4708,44.4926],[3.4712,44.4906],[3.4711,44.4895],[3.4705,44.4881],[3.4708,44.4874],[3.4727,44.4871],[3.4745,44.4864],[3.4783,44.4857],[3.48,44.4858],[3.4832,44.4844],[3.4849,44.4847],[3.4879,44.4844],[3.4899,44.4839],[3.4909,44.4832],[3.4929,44.4831],[3.4953,44.4841],[3.4969,44.4866],[3.4994,44.4875],[3.5023,44.4874],[3.5044,44.4884],[3.5065,44.4888],[3.5083,44.489],[3.5102,44.49],[3.5112,44.491],[3.5117,44.4925],[3.5129,44.4923],[3.5158,44.4911],[3.5177,44.492],[3.5193,44.4933],[3.5206,44.4942],[3.5217,44.4933],[3.5232,44.4934],[3.5255,44.4941],[3.5269,44.495],[3.5262,44.496],[3.5242,44.4974],[3.5193,44.5],[3.5163,44.5012],[3.514,44.5029],[3.5124,44.5038],[3.5115,44.5049]]]},"properties":{"id_ffco":"1993-D48-005","nom":"Le Causse de Mende","_dept":"48","numero":"1993-D48-005","commune":"Mende","echelle":"1/15000","surface":"8.83 km²","format":"A4","annee":"1993","cartographes":"Haj, Cigos, Svec","proprietaire":"48 - Lozère","niveau":"Interrégional","specialite":"CO à pied","latitude":"44.4971413652","longitude":"3.49324491097","valide":"Oui","ppo":"Non","type_carte":"Nouvelle carte","fond":"Ortho","obsolete":false}},{"type":"Feature","geometry":{"type":"Polygon","coordinates":[[[3.4746,44.515],[3.474,44.5206],[3.4676,44.5237],[3.4676,44.5232],[3.4652,44.5243],[3.4612,44.5272],[3.4579,44.5286],[3.4533,44.5285],[3.4514,44.5278],[3.4501,44.5277],[3.4489,44.5265],[3.4476,44.5252],[3.4464,44.5248],[3.4461,44.5241],[3.4454,44.5238],[3.444,44.5235],[3.4425,44.524],[3.4414,44.5237],[3.4406,44.5238],[3.4398,44.5234],[3.4389,44.5232],[3.4371,44.5224],[3.4363,44.5222],[3.4354,44.5218],[3.4334,44.5216],[3.4322,44.5203],[3.4314,44.5179],[3.4301,44.5165],[3.4293,44.5146],[3.4303,44.5138],[3.4311,44.5117],[3.4281,44.5105],[3.427,44.5104],[3.4262,44.5106],[3.4258,44.5102],[3.4251,44.5095],[3.4242,44.5096],[3.4234,44.5098],[3.4217,44.5084],[3.4224,44.5076],[3.421,44.5055],[3.4193,44.5039],[3.4186,44.4991],[3.4215,44.4971],[3.4233,44.4968],[3.4234,44.4951],[3.4229,44.4952],[3.4213,44.4945],[3.4222,44.4937],[3.4239,44.4923],[3.4241,44.4906],[3.4258,44.4886],[3.4282,44.4872],[3.4301,44.4859],[3.4309,44.4842],[3.431,44.4836],[3.4324,44.4836],[3.4334,44.4846],[3.4353,44.4857],[3.4373,44.4853],[3.4392,44.4869],[3.4418,44.4885],[3.4444,44.4888],[3.4476,44.4881],[3.4507,44.4873],[3.4531,44.4862],[3.4536,44.4868],[3.4528,44.4891],[3.4533,44.4898],[3.4532,44.4911],[3.4525,44.493],[3.4543,44.4964],[3.4544,44.4983],[3.4561,44.5001],[3.4563,44.5012],[3.4564,44.5027],[3.4584,44.5037],[3.4607,44.5035],[3.4601,44.505],[3.4605,44.5061],[3.4612,44.5076],[3.4622,44.5082],[3.4629,44.5095],[3.4655,44.5112],[3.4668,44.512],[3.4693,44.5141],[3.4728,44.5146],[3.4746,44.515]]]},"properties":{"id_ffco":"1999-D48-003","nom":"Le Châpitre","_dept":"48","numero":"1999-D48-003","commune":"Mende","echelle":"1/15000","surface":"12.37 km²","format":"A3","annee":"1999","proprietaire":"LR - Languedoc-Roussillon","niveau":"National, International","specialite":"CO à pied","latitude":"44.5072895513","longitude":"3.44457915908","valide":"Non","ppo":"Non","type_carte":"Nouvelle carte","fond":"Ortho","obsolete":false}},{"type":"Feature","geometry":{"type":"Polygon","coordinates":[[[3.7197,44.4375],[3.7198,44.4412],[3.7221,44.4444],[3.7238,44.4468],[3.7247,44.4494],[3.7256,44.4517],[3.7269,44.4534],[3.7285,44.4555],[3.7294,44.4576],[3.7291,44.4587],[3.7281,44.4592],[3.727,44.4608],[3.7272,44.4618],[3.7263,44.4625],[3.7254,44.4631],[3.7258,44.464],[3.7256,44.4652],[3.7266,44.4655],[3.7266,44.466],[3.7271,44.4668],[3.7269,44.4695],[3.7273,44.4712],[3.7275,44.4716],[3.7299,44.472],[3.7318,44.4726],[3.7353,44.4733],[3.7385,44.474],[3.7391,44.4735],[3.7397,44.472],[3.7404,44.4713],[3.7411,44.4702],[3.7429,44.4692],[3.7446,44.469],[3.7469,44.4684],[3.7495,44.4673],[3.7521,44.466],[3.755,44.4668],[3.7572,44.4668],[3.7585,44.4664],[3.7604,44.4661],[3.7626,44.4648],[3.7641,44.4634],[3.7647,44.4622],[3.7658,44.4615],[3.7672,44.4601],[3.7656,44.4594],[3.7644,44.4587],[3.7633,44.4573],[3.762,44.4566],[3.7617,44.4553],[3.76,44.4542],[3.7598,44.4525],[3.7585,44.452],[3.7569,44.4499],[3.7569,44.4485],[3.7567,44.4469],[3.7561,44.4438],[3.7562,44.4413],[3.7558,44.44],[3.7555,44.4382],[3.7546,44.4362],[3.755,44.4354],[3.7559,44.4347],[3.7546,44.4342],[3.7474,44.4339],[3.7416,44.4356],[3.7388,44.436],[3.7364,44.4354],[3.7329,44.4355],[3.7308,44.436],[3.729,44.4364],[3.7272,44.4364],[3.7253,44.4372],[3.7242,44.4363],[3.7229,44.436],[3.7197,44.4375]]]},"properties":{"id_ffco":"1977-D48-001","nom":"Mont Lozère","_dept":"48","numero":"1977-D48-001","commune":"Le Bleymard","echelle":"1/15000","surface":"10.53 km²","format":"+","annee":"1977","cartographes":"G Belmas, P. Coustillières, T. Logre, R. Losiowski","proprietaire":"LR - Languedoc-Roussillon","niveau":"Interrégional","specialite":"CO à pied","latitude":"44.4526976434","longitude":"3.74176320247","valide":"Non","ppo":"Non","type_carte":"Nouvelle carte","fond":"IGN","ref_ign":"Mont Lozère","obsolete":false}},{"type":"Feature","geometry":null,"properties":{"id_ffco":"????-D48-","nom":"Florac","_dept":"48","numero":"????-D48-","commune":"Florac","surface":"None km²","specialite":"Raid'O","contacts":"mairie, 04 66 45 00 53","latitude":"44.3257257","longitude":"3.5945507","valide":"Non","ppo":"Oui","obsolete":false}},{"type":"Feature","geometry":null,"properties":{"id_ffco":"????-D48-","nom":"Le Malzieu (3 à vérifier)","_dept":"48","numero":"????-D48-","commune":"Le Malzieu","surface":"None km²","specialite":"Raid'O","contacts":"mairie","latitude":"44.8553633","longitude":"3.3298869","valide":"Non","ppo":"Oui","obsolete":false}},{"type":"Feature","geometry":null,"properties":{"id_ffco":"????-D48-","nom":"Marvejols (2 à vérifier)\nComplexe sportif le Mascoussel","_dept":"48","numero":"????-D48-","commune":"Marvejols","surface":"None km²","specialite":"Raid'O","contacts":"mairie, 04 66 32 00 45","latitude":"44.5550717","longitude":"3.2910282","valide":"Non","ppo":"Oui","obsolete":false}},{"type":"Feature","geometry":null,"properties":{"id_ffco":"????-D48-","nom":"Parcours CO Carte de randonnée (2 à vérifier)","_dept":"48","numero":"????-D48-","commune":"Montbrun","surface":"None km²","latitude":"44.3370223","longitude":"3.5040668","valide":"Non","ppo":"Oui","obsolete":false}},{"type":"Feature","geometry":null,"properties":{"id_ffco":"????-D48-","nom":"Mende (2 à vérifier)\ncomplexe sportif le Chapitre","_dept":"48","numero":"????-D48-","commune":"Mende","surface":"None km²","specialite":"Raid'O","contacts":"mairie","latitude":"44.5180049","longitude":"3.4985238","valide":"Non","ppo":"Oui","obsolete":false}},{"type":"Feature","geometry":null,"properties":{"id_ffco":"????-D48-","nom":"St Chély d'Apcher","_dept":"48","numero":"????-D48-","commune":"St Chély d'Apcher","surface":"None km²","latitude":"44.8012469","longitude":"3.2754536","valide":"Non","ppo":"Oui","obsolete":false}},{"type":"Feature","geometry":null,"properties":{"id_ffco":"????-D48-","nom":"Complexe sportif Causse d'Auge","_dept":"48","numero":"????-D48-","commune":"Mende","surface":"None km²","latitude":"44.5180049","longitude":"3.4985238","valide":"Non","ppo":"Oui","obsolete":false}},{"type":"Feature","geometry":null,"properties":{"id_ffco":"????-D48-","nom":"La Canourgue (3 à vérifier)","_dept":"48","numero":"????-D48-","commune":"La Canourgue","surface":"None km²","specialite":"Raid'O","contacts":"mairie","latitude":"44.4324636","longitude":"3.2143458","valide":"Non","ppo":"Oui","obsolete":false}},{"type":"Feature","geometry":null,"properties":{"id_ffco":"????-D48-","nom":"Causse de Changefèges","_dept":"48","numero":"????-D48-","commune":"Balsièges","surface":"None km²","latitude":"44.4806411","longitude":"3.4565397","valide":"Non","ppo":"Oui","obsolete":false}},{"type":"Feature","geometry":null,"properties":{"id_ffco":"????-D48-","nom":"Langogne (3 à vérifier)","_dept":"48","numero":"????-D48-","commune":"Langogne","surface":"None km²","specialite":"Raid'O","contacts":"mairie","latitude":"44.7269992","longitude":"3.8561888","valide":"Non","ppo":"Oui","obsolete":false}}]}