{"type":"FeatureCollection","features":[{"type":"Feature","geometry":null,"properties":{"id_ffco":"788","nom":"CHAPIEU","_dept":"48","numero":"1994-D48-902","commune":"Mende","echelle":"1/15000","surface":"6.7 km²","format":"A4","annee":"1994","proprietaire":"48 - Lozère","niveau":"Régional","specialite":"CO à pied","latitude":"44.5180049","longitude":"3.4985238","valide":"Non","ppo":"Non","type_carte":"Nouvelle carte","fond":"Ortho","obsolete":true}},{"type":"Feature","geometry":{"type":"Polygon","coordinates":[[[3.7051,44.3764],[3.7065,44.3785],[3.7062,44.3792],[3.7076,44.3797],[3.7078,44.3805],[3.7088,44.3805],[3.7112,44.3756],[3.711,44.3741],[3.7138,44.3721],[3.7161,44.3716],[3.7174,44.3706],[3.719,44.3693],[3.7202,44.3691],[3.7218,44.367],[3.7429,44.3666],[3.7432,44.3636],[3.7466,44.363],[3.7504,44.3631],[3.753,44.3633],[3.7552,44.3613],[3.7571,44.3597],[3.7587,44.3599],[3.7659,44.3604],[3.7664,44.3615],[3.7672,44.361],[3.7675,44.3598],[3.7683,44.3594],[3.7686,44.3587],[3.7744,44.3586],[3.8969,44.3602],[3.8862,44.4497],[3.8512,44.4495],[3.8514,44.4569],[3.7029,44.4561],[3.7051,44.3764]]]},"properties":{"id_ffco":"1383","nom":"Mont Lozère Est (Raid Francital 85)","_dept":"48","numero":"1984-D48-901","commune":"Le Bleymard","echelle":"1/25000","surface":"154.75 km²","format":"+","annee":"1984","proprietaire":"LR - Languedoc-Roussillon","niveau":"Interrégional","specialite":"CO à pied","latitude":"44.4080408222","longitude":"3.79862193108","valide":"Non","ppo":"Non","type_carte":"Nouvelle carte","fond":"IGN","ref_ign":"Mont Lozère","obsolete":true}}]}