{"type":"FeatureCollection","features":[{"type":"Feature","geometry":null,"properties":{"id_ffco":"15242","nom":"Projet lycée Nicolas TALON","_dept":"49","numero":"2025-D49-69","surface":"None km²","annee":"2025","date_saisie":"13/10/2025","valide":"Non","ppo":"Non","obsolete":false}},{"type":"Feature","geometry":{"type":"Polygon","coordinates":[[[-0.7086,47.1167],[-0.7096,47.1167],[-0.7099,47.1164],[-0.7112,47.116],[-0.7114,47.1166],[-0.7123,47.1165],[-0.7124,47.1169],[-0.7136,47.1166],[-0.7136,47.1184],[-0.7109,47.1191],[-0.7099,47.1191],[-0.7086,47.1167]]]},"properties":{"id_ffco":"14270","nom":"Espace sports et loisirs de la Coulée des Douves","_dept":"49","numero":"2022-D49-68","commune":"VEZINS","echelle":"1/2000","surface":"0.09 km²","format":"A4","annee":"2022","cartographes":"Frédéric SIMONNEAU","proprietaire":"Mairie de Verzins","niveau":"Initiation, Scolaire","specialite":"CO à pied","latitude":"47.1176364071","longitude":"-0.711261807106","date_saisie":"19/12/2023","date_depot":"02/05/2024","valide":"Oui","ppo":"Non","type_carte":"Nouvelle carte","fond":"Cadastre","obsolete":false}},{"type":"Feature","geometry":{"type":"Polygon","coordinates":[[[-1.2481,47.2885],[-1.2505,47.289],[-1.2507,47.2883],[-1.2516,47.2879],[-1.252,47.2873],[-1.2527,47.2874],[-1.2539,47.2864],[-1.2541,47.2858],[-1.2548,47.2848],[-1.2545,47.2845],[-1.2545,47.2841],[-1.2557,47.2842],[-1.2558,47.2836],[-1.2563,47.2826],[-1.2579,47.2815],[-1.2578,47.2801],[-1.2576,47.2797],[-1.2561,47.2788],[-1.2543,47.2808],[-1.2549,47.2817],[-1.2532,47.2827],[-1.2533,47.2831],[-1.253,47.2837],[-1.2513,47.2842],[-1.2514,47.2846],[-1.2505,47.2858],[-1.2496,47.2858],[-1.2481,47.2885]]]},"properties":{"id_ffco":"14265","nom":"L'Etang de Rochefort","_dept":"49","numero":"2023-D49-67","commune":"SAINT SAUVEUR DE LANDEMONT","echelle":"1/4000","surface":"0.26 km²","format":"A4","annee":"2023","cartographes":"Frédéric SIMONNEAU","proprietaire":"Mairie d'Orée d'Anjou","niveau":"Initiation, Scolaire","specialite":"CO à pied","latitude":"47.2842272803","longitude":"-1.25338042418","date_saisie":"18/12/2023","date_depot":"02/05/2024","valide":"Oui","ppo":"Non","type_carte":"Nouvelle carte","fond":"Cadastre","obsolete":false}},{"type":"Feature","geometry":{"type":"Polygon","coordinates":[[[-1.1704,47.2771],[-1.1702,47.2748],[-1.1624,47.2711],[-1.162,47.2702],[-1.1602,47.2703],[-1.1598,47.2717],[-1.1613,47.2755],[-1.1611,47.278],[-1.1622,47.2784],[-1.1645,47.278],[-1.1655,47.2768],[-1.1671,47.2767],[-1.1676,47.2783],[-1.1689,47.2779],[-1.1688,47.2774],[-1.1704,47.2771]]]},"properties":{"id_ffco":"14263","nom":"Etang de la Foucaudière","_dept":"49","numero":"2020-D49-66","commune":"SAINT LAURENT DES AUTELS","echelle":"1/4000","surface":"0.42 km²","format":"A4","annee":"2020","cartographes":"Frédéric SIMONNEAU","proprietaire":"Mairie d'Orée d'Anjou","niveau":"Initiation, Scolaire","specialite":"CO à pied","latitude":"47.2747553271","longitude":"-1.16453029201","date_saisie":"17/12/2023","date_depot":"02/05/2024","valide":"Oui","ppo":"Non","type_carte":"Nouvelle carte","fond":"Cadastre","obsolete":false}},{"type":"Feature","geometry":{"type":"Polygon","coordinates":[[[-1.2617,47.3397],[-1.2616,47.3377],[-1.2625,47.3374],[-1.2635,47.3374],[-1.2659,47.3374],[-1.2675,47.3371],[-1.2683,47.3374],[-1.2679,47.3384],[-1.2682,47.3389],[-1.2691,47.3389],[-1.2693,47.3398],[-1.2654,47.3401],[-1.2617,47.3397]]]},"properties":{"id_ffco":"14260","nom":"Le Prieuré Champtoceaux","_dept":"49","numero":"2021-D49-65","commune":"OREE D'ANJOU","echelle":"1/2500","surface":"0.15 km²","format":"A4","annee":"2021","cartographes":"Frédéric SIMONNEAU","proprietaire":"Mairie d'Orée d'Anjou","niveau":"Initiation, Scolaire","specialite":"CO à pied","latitude":"47.3387047869","longitude":"-1.26518387984","date_saisie":"17/12/2023","date_depot":"02/05/2024","valide":"Oui","ppo":"Non","type_carte":"Nouvelle carte","fond":"Cadastre","obsolete":false}},{"type":"Feature","geometry":{"type":"Polygon","coordinates":[[[-0.9364,47.0352],[-0.9404,47.0364],[-0.9435,47.0368],[-0.948,47.034],[-0.9521,47.0329],[-0.9533,47.0323],[-0.9539,47.0318],[-0.9541,47.0315],[-0.9532,47.031],[-0.9544,47.0299],[-0.9502,47.0282],[-0.9499,47.0277],[-0.9505,47.0262],[-0.9503,47.0242],[-0.9495,47.0235],[-0.9462,47.0236],[-0.9472,47.0219],[-0.9477,47.0205],[-0.9471,47.0203],[-0.943,47.0261],[-0.94,47.0302],[-0.9364,47.0352]]]},"properties":{"id_ffco":"14171","nom":"Saint Christophe du Bois","_dept":"49","numero":"2022-D49-64","commune":"SAINT CHRISTOPHE DU BOIS","echelle":"1/4000","surface":"1.13 km²","format":"A3","annee":"2022","cartographes":"Nicolas TALON","proprietaire":"Mairie de Saint Christophe du Bois","niveau":"Régional","specialite":"CO à pied","latitude":"47.0302949388","longitude":"-0.94551977472","date_saisie":"30/11/2023","date_depot":"02/05/2024","valide":"Oui","ppo":"Non","type_carte":"Nouvelle carte","fond":"Cadastre","obsolete":false}},{"type":"Feature","geometry":{"type":"Polygon","coordinates":[[[-0.072,47.2537],[-0.0729,47.2546],[-0.0733,47.2547],[-0.074,47.2542],[-0.0743,47.2544],[-0.0748,47.2541],[-0.0754,47.2543],[-0.0755,47.2538],[-0.0747,47.2535],[-0.0746,47.2532],[-0.0751,47.2531],[-0.0748,47.2526],[-0.0742,47.2524],[-0.0735,47.2518],[-0.0735,47.2515],[-0.0729,47.2511],[-0.0721,47.2509],[-0.0716,47.2505],[-0.0707,47.2506],[-0.0708,47.2508],[-0.072,47.2523],[-0.0718,47.2525],[-0.0708,47.2529],[-0.0717,47.2538],[-0.072,47.2537]]]},"properties":{"id_ffco":"13890","nom":"Le Jardin des Plantes","_dept":"49","numero":"2023-D49-63","commune":"SAUMUR","echelle":"1/2000","surface":"0.09 km²","format":"A4","annee":"2023","cartographes":"Eric Charles","proprietaire":"Ville de Saumur","niveau":"Initiation, Scolaire","specialite":"CO à pied","latitude":"47.2527721598","longitude":"-0.072949197977","date_saisie":"18/03/2023","date_depot":"27/06/2023","valide":"Oui","ppo":"Non","type_carte":"Nouvelle carte","fond":"Cadastre","obsolete":false}},{"type":"Feature","geometry":{"type":"Polygon","coordinates":[[[-0.9927,47.1966],[-0.9889,47.1934],[-0.9885,47.1918],[-0.9911,47.1919],[-0.9948,47.1943],[-0.9927,47.1966]]]},"properties":{"id_ffco":"11364","nom":"La Chardonnerie Beaupréau","_dept":"49","numero":"2016-D49-62","commune":"BEAUPREAU","echelle":"1/2500","surface":"0.13 km²","format":"A4","annee":"2016","cartographes":"Frédéric SIMONNEAU","proprietaire":"o2c.org@gmail.com","niveau":"Initiation, Scolaire","specialite":"CO à pied","contacts":"f.simonneau, o2c.org@gmail.com, https://www.o2c-orga.fr/","latitude":"47.1938722278","longitude":"-0.991586646759","date_saisie":"24/01/2019","date_depot":"02/04/2019","valide":"Oui","ppo":"Non","type_carte":"Nouvelle carte","fond":"Ortho","obsolete":false}},{"type":"Feature","geometry":{"type":"Polygon","coordinates":[[[-0.8876,47.6923],[-0.8901,47.6928],[-0.8912,47.6896],[-0.8782,47.6828],[-0.8752,47.6828],[-0.8719,47.6837],[-0.8731,47.6851],[-0.8742,47.6848],[-0.8759,47.6837],[-0.8773,47.6838],[-0.8809,47.6867],[-0.8807,47.6869],[-0.8816,47.6874],[-0.8819,47.6871],[-0.887,47.6909],[-0.8876,47.6923]]]},"properties":{"id_ffco":"11359","nom":"La vallée de l'Oudon","_dept":"49","numero":"2018-D49-61","commune":"SEGRE EN ANJOU","echelle":"1/5000","surface":"0.39 km²","format":"A4","annee":"2018","cartographes":"Frédéric SIMONNEAU","proprietaire":"Mairie de Segré en Anjou","niveau":"Départemental","specialite":"CO à pied","contacts":"f.simonneau, 0677174396, o2c.org@gmail.com, https://www.o2c-orga.fr/","latitude":"47.687364069","longitude":"-0.883557405619","date_saisie":"17/01/2019","date_depot":"02/04/2019","valide":"Oui","ppo":"Oui (25 postes)","type_carte":"Nouvelle carte","fond":"Ortho","obsolete":false}},{"type":"Feature","geometry":{"type":"Polygon","coordinates":[[[-0.4896,47.4502],[-0.4878,47.4505],[-0.4857,47.4496],[-0.4839,47.4518],[-0.487,47.4524],[-0.4869,47.453],[-0.487,47.4537],[-0.4861,47.4551],[-0.4876,47.4555],[-0.488,47.4559],[-0.4913,47.4567],[-0.4928,47.4583],[-0.4953,47.4586],[-0.498,47.4545],[-0.499,47.4536],[-0.4951,47.453],[-0.4923,47.4521],[-0.4896,47.4502]]]},"properties":{"id_ffco":"14246","nom":"Parc Des Ardoisières","_dept":"49","numero":"2016-D49-22","commune":"TRELAZE","echelle":"1/5000","surface":"0.52 km²","format":"A4","annee":"2016","cartographes":"MASSON Philippe","proprietaire":"CSAD Angers","niveau":"Départemental","specialite":"CO à pied","latitude":"47.4541204396","longitude":"-0.491468380263","date_saisie":"16/12/2023","valide":"Non","ppo":"Non","type_carte":"Nouvelle carte","fond":"Cadastre","obsolete":false}},{"type":"Feature","geometry":{"type":"Polygon","coordinates":[[[-0.4744,47.4674],[-0.4762,47.467],[-0.4828,47.4669],[-0.4837,47.467],[-0.4849,47.4669],[-0.4845,47.4691],[-0.4822,47.4716],[-0.479,47.4714],[-0.4788,47.4715],[-0.477,47.4713],[-0.4771,47.4718],[-0.4764,47.472],[-0.4764,47.4725],[-0.474,47.4728],[-0.4739,47.4732],[-0.4732,47.4732],[-0.4728,47.4733],[-0.472,47.4737],[-0.468,47.4733],[-0.4673,47.4731],[-0.4659,47.473],[-0.4658,47.4726],[-0.4654,47.4719],[-0.4655,47.47],[-0.4659,47.4698],[-0.4657,47.4694],[-0.4744,47.4674]]]},"properties":{"id_ffco":"10235","nom":"Parc de Pignerolles","_dept":"49","numero":"2016-D49-21","commune":"ST BARTHELEMY D ANJOU","echelle":"1/5000","surface":"0.74 km²","format":"A4","annee":"2016","cartographes":"MASSON Philippe","proprietaire":"4902 - CSAD D'ANGERS","niveau":"Régional","specialite":"CO à pied","contacts":"CSAD ANGERS, Chez Ph. MASSON, 3, rue Henri DUNANT, 49220, LE LION D'ANGERS, 0626319376, ano49@sfr.fr","latitude":"47.4700524846","longitude":"-0.474780943234","date_saisie":"29/06/2017","date_depot":"05/07/2017","valide":"Oui","ppo":"Non","type_carte":"Reprise","base":"1986-D49-03 CHATEAU DE PIGNEROLLES","fond":"Cadastre","obsolete":false}},{"type":"Feature","geometry":{"type":"Polygon","coordinates":[[[-0.5939,47.4807],[-0.5937,47.4824],[-0.5981,47.4832],[-0.5995,47.4832],[-0.6006,47.4836],[-0.603,47.4839],[-0.6035,47.4825],[-0.6038,47.4824],[-0.6043,47.4808],[-0.6049,47.4809],[-0.6062,47.4782],[-0.6048,47.4784],[-0.5989,47.477],[-0.5986,47.4781],[-0.5978,47.4791],[-0.5965,47.4801],[-0.5952,47.4805],[-0.5939,47.4807]]]},"properties":{"id_ffco":"14245","nom":"Cité Universitaire","_dept":"49","numero":"2013-D49-20","commune":"ANGERS","echelle":"1/4000","surface":"0.41 km²","format":"A4","annee":"2013","cartographes":"MASSON Philippe","proprietaire":"CSAD Angers","niveau":"Régional","specialite":"CO à pied","latitude":"47.4806343714","longitude":"-0.600212957819","date_saisie":"16/12/2023","valide":"Non","ppo":"Non","type_carte":"Nouvelle carte","fond":"Cadastre","obsolete":false}},{"type":"Feature","geometry":{"type":"Polygon","coordinates":[[[-0.5625,47.4702],[-0.5532,47.4664],[-0.5477,47.4705],[-0.5451,47.4738],[-0.5538,47.4774],[-0.557,47.4733],[-0.5625,47.4702]]]},"properties":{"id_ffco":"14244","nom":"Angers Centre","_dept":"49","numero":"2012-D49-19","commune":"ANGERS","echelle":"1/5000","surface":"0.79 km²","format":"A4","annee":"2012","cartographes":"MASSON Philippe","proprietaire":"Angers Nature Orientation","niveau":"Régional","specialite":"CO à pied","latitude":"47.4717397842","longitude":"-0.553234677826","date_saisie":"16/12/2023","valide":"Non","ppo":"Non","type_carte":"Nouvelle carte","fond":"Cadastre","obsolete":false}},{"type":"Feature","geometry":{"type":"Polygon","coordinates":[[[-0.5773,47.4731],[-0.5734,47.4713],[-0.5687,47.4701],[-0.5753,47.4648],[-0.5796,47.4656],[-0.5848,47.4678],[-0.5842,47.468],[-0.5835,47.468],[-0.5824,47.4685],[-0.5804,47.4706],[-0.5792,47.4707],[-0.5773,47.4731]]]},"properties":{"id_ffco":"14242","nom":"Balzac","_dept":"49","numero":"2012-D49-14","commune":"ANGERS","echelle":"1/5000","surface":"0.55 km²","format":"A4","annee":"2012","cartographes":"MASSON Philippe","proprietaire":"Angers Nature Orientation","niveau":"Régional","specialite":"CO à pied","latitude":"47.4686446952","longitude":"-0.57655421307","date_saisie":"16/12/2023","valide":"Non","ppo":"Non","type_carte":"Nouvelle carte","fond":"Cadastre","obsolete":false}},{"type":"Feature","geometry":{"type":"Polygon","coordinates":[[[-0.5691,47.4702],[-0.5692,47.4695],[-0.5722,47.4673],[-0.5754,47.4648],[-0.5796,47.4656],[-0.5846,47.4677],[-0.5873,47.4689],[-0.5883,47.4703],[-0.5866,47.4712],[-0.5858,47.4709],[-0.5846,47.4713],[-0.5836,47.4716],[-0.5828,47.4716],[-0.5813,47.4718],[-0.5795,47.4718],[-0.5785,47.4719],[-0.5778,47.4723],[-0.5771,47.4729],[-0.5737,47.4715],[-0.5708,47.4705],[-0.5691,47.4702]]]},"properties":{"id_ffco":"291","nom":"Château de la Turmelière","_dept":"49","numero":"????-D49-","commune":"Liré","surface":"0.73 km²","cartographes":"f.simonneau","niveau":"Initiation, Scolaire","specialite":"CO à pied","contacts":"Association La Turmeliere, 02 40 09 15 16","latitude":"47.4690091426","longitude":"-0.578355545269","valide":"Non","ppo":"Oui","obsolete":false}},{"type":"Feature","geometry":null,"properties":{"id_ffco":"291","nom":"Parcours CO (Salle omnisports!!!)","_dept":"49","numero":"????-D49-","commune":"Tiercé","surface":"None km²","latitude":"47.6145954","longitude":"-0.4682411","valide":"Non","ppo":"Oui","obsolete":false}},{"type":"Feature","geometry":{"type":"Polygon","coordinates":[[[-0.5863,47.4684],[-0.5884,47.4687],[-0.592,47.4665],[-0.5941,47.4641],[-0.5955,47.4626],[-0.5963,47.4609],[-0.597,47.4581],[-0.5968,47.4553],[-0.5969,47.4548],[-0.5959,47.4544],[-0.5952,47.4545],[-0.5948,47.4542],[-0.5947,47.4529],[-0.595,47.4524],[-0.5951,47.4518],[-0.5957,47.4517],[-0.5957,47.4508],[-0.5943,47.4495],[-0.5899,47.4515],[-0.585,47.4535],[-0.5822,47.4551],[-0.5795,47.4586],[-0.578,47.4609],[-0.5766,47.4634],[-0.5753,47.4648],[-0.5804,47.4659],[-0.5849,47.4679],[-0.5863,47.4684]]]},"properties":{"id_ffco":"291","nom":"Parc de loisirs du lac de Maine","_dept":"49","numero":"????-D49-","commune":"Angers","surface":"2.05 km²","latitude":"47.4598489931","longitude":"-0.587738783393","valide":"Non","ppo":"Oui","obsolete":false}}]}