{"type":"FeatureCollection","features":[{"type":"Feature","geometry":{"type":"Polygon","coordinates":[[[-0.5765,47.4738],[-0.5777,47.4738],[-0.5777,47.4745],[-0.5791,47.475],[-0.5811,47.4751],[-0.5829,47.4751],[-0.5836,47.4757],[-0.5838,47.4764],[-0.5836,47.477],[-0.5833,47.4777],[-0.5836,47.4784],[-0.585,47.4786],[-0.5939,47.4808],[-0.5954,47.4805],[-0.5965,47.48],[-0.5978,47.4791],[-0.5989,47.4792],[-0.5991,47.4817],[-0.6123,47.4855],[-0.6114,47.4863],[-0.6115,47.4869],[-0.6115,47.4876],[-0.6101,47.4878],[-0.6093,47.4877],[-0.6072,47.4898],[-0.585,47.4848],[-0.5838,47.4849],[-0.5821,47.4841],[-0.5758,47.4804],[-0.5765,47.4738]]]},"properties":{"id_ffco":"2542","nom":"Etang Saint Nicolas","_dept":"49","numero":"1990-D49-13","commune":"ANGERS","echelle":"1/10000","surface":"1.88 km²","format":"A4","annee":"1990","cartographes":"Karczewski,VILLET,A. Frangeul","proprietaire":"EAG Angers","niveau":"Départemental","specialite":"CO à pied","latitude":"47.4827607261","longitude":"-0.592308315946","valide":"Non","ppo":"Non","type_carte":"Nouvelle carte","fond":"Cadastre","obsolete":true}},{"type":"Feature","geometry":null,"properties":{"id_ffco":"3162","nom":"LES CAVES DE CHANZELLE","_dept":"49","numero":"1997-D49-10","commune":"BAUGE","echelle":"1/15000","surface":"7.0 km²","format":"A4","annee":"1997","cartographes":"Frangeul,VILLET","proprietaire":"4902 - CSAD D'ANGERS","niveau":"Interrégional","specialite":"CO à pied","latitude":"47.5174443995","longitude":"-0.0381393759552","valide":"Non","ppo":"Non","obsolete":true}},{"type":"Feature","geometry":null,"properties":{"id_ffco":"6948","nom":"Chanteloup","_dept":"49","numero":"1993-D49-08","commune":"FONTEVRAULT","echelle":"1/10000","surface":"None km²","format":"A4","annee":"1993","cartographes":"B. STREIFF","proprietaire":"BI 507ème RCC","niveau":"Départemental","specialite":"CO à pied","latitude":"47.1856465056","longitude":"0.0287906646729","date_saisie":"27/09/2013","valide":"Non","ppo":"Non","obsolete":true}},{"type":"Feature","geometry":null,"properties":{"id_ffco":"6947","nom":"La Verrie","_dept":"49","numero":"1992-D49-07","commune":"Saumur","echelle":"1/10000","surface":"None km²","format":"A4","annee":"1992","cartographes":"B. STREIFF","proprietaire":"4901","niveau":"Départemental","specialite":"CO à pied","latitude":"47.2661428287","longitude":"-0.17840461731","date_saisie":"27/09/2013","valide":"Non","ppo":"Non","obsolete":true}},{"type":"Feature","geometry":null,"properties":{"id_ffco":"2541","nom":"TERREFORT","_dept":"49","numero":"1988-D49-06","commune":"TERREFORT","echelle":"1/10000","surface":"3.0 km²","format":"A4","annee":"1988","cartographes":"C. Didier","proprietaire":"4901","niveau":"Départemental","specialite":"CO à pied","latitude":"47.2506909","longitude":"-0.0952021","valide":"Non","ppo":"Non","obsolete":true}},{"type":"Feature","geometry":null,"properties":{"id_ffco":"820","nom":"LE ROI RENE","_dept":"49","numero":"1988-D49-05","commune":"BAUGE","echelle":"1/15000","surface":"6.0 km²","format":"A4","annee":"1988","cartographes":"Dardaillon,Guichemerre,Ozo,Matton","proprietaire":"EAG Angers","niveau":"Interrégional","specialite":"CO à pied","latitude":"47.5173574488","longitude":"-0.0380535452667","valide":"Non","ppo":"Non","obsolete":true}},{"type":"Feature","geometry":null,"properties":{"id_ffco":"2545","nom":"LINIERES","_dept":"49","numero":"1987-D49-04","commune":"St-Jean de Linières","echelle":"1/10000","surface":"None km²","format":"A4","annee":"1987","cartographes":"A. Guichemerre,A. Matton","proprietaire":"PL - Pays de la Loire","niveau":"Initiation, Scolaire","specialite":"CO à pied","latitude":"47.4596246064","longitude":"-0.669570732117","date_saisie":"27/09/2013","valide":"Non","ppo":"Non","obsolete":true}},{"type":"Feature","geometry":null,"properties":{"id_ffco":"2545","nom":"FORET BEL-AIR COMBREE","_dept":"49","numero":"1987-D49-04","commune":"Combrée","echelle":"1/5000","surface":"1.0 km²","format":"A3","annee":"1987","cartographes":"Dardaillon,Guichemerre","proprietaire":"PL - Pays de la Loire","niveau":"Départemental","specialite":"CO à pied","latitude":"47.7187934993","longitude":"-1.02876133583","valide":"Non","ppo":"Non","obsolete":true}},{"type":"Feature","geometry":null,"properties":{"id_ffco":"2544","nom":"CHATEAU DE PIGNEROLLES","_dept":"49","numero":"1986-D49-03","commune":"St-Barthélémy d'Anjou","echelle":"1/10000","surface":"1.0 km²","format":"A5","annee":"1986","cartographes":"JP Dardaillon,A. Guichemerre,H Ozo","proprietaire":"PL - Pays de la Loire","niveau":"Initiation, Scolaire","specialite":"CO à pied","latitude":"47.4735754606","longitude":"-0.473102211862","valide":"Non","ppo":"Non","obsolete":true}},{"type":"Feature","geometry":null,"properties":{"id_ffco":"1455","nom":"LES LANDES","_dept":"49","numero":"1984-D49-02","commune":"La Breille-les-pins","echelle":"1/15000","surface":"9.0 km²","format":"A4","annee":"1984","cartographes":"A. Frangeul","proprietaire":"PL - Pays de la Loire","niveau":"Interrégional","specialite":"CO à pied","latitude":"47.3496048998","longitude":"0.0737133543366","valide":"Non","ppo":"Non","obsolete":true}},{"type":"Feature","geometry":null,"properties":{"id_ffco":"2543","nom":"Bois de l'Epinay - La Breille","_dept":"49","numero":"1980-D49-01","commune":"BRAIN/ALLONNES","echelle":"1/10000","surface":"3.8 km²","format":"A3","annee":"1980","cartographes":"A. Frangeul,Colson,Colin,JC Cocault","proprietaire":"PL - Pays de la Loire","niveau":"Départemental","specialite":"CO à pied","latitude":"47.305114208","longitude":"0.0590792219513","valide":"Non","ppo":"Non","obsolete":true}}]}