{"type":"FeatureCollection","features":[{"type":"Feature","geometry":{"type":"Polygon","coordinates":[[[-1.0923,48.5749],[-1.0917,48.5753],[-1.0916,48.5757],[-1.091,48.5758],[-1.0903,48.5758],[-1.0892,48.5756],[-1.0882,48.5753],[-1.0876,48.5735],[-1.0868,48.5731],[-1.0868,48.5723],[-1.0861,48.5712],[-1.0872,48.5709],[-1.0878,48.5709],[-1.088,48.5713],[-1.0886,48.5714],[-1.0892,48.5722],[-1.0899,48.5729],[-1.0908,48.5727],[-1.0909,48.5735],[-1.0916,48.5737],[-1.0923,48.5749]]]},"properties":{"id_ffco":"9246","nom":"Le Prieuré","_dept":"50","numero":"2016-D50-40","commune":"St Hilaire du Harcouet","echelle":"1/2000","surface":"0.12 km²","format":"A4","annee":"2016","cartographes":"Anne Coniel","proprietaire":"NM - Normandie","niveau":"Initiation, Scolaire","specialite":"CO à pied","latitude":"48.5735869204","longitude":"-1.08919887466","date_saisie":"09/02/2016","date_depot":"23/03/2016","valide":"Oui","ppo":"Non","type_carte":"Nouvelle carte","fond":"Cadastre","obsolete":true}},{"type":"Feature","geometry":{"type":"Polygon","coordinates":[[[-1.5985,48.8391],[-1.6008,48.8379],[-1.6022,48.8367],[-1.6076,48.8348],[-1.6082,48.8341],[-1.6095,48.8335],[-1.6117,48.8332],[-1.6139,48.8339],[-1.6133,48.8352],[-1.611,48.8364],[-1.6085,48.8373],[-1.6064,48.8371],[-1.6031,48.8387],[-1.6006,48.8399],[-1.5989,48.8397],[-1.5985,48.8391]]]},"properties":{"id_ffco":"7376","nom":"La Pointe du Roc","_dept":"50","numero":"2014-D50-35","commune":"Granvlle","echelle":"1/4500","surface":"0.28 km²","format":"A4","annee":"2014","proprietaire":"14 - Calvados","niveau":"Régional","specialite":"CO à pied","latitude":"48.8362627528","longitude":"-1.60686403907","date_saisie":"02/05/2014","date_depot":"22/04/2014","valide":"Oui","ppo":"Non","type_carte":"Nouvelle carte","fond":"Cadastre","obsolete":true}},{"type":"Feature","geometry":{"type":"Polygon","coordinates":[[[-1.4533,49.0454],[-1.4507,49.0457],[-1.451,49.0472],[-1.4501,49.048],[-1.4487,49.0485],[-1.4492,49.0491],[-1.4498,49.0498],[-1.4509,49.05],[-1.4518,49.0501],[-1.4517,49.0507],[-1.4531,49.0516],[-1.4561,49.0514],[-1.4594,49.0517],[-1.4596,49.0507],[-1.46,49.0496],[-1.4599,49.0484],[-1.4594,49.0484],[-1.4589,49.0492],[-1.457,49.0486],[-1.4548,49.0489],[-1.454,49.0482],[-1.4544,49.0477],[-1.4551,49.0468],[-1.4536,49.0465],[-1.4532,49.0465],[-1.4528,49.046],[-1.4533,49.0454]]]},"properties":{"id_ffco":"5403","nom":"Coutances - Parc des Sports","_dept":"50","numero":"2011-D50-34","commune":"Coutances","echelle":"1/4000","surface":"0.29 km²","format":"A4","annee":"2011","cartographes":"D Barranger","proprietaire":"NM - Normandie","niveau":"Départemental","specialite":"CO à pied","latitude":"49.0491659019","longitude":"-1.45426830886","date_saisie":"28/06/2012","valide":"Oui","ppo":"Oui (36 postes)","type_carte":"Nouvelle carte","fond":"Cadastre","obsolete":true}},{"type":"Feature","geometry":{"type":"Polygon","coordinates":[[[-1.0695,49.1059],[-1.0698,49.1053],[-1.0748,49.102],[-1.0763,49.1012],[-1.0788,49.1031],[-1.0777,49.1044],[-1.078,49.1054],[-1.0782,49.1057],[-1.0792,49.1054],[-1.0798,49.1057],[-1.0805,49.107],[-1.0783,49.1077],[-1.0749,49.1084],[-1.0732,49.1085],[-1.0697,49.1064],[-1.0695,49.1059]]]},"properties":{"id_ffco":"5099","nom":"Saint Lo- Parc urbain","_dept":"50","numero":"2011-D50-33","commune":"Saint Lo","echelle":"1/5000","surface":"0.37 km²","format":"A4","annee":"2011","cartographes":"BARRANGER","proprietaire":"NM - Normandie","niveau":"National, International","specialite":"CO à pied","latitude":"49.1053859236","longitude":"-1.07499923855","date_saisie":"13/09/2011","date_depot":"07/11/2012","valide":"Oui","ppo":"Non","type_carte":"Nouvelle carte","fond":"Ortho","obsolete":true}},{"type":"Feature","geometry":null,"properties":{"id_ffco":"3238","nom":"BOIS DE ST SAUVEUR LE VICOMTE","_dept":"50","numero":"1998-D50-07","commune":"ST SAUVEUR LE VICOMTE","echelle":"1/10000","surface":"3.0 km²","annee":"1998","specialite":"CO à pied","latitude":"49.3855999","longitude":"-1.5295622","valide":"Non","ppo":"Non","obsolete":true}}]}