{"type":"FeatureCollection","features":[{"type":"Feature","geometry":null,"properties":{"id_ffco":"1982-D52-12","nom":"CORNEE DU DER","_dept":"52","numero":"1982-D52-12","echelle":"1/15000","surface":"4.0 km²","annee":"1982","proprietaire":"CA - Champagne-Ardenne","niveau":"Interrégional","specialite":"CO à pied","latitude":"48.1260968","longitude":"5.1071322","valide":"Non","ppo":"Non","obsolete":false}},{"type":"Feature","geometry":null,"properties":{"id_ffco":"1989-D52-10","nom":"LYCEE CH. DE GAULLE","_dept":"52","numero":"1989-D52-10","echelle":"1/10000","surface":"1.5 km²","annee":"1989","proprietaire":"CA - Champagne-Ardenne","specialite":"CO à pied","latitude":"48.1260968","longitude":"5.1071322","valide":"Non","ppo":"Non","obsolete":false}},{"type":"Feature","geometry":null,"properties":{"id_ffco":"1982-D52-08","nom":"LES MILLERIS","_dept":"52","numero":"1982-D52-08","commune":"LANGRES","echelle":"1/15000","surface":"6.0 km²","annee":"1982","proprietaire":"CA - Champagne-Ardenne","niveau":"Interrégional","specialite":"CO à pied","latitude":"47.8629743","longitude":"5.3341098","valide":"Non","ppo":"Non","obsolete":false}},{"type":"Feature","geometry":null,"properties":{"id_ffco":"1982-D52-07","nom":"SOURCES ET RESSOURCES","_dept":"52","numero":"1982-D52-07","commune":"DOULAINCOURT","echelle":"1/20000","surface":"27.7 km²","annee":"1982","proprietaire":"CA - Champagne-Ardenne","niveau":"Interrégional","specialite":"CO à pied","latitude":"48.3590913","longitude":"5.1633862","valide":"Non","ppo":"Non","obsolete":false}},{"type":"Feature","geometry":null,"properties":{"id_ffco":"1989-D52-06","nom":"BOIS FRONCLES","_dept":"52","numero":"1989-D52-06","commune":"FRONCLES","echelle":"1/10000","surface":"2.2 km²","annee":"1989","proprietaire":"CA - Champagne-Ardenne","specialite":"CO à pied","latitude":"48.2973247","longitude":"5.1476285","valide":"Non","ppo":"Non","obsolete":false}},{"type":"Feature","geometry":null,"properties":{"id_ffco":"1989-D52-04","nom":"ST ROCH","_dept":"52","numero":"1989-D52-04","commune":"CHAUMONT","echelle":"1/10000","surface":"2.0 km²","annee":"1989","specialite":"CO à pied","latitude":"48.111322","longitude":"5.1399084","valide":"Non","ppo":"Non","obsolete":false}},{"type":"Feature","geometry":null,"properties":{"id_ffco":"1975-D52-011","nom":"FORET DES DHUITS","_dept":"52","numero":"1975-D52-011","commune":"COLOMBEY LES 2 EGLISES","echelle":"1/15000","surface":"7.0 km²","annee":"1975","proprietaire":"CA - Champagne-Ardenne","specialite":"CO à pied","latitude":"48.222511","longitude":"4.8853839","valide":"Non","ppo":"Non","obsolete":false}},{"type":"Feature","geometry":null,"properties":{"id_ffco":"1975-D52-009","nom":"COMBE MARTIN","_dept":"52","numero":"1975-D52-009","commune":"CHAUMONT","echelle":"1/15000","surface":"20.0 km²","annee":"1975","proprietaire":"CA - Champagne-Ardenne","specialite":"CO à pied","latitude":"48.111322","longitude":"5.1399084","valide":"Non","ppo":"Non","obsolete":false}},{"type":"Feature","geometry":null,"properties":{"id_ffco":"1982-D52-003","nom":"LANGRES 52 - FORET DE MARNE ET MONT","_dept":"52","numero":"1982-D52-003","commune":"LANGRES","echelle":"1/15000","surface":"4.0 km²","annee":"1982","proprietaire":"CA - Champagne-Ardenne","niveau":"Interrégional","specialite":"CO à pied","latitude":"47.8629743","longitude":"5.3341098","valide":"Non","ppo":"Non","obsolete":false}},{"type":"Feature","geometry":null,"properties":{"id_ffco":"1989-D52-002","nom":"CHAUMONT - FORET DU CORGEBIN","_dept":"52","numero":"1989-D52-002","commune":"CHAUMONT","echelle":"1/10000","surface":"2.0 km²","annee":"1989","proprietaire":"CA - Champagne-Ardenne","specialite":"CO à pied","latitude":"48.111322","longitude":"5.1399084","valide":"Non","ppo":"Non","obsolete":false}},{"type":"Feature","geometry":null,"properties":{"id_ffco":"1989-D52-00","nom":"HAIE RENAUT","_dept":"52","numero":"1989-D52-00","commune":"ST DIZIER","echelle":"1/16667","surface":"1.0 km²","annee":"1989","specialite":"CO à pied","latitude":"48.6372846","longitude":"4.9497009","valide":"Non","ppo":"Non","obsolete":false}},{"type":"Feature","geometry":null,"properties":{"id_ffco":"????-D52-","nom":"Villiers en Lieu","_dept":"52","numero":"????-D52-","commune":"Villiers en Lieu","surface":"None km²","contacts":"Laurent Dervogne, 06 64 13 23 77 // Mairie, 03 25 05 42 17","latitude":"48.6663691","longitude":"4.9007406","valide":"Non","ppo":"Oui","obsolete":false}}]}