{"type":"FeatureCollection","features":[{"type":"Feature","geometry":{"type":"Polygon","coordinates":[[[-0.5492,47.9512],[-0.5479,47.9509],[-0.5464,47.9522],[-0.5458,47.9522],[-0.5457,47.9548],[-0.5479,47.9547],[-0.5494,47.9532],[-0.5499,47.9521],[-0.5488,47.9518],[-0.5492,47.9512]]]},"properties":{"id_ffco":"15617","nom":"MESLAY DU MAINE Parc des sports","_dept":"53","numero":"2026-D53-55","commune":"MESLAY DU MAINE","echelle":"1/2000","surface":"0.09 km²","format":"A4","annee":"2026","cartographes":"Frédéric PINCON","proprietaire":"5302 - ORIENTATION 53","niveau":"Initiation, Scolaire","specialite":"CO à pied","latitude":"47.9529745512","longitude":"-0.547582007341","date_saisie":"19/04/2026","valide":"Non","ppo":"Non","type_carte":"Nouvelle carte","fond":"Ortho","obsolete":false}},{"type":"Feature","geometry":{"type":"Polygon","coordinates":[[[-1.0599,48.4429],[-1.0593,48.4431],[-1.0583,48.4438],[-1.0564,48.443],[-1.0562,48.4424],[-1.0552,48.4426],[-1.0545,48.4419],[-1.0542,48.4414],[-1.0539,48.441],[-1.0535,48.4402],[-1.0537,48.4395],[-1.0549,48.4396],[-1.0552,48.4398],[-1.0563,48.4399],[-1.0574,48.4397],[-1.0575,48.4402],[-1.0589,48.4402],[-1.0599,48.4429]]]},"properties":{"id_ffco":"15580","nom":"Pontmain - Le parc des Oblats et du Relais Le Bocage","_dept":"53","numero":"2026-D53-54","commune":"Pontmain","echelle":"1/3000","surface":"0.14 km²","format":"A4","annee":"2026","cartographes":"Etienne HAMEAU","proprietaire":"5302 - ORIENTATION 53","niveau":"Départemental","specialite":"CO à pied","contacts":"Relais du Bocage, 2 rue de Mausson, 53220, PONTMAIN","latitude":"48.4414500166","longitude":"-1.05681553112","date_saisie":"31/03/2026","valide":"Non","ppo":"Non","type_carte":"Nouvelle carte","fond":"Ortho","obsolete":false}},{"type":"Feature","geometry":{"type":"Polygon","coordinates":[[[-0.7685,48.0665],[-0.774,48.0665],[-0.7744,48.067],[-0.7758,48.0681],[-0.7764,48.0693],[-0.7764,48.0697],[-0.778,48.0707],[-0.7785,48.0719],[-0.7787,48.0729],[-0.7779,48.0743],[-0.7743,48.0742],[-0.773,48.0743],[-0.7722,48.0768],[-0.7721,48.077],[-0.7691,48.0769],[-0.7685,48.0765],[-0.7667,48.0765],[-0.7667,48.0756],[-0.7614,48.0759],[-0.759,48.0744],[-0.759,48.0739],[-0.7596,48.0729],[-0.7623,48.0712],[-0.7621,48.07],[-0.7645,48.0673],[-0.7683,48.0677],[-0.7685,48.0665]]]},"properties":{"id_ffco":"15327","nom":"Laval Centre","_dept":"53","numero":"2025-D53-53","commune":"Laval","echelle":"1/4000","surface":"1.14 km²","format":"A3","annee":"2025","cartographes":"Etienne HAMEAU,Soizic MAHEO","proprietaire":"5302 - ORIENTATION 53","niveau":"Départemental","specialite":"CO à pied","contacts":"Orientation 53, CREF de Laval, Avenue Pierre de Coubertin, 53000, LAVAL, info@Òorientation53.fr, http://www.orientation53.fr/","latitude":"48.0717553109","longitude":"-0.769150792827","date_saisie":"18/11/2025","valide":"Non","ppo":"Non","type_carte":"Reprise","base":"2016-D53-27 Laval Centre Historique","fond":"Cadastre","obsolete":false}},{"type":"Feature","geometry":{"type":"Polygon","coordinates":[[[-0.5006,48.2523],[-0.497,48.253],[-0.496,48.2525],[-0.4946,48.2528],[-0.4946,48.2532],[-0.494,48.2534],[-0.4942,48.2542],[-0.4935,48.2546],[-0.4935,48.255],[-0.494,48.2555],[-0.4942,48.256],[-0.4934,48.2565],[-0.4922,48.2573],[-0.4926,48.2576],[-0.4932,48.2581],[-0.4937,48.2583],[-0.4942,48.2591],[-0.4945,48.2592],[-0.4948,48.2598],[-0.495,48.2597],[-0.4952,48.26],[-0.4959,48.2597],[-0.4963,48.2601],[-0.4964,48.2603],[-0.4966,48.2606],[-0.4964,48.2612],[-0.4968,48.2611],[-0.4972,48.2615],[-0.4981,48.2611],[-0.4984,48.2614],[-0.4994,48.2609],[-0.4995,48.2605],[-0.5002,48.2599],[-0.5,48.2597],[-0.4982,48.2576],[-0.4986,48.2576],[-0.4987,48.2564],[-0.4998,48.2555],[-0.4998,48.2551],[-0.5006,48.2549],[-0.5014,48.2525],[-0.5006,48.2523]]]},"properties":{"id_ffco":"14936","nom":"Jublains","_dept":"53","numero":"2025-D53-52","commune":"JUBLAINS","echelle":"1/4000","surface":"0.39 km²","format":"A4","annee":"2025","cartographes":"Etienne HAMEAU","proprietaire":"5302 - ORIENTATION 53","niveau":"Initiation, Scolaire","specialite":"CO à pied","latitude":"48.2564400929","longitude":"-0.496925360039","date_saisie":"10/03/2025","date_depot":"28/01/2026","valide":"Oui","ppo":"Non","type_carte":"Nouvelle carte","fond":"Ortho","obsolete":false}},{"type":"Feature","geometry":{"type":"Polygon","coordinates":[[[-1.0337,48.1157],[-1.0335,48.1163],[-1.0331,48.1165],[-1.0314,48.1157],[-1.0315,48.1151],[-1.0321,48.1145],[-1.0324,48.1145],[-1.0328,48.115],[-1.0326,48.1156],[-1.0331,48.1157],[-1.0337,48.1157]]]},"properties":{"id_ffco":"14866","nom":"Saint Pierre La Cour Etang Est","_dept":"53","numero":"2025-D53-51","commune":"ST PIERRE LA COUR","echelle":"1/1000","surface":"0.02 km²","format":"A4","annee":"2025","cartographes":"Etienne HAMEAU","proprietaire":"5302 - ORIENTATION 53","niveau":"Initiation, Scolaire","specialite":"CO à pied","latitude":"48.1155309288","longitude":"-1.0324562665","date_saisie":"20/01/2025","date_depot":"28/01/2026","valide":"Oui","ppo":"Non","type_carte":"Nouvelle carte","fond":"Ortho","obsolete":false}},{"type":"Feature","geometry":{"type":"Polygon","coordinates":[[[-0.8947,48.096],[-0.8958,48.099],[-0.8957,48.1],[-0.894,48.1011],[-0.8936,48.1023],[-0.8903,48.1027],[-0.8905,48.1035],[-0.889,48.1033],[-0.8889,48.1037],[-0.884,48.1033],[-0.8821,48.1031],[-0.8826,48.1018],[-0.8836,48.1004],[-0.8844,48.0992],[-0.8859,48.0977],[-0.8861,48.0974],[-0.8874,48.0971],[-0.891,48.097],[-0.8947,48.096]]]},"properties":{"id_ffco":"14804","nom":"Le Genest Saint Isle","_dept":"53","numero":"2024-D53-50","commune":"LE GENEST SAINT ISLE","echelle":"1/4000","surface":"0.57 km²","format":"A4","annee":"2024","cartographes":"Etienne HAMEAU","proprietaire":"5302 - ORIENTATION 53","niveau":"Régional","specialite":"Sprint (ISSOM)","latitude":"48.1001178804","longitude":"-0.889307169802","date_saisie":"07/12/2024","date_depot":"17/09/2025","valide":"Oui","ppo":"Non","type_carte":"Nouvelle carte","base":"2009-D53-20 Le Genest-Saint-Isle","fond":"Cadastre","obsolete":false}},{"type":"Feature","geometry":{"type":"Polygon","coordinates":[[[-0.7923,48.1765],[-0.7918,48.1766],[-0.7906,48.1765],[-0.7902,48.1771],[-0.7893,48.1781],[-0.7868,48.1773],[-0.7861,48.1763],[-0.7863,48.1757],[-0.7883,48.1747],[-0.7901,48.1757],[-0.7916,48.1762],[-0.7923,48.1765]]]},"properties":{"id_ffco":"14657","nom":"Andouillé - Zone de Loisirs","_dept":"53","numero":"2024-D53-49","commune":"ANDOUILLE","echelle":"1/2200","surface":"0.09 km²","format":"A4","annee":"2024","cartographes":"José Antonio GARCIA PAREDES","proprietaire":"5302 - ORIENTATION 53","niveau":"Initiation, Scolaire","specialite":"CO à pied","contacts":"Collège public d'Andouillé","latitude":"48.1763749846","longitude":"-0.788615454167","date_saisie":"30/09/2024","date_depot":"17/09/2025","valide":"Oui","ppo":"Non","type_carte":"Nouvelle carte","fond":"Ortho","obsolete":false}},{"type":"Feature","geometry":{"type":"Polygon","coordinates":[[[-0.7873,48.0949],[-0.7869,48.095],[-0.7868,48.0959],[-0.7873,48.0973],[-0.7877,48.0982],[-0.7877,48.0989],[-0.7877,48.0992],[-0.7885,48.0993],[-0.7894,48.0991],[-0.7897,48.0988],[-0.7898,48.0985],[-0.7901,48.0976],[-0.7898,48.097],[-0.7892,48.0964],[-0.7873,48.0949]]]},"properties":{"id_ffco":"14162","nom":"CHANGE - Les Ondines","_dept":"53","numero":"2023-D53-48","commune":"CHANGÉ","echelle":"1/2000","surface":"0.07 km²","format":"A4","annee":"2023","cartographes":"Etienne HAMEAU","proprietaire":"5302 - ORIENTATION 53","niveau":"Initiation, Scolaire","specialite":"CO à pied","latitude":"48.0972945113","longitude":"-0.788389288147","date_saisie":"28/11/2023","date_depot":"23/07/2024","valide":"Oui","ppo":"Non","type_carte":"Nouvelle carte","fond":"Ortho","obsolete":false}},{"type":"Feature","geometry":{"type":"Polygon","coordinates":[[[-0.7979,48.0586],[-0.799,48.0593],[-0.8001,48.0598],[-0.8011,48.0602],[-0.8031,48.0607],[-0.8029,48.0615],[-0.803,48.0644],[-0.803,48.0647],[-0.8018,48.0645],[-0.8014,48.0651],[-0.8005,48.0653],[-0.7996,48.0651],[-0.799,48.0647],[-0.7976,48.0651],[-0.7969,48.0654],[-0.7947,48.0652],[-0.7924,48.0652],[-0.7905,48.0648],[-0.7889,48.0647],[-0.7892,48.0642],[-0.7886,48.0636],[-0.7888,48.063],[-0.7894,48.0629],[-0.7891,48.0622],[-0.7888,48.0619],[-0.7893,48.0614],[-0.7888,48.0604],[-0.7892,48.0598],[-0.7893,48.059],[-0.7899,48.0585],[-0.7912,48.0585],[-0.7925,48.0584],[-0.7942,48.0581],[-0.795,48.0581],[-0.7959,48.0589],[-0.7963,48.059],[-0.7974,48.0592],[-0.7979,48.0586]]]},"properties":{"id_ffco":"13668","nom":"LAVAL - Le Bourny","_dept":"53","numero":"2023-D53-47","commune":"LAVAL","echelle":"1/5000","surface":"0.69 km²","format":"A4","annee":"2023","cartographes":"Etienne HAMEAU","proprietaire":"5302 - ORIENTATION 53","niveau":"Régional","specialite":"CO à pied","latitude":"48.0619895048","longitude":"-0.795579892226","date_saisie":"18/11/2022","date_depot":"27/06/2023","valide":"Oui","ppo":"Non","type_carte":"Nouvelle carte","fond":"Ortho","obsolete":false}},{"type":"Feature","geometry":{"type":"Polygon","coordinates":[[[-0.7832,48.0704],[-0.7822,48.0704],[-0.7821,48.0699],[-0.7816,48.0699],[-0.7815,48.0688],[-0.783,48.0691],[-0.7831,48.0691],[-0.7835,48.0691],[-0.7837,48.069],[-0.7839,48.0692],[-0.7838,48.0692],[-0.7838,48.0695],[-0.7831,48.0695],[-0.7831,48.0697],[-0.7832,48.0704]]]},"properties":{"id_ffco":"13612","nom":"LAVAL - Cours Sainte Thérèse","_dept":"53","numero":"2022-D53-46","commune":"LAVAL","echelle":"1/1000","surface":"0.02 km²","format":"A4","annee":"2022","cartographes":"Etienne HAMEAU","proprietaire":"5302 - ORIENTATION 53","niveau":"Initiation, Scolaire","specialite":"CO à pied","latitude":"48.0695443485","longitude":"-0.782492814003","date_saisie":"12/10/2022","date_depot":"28/02/2023","valide":"Oui","ppo":"Non","type_carte":"Nouvelle carte","fond":"Ortho","obsolete":false}},{"type":"Feature","geometry":{"type":"Polygon","coordinates":[[[-1.0643,47.864],[-1.0637,47.8645],[-1.0633,47.8643],[-1.0629,47.8643],[-1.0622,47.8645],[-1.0619,47.8646],[-1.0616,47.8647],[-1.0612,47.8647],[-1.0609,47.8646],[-1.0606,47.8646],[-1.0602,47.8646],[-1.0593,47.8646],[-1.059,47.8647],[-1.0588,47.8643],[-1.0612,47.8639],[-1.0611,47.8637],[-1.0625,47.8635],[-1.0643,47.8636],[-1.0643,47.864]]]},"properties":{"id_ffco":"13268","nom":"Base de Loisirs de La Rincerie - Tir à l'arc","_dept":"53","numero":"2022-D53-45","commune":"La Selle Craonnaise","echelle":"1/1500","surface":"0.03 km²","format":"A4","annee":"2022","cartographes":"Jean-Marc LAUNAY","proprietaire":"5302 - ORIENTATION 53","niveau":"Initiation, Scolaire","specialite":"CO à pied","contacts":"Base de loisirs de la Rincerie, 671 chemin de l'étang, 53800, LA SELLE CRAONNAISE, 02 43 06 17 52, http://www.la-rincerie.com/","latitude":"47.8641188793","longitude":"-1.06182265741","date_saisie":"18/02/2022","date_depot":"08/06/2022","valide":"Oui","ppo":"Non","type_carte":"Nouvelle carte","fond":"Cadastre","obsolete":false}},{"type":"Feature","geometry":{"type":"Polygon","coordinates":[[[-0.7869,48.0993],[-0.785,48.099],[-0.7818,48.1002],[-0.7773,48.1009],[-0.7766,48.1018],[-0.7766,48.1021],[-0.777,48.104],[-0.7769,48.1047],[-0.7769,48.1058],[-0.778,48.1062],[-0.7784,48.1072],[-0.7792,48.1069],[-0.7807,48.1056],[-0.7811,48.1053],[-0.783,48.1037],[-0.7842,48.1031],[-0.7846,48.1028],[-0.785,48.1025],[-0.7854,48.1018],[-0.7861,48.1007],[-0.7863,48.1003],[-0.7865,48.0998],[-0.7869,48.0993]]]},"properties":{"id_ffco":"13041","nom":"Changé - Plan d'eau du Port","_dept":"53","numero":"2022-D53-44","commune":"Changé","echelle":"1/4000","surface":"0.36 km²","format":"A4","annee":"2022","cartographes":"Etienne HAMEAU","proprietaire":"5302 - ORIENTATION 53","niveau":"Départemental","specialite":"CO à pied","latitude":"48.1026302585","longitude":"-0.780932989606","date_saisie":"27/11/2021","date_depot":"08/06/2022","valide":"Oui","ppo":"Non","type_carte":"Nouvelle carte","fond":"Cadastre","obsolete":false}},{"type":"Feature","geometry":{"type":"Polygon","coordinates":[[[-0.4132,48.1507],[-0.4127,48.1508],[-0.4125,48.1515],[-0.412,48.152],[-0.4098,48.1518],[-0.409,48.1517],[-0.409,48.152],[-0.4086,48.152],[-0.4087,48.1528],[-0.4094,48.1528],[-0.4095,48.1533],[-0.4094,48.1541],[-0.4091,48.1541],[-0.4086,48.1543],[-0.4086,48.1543],[-0.4077,48.1543],[-0.4075,48.1543],[-0.4077,48.1545],[-0.408,48.1545],[-0.4089,48.1557],[-0.4093,48.1557],[-0.4097,48.1557],[-0.4101,48.1558],[-0.4102,48.1559],[-0.4101,48.1562],[-0.4101,48.1562],[-0.4102,48.1563],[-0.4103,48.1563],[-0.4103,48.1565],[-0.4117,48.1567],[-0.4123,48.1567],[-0.4133,48.1507],[-0.4132,48.1507]]]},"properties":{"id_ffco":"13040","nom":"Evron - La zone verte","_dept":"53","numero":"2022-D53-43","commune":"EVRON","echelle":"1/2300","surface":"0.15 km²","format":"A4","annee":"2022","cartographes":"Jean-Marc LAUNAY","proprietaire":"5302 - ORIENTATION 53","niveau":"Initiation, Scolaire","specialite":"CO à pied","contacts":"Ville d'Evron, 4 rue de Hertford, 53600, EVRON","latitude":"48.1539486564","longitude":"-0.410910145108","date_saisie":"27/11/2021","date_depot":"08/06/2022","valide":"Oui","ppo":"Non","type_carte":"Nouvelle carte","fond":"Cadastre","obsolete":false}},{"type":"Feature","geometry":{"type":"Polygon","coordinates":[[[-1.0607,47.7916],[-1.0604,47.7915],[-1.0598,47.7914],[-1.0594,47.7913],[-1.0591,47.7911],[-1.0583,47.791],[-1.0583,47.7908],[-1.0584,47.7908],[-1.0587,47.7903],[-1.0582,47.7902],[-1.0586,47.7893],[-1.0585,47.7892],[-1.0586,47.7891],[-1.0598,47.7897],[-1.06,47.7897],[-1.0601,47.789],[-1.0604,47.7884],[-1.0604,47.7883],[-1.0621,47.7888],[-1.0618,47.7893],[-1.0614,47.7902],[-1.0607,47.7916]]]},"properties":{"id_ffco":"12789","nom":"RENAZE - Complexe Sportif","_dept":"53","numero":"2021-D53-42","commune":"RENAZE","echelle":"1/1500","surface":"0.06 km²","format":"A4","annee":"2021","cartographes":"Jean-Marc LAUNAY","proprietaire":"5302 - ORIENTATION 53","niveau":"Initiation, Scolaire","specialite":"CO à pied","latitude":"47.7900106108","longitude":"-1.06016677155","date_saisie":"07/06/2021","date_depot":"08/06/2022","valide":"Oui","ppo":"Non","type_carte":"Nouvelle carte","fond":"Ortho","obsolete":false}},{"type":"Feature","geometry":{"type":"Polygon","coordinates":[[[-0.7581,48.0898],[-0.7573,48.09],[-0.7547,48.09],[-0.7547,48.0897],[-0.7552,48.0897],[-0.7556,48.0891],[-0.7554,48.0891],[-0.7557,48.0888],[-0.7549,48.0885],[-0.7556,48.0878],[-0.757,48.0883],[-0.757,48.088],[-0.7585,48.088],[-0.7585,48.0878],[-0.7586,48.0878],[-0.7585,48.0884],[-0.7593,48.0891],[-0.7586,48.0894],[-0.7583,48.0898],[-0.7581,48.0898]]]},"properties":{"id_ffco":"12715","nom":"Changé - Les Fontaines","_dept":"53","numero":"2021-D53-41","commune":"Changé","echelle":"1/1500","surface":"0.06 km²","format":"A4","annee":"2021","cartographes":"Jean-Marc LAUNAY","proprietaire":"5302 - ORIENTATION 53","niveau":"Initiation, Scolaire","specialite":"CO à pied","latitude":"48.088989194","longitude":"-0.75693109553","date_saisie":"16/04/2021","date_depot":"14/10/2021","valide":"Oui","ppo":"Non","type_carte":"Nouvelle carte","fond":"Cadastre","obsolete":false}},{"type":"Feature","geometry":{"type":"Polygon","coordinates":[[[-0.7572,48.0815],[-0.758,48.0805],[-0.7588,48.0807],[-0.7599,48.0784],[-0.7616,48.0793],[-0.7628,48.0806],[-0.7635,48.0823],[-0.764,48.0827],[-0.7647,48.0826],[-0.7657,48.0832],[-0.7661,48.0833],[-0.7678,48.0827],[-0.7683,48.0831],[-0.7664,48.0837],[-0.7653,48.0847],[-0.7655,48.0851],[-0.7647,48.0865],[-0.7653,48.0867],[-0.7649,48.0874],[-0.7637,48.0889],[-0.7632,48.0883],[-0.7623,48.0876],[-0.7592,48.0864],[-0.7598,48.0848],[-0.758,48.0842],[-0.7576,48.0836],[-0.7576,48.0817],[-0.7572,48.0815]]]},"properties":{"id_ffco":"12643","nom":"Laval - Parc de l'Aubépin","_dept":"53","numero":"2021-D53-40","commune":"LAVAL","echelle":"1/4000","surface":"0.41 km²","format":"A4","annee":"2021","cartographes":"Etienne HAMEAU","proprietaire":"5302 - ORIENTATION 53","niveau":"Initiation, Scolaire","specialite":"CO à pied","latitude":"48.0836444266","longitude":"-0.761753788127","date_saisie":"08/03/2021","date_depot":"14/10/2021","valide":"Oui","ppo":"Non","type_carte":"Nouvelle carte","fond":"Cadastre","obsolete":false}},{"type":"Feature","geometry":{"type":"Polygon","coordinates":[[[-0.9396,47.8493],[-0.9395,47.8502],[-0.9396,47.8507],[-0.9403,47.8506],[-0.9408,47.8504],[-0.9415,47.8514],[-0.9424,47.8511],[-0.9425,47.851],[-0.9437,47.851],[-0.9439,47.8509],[-0.9439,47.8506],[-0.9442,47.8505],[-0.9445,47.8503],[-0.9447,47.85],[-0.9448,47.8498],[-0.9452,47.8498],[-0.9449,47.8488],[-0.9444,47.8488],[-0.9443,47.8485],[-0.9436,47.8484],[-0.9427,47.8486],[-0.9424,47.8488],[-0.9419,47.849],[-0.9415,47.849],[-0.9411,47.8489],[-0.9408,47.8487],[-0.9406,47.8484],[-0.9404,47.8484],[-0.9396,47.8493]]]},"properties":{"id_ffco":"12642","nom":"Craon - Plan d'eau du Murier","_dept":"53","numero":"2021-D53-39","commune":"Craon","echelle":"1/1700","surface":"0.09 km²","format":"A4","annee":"2021","cartographes":"Jean-Marc LAUNAY","proprietaire":"5302 - ORIENTATION 53","niveau":"Initiation, Scolaire","specialite":"CO à pied","contacts":"Mairie de Craon, Hôtel de VIlle, BP 74, 53400, CRAON, 02 43 06 99 16, sports@ville-craon53.fr, http://www.ville-craon53.fr/","latitude":"47.8497647109","longitude":"-0.94227110889","date_saisie":"08/03/2021","date_depot":"14/10/2021","valide":"Oui","ppo":"Non","type_carte":"Nouvelle carte","fond":"Cadastre","obsolete":false}},{"type":"Feature","geometry":{"type":"Polygon","coordinates":[[[-0.9428,47.8441],[-0.9439,47.8446],[-0.9442,47.8448],[-0.9441,47.845],[-0.9444,47.8454],[-0.9446,47.8454],[-0.9446,47.8457],[-0.9445,47.8457],[-0.9443,47.846],[-0.9443,47.8461],[-0.9443,47.8461],[-0.9423,47.8461],[-0.941,47.846],[-0.941,47.8464],[-0.9401,47.8464],[-0.94,47.8457],[-0.9399,47.8453],[-0.9396,47.8443],[-0.9396,47.844],[-0.9399,47.8438],[-0.9405,47.8435],[-0.9405,47.8438],[-0.9408,47.8438],[-0.941,47.8438],[-0.9418,47.8441],[-0.942,47.8443],[-0.9423,47.8445],[-0.9428,47.8441]]]},"properties":{"id_ffco":"12639","nom":"Craon - Parc des Sports","_dept":"53","numero":"2021-D53-38","commune":"Craon","echelle":"1/1500","surface":"0.08 km²","format":"A4","annee":"2021","cartographes":"Jean-Marc LAUNAY","proprietaire":"5302 - ORIENTATION 53","niveau":"Initiation, Scolaire","specialite":"CO à pied","contacts":"Mairie de Craon, Hôtel de VIlle, BP 74, 53400, CRAON, 02 43 06 99 16, sports@ville-craon53.fr, http://www.ville-craon53.fr/","latitude":"47.8451139987","longitude":"-0.941868393649","date_saisie":"08/03/2021","date_depot":"04/06/2021","valide":"Oui","ppo":"Non","type_carte":"Reprise","base":"2004-D53-18 CRAON","fond":"Cadastre","obsolete":false}},{"type":"Feature","geometry":{"type":"Polygon","coordinates":[[[-0.7448,48.059],[-0.7442,48.0591],[-0.7436,48.0588],[-0.7408,48.0574],[-0.7398,48.0583],[-0.7408,48.0594],[-0.7403,48.0604],[-0.7416,48.0612],[-0.7408,48.0652],[-0.7416,48.0656],[-0.7432,48.0663],[-0.7434,48.0665],[-0.7443,48.0661],[-0.7452,48.0661],[-0.746,48.0664],[-0.7461,48.0668],[-0.7463,48.0669],[-0.7465,48.0667],[-0.7466,48.0665],[-0.7469,48.0665],[-0.7471,48.0668],[-0.7476,48.0668],[-0.7479,48.0669],[-0.7481,48.0667],[-0.7484,48.0666],[-0.7486,48.0667],[-0.7493,48.0668],[-0.7497,48.0658],[-0.7497,48.0651],[-0.7497,48.0653],[-0.7491,48.0651],[-0.7495,48.0646],[-0.7494,48.0643],[-0.7494,48.0638],[-0.7498,48.0634],[-0.7483,48.0628],[-0.7484,48.0624],[-0.749,48.0615],[-0.7485,48.0611],[-0.748,48.0603],[-0.7451,48.0585],[-0.7448,48.059]]]},"properties":{"id_ffco":"11514","nom":"Plaine d'aventures","_dept":"53","numero":"2019-D53-37","commune":"LAVAL","echelle":"1/4000","surface":"0.49 km²","format":"A4","annee":"2019","cartographes":"Etienne HAMEAU","proprietaire":"5302 - ORIENTATION 53","niveau":"Initiation, Scolaire","specialite":"CO à pied","contacts":"Orientation 53, CREF de Laval, Avenue Pierre de Coubertin, 53000, LAVAL, info@Òorientation53.fr, http://www.orientation53.fr/","latitude":"48.0626057712","longitude":"-0.744816851221","date_saisie":"03/06/2019","date_depot":"03/06/2020","valide":"Oui","ppo":"Non","type_carte":"Nouvelle carte","fond":"Cadastre","obsolete":false}},{"type":"Feature","geometry":{"type":"Polygon","coordinates":[[[-0.9721,48.1617],[-0.9721,48.1618],[-0.9717,48.1618],[-0.9717,48.1603],[-0.9727,48.1604],[-0.9728,48.1592],[-0.9728,48.1586],[-0.9736,48.1584],[-0.9738,48.1585],[-0.9739,48.1589],[-0.9761,48.1595],[-0.9748,48.1606],[-0.9747,48.1608],[-0.9721,48.1617]]]},"properties":{"id_ffco":"11498","nom":"Parc de Morfelon","_dept":"53","numero":"2019-D53-36","commune":"Le Bourgneuf La Forêt","echelle":"1/2000","surface":"0.06 km²","format":"A4","annee":"2019","cartographes":"Etienne HAMEAU","proprietaire":"5302 - ORIENTATION 53","niveau":"Initiation, Scolaire","specialite":"CO à pied","contacts":"Orientation 53, CREF de Laval, Avenue Pierre de Coubertin, 53000, LAVAL, info@Òorientation53.fr, http://www.orientation53.fr/","latitude":"48.1601233213","longitude":"-0.973595536046","date_saisie":"10/05/2019","date_depot":"08/11/2019","valide":"Oui","ppo":"Non","type_carte":"Nouvelle carte","fond":"Cadastre","obsolete":false}},{"type":"Feature","geometry":{"type":"Polygon","coordinates":[[[-0.9689,48.1659],[-0.9693,48.1659],[-0.9699,48.166],[-0.9698,48.1654],[-0.9696,48.1653],[-0.9696,48.1654],[-0.9693,48.1654],[-0.969,48.1654],[-0.9689,48.1659]]]},"properties":{"id_ffco":"11497","nom":"Ecole Saint Joseph","_dept":"53","numero":"2019-D53-35","commune":"Le Bourgneuf La Forêt","echelle":"1/500","surface":"0.0 km²","format":"A4","annee":"2019","cartographes":"Etienne HAMEAU","proprietaire":"5302 - ORIENTATION 53","niveau":"O+","specialite":"CO à pied","contacts":"Orientation 53, CREF de Laval, Avenue Pierre de Coubertin, 53000, LAVAL, info@Òorientation53.fr, http://www.orientation53.fr/","latitude":"48.1656678303","longitude":"-0.969426296765","date_saisie":"10/05/2019","valide":"Non","ppo":"Non","type_carte":"Nouvelle carte","fond":"Cadastre","obsolete":false}},{"type":"Feature","geometry":{"type":"Polygon","coordinates":[[[-1.0781,47.8643],[-1.077,47.8673],[-1.077,47.8676],[-1.0723,47.8673],[-1.072,47.866],[-1.0694,47.8667],[-1.0678,47.8664],[-1.0669,47.8652],[-1.0649,47.8651],[-1.0632,47.8643],[-1.0629,47.8639],[-1.0636,47.8637],[-1.0674,47.8639],[-1.0685,47.86],[-1.0708,47.8614],[-1.0781,47.8643]]]},"properties":{"id_ffco":"11501","nom":"Base de loisirs de la RINCERIE","_dept":"53","numero":"2019-D53-34","commune":"53800 LA SELLE CRAONNAISE","echelle":"1/4000","surface":"0.44 km²","format":"A4","annee":"2019","cartographes":"Jean-Marc LAUNAY","proprietaire":"5302 - ORIENTATION 53","niveau":"Initiation, Scolaire","specialite":"CO à pied","contacts":"Base de Loisirs de La Rincerie, 53800, La Selle Craonnaise, 0243061752, contact@la-rincerie.com, http://www.la-rincerie.com/","latitude":"47.8644425914","longitude":"-1.07154942562","date_saisie":"13/05/2019","date_depot":"08/11/2019","valide":"Oui","ppo":"Non","type_carte":"Reprise","base":"2013-D53-25 Base de Loisirs de La Rincerie","fond":"Cadastre","obsolete":false}},{"type":"Feature","geometry":{"type":"Polygon","coordinates":[[[-0.8223,48.0731],[-0.8238,48.0732],[-0.8237,48.0738],[-0.8241,48.0739],[-0.8252,48.0743],[-0.8257,48.0744],[-0.8257,48.075],[-0.8268,48.075],[-0.8269,48.0749],[-0.8271,48.075],[-0.8277,48.0752],[-0.8279,48.0749],[-0.8283,48.0749],[-0.8297,48.0755],[-0.8299,48.0763],[-0.8301,48.0768],[-0.8292,48.077],[-0.8285,48.077],[-0.8276,48.0769],[-0.8263,48.0767],[-0.8262,48.0766],[-0.826,48.0766],[-0.8243,48.0764],[-0.8229,48.0761],[-0.8227,48.0759],[-0.8231,48.0744],[-0.8223,48.0743],[-0.8222,48.0736],[-0.8223,48.0733],[-0.8223,48.0731]]]},"properties":{"id_ffco":"11370","nom":"Ensemble sportif Bernard LE GODAIS","_dept":"53","numero":"2019-D53-33","commune":"SAINT BERTHEVIN","echelle":"1/3000","surface":"0.13 km²","format":"A4","annee":"2019","cartographes":"Etienne HAMEAU","proprietaire":"5302 - ORIENTATION 53","niveau":"Initiation, Scolaire","specialite":"CO à pied","latitude":"48.0754305962","longitude":"-0.825832601715","date_saisie":"29/01/2019","date_depot":"08/11/2019","valide":"Oui","ppo":"Non","type_carte":"Nouvelle carte","fond":"Cadastre","obsolete":false}},{"type":"Feature","geometry":{"type":"Polygon","coordinates":[[[-0.5629,48.1356],[-0.5629,48.1368],[-0.5616,48.1369],[-0.5607,48.1368],[-0.5599,48.1369],[-0.559,48.1369],[-0.5586,48.1369],[-0.5579,48.1365],[-0.5579,48.1363],[-0.5581,48.1351],[-0.5629,48.1356]]]},"properties":{"id_ffco":"11005","nom":"Montsûrs - Stade Joseph de Maynard","_dept":"53","numero":"2018-D53-32","commune":"Montsûrs","echelle":"1/1500","surface":"0.06 km²","format":"A4","annee":"2018","cartographes":"Jean-Marc LAUNAY","proprietaire":"5302 - ORIENTATION 53","niveau":"Initiation, Scolaire","specialite":"CO à pied","contacts":"Communauté de communes des Coévrons","latitude":"48.1361102314","longitude":"-0.560287710153","date_saisie":"16/10/2018","date_depot":"28/12/2018","valide":"Oui","ppo":"Non","type_carte":"Nouvelle carte","fond":"Ortho","obsolete":false}},{"type":"Feature","geometry":{"type":"Polygon","coordinates":[[[-0.6331,48.308],[-0.6321,48.3068],[-0.6315,48.3052],[-0.631,48.3038],[-0.6299,48.3026],[-0.6283,48.3021],[-0.6251,48.3019],[-0.6234,48.3006],[-0.6223,48.3001],[-0.6207,48.2998],[-0.6191,48.2992],[-0.6167,48.302],[-0.6145,48.3046],[-0.6175,48.3062],[-0.6204,48.3077],[-0.6229,48.309],[-0.6244,48.3084],[-0.6275,48.3083],[-0.6326,48.3084],[-0.6331,48.308]]]},"properties":{"id_ffco":"10668","nom":"Mayenne","_dept":"53","numero":"2018-D53-31","commune":"Mayenne","echelle":"1/5000","surface":"0.87 km²","format":"A4","annee":"2018","cartographes":"Valentin Chareyre","proprietaire":"5302 - ORIENTATION 53","niveau":"National, International","specialite":"Sprint (ISSOM)","latitude":"48.3045944117","longitude":"-0.62365504659","date_saisie":"15/01/2018","date_depot":"28/12/2018","valide":"Oui","ppo":"Non","type_carte":"Nouvelle carte","fond":"Cadastre","obsolete":false}},{"type":"Feature","geometry":{"type":"Polygon","coordinates":[[[-0.7169,47.8224],[-0.7165,47.8228],[-0.716,47.8233],[-0.7151,47.8239],[-0.7154,47.8247],[-0.7182,47.8263],[-0.7187,47.8269],[-0.7188,47.8276],[-0.7212,47.8279],[-0.722,47.8267],[-0.7221,47.8263],[-0.7222,47.8253],[-0.7222,47.8249],[-0.7222,47.8232],[-0.7222,47.8221],[-0.7219,47.8221],[-0.7217,47.8221],[-0.7209,47.8221],[-0.72,47.8223],[-0.7191,47.8222],[-0.7175,47.8226],[-0.7169,47.8224]]]},"properties":{"id_ffco":"10330","nom":"Parc de l'Oisillière","_dept":"53","numero":"2013-D53-30","commune":"Chateau-Gontier","echelle":"1/2500","surface":"0.24 km²","format":"A4","annee":"2013","cartographes":"Guillaume PARANT","proprietaire":"5302 - ORIENTATION 53","niveau":"Initiation, Scolaire","specialite":"CO à pied","latitude":"47.8246398705","longitude":"-0.719349245158","date_saisie":"20/09/2017","date_depot":"01/03/2018","valide":"Oui","ppo":"Non","type_carte":"Nouvelle carte","fond":"Cadastre","obsolete":false}},{"type":"Feature","geometry":{"type":"Polygon","coordinates":[[[-0.3458,48.0955],[-0.3436,48.0968],[-0.3436,48.0986],[-0.346,48.0992],[-0.3477,48.0992],[-0.348,48.0993],[-0.3553,48.099],[-0.3602,48.0992],[-0.3606,48.0959],[-0.3599,48.0953],[-0.3598,48.0941],[-0.3591,48.0922],[-0.3577,48.0911],[-0.3526,48.0913],[-0.3519,48.0924],[-0.3485,48.0931],[-0.3458,48.0955]]]},"properties":{"id_ffco":"10154","nom":"Sainte Suzanne","_dept":"53","numero":"2016-D53-29","commune":"Sainte-Suzanne","echelle":"1/5000","surface":"0.86 km²","format":"A4","annee":"2016","cartographes":"Emmanuel ROULLAND","proprietaire":"5302 - ORIENTATION 53","niveau":"Régional","specialite":"CO à pied","contacts":"Orientation 53, CREF de Laval, Avenue Pierre de Coubertin, 53000, LAVAL, info@Òorientation53.fr, http://www.orientation53.fr/","latitude":"48.0957768758","longitude":"-0.352963267517","date_saisie":"14/04/2017","date_depot":"28/12/2018","valide":"Oui","ppo":"Non","type_carte":"Nouvelle carte","fond":"Cadastre","obsolete":false}},{"type":"Feature","geometry":{"type":"Polygon","coordinates":[[[-0.9307,48.3091],[-0.928,48.3119],[-0.9261,48.3117],[-0.9249,48.3113],[-0.9257,48.3095],[-0.9264,48.309],[-0.9266,48.309],[-0.9279,48.3078],[-0.9276,48.3072],[-0.9292,48.3067],[-0.9303,48.3066],[-0.9306,48.307],[-0.9312,48.307],[-0.9315,48.3072],[-0.9315,48.3077],[-0.9311,48.3078],[-0.9308,48.3081],[-0.9311,48.3083],[-0.9307,48.3091]]]},"properties":{"id_ffco":"299","nom":"Les Bizeuls","_dept":"53","numero":"2013-D53-28","commune":"Ernée","echelle":"1/2500","surface":"0.16 km²","format":"A4","annee":"2013","cartographes":"Etienne HAMEAU","proprietaire":"5302 - ORIENTATION 53","niveau":"Initiation, Scolaire","specialite":"CO à pied","latitude":"48.3093036353","longitude":"-0.928285806359","date_depot":"12/07/2016","valide":"Oui","ppo":"Non","type_carte":"Nouvelle carte","fond":"IGN","ref_ign":"1417O","url":"http://www.orientation53.fr/images/stories/Cartes/5328%20150dpi.jpg","obsolete":false}},{"type":"Feature","geometry":{"type":"Polygon","coordinates":[[[-0.7708,48.0752],[-0.7709,48.0741],[-0.7708,48.0729],[-0.7707,48.0709],[-0.7705,48.0699],[-0.7692,48.0681],[-0.769,48.0652],[-0.7705,48.0653],[-0.7706,48.0645],[-0.7727,48.0648],[-0.7738,48.0646],[-0.7796,48.0645],[-0.7804,48.0668],[-0.7806,48.0688],[-0.7808,48.0704],[-0.7807,48.0731],[-0.7787,48.0726],[-0.7776,48.075],[-0.7736,48.0747],[-0.7734,48.0752],[-0.7708,48.0752]]]},"properties":{"id_ffco":"302","nom":"Laval Centre Historique","_dept":"53","numero":"2016-D53-27","commune":"Laval","echelle":"1/4000","surface":"0.85 km²","format":"A4","annee":"2016","cartographes":"Jean-Marc LAUNAY","proprietaire":"5302 - ORIENTATION 53","niveau":"Régional","specialite":"Sprint (ISSOM)","latitude":"48.0694498771","longitude":"-0.775075079492","date_depot":"21/11/2017","valide":"Oui","ppo":"Non","type_carte":"Nouvelle carte","fond":"Cadastre","obsolete":false}},{"type":"Feature","geometry":{"type":"Polygon","coordinates":[[[-0.8343,48.0699],[-0.8345,48.0688],[-0.8342,48.0681],[-0.8336,48.0678],[-0.8333,48.0676],[-0.8331,48.0672],[-0.8336,48.0666],[-0.8338,48.0662],[-0.8338,48.0658],[-0.8337,48.0653],[-0.8335,48.0652],[-0.8334,48.0648],[-0.8323,48.0646],[-0.8313,48.0645],[-0.8306,48.0643],[-0.8299,48.0647],[-0.8296,48.065],[-0.829,48.0652],[-0.8284,48.0651],[-0.8274,48.0652],[-0.8275,48.0648],[-0.8273,48.0644],[-0.8259,48.0642],[-0.8247,48.064],[-0.8239,48.0641],[-0.8233,48.064],[-0.8233,48.0628],[-0.8241,48.0623],[-0.8237,48.0618],[-0.8241,48.0612],[-0.8247,48.0619],[-0.8252,48.0614],[-0.8259,48.0615],[-0.8275,48.0616],[-0.8299,48.0618],[-0.8308,48.0618],[-0.833,48.0622],[-0.8346,48.063],[-0.8357,48.0633],[-0.837,48.0644],[-0.8374,48.0658],[-0.837,48.066],[-0.8357,48.0657],[-0.8357,48.0673],[-0.8355,48.068],[-0.8355,48.0689],[-0.8359,48.0693],[-0.837,48.0696],[-0.8373,48.0701],[-0.8362,48.0701],[-0.8354,48.07],[-0.8349,48.0699],[-0.8343,48.0699]]]},"properties":{"id_ffco":"9387","nom":"Site de Coupeau","_dept":"53","numero":"2016-D53-26","commune":"Saint Berthevin","echelle":"1/5000","surface":"0.37 km²","format":"A4","annee":"2016","cartographes":"Etienne HAMEAU","proprietaire":"5302 - ORIENTATION 53","niveau":"Départemental","specialite":"CO à pied","latitude":"48.0642922169","longitude":"-0.830996640949","date_saisie":"24/02/2016","date_depot":"02/06/2016","valide":"Oui","ppo":"Oui (26 postes)","type_carte":"Nouvelle carte","fond":"Cadastre","obsolete":false}},{"type":"Feature","geometry":{"type":"Polygon","coordinates":[[[-1.078,47.8643],[-1.0781,47.8645],[-1.077,47.8675],[-1.0768,47.8675],[-1.0728,47.8673],[-1.0728,47.8662],[-1.0722,47.8657],[-1.0715,47.8659],[-1.0708,47.8664],[-1.0696,47.8664],[-1.0687,47.8665],[-1.068,47.8662],[-1.0673,47.8654],[-1.0671,47.865],[-1.0661,47.865],[-1.0651,47.865],[-1.0639,47.8646],[-1.0629,47.8641],[-1.0628,47.8634],[-1.0676,47.8638],[-1.068,47.8628],[-1.0686,47.8602],[-1.0691,47.8602],[-1.0708,47.8615],[-1.0781,47.8643],[-1.078,47.8643]]]},"properties":{"id_ffco":"9530","nom":"Base de Loisirs de La Rincerie","_dept":"53","numero":"2013-D53-25","commune":"La Selle Craonnaise","echelle":"1/4000","surface":"0.42 km²","format":"A4","annee":"2013","cartographes":"Jean-Marc LAUNAY","proprietaire":"5302 - ORIENTATION 53","niveau":"Initiation, Scolaire","specialite":"CO à pied","contacts":"Base de Loisirs de La Rincerie, 53800, La Selle Craonnaise, 0243061752, contact@la-rincerie.com, http://www.la-rincerie.com/","latitude":"47.8644079872","longitude":"-1.07154093362","date_saisie":"11/04/2016","date_depot":"02/06/2016","valide":"Oui","ppo":"Non","type_carte":"Reprise","base":"1997-D53-14 BASE DE LOISIRS DE LA RINCERIE","fond":"Cadastre","obsolete":false}},{"type":"Feature","geometry":{"type":"Polygon","coordinates":[[[-0.7906,48.0422],[-0.7826,48.0423],[-0.783,48.0463],[-0.7864,48.048],[-0.7869,48.0484],[-0.7891,48.0501],[-0.7905,48.0511],[-0.7951,48.0509],[-0.7975,48.0476],[-0.7948,48.0463],[-0.7929,48.0463],[-0.7907,48.0443],[-0.7906,48.0422]]]},"properties":{"id_ffco":"9531","nom":"Lycée Agricole de Laval","_dept":"53","numero":"2010-D53-24","commune":"Laval","echelle":"1/5000","surface":"0.64 km²","format":"A4","annee":"2010","cartographes":"Emmanuel ROULLAND,Etienne HAMEAU","proprietaire":"5302 - ORIENTATION 53","niveau":"Régional","specialite":"Sprint (ISSOM)","latitude":"48.0465601637","longitude":"-0.789470162335","date_saisie":"11/04/2016","date_depot":"02/06/2016","valide":"Oui","ppo":"Non","type_carte":"Nouvelle carte","fond":"Cadastre","obsolete":false}},{"type":"Feature","geometry":{"type":"Polygon","coordinates":[[[-0.7843,48.047],[-0.7844,48.0481],[-0.781,48.0495],[-0.7803,48.049],[-0.7777,48.0494],[-0.7765,48.0493],[-0.7745,48.0492],[-0.7723,48.0489],[-0.771,48.0484],[-0.7691,48.0486],[-0.7669,48.0483],[-0.7666,48.0476],[-0.7658,48.0474],[-0.766,48.0465],[-0.7658,48.043],[-0.7634,48.0393],[-0.7631,48.039],[-0.7638,48.0382],[-0.7656,48.037],[-0.7663,48.036],[-0.7674,48.0353],[-0.7724,48.0335],[-0.7767,48.0333],[-0.7772,48.0339],[-0.7781,48.0345],[-0.7781,48.0349],[-0.7775,48.0358],[-0.7778,48.038],[-0.7794,48.0423],[-0.7798,48.0423],[-0.7801,48.0438],[-0.7817,48.0446],[-0.782,48.045],[-0.7843,48.0463],[-0.7843,48.047]]]},"properties":{"id_ffco":"9532","nom":"Le Bois de L'Huisserie - Est","_dept":"53","numero":"2010-D53-23","commune":"Laval","echelle":"1/7500","surface":"1.81 km²","format":"A4","annee":"2010","cartographes":"Jean-Marc LAUNAY","proprietaire":"5302 - ORIENTATION 53","niveau":"Régional","specialite":"CO à pied","latitude":"48.0420719262","longitude":"-0.773131527715","date_saisie":"11/04/2016","date_depot":"02/06/2016","valide":"Oui","ppo":"Non","type_carte":"Reprise","base":"2003-D53-17 Le Bois de l'Huisserie","fond":"IGN","ref_ign":"1419 E","obsolete":false}},{"type":"Feature","geometry":{"type":"Polygon","coordinates":[[[-0.7852,48.0476],[-0.7784,48.0443],[-0.7776,48.0435],[-0.7767,48.034],[-0.7763,48.0334],[-0.7768,48.0334],[-0.7779,48.0353],[-0.7797,48.0349],[-0.7798,48.0332],[-0.7874,48.0328],[-0.7899,48.0328],[-0.7908,48.0357],[-0.7902,48.0378],[-0.7938,48.0393],[-0.7971,48.0387],[-0.7972,48.04],[-0.7969,48.0412],[-0.7963,48.0445],[-0.7925,48.0431],[-0.7913,48.045],[-0.789,48.0441],[-0.7887,48.0456],[-0.7908,48.046],[-0.7907,48.0481],[-0.7884,48.0477],[-0.7875,48.047],[-0.7861,48.047],[-0.7852,48.0465],[-0.7852,48.0476]]]},"properties":{"id_ffco":"301","nom":"Le Bois de l'Huisserie - Ouest","_dept":"53","numero":"2010-D53-22","commune":"Laval","echelle":"1/7500","surface":"1.69 km²","format":"A4","annee":"2010","cartographes":"Jean-Marc LAUNAY","proprietaire":"5302 - ORIENTATION 53","niveau":"Régional","specialite":"CO à pied","latitude":"48.040033935","longitude":"-0.785774107366","date_depot":"02/06/2016","valide":"Oui","ppo":"Non","type_carte":"Reprise","base":"2003-D53-17 Le Bois de l'Huisserie","fond":"IGN","ref_ign":"1419 E","obsolete":false}},{"type":"Feature","geometry":{"type":"Polygon","coordinates":[[[-0.7548,48.0518],[-0.7559,48.0524],[-0.7566,48.0525],[-0.7573,48.0525],[-0.7578,48.0522],[-0.7581,48.0515],[-0.7585,48.051],[-0.758,48.0505],[-0.7585,48.0493],[-0.7587,48.0485],[-0.7602,48.0487],[-0.7615,48.0476],[-0.7625,48.0464],[-0.7628,48.0447],[-0.7588,48.0437],[-0.7556,48.0448],[-0.7537,48.0444],[-0.7522,48.0445],[-0.7521,48.0452],[-0.7518,48.0462],[-0.7513,48.0465],[-0.7526,48.0487],[-0.7548,48.0518]]]},"properties":{"id_ffco":"9388","nom":"Le Bois Gamats","_dept":"53","numero":"2013-D53-21","commune":"Laval","echelle":"1/5000","surface":"0.49 km²","format":"A4","annee":"2013","cartographes":"Etienne HAMEAU","proprietaire":"5302 - ORIENTATION 53","niveau":"Initiation, Scolaire","specialite":"CO à pied","latitude":"48.0474311685","longitude":"-0.756824051281","date_saisie":"24/02/2016","date_depot":"02/06/2016","valide":"Oui","ppo":"Non","type_carte":"Nouvelle carte","fond":"IGN","obsolete":false}},{"type":"Feature","geometry":{"type":"Polygon","coordinates":[[[-0.8862,48.0978],[-0.8864,48.098],[-0.8885,48.0989],[-0.8906,48.1027],[-0.8908,48.1037],[-0.8892,48.1037],[-0.8884,48.1035],[-0.8841,48.1036],[-0.882,48.1036],[-0.8825,48.1022],[-0.8824,48.1016],[-0.8828,48.1007],[-0.8832,48.1006],[-0.8841,48.1005],[-0.8846,48.1004],[-0.8847,48.1],[-0.8846,48.0994],[-0.8846,48.0992],[-0.8862,48.0978]]]},"properties":{"id_ffco":"4814","nom":"Le Genest-Saint-Isle","_dept":"53","numero":"2009-D53-20","commune":"Le Genest-St-Isle","echelle":"1/2500","surface":"0.27 km²","format":"A4","annee":"2009","cartographes":"Emmanuel ROULLAND","proprietaire":"5302 - ORIENTATION 53","niveau":"Initiation, Scolaire","specialite":"CO à pied","contacts":"Mairie du Genest Saint Isle, 2 Place de l'église, 53240, LE GENEST SAINT ISLE, 0243021195","latitude":"48.1014333506","longitude":"-0.886452463572","date_saisie":"30/01/2010","date_depot":"17/02/2010","valide":"Oui","ppo":"Non","type_carte":"Nouvelle carte","fond":"Cadastre","obsolete":false}},{"type":"Feature","geometry":{"type":"Polygon","coordinates":[[[-0.4321,48.2762],[-0.4326,48.277],[-0.4332,48.278],[-0.4333,48.2788],[-0.4339,48.2805],[-0.4326,48.2812],[-0.4322,48.282],[-0.4317,48.2827],[-0.4314,48.2839],[-0.4316,48.2847],[-0.4326,48.2847],[-0.4322,48.2856],[-0.4312,48.2863],[-0.4306,48.287],[-0.429,48.2881],[-0.4269,48.2892],[-0.4253,48.2897],[-0.4243,48.2897],[-0.4237,48.2895],[-0.422,48.288],[-0.4208,48.2878],[-0.4199,48.2877],[-0.4183,48.2873],[-0.4175,48.2862],[-0.418,48.2851],[-0.4174,48.2843],[-0.4153,48.2831],[-0.4146,48.283],[-0.4144,48.2804],[-0.415,48.2801],[-0.4172,48.2794],[-0.4195,48.2786],[-0.4208,48.2793],[-0.4221,48.2799],[-0.4233,48.279],[-0.4245,48.2774],[-0.4245,48.2769],[-0.4268,48.2762],[-0.4303,48.2759],[-0.4321,48.2762]]]},"properties":{"id_ffco":"300","nom":"Le Bois du Tay","_dept":"53","numero":"2007-D53-19","commune":"Hambers","echelle":"1/7500","surface":"1.4 km²","format":"A4","annee":"2007","cartographes":"Jean-Marc LAUNAY","proprietaire":"5302 - ORIENTATION 53","niveau":"Régional","specialite":"CO à pied","latitude":"48.282602115","longitude":"-0.424919847598","date_depot":"03/06/2016","valide":"Oui","ppo":"Oui (36 postes)","type_carte":"Reprise","base":"1997-D53-06 LE BOIS DU TAY","fond":"IGN","ref_ign":"1517 E","obsolete":false}},{"type":"Feature","geometry":{"type":"Polygon","coordinates":[[[-0.9428,47.8442],[-0.9421,47.8444],[-0.9418,47.8441],[-0.9409,47.8437],[-0.9407,47.8439],[-0.9404,47.8437],[-0.9397,47.844],[-0.9401,47.8457],[-0.9402,47.8464],[-0.9402,47.8465],[-0.941,47.8465],[-0.941,47.846],[-0.9438,47.8461],[-0.9443,47.8449],[-0.9428,47.8442]]]},"properties":{"id_ffco":"3883","nom":"CRAON","_dept":"53","numero":"2004-D53-18","commune":"Craon","echelle":"1/1500","surface":"0.07 km²","format":"A4","annee":"2004","cartographes":"JM Launay","proprietaire":"5302 - ORIENTATION 53","niveau":"Initiation, Scolaire","specialite":"CO à pied","latitude":"47.8451018135","longitude":"-0.941766414573","date_saisie":"18/02/2005","date_depot":"21/02/2005","valide":"Oui","ppo":"Non","type_carte":"Nouvelle carte","fond":"Cadastre","obsolete":false}},{"type":"Feature","geometry":{"type":"Polygon","coordinates":[[[-0.7023,47.8398],[-0.6989,47.8392],[-0.7023,47.8298],[-0.7044,47.8314],[-0.7045,47.8327],[-0.7033,47.8372],[-0.7023,47.8398]]]},"properties":{"id_ffco":"3276","nom":"CHÂTEAU GONTIER - Parc des Sports","_dept":"53","numero":"2000-D53-16","commune":"CHÂTEAU GONTIER","echelle":"1/2500","surface":"0.25 km²","format":"A4","annee":"2000","cartographes":"JM Launay","proprietaire":"5302 - ORIENTATION 53","niveau":"Initiation, Scolaire","specialite":"CO à pied","contacts":"Pays de Chateau-Gontier Service des Sports, 0243096150","latitude":"47.8352913354","longitude":"-0.702012996338","date_depot":"02/06/2016","valide":"Oui","ppo":"Non","type_carte":"Nouvelle carte","fond":"Cadastre","obsolete":false}}]}