{"type":"FeatureCollection","features":[{"type":"Feature","geometry":{"type":"Polygon","coordinates":[[[-0.7859,48.0478],[-0.7806,48.0495],[-0.7755,48.0496],[-0.772,48.0488],[-0.7707,48.0482],[-0.7668,48.0486],[-0.7656,48.0478],[-0.7656,48.0433],[-0.7631,48.0392],[-0.7682,48.0344],[-0.7722,48.0332],[-0.7768,48.0331],[-0.7779,48.035],[-0.7793,48.0349],[-0.7796,48.033],[-0.7896,48.0327],[-0.7891,48.0378],[-0.7934,48.0394],[-0.7965,48.0392],[-0.7972,48.0402],[-0.7965,48.0419],[-0.7958,48.0442],[-0.7925,48.0429],[-0.7912,48.0448],[-0.789,48.0442],[-0.788,48.0472],[-0.7859,48.0478]]]},"properties":{"id_ffco":"3650","nom":"Le Bois de l'Huisserie","_dept":"53","numero":"2003-D53-17","commune":"LAVAL","echelle":"1/10000","surface":"3.32 km²","format":"A4","annee":"2003","cartographes":"JM Launay","proprietaire":"5302 - ORIENTATION 53","niveau":"Interrégional","specialite":"CO à pied","latitude":"48.0410783079","longitude":"-0.778678155185","date_saisie":"05/05/2003","date_depot":"06/05/2003","valide":"Oui","ppo":"Oui (35 postes)","type_carte":"Reprise","base":"1996-D53-12 Le Bois de L'Huisserie - 2","fond":"Cadastre","obsolete":true}},{"type":"Feature","geometry":{"type":"Polygon","coordinates":[[[-0.8055,48.2981],[-0.7766,48.309],[-0.7542,48.3085],[-0.8022,48.2597],[-0.8352,48.2756],[-0.8338,48.2769],[-0.8338,48.2768],[-0.8055,48.2981]]]},"properties":{"id_ffco":"2869","nom":"LE PILET","_dept":"53","numero":"1997-D53-15","commune":"MAYENNE","echelle":"1/15000","surface":"14.35 km²","format":"+","annee":"1997","cartographes":"H. Gandon,JM Launay,E. Hameau,P. Castello","proprietaire":"5302 - ORIENTATION 53","niveau":"National, International","specialite":"CO à pied","latitude":"48.2861661966","longitude":"-0.796114797756","valide":"Oui","ppo":"Non","type_carte":"Reprise","base":"1987-D53-02 BUTTE AUX LOUPS","fond":"IGN","ref_ign":"inconnue","obsolete":true}},{"type":"Feature","geometry":{"type":"Polygon","coordinates":[[[-1.0685,47.86],[-1.0676,47.8635],[-1.0611,47.8632],[-1.0609,47.8649],[-1.0778,47.8682],[-1.0777,47.8668],[-1.0787,47.8641],[-1.0685,47.86]]]},"properties":{"id_ffco":"2868","nom":"BASE DE LOISIRS DE LA RINCERIE","_dept":"53","numero":"1997-D53-14","commune":"LA SELLE CRAONNAISE","echelle":"1/4000","surface":"0.59 km²","format":"A4","annee":"1997","cartographes":"JM Launay","proprietaire":"5302 - ORIENTATION 53","niveau":"Initiation, Scolaire","specialite":"CO à pied","latitude":"47.8644719057","longitude":"-1.0709348077","valide":"Oui","ppo":"Non","type_carte":"Nouvelle carte","fond":"IGN","ref_ign":"inconnue","obsolete":true}},{"type":"Feature","geometry":{"type":"Polygon","coordinates":[[[-0.4133,48.152],[-0.4095,48.1517],[-0.4091,48.154],[-0.4078,48.1543],[-0.4088,48.1557],[-0.4102,48.1559],[-0.4125,48.1561],[-0.4133,48.152]]]},"properties":{"id_ffco":"2867","nom":"LA ZONE VERTE (EVRON)","_dept":"53","numero":"1997-D53-13","commune":"EVRON","echelle":"1/2000","surface":"0.14 km²","format":"A4","annee":"1997","cartographes":"Frangeul","proprietaire":"Ville d'EVRON (53)","niveau":"Initiation, Scolaire","specialite":"CO à pied","latitude":"48.1539427216","longitude":"-0.410884995153","valide":"Oui","ppo":"Non","type_carte":"Nouvelle carte","fond":"Cadastre","obsolete":true}},{"type":"Feature","geometry":{"type":"Polygon","coordinates":[[[-0.7959,48.0443],[-0.7926,48.043],[-0.7914,48.045],[-0.789,48.0441],[-0.7889,48.0468],[-0.7874,48.0471],[-0.7854,48.047],[-0.7841,48.0481],[-0.7814,48.0487],[-0.778,48.0495],[-0.775,48.0493],[-0.7726,48.0487],[-0.7715,48.0478],[-0.7687,48.0479],[-0.7671,48.0482],[-0.7655,48.0473],[-0.7657,48.0429],[-0.7637,48.0397],[-0.7629,48.039],[-0.7658,48.0366],[-0.7672,48.0353],[-0.769,48.0344],[-0.7726,48.0334],[-0.7764,48.0333],[-0.777,48.0333],[-0.7775,48.0347],[-0.7781,48.0352],[-0.7796,48.0349],[-0.7798,48.0331],[-0.7887,48.0328],[-0.79,48.0332],[-0.7887,48.0347],[-0.7912,48.0356],[-0.7899,48.0371],[-0.789,48.0371],[-0.789,48.0375],[-0.7911,48.038],[-0.7929,48.039],[-0.7938,48.0393],[-0.7967,48.039],[-0.7973,48.0397],[-0.7971,48.0406],[-0.7969,48.0416],[-0.7961,48.0425],[-0.7964,48.0434],[-0.7959,48.0443]]]},"properties":{"id_ffco":"3213","nom":"Le Bois de L'Huisserie - 2","_dept":"53","numero":"1996-D53-12","commune":"LAVAL","echelle":"1/10000","surface":"3.26 km²","format":"A4","annee":"1996","cartographes":"JM Launay","proprietaire":"5302 - ORIENTATION 53","niveau":"Interrégional","specialite":"CO à pied","latitude":"48.0409502415","longitude":"-0.778992587867","valide":"Oui","ppo":"Non","type_carte":"Reprise","base":"1992-D53-05 L'HUISSERIE","fond":"IGN","ref_ign":"inconnue","obsolete":true}},{"type":"Feature","geometry":{"type":"Polygon","coordinates":[[[-0.824,48.0622],[-0.8224,48.0629],[-0.8231,48.0643],[-0.8271,48.0645],[-0.8272,48.0647],[-0.8269,48.0665],[-0.8308,48.0669],[-0.8311,48.0656],[-0.8323,48.0656],[-0.8326,48.0649],[-0.8351,48.065],[-0.8352,48.0653],[-0.8362,48.0649],[-0.837,48.0645],[-0.8354,48.0634],[-0.8343,48.0625],[-0.8312,48.0619],[-0.8248,48.0615],[-0.824,48.0622]]]},"properties":{"id_ffco":"3212","nom":"SITE DE COUPEAU - SAINT BERTHEVIN (53)","_dept":"53","numero":"1996-D53-11","commune":"SAINT-BERTHEVIN","echelle":"1/3000","surface":"0.36 km²","format":"A4","annee":"1996","cartographes":"JM Launay","proprietaire":"5302 - ORIENTATION 53","niveau":"Initiation, Scolaire","specialite":"CO à pied","latitude":"48.0638115231","longitude":"-0.829402694966","valide":"Oui","ppo":"Non","type_carte":"Nouvelle carte","fond":"IGN","ref_ign":"inconnue","obsolete":true}},{"type":"Feature","geometry":{"type":"Polygon","coordinates":[[[-0.6317,48.3063],[-0.6307,48.3064],[-0.6305,48.3064],[-0.6301,48.3064],[-0.63,48.3067],[-0.6308,48.3074],[-0.632,48.3084],[-0.633,48.309],[-0.6324,48.3098],[-0.6325,48.31],[-0.6332,48.3103],[-0.6365,48.311],[-0.6377,48.3111],[-0.6385,48.311],[-0.6382,48.3105],[-0.6371,48.3103],[-0.6354,48.3099],[-0.6344,48.3092],[-0.6334,48.3083],[-0.6325,48.3074],[-0.6317,48.3063]]]},"properties":{"id_ffco":"3211","nom":"MAYENNE - Le CRAPA","_dept":"53","numero":"1996-D53-10","commune":"MAYENNE","echelle":"1/2500","surface":"0.08 km²","format":"A4","annee":"1996","cartographes":"JM Launay","proprietaire":"5302 - ORIENTATION 53","niveau":"Initiation, Scolaire","specialite":"CO à pied","contacts":"Mairie de Mayenne","latitude":"48.3090542319","longitude":"-0.63372670621","valide":"Oui","ppo":"Non","type_carte":"Nouvelle carte","fond":"IGN","ref_ign":"inconnue","obsolete":true}},{"type":"Feature","geometry":{"type":"Polygon","coordinates":[[[-0.6269,48.3023],[-0.6248,48.3025],[-0.6223,48.3027],[-0.6225,48.3033],[-0.6224,48.3044],[-0.6225,48.3053],[-0.6228,48.3056],[-0.6236,48.3059],[-0.624,48.306],[-0.6262,48.3058],[-0.6274,48.3058],[-0.6282,48.3059],[-0.6301,48.3063],[-0.6306,48.3065],[-0.6314,48.3063],[-0.6308,48.3045],[-0.6305,48.3039],[-0.6302,48.3034],[-0.6296,48.3029],[-0.629,48.3026],[-0.6279,48.3024],[-0.6269,48.3023]]]},"properties":{"id_ffco":"2551","nom":"MAYENNE - LE PLAN D'EAU","_dept":"53","numero":"1995-D53-09","commune":"MAYENNE","echelle":"1/2500","surface":"0.23 km²","format":"A4","annee":"1995","proprietaire":"5302 - ORIENTATION 53","niveau":"Initiation, Scolaire","specialite":"CO à pied","contacts":"Mairie de Mayenne","latitude":"48.3042872444","longitude":"-0.626674217487","valide":"Oui","ppo":"Non","type_carte":"Nouvelle carte","fond":"Cadastre","obsolete":true}},{"type":"Feature","geometry":{"type":"Polygon","coordinates":[[[-0.434,48.2073],[-0.4308,48.2095],[-0.4279,48.211],[-0.4272,48.2102],[-0.4254,48.2098],[-0.4239,48.2101],[-0.4217,48.2096],[-0.4217,48.2027],[-0.4237,48.2024],[-0.4256,48.2033],[-0.4291,48.2039],[-0.43,48.2055],[-0.4319,48.2061],[-0.434,48.2073]]]},"properties":{"id_ffco":"2550","nom":"BASE DE LOISIRS DU GUE DE SELLE","_dept":"53","numero":"1995-D53-08","commune":"MEZANGERS","echelle":"1/4000","surface":"0.55 km²","format":"A4","annee":"1995","cartographes":"Alain FRANGEUL","proprietaire":"5302 - ORIENTATION 53","niveau":"Initiation, Scolaire","specialite":"CO à pied","latitude":"48.2068148072","longitude":"-0.426539003672","valide":"Non","ppo":"Non","fond":"IGN","obsolete":true}},{"type":"Feature","geometry":{"type":"Polygon","coordinates":[[[-0.7621,48.3119],[-0.7622,48.3111],[-0.7771,48.2988],[-0.7712,48.2961],[-0.7704,48.2942],[-0.7684,48.293],[-0.7667,48.291],[-0.7649,48.2908],[-0.7633,48.2918],[-0.7557,48.2938],[-0.755,48.294],[-0.7477,48.2953],[-0.743,48.2963],[-0.7417,48.2956],[-0.7361,48.2967],[-0.7326,48.2974],[-0.7299,48.2972],[-0.7299,48.2985],[-0.7293,48.2991],[-0.7297,48.2997],[-0.7235,48.3019],[-0.7232,48.3023],[-0.7214,48.3033],[-0.7193,48.3046],[-0.7187,48.3114],[-0.755,48.3126],[-0.7621,48.3119]]]},"properties":{"id_ffco":"821","nom":"LA CHAPELLE DU HEC","_dept":"53","numero":"1994-D53-07","commune":"MAYENNE","echelle":"1/15000","surface":"6.69 km²","format":"A4","annee":"1994","cartographes":"H. Gandon,E. Hameau,JM Launay","proprietaire":"5302 - ORIENTATION 53","niveau":"National, International","specialite":"CO à pied","latitude":"48.303291992","longitude":"-0.747995226591","valide":"Oui","ppo":"Non","type_carte":"Nouvelle carte","fond":"IGN","ref_ign":"inconnue","obsolete":true}},{"type":"Feature","geometry":{"type":"Polygon","coordinates":[[[-0.4319,48.276],[-0.4306,48.2766],[-0.428,48.2759],[-0.425,48.2764],[-0.424,48.278],[-0.4223,48.2797],[-0.4214,48.2798],[-0.4203,48.2784],[-0.4179,48.2791],[-0.416,48.2799],[-0.4142,48.2804],[-0.4143,48.2824],[-0.4146,48.2833],[-0.4173,48.2846],[-0.4179,48.2855],[-0.4176,48.287],[-0.4189,48.2875],[-0.4207,48.2878],[-0.4229,48.2887],[-0.424,48.29],[-0.4262,48.2898],[-0.4287,48.2889],[-0.4307,48.2872],[-0.4329,48.2856],[-0.4327,48.2846],[-0.4317,48.2845],[-0.4315,48.2838],[-0.4322,48.2823],[-0.4328,48.2814],[-0.4335,48.2808],[-0.4342,48.2803],[-0.4337,48.278],[-0.4328,48.2767],[-0.4326,48.2761],[-0.4319,48.276]]]},"properties":{"id_ffco":"2549","nom":"LE BOIS DU TAY","_dept":"53","numero":"1997-D53-06","commune":"MAYENNE","echelle":"1/10000","surface":"1.48 km²","format":"A4","annee":"1997","cartographes":"E. Hameau,JM Launay,A. Frangeul","proprietaire":"5302 - ORIENTATION 53","niveau":"Régional","specialite":"CO à pied","latitude":"48.2826852915","longitude":"-0.42498169755","valide":"Oui","ppo":"Non","type_carte":"Nouvelle carte","fond":"IGN","ref_ign":"inconnue","obsolete":true}},{"type":"Feature","geometry":{"type":"Polygon","coordinates":[[[-0.7897,48.0329],[-0.7866,48.0327],[-0.7797,48.033],[-0.7746,48.0333],[-0.7715,48.0334],[-0.7667,48.0353],[-0.7629,48.0389],[-0.7636,48.0396],[-0.7658,48.0429],[-0.7663,48.0474],[-0.7667,48.0486],[-0.7692,48.0489],[-0.7708,48.0485],[-0.7734,48.0493],[-0.7756,48.0497],[-0.7807,48.0492],[-0.7814,48.0493],[-0.7851,48.0481],[-0.7885,48.0467],[-0.789,48.0442],[-0.7914,48.0451],[-0.7925,48.0431],[-0.796,48.0444],[-0.7979,48.0396],[-0.7968,48.0388],[-0.7935,48.0394],[-0.7912,48.0381],[-0.7895,48.0377],[-0.7911,48.0352],[-0.7889,48.0346],[-0.7897,48.0335],[-0.7897,48.0329]]]},"properties":{"id_ffco":"1457","nom":"L'HUISSERIE","_dept":"53","numero":"1992-D53-05","commune":"LAVAL","echelle":"1/15000","surface":"3.41 km²","format":"A4","annee":"1992","cartographes":"A. Frangeul","proprietaire":"5302 - ORIENTATION 53","niveau":"Interrégional","specialite":"CO à pied","latitude":"48.0409631754","longitude":"-0.779026144979","valide":"Oui","ppo":"Non","type_carte":"Reprise","base":"1981-D53-01 L'HUISSERIE","fond":"IGN","ref_ign":"inconnue","obsolete":true}},{"type":"Feature","geometry":{"type":"Polygon","coordinates":[[[-0.7814,48.0493],[-0.7833,48.0487],[-0.7854,48.0479],[-0.7859,48.0476],[-0.779,48.0441],[-0.7782,48.0435],[-0.7773,48.0338],[-0.7768,48.033],[-0.7732,48.0333],[-0.7697,48.0342],[-0.766,48.036],[-0.7629,48.0389],[-0.7648,48.0412],[-0.766,48.0431],[-0.766,48.046],[-0.7666,48.0482],[-0.7674,48.0486],[-0.7692,48.0488],[-0.7714,48.0484],[-0.7733,48.049],[-0.7762,48.0495],[-0.7814,48.0493]]]},"properties":{"id_ffco":"2548","nom":"L'HUISSERIE EST","_dept":"53","numero":"1991-D53-04","commune":"LAVAL","echelle":"1/10000","surface":"1.76 km²","format":"A5","annee":"1991","cartographes":"A. Frangeul","proprietaire":"5302 - ORIENTATION 53","niveau":"Initiation, Scolaire","specialite":"CO à pied","latitude":"48.0420348745","longitude":"-0.772886929294","valide":"Oui","ppo":"Non","type_carte":"Reprise","base":"1981-D53-01 L'HUISSERIE","fond":"IGN","ref_ign":"inconnue","obsolete":true}},{"type":"Feature","geometry":{"type":"Polygon","coordinates":[[[-0.7848,48.0475],[-0.7776,48.044],[-0.7766,48.0339],[-0.7772,48.034],[-0.7778,48.0351],[-0.7795,48.0348],[-0.7796,48.0332],[-0.7887,48.0328],[-0.79,48.0331],[-0.7887,48.0347],[-0.7902,48.0352],[-0.7889,48.0374],[-0.7911,48.038],[-0.7938,48.0393],[-0.7961,48.0391],[-0.7963,48.0399],[-0.7944,48.0437],[-0.7926,48.0431],[-0.7914,48.0451],[-0.7891,48.0442],[-0.7887,48.0464],[-0.7876,48.0471],[-0.7848,48.0475]]]},"properties":{"id_ffco":"2547","nom":"LA VALLEE","_dept":"53","numero":"1991-D53-03","commune":"LAVAL","echelle":"1/10000","surface":"1.58 km²","format":"A5","annee":"1991","cartographes":"A. Frangeul","proprietaire":"5302 - ORIENTATION 53","niveau":"Initiation, Scolaire","specialite":"CO à pied","latitude":"48.039951348","longitude":"-0.785133418408","valide":"Oui","ppo":"Non","type_carte":"Reprise","base":"1981-D53-01 L'HUISSERIE","fond":"IGN","ref_ign":"inconnue","obsolete":true}},{"type":"Feature","geometry":{"type":"Polygon","coordinates":[[[-0.7648,48.2922],[-0.7662,48.2943],[-0.7676,48.2934],[-0.7696,48.2947],[-0.7729,48.3042],[-0.7823,48.302],[-0.7885,48.3018],[-0.7917,48.3002],[-0.8043,48.2975],[-0.8085,48.2957],[-0.8101,48.2921],[-0.8108,48.289],[-0.8177,48.285],[-0.8213,48.2821],[-0.8317,48.2761],[-0.8392,48.2715],[-0.8382,48.266],[-0.8353,48.2615],[-0.8408,48.2573],[-0.8423,48.2522],[-0.8428,48.2502],[-0.8455,48.2456],[-0.8376,48.2435],[-0.8026,48.2509],[-0.7949,48.2573],[-0.7862,48.2599],[-0.781,48.2641],[-0.7775,48.2648],[-0.7753,48.2724],[-0.7789,48.2748],[-0.786,48.2749],[-0.7866,48.2769],[-0.7716,48.2848],[-0.7672,48.2888],[-0.7648,48.2922]]]},"properties":{"id_ffco":"1456","nom":"BUTTE AUX LOUPS","_dept":"53","numero":"1987-D53-02","commune":"MAYENNE","echelle":"1/15000","surface":"21.08 km²","format":"A3","annee":"1987","cartographes":"A. Frangeul","proprietaire":"PL - Pays de la Loire","niveau":"Interrégional","specialite":"CO à pied","latitude":"48.2729445764","longitude":"-0.805136747858","valide":"Oui","ppo":"Non","type_carte":"Nouvelle carte","fond":"IGN","ref_ign":"inconnue","obsolete":true}},{"type":"Feature","geometry":null,"properties":{"id_ffco":"2546","nom":"L'HUISSERIE","_dept":"53","numero":"1981-D53-01","commune":"LAVAL","echelle":"1/10000","surface":"2.0 km²","format":"A4","annee":"1981","cartographes":"J. FERRAND,JL BUTTET,A. Frangeul","proprietaire":"5302 - ORIENTATION 53","niveau":"Initiation, Scolaire","specialite":"CO à pied","latitude":"48.0704325","longitude":"-0.7735636","valide":"Non","ppo":"Non","obsolete":true}}]}