{"type":"FeatureCollection","features":[{"type":"Feature","geometry":{"type":"Polygon","coordinates":[[[6.1959,48.7261],[6.1932,48.7261],[6.1886,48.7245],[6.1901,48.7231],[6.1912,48.7217],[6.193,48.7181],[6.1945,48.7147],[6.1956,48.7153],[6.1965,48.7141],[6.1976,48.7122],[6.2024,48.7121],[6.2048,48.7125],[6.2058,48.713],[6.2066,48.7125],[6.209,48.7124],[6.2124,48.7144],[6.2134,48.715],[6.2162,48.7165],[6.2178,48.717],[6.2171,48.7181],[6.2162,48.7188],[6.2113,48.7199],[6.2098,48.7216],[6.2081,48.7221],[6.2058,48.722],[6.2013,48.7216],[6.1996,48.7226],[6.1985,48.7234],[6.1972,48.7242],[6.1959,48.7261]]]},"properties":{"id_ffco":"304","nom":"Plateau de Malzeville","_dept":"54","numero":"2005-D54-992","commune":"Malzeville","echelle":"1/7500","surface":"1.77 km²","format":"A4","annee":"2005","niveau":"Initiation, Scolaire","contacts":"CDCO 54, 0383643362, 0612941412, p.pogu@free.fr, http://www.meurthe-et-moselle.ffcorientation.fr/cdco-54/","latitude":"48.7183200382","longitude":"6.20228592735","valide":"Non","ppo":"Oui (55 postes)","type_carte":"Nouvelle carte","fond":"IGN","obsolete":true}},{"type":"Feature","geometry":null,"properties":{"id_ffco":"305","nom":"Parc de loisirs de la Forêt de Haye","_dept":"54","numero":"2003-D54-991","commune":"Velaine en Haye","echelle":"1/10000","surface":"None km²","format":"A4","annee":"2003","latitude":"48.7034549","longitude":"6.0210199","valide":"Non","ppo":"Oui","type_carte":"Nouvelle carte","fond":"IGN","obsolete":true}},{"type":"Feature","geometry":{"type":"Polygon","coordinates":[[[6.2347,48.8521],[6.2345,48.8507],[6.2344,48.8495],[6.2361,48.8503],[6.2376,48.8504],[6.2393,48.8485],[6.2385,48.8459],[6.2389,48.8451],[6.2384,48.8442],[6.2388,48.8434],[6.2404,48.842],[6.2413,48.8419],[6.2433,48.8431],[6.2461,48.8438],[6.2491,48.8443],[6.2514,48.8444],[6.2668,48.8431],[6.2714,48.8434],[6.2723,48.8453],[6.2689,48.8496],[6.2703,48.8504],[6.2689,48.8516],[6.2681,48.8526],[6.2656,48.8536],[6.2622,48.8525],[6.2595,48.8544],[6.2584,48.8535],[6.2553,48.854],[6.2547,48.8551],[6.2521,48.8559],[6.2486,48.857],[6.2488,48.8556],[6.2341,48.8523],[6.2347,48.8521]]]},"properties":{"id_ffco":"303","nom":"La Tuilerie","_dept":"54","numero":"2007-D54-990","commune":"Jeandelaincourt","echelle":"1/10000","surface":"2.84 km²","format":"A4","annee":"2007","niveau":"Initiation, Scolaire","specialite":"CO à pied","contacts":"Comcom, 03 83 31 30 01, chenu.54@orange.fr, http://www.seille-mauchere.org/spip.php?article215 // FDFR, 03 83 31 10 35 // Mairie, 03 83 31 31 77","latitude":"48.8489141614","longitude":"6.25340011483","valide":"Non","ppo":"Oui (40 postes)","observations":"Points de vente :\n- Point Presse 03 83 31 32 72,\n- Alimentation Proxi 03 83 00 00 00","type_carte":"Nouvelle carte","fond":"IGN","url":"https://www.foyers-ruraux-lorraine.org/eso","obsolete":true}},{"type":"Feature","geometry":null,"properties":{"id_ffco":"3619","nom":"LA FONTAINE des OISELEURS","_dept":"54","numero":"2002-D54-88","commune":"Toul","echelle":"1/15000","surface":"5.5 km²","format":"A4","annee":"2002","cartographes":"Valentin Vladimirov,Philippe Pogu","proprietaire":"5402 - SCAPA NANCY ORIENTATION","niveau":"Régional","specialite":"CO à pied","latitude":"48.6834594","longitude":"5.8951006","date_saisie":"24/02/2003","date_depot":"28/03/2003","valide":"Non","ppo":"Non","type_carte":"Nouvelle carte","fond":"IGN","obsolete":true}},{"type":"Feature","geometry":null,"properties":{"id_ffco":"3674","nom":"Croix de la Vierge","_dept":"54","numero":"2002-D54-87","commune":"Flavigny sur Moselle","echelle":"1/15000","surface":"13.7 km²","format":"A3","annee":"2002","proprietaire":"5414 - CLUB D'ORIENTATION DE SAINT-NICOLAS","niveau":"Régional","specialite":"CO à pied","latitude":"48.572564","longitude":"6.1862388","date_saisie":"10/07/2003","date_depot":"17/07/2003","valide":"Non","ppo":"Non","obsolete":true}},{"type":"Feature","geometry":{"type":"Polygon","coordinates":[[[6.1522,48.637],[6.1605,48.6425],[6.1624,48.6424],[6.1638,48.6423],[6.1661,48.6419],[6.1679,48.6415],[6.1692,48.6411],[6.1699,48.6406],[6.17,48.6403],[6.1683,48.6404],[6.1672,48.6392],[6.166,48.6384],[6.1639,48.6383],[6.1642,48.6375],[6.1656,48.6364],[6.1663,48.6356],[6.1681,48.6343],[6.1694,48.6335],[6.1698,48.6324],[6.1699,48.6313],[6.1696,48.6306],[6.169,48.6297],[6.1686,48.6291],[6.1679,48.6284],[6.1665,48.6273],[6.1649,48.6264],[6.1615,48.6255],[6.1597,48.6256],[6.1574,48.6257],[6.1562,48.6255],[6.1548,48.6253],[6.1535,48.6249],[6.1521,48.6243],[6.1511,48.624],[6.1506,48.6241],[6.15,48.6241],[6.149,48.6241],[6.1479,48.624],[6.1471,48.6241],[6.145,48.6247],[6.1444,48.625],[6.1437,48.6249],[6.1426,48.6257],[6.1414,48.6263],[6.1402,48.629],[6.139,48.6313],[6.1383,48.6318],[6.1377,48.6326],[6.1369,48.6333],[6.1359,48.6338],[6.1338,48.6343],[6.1319,48.6347],[6.1314,48.636],[6.1315,48.6391],[6.1324,48.6401],[6.133,48.6404],[6.1353,48.6406],[6.1373,48.6406],[6.139,48.6404],[6.1405,48.6402],[6.1446,48.639],[6.1484,48.6381],[6.1498,48.6376],[6.1513,48.6373],[6.1522,48.6371],[6.1522,48.637]]]},"properties":{"id_ffco":"3573","nom":"LE PLATEAU DE LUDRES","_dept":"54","numero":"2002-D54-86","commune":"Ludres","echelle":"1/10000","surface":"3.8 km²","format":"A4","annee":"2002","cartographes":"Daniel Rollet","proprietaire":"5415 - LOISIRS ORIENTATION JEANDELAINCOURT","niveau":"Régional","specialite":"CO à pied","latitude":"48.6331838319","longitude":"6.15205190435","date_saisie":"06/11/2002","date_depot":"07/11/2002","valide":"Oui","ppo":"Non","type_carte":"Nouvelle carte","fond":"IGN","ref_ign":"3415 Ouest","obsolete":true}},{"type":"Feature","geometry":null,"properties":{"id_ffco":"3557","nom":"VANDOEUVRE LES NANCY - La Sapinière","_dept":"54","numero":"2002-D54-85","commune":"Vandoeuvre lès Nancy","echelle":"1/5000","surface":"0.47 km²","format":"A4","annee":"2002","cartographes":"Daniel Rollet","proprietaire":"5415 - LOISIRS ORIENTATION JEANDELAINCOURT","niveau":"Départemental","specialite":"CO à pied","latitude":"48.6592801","longitude":"6.1731884","date_saisie":"25/07/2002","date_depot":"26/07/2002","valide":"Non","ppo":"Non","obsolete":true}},{"type":"Feature","geometry":null,"properties":{"id_ffco":"3511","nom":"Laxou Champ Le Buf","_dept":"54","numero":"2002-D54-83","commune":"Nancy","echelle":"1/5000","surface":"0.11 km²","format":"A4","annee":"2002","cartographes":"Emmanuelle Maginot","proprietaire":"54 - Meurthe-et-Moselle","niveau":"Départemental","specialite":"CO à pied","latitude":"48.6907887","longitude":"6.1825044","date_saisie":"21/05/2002","date_depot":"10/06/2002","valide":"Non","ppo":"Non","obsolete":true}},{"type":"Feature","geometry":null,"properties":{"id_ffco":"3510","nom":"PARC D E MONTAIGU","_dept":"54","numero":"2002-D54-82","commune":"Nancy","echelle":"1/5000","surface":"0.23 km²","format":"A4","annee":"2002","cartographes":"Daniel Rollet","proprietaire":"5415 - LOISIRS ORIENTATION JEANDELAINCOURT","niveau":"Initiation, Scolaire","specialite":"CO à pied","latitude":"48.6907887","longitude":"6.1825044","date_saisie":"21/05/2002","date_depot":"10/06/2002","valide":"Non","ppo":"Non","obsolete":true}},{"type":"Feature","geometry":null,"properties":{"id_ffco":"3509","nom":"LES COTEAUX DU TOULOIS","_dept":"54","numero":"2002-D54-81","commune":"Toul","echelle":"1/15000","surface":"17.62 km²","format":"A3","annee":"2002","cartographes":"Daniel Rollet","proprietaire":"54 - Meurthe-et-Moselle","niveau":"Régional","specialite":"Rand'O","latitude":"48.6834594","longitude":"5.8951006","date_saisie":"21/05/2002","date_depot":"10/06/2002","valide":"Non","ppo":"Non","obsolete":true}},{"type":"Feature","geometry":null,"properties":{"id_ffco":"3556","nom":"ANTHELUPT - Les Grands Bois","_dept":"54","numero":"2002-D54-80","commune":"Anthelupt","echelle":"1/15000","surface":"4.0 km²","format":"A4","annee":"2002","proprietaire":"5414 - CLUB D'ORIENTATION DE SAINT-NICOLAS","niveau":"Départemental","specialite":"CO à pied","latitude":"48.6097049","longitude":"6.413324","date_saisie":"25/07/2002","date_depot":"26/07/2002","valide":"Non","ppo":"Non","obsolete":true}},{"type":"Feature","geometry":null,"properties":{"id_ffco":"3412","nom":"LE FORT D'ECROUVES","_dept":"54","numero":"2001-D54-79","commune":"TOUL","echelle":"1/10000","surface":"4.8 km²","format":"A3","annee":"2001","cartographes":"Daniel Rollet,Philippe Pogu","proprietaire":"5402 - SCAPA NANCY ORIENTATION","niveau":"Régional","specialite":"CO à VTT","latitude":"48.6834594","longitude":"5.8951006","date_saisie":"23/11/2001","date_depot":"06/12/2001","valide":"Non","ppo":"Non","obsolete":true}},{"type":"Feature","geometry":null,"properties":{"id_ffco":"7192","nom":"Le Val des Nonnes","_dept":"54","numero":"2001-D54-78","commune":"Toul","echelle":"1/15000","surface":"9.0 km²","format":"A3","annee":"2001","cartographes":"Daniel Rollet,Philippe Pogu","proprietaire":"5402 - SCAPA NANCY ORIENTATION","niveau":"Régional","date_saisie":"27/12/2013","valide":"Non","ppo":"Non","obsolete":true}},{"type":"Feature","geometry":{"type":"Polygon","coordinates":[[[6.4604,48.5921],[6.4547,48.5948],[6.4542,48.5943],[6.4541,48.5938],[6.4534,48.5933],[6.4501,48.5915],[6.4484,48.5906],[6.4469,48.5899],[6.4459,48.5892],[6.4441,48.5884],[6.4433,48.5877],[6.4429,48.5873],[6.442,48.5865],[6.4417,48.5861],[6.4431,48.5858],[6.4448,48.5855],[6.4461,48.5854],[6.449,48.585],[6.4519,48.5844],[6.4534,48.5839],[6.4562,48.583],[6.4574,48.5825],[6.4589,48.5819],[6.46,48.5814],[6.4614,48.5807],[6.4623,48.5804],[6.4641,48.5797],[6.4656,48.5792],[6.467,48.5788],[6.4674,48.5798],[6.4676,48.5809],[6.468,48.5816],[6.4689,48.5823],[6.4704,48.5836],[6.4715,48.5841],[6.4723,48.5843],[6.4721,48.5857],[6.4723,48.5871],[6.4729,48.588],[6.4721,48.5884],[6.4709,48.5888],[6.4694,48.5894],[6.4674,48.5903],[6.4652,48.592],[6.464,48.5933],[6.4629,48.5934],[6.4619,48.5928],[6.4604,48.5921]]]},"properties":{"id_ffco":"9958","nom":"Saint-Anne","_dept":"54","numero":"2001-D54-76","commune":"Lunéville","echelle":"1/10000","surface":"2.07 km²","format":"A4","annee":"2001","cartographes":"LASOUCHE Johann,LEMERCIER Bernard,LEMERCIER Mathieu","proprietaire":"5407 - SPORTS ORIENTATION LUNEVILLE","niveau":"Régional","specialite":"CO à pied","latitude":"48.5871169019","longitude":"6.45911514874","date_saisie":"07/12/2016","valide":"Non","ppo":"Non","type_carte":"Nouvelle carte","fond":"IGN","ref_ign":"3416 E","obsolete":true}},{"type":"Feature","geometry":null,"properties":{"id_ffco":"3115","nom":"PARC DE BRABOIS","_dept":"54","numero":"1998-D54-67","commune":"NANCY","echelle":"1/6000","surface":"1.0 km²","annee":"1998","proprietaire":"LLCO","specialite":"CO à pied","latitude":"48.6907887","longitude":"6.1825044","date_depot":"11/03/2002","valide":"Non","ppo":"Non","obsolete":true}},{"type":"Feature","geometry":{"type":"Polygon","coordinates":[[[6.5951,48.5814],[6.5936,48.5821],[6.5913,48.5828],[6.5884,48.5834],[6.5872,48.5839],[6.5843,48.5842],[6.5817,48.5843],[6.5788,48.5845],[6.5718,48.5837],[6.5708,48.5835],[6.5685,48.5831],[6.567,48.5825],[6.5657,48.582],[6.5644,48.5815],[6.5612,48.5801],[6.5596,48.5789],[6.5591,48.5784],[6.5576,48.5773],[6.5567,48.5767],[6.5558,48.5757],[6.5549,48.5749],[6.5538,48.5738],[6.5533,48.5732],[6.5526,48.5726],[6.554,48.5723],[6.555,48.5719],[6.5557,48.5714],[6.5567,48.5704],[6.5574,48.5697],[6.5576,48.5692],[6.5567,48.5686],[6.5554,48.5677],[6.5542,48.5671],[6.5541,48.5666],[6.5537,48.566],[6.5529,48.5653],[6.5544,48.5644],[6.5555,48.5636],[6.5568,48.563],[6.5575,48.5626],[6.558,48.5618],[6.5594,48.5611],[6.5603,48.5603],[6.5612,48.5596],[6.5623,48.5587],[6.5633,48.5582],[6.5652,48.5571],[6.5667,48.5562],[6.5673,48.5557],[6.5684,48.555],[6.5693,48.5543],[6.5694,48.5533],[6.569,48.5526],[6.5675,48.5519],[6.5648,48.5503],[6.5653,48.55],[6.5668,48.5495],[6.5682,48.549],[6.5694,48.5482],[6.5706,48.5481],[6.5712,48.5485],[6.5718,48.549],[6.5728,48.5485],[6.5739,48.5481],[6.5758,48.5473],[6.576,48.5478],[6.5766,48.5485],[6.5778,48.5495],[6.5792,48.5505],[6.5824,48.5526],[6.5838,48.5534],[6.5861,48.5553],[6.5873,48.5556],[6.5894,48.556],[6.5924,48.5563],[6.5939,48.5566],[6.5955,48.5571],[6.5962,48.558],[6.5965,48.5593],[6.5955,48.5608],[6.5945,48.5619],[6.5924,48.5643],[6.5918,48.5654],[6.5905,48.5669],[6.5901,48.5682],[6.5907,48.5711],[6.5913,48.5722],[6.592,48.5741],[6.5926,48.575],[6.593,48.5761],[6.5928,48.5768],[6.5931,48.5782],[6.5941,48.5793],[6.5948,48.5799],[6.5951,48.5807],[6.5952,48.5812],[6.5951,48.5814]]]},"properties":{"id_ffco":"3113","nom":"LE GRAND ETANG - LUNEVILLE","_dept":"54","numero":"1998-D54-66","commune":"LUNEVILLE","echelle":"1/15000","surface":"8.75 km²","format":"A4","annee":"1998","cartographes":"B Lemercier,Armand Chevry,Jean-Luc Buttet,Dominique Alti,LASOUCHE Johann,Stéphane Henry","proprietaire":"5407 - SPORTS ORIENTATION LUNEVILLE","niveau":"National, International","specialite":"CO à pied","latitude":"48.5679682714","longitude":"6.57550091291","valide":"Oui","ppo":"Non","type_carte":"Nouvelle carte","fond":"IGN","obsolete":true}},{"type":"Feature","geometry":null,"properties":{"id_ffco":"3153","nom":"CROIX GRAND COLAS 6 FORET DE HAYE","_dept":"54","numero":"1994-D54-65","commune":"NANCY","echelle":"1/15000","surface":"5.2 km²","annee":"1994","proprietaire":"54 - Meurthe-et-Moselle","niveau":"Interrégional","specialite":"CO à pied","latitude":"48.6907887","longitude":"6.1825044","valide":"Non","ppo":"Non","obsolete":true}},{"type":"Feature","geometry":null,"properties":{"id_ffco":"2895","nom":"PARC DE HAYE","_dept":"54","numero":"1997-D54-64","commune":"NANCY","echelle":"1/10000","surface":"2.0 km²","annee":"1997","proprietaire":"5402 - SCAPA NANCY ORIENTATION","niveau":"Interrégional","specialite":"CO à pied","latitude":"48.6907887","longitude":"6.1825044","valide":"Non","ppo":"Non","obsolete":true}},{"type":"Feature","geometry":null,"properties":{"id_ffco":"3112","nom":"FORET DE HAYE - BEAUREGARD","_dept":"54","numero":"1998-D54-63","commune":"NANCY -LAXOU","echelle":"1/10000","surface":"1.5 km²","format":"A4","annee":"1998","cartographes":"MJ Lionnet","proprietaire":"5402 - SCAPA NANCY ORIENTATION","niveau":"Départemental","specialite":"CO à pied","latitude":"48.6907887","longitude":"6.1825044","valide":"Non","ppo":"Non","obsolete":true}},{"type":"Feature","geometry":null,"properties":{"id_ffco":"1309","nom":"PIERRE AU JO (LA)","_dept":"54","numero":"1983-D54-60","commune":"PONT A MOUSSON","echelle":"1/15000","surface":"7.75 km²","annee":"1983","proprietaire":"5702 - C.S.A. DE LA GARNISON DE METZ","niveau":"Interrégional","specialite":"CO à pied","latitude":"48.9058147","longitude":"6.0597881","valide":"Non","ppo":"Non","obsolete":true}},{"type":"Feature","geometry":{"type":"Polygon","coordinates":[[[6.3518,48.6987],[6.3652,48.7008],[6.3655,48.7123],[6.3782,48.716],[6.3787,48.7205],[6.3705,48.7283],[6.3629,48.7284],[6.353,48.7271],[6.3454,48.7331],[6.3415,48.7283],[6.3365,48.724],[6.3396,48.7169],[6.3416,48.7139],[6.3413,48.7128],[6.3403,48.7114],[6.3422,48.6996],[6.3521,48.6989],[6.3518,48.6987]]]},"properties":{"id_ffco":"1308","nom":"Foret De Champenoux","_dept":"54","numero":"1995-D54-59","commune":"CHAMPENOUX","echelle":"1/15000","surface":"7.37 km²","format":"A4","annee":"1995","cartographes":"CAP ORIENTATION","proprietaire":"54 - Meurthe-et-Moselle","niveau":"Interrégional","specialite":"CO à pied","latitude":"48.7156840273","longitude":"6.35550968888","valide":"Non","ppo":"Non","obsolete":true}},{"type":"Feature","geometry":{"type":"Polygon","coordinates":[[[6.5576,48.5782],[6.5564,48.5789],[6.5546,48.5801],[6.5494,48.5826],[6.5478,48.5836],[6.5469,48.5841],[6.5457,48.5847],[6.544,48.5855],[6.5434,48.5848],[6.5428,48.5837],[6.5413,48.5814],[6.5402,48.5808],[6.5391,48.5802],[6.5382,48.5796],[6.5385,48.5787],[6.5385,48.5778],[6.538,48.5771],[6.5383,48.5764],[6.539,48.5748],[6.5385,48.5743],[6.5373,48.5737],[6.5355,48.5729],[6.5361,48.5726],[6.5368,48.572],[6.5361,48.5715],[6.5352,48.5711],[6.5362,48.5698],[6.5374,48.5691],[6.5385,48.5685],[6.5392,48.5681],[6.5414,48.5683],[6.5439,48.5686],[6.546,48.5692],[6.5479,48.57],[6.5494,48.5709],[6.5509,48.5717],[6.5523,48.5729],[6.5534,48.5738],[6.5546,48.5749],[6.5561,48.5764],[6.5569,48.5772],[6.5578,48.5778],[6.5576,48.5782]]]},"properties":{"id_ffco":"9960","nom":"Forêt communale de Lunéville","_dept":"54","numero":"1995-D54-58","commune":"Lunéville","echelle":"1/10000","surface":"1.8 km²","format":"+","annee":"1995","cartographes":"LEMERCIER Bernard,LASOUCHE Johann,Anne-Claire Lemercier","proprietaire":"5407 - SPORTS ORIENTATION LUNEVILLE","niveau":"Régional","specialite":"CO à pied","latitude":"48.5760995871","longitude":"6.54569207354","date_saisie":"08/12/2016","valide":"Non","ppo":"Non","type_carte":"Nouvelle carte","fond":"IGN","ref_ign":"3516 O","obsolete":true}},{"type":"Feature","geometry":null,"properties":{"id_ffco":"2343","nom":"CENT ECUS","_dept":"54","numero":"1990-D54-51","commune":"BENAMENIL","echelle":"1/10000","surface":"2.5 km²","annee":"1990","proprietaire":"5407 - SPORTS ORIENTATION LUNEVILLE","specialite":"CO à pied","latitude":"48.5695193","longitude":"6.6735631","valide":"Non","ppo":"Non","obsolete":true}},{"type":"Feature","geometry":null,"properties":{"id_ffco":"3152","nom":"Le Laid Bois 2","_dept":"54","numero":"1992-D54-49","surface":"None km²","annee":"1992","specialite":"CO à pied","latitude":"48.7997007","longitude":"6.0947014","valide":"Non","ppo":"Non","obsolete":true}},{"type":"Feature","geometry":{"type":"Polygon","coordinates":[[[6.6494,48.5229],[6.6547,48.5231],[6.6565,48.523],[6.6593,48.523],[6.6615,48.5232],[6.6654,48.5232],[6.6681,48.5235],[6.6704,48.5235],[6.6733,48.5235],[6.6752,48.5235],[6.6769,48.5236],[6.6809,48.5238],[6.6831,48.524],[6.6844,48.524],[6.6845,48.5288],[6.6845,48.5301],[6.6843,48.5335],[6.6843,48.5349],[6.6843,48.5369],[6.6843,48.5388],[6.6838,48.5406],[6.6842,48.5426],[6.6842,48.5438],[6.6842,48.5446],[6.6842,48.5459],[6.6821,48.5458],[6.6816,48.5462],[6.6817,48.5474],[6.6816,48.548],[6.6816,48.5488],[6.6817,48.5498],[6.6816,48.5521],[6.6811,48.5524],[6.6789,48.5524],[6.6766,48.5525],[6.6724,48.5523],[6.6698,48.5521],[6.6661,48.5524],[6.6644,48.5525],[6.6634,48.5525],[6.663,48.5521],[6.6628,48.5515],[6.6624,48.551],[6.659,48.5516],[6.6587,48.5517],[6.6567,48.5523],[6.6539,48.5511],[6.6515,48.5499],[6.6494,48.5492],[6.6484,48.5488],[6.6473,48.5482],[6.6457,48.5477],[6.6442,48.5471],[6.6416,48.5463],[6.6399,48.5461],[6.6393,48.5455],[6.639,48.5452],[6.6373,48.5444],[6.6369,48.5442],[6.6363,48.5437],[6.6336,48.5424],[6.6318,48.5415],[6.6315,48.5409],[6.631,48.5403],[6.6291,48.5398],[6.627,48.5389],[6.6262,48.5386],[6.6254,48.5384],[6.6255,48.5365],[6.6263,48.5359],[6.6374,48.5296],[6.6434,48.526],[6.6463,48.5242],[6.6491,48.5229],[6.6494,48.5229]]]},"properties":{"id_ffco":"1307","nom":"LE GRAND COUGNOT","_dept":"54","numero":"1992-D54-48","commune":"LUNEVILLE","echelle":"1/15000","surface":"10.88 km²","format":"A4","annee":"1992","cartographes":"Jean-Marie Marcoux","proprietaire":"5407 - SPORTS ORIENTATION LUNEVILLE","niveau":"Interrégional","specialite":"CO à pied","contacts":"CSA 3ème Régiment de Cuirassiers, Quartier Lasalle, Chenevières","latitude":"48.5371698214","longitude":"6.65991921289","valide":"Oui","ppo":"Non","type_carte":"Nouvelle carte","fond":"IGN","obsolete":true}},{"type":"Feature","geometry":null,"properties":{"id_ffco":"2342","nom":"BOIS DE CHADELLE","_dept":"54","numero":"1990-D54-47","commune":"LONGWY","echelle":"1/4000","surface":"0.4 km²","annee":"1990","proprietaire":"LLCO","specialite":"CO à pied","latitude":"49.5145285","longitude":"5.7692641","valide":"Non","ppo":"Non","obsolete":true}},{"type":"Feature","geometry":null,"properties":{"id_ffco":"2341","nom":"PARC E.COTTON","_dept":"54","numero":"1991-D54-44","commune":"PIENNES","echelle":"1/1000","surface":"0.1 km²","format":"A5","annee":"1991","cartographes":"Christian Tschoryk","proprietaire":"5413 - CLUB ORIENTATION DE PIENNES","niveau":"Initiation, Scolaire","specialite":"CO à pied","latitude":"49.3074147","longitude":"5.7883254","valide":"Non","ppo":"Non","obsolete":true}},{"type":"Feature","geometry":null,"properties":{"id_ffco":"2340","nom":"Champ L'Alouette","_dept":"54","numero":"1990-D54-43","commune":"TOUL","echelle":"1/10000","surface":"1.5 km²","annee":"1990","proprietaire":"5404","specialite":"CO à pied","latitude":"48.6834594","longitude":"5.8951006","valide":"Non","ppo":"Non","obsolete":true}},{"type":"Feature","geometry":null,"properties":{"id_ffco":"2339","nom":"PARC de l'EMBANIE","_dept":"54","numero":"1990-D54-42","commune":"HEILLECOURT","echelle":"1/4000","surface":"0.1 km²","annee":"1990","proprietaire":"LLCO","niveau":"Initiation, Scolaire","specialite":"CO à pied","latitude":"48.6534047","longitude":"6.1950332","valide":"Non","ppo":"Non","obsolete":true}},{"type":"Feature","geometry":null,"properties":{"id_ffco":"1306","nom":"MARES DE SPINCOURT","_dept":"54","numero":"1990-D54-41","commune":"SENON","echelle":"1/15000","surface":"7.0 km²","format":"A4","annee":"1990","cartographes":"Christian Tschoryk","proprietaire":"5413 - CLUB ORIENTATION DE PIENNES","niveau":"Interrégional","specialite":"CO à pied","latitude":"48.7997007","longitude":"6.0947014","valide":"Non","ppo":"Non","obsolete":true}},{"type":"Feature","geometry":null,"properties":{"id_ffco":"2338","nom":"Remparts Longwy-Haut","_dept":"54","numero":"1990-D54-40","commune":"LONGWY","echelle":"1/4000","surface":"0.1 km²","annee":"1990","proprietaire":"LLCO","specialite":"CO à pied","latitude":"49.5145285","longitude":"5.7692641","valide":"Non","ppo":"Non","obsolete":true}},{"type":"Feature","geometry":null,"properties":{"id_ffco":"2337","nom":"PARC de LOISIRS","_dept":"54","numero":"1990-D54-39","commune":"VANDOEUVRE","echelle":"1/4000","surface":"0.2 km²","format":"A5","annee":"1990","proprietaire":"LO - Lorraine","niveau":"Initiation, Scolaire","specialite":"CO à pied","latitude":"48.6518601","longitude":"6.1803324","valide":"Non","ppo":"Non","obsolete":true}},{"type":"Feature","geometry":null,"properties":{"id_ffco":"2336","nom":"REDOUTE","_dept":"54","numero":"1990-D54-38","commune":"TOUL","echelle":"1/10000","surface":"1.2 km²","annee":"1990","proprietaire":"5404","specialite":"CO à pied","latitude":"48.6834594","longitude":"5.8951006","valide":"Non","ppo":"Non","obsolete":true}},{"type":"Feature","geometry":null,"properties":{"id_ffco":"2335","nom":"BOIS COLOMBEY","_dept":"54","numero":"1990-D54-37","commune":"COLOMBEY LES BELLES","echelle":"1/10000","surface":"1.2 km²","annee":"1990","proprietaire":"5402 - SCAPA NANCY ORIENTATION","specialite":"CO à pied","latitude":"48.5287857","longitude":"5.8969804","valide":"Non","ppo":"Non","obsolete":true}},{"type":"Feature","geometry":{"type":"Polygon","coordinates":[[[6.5576,48.578],[6.5566,48.5791],[6.5551,48.5798],[6.554,48.5805],[6.5529,48.5809],[6.552,48.5814],[6.5508,48.5821],[6.5497,48.5814],[6.549,48.5807],[6.5474,48.5797],[6.5464,48.5803],[6.5451,48.5809],[6.5443,48.5801],[6.5434,48.5789],[6.5427,48.5778],[6.5422,48.5773],[6.5418,48.5773],[6.5414,48.5767],[6.5409,48.5759],[6.5405,48.5756],[6.54,48.5749],[6.5395,48.5744],[6.5393,48.5738],[6.5392,48.5728],[6.539,48.5718],[6.5403,48.5707],[6.5391,48.5701],[6.5381,48.5694],[6.5388,48.5685],[6.5396,48.5675],[6.541,48.5665],[6.542,48.5658],[6.5437,48.5644],[6.5454,48.5634],[6.5465,48.5627],[6.5473,48.5621],[6.5496,48.5604],[6.5503,48.5599],[6.5517,48.5588],[6.5539,48.5572],[6.5551,48.5563],[6.5561,48.5558],[6.5574,48.5567],[6.5584,48.5577],[6.5592,48.5584],[6.5601,48.559],[6.561,48.5597],[6.5622,48.5593],[6.5642,48.558],[6.5651,48.5588],[6.5664,48.5598],[6.5682,48.5609],[6.5691,48.5604],[6.5698,48.5601],[6.5779,48.5655],[6.5802,48.5676],[6.5787,48.568],[6.5806,48.5727],[6.5772,48.5734],[6.5779,48.5756],[6.5785,48.5766],[6.5747,48.5774],[6.5754,48.5799],[6.5738,48.5805],[6.5682,48.5814],[6.5666,48.582],[6.5661,48.582],[6.5624,48.5808],[6.5606,48.5799],[6.5592,48.5788],[6.5576,48.578]]]},"properties":{"id_ffco":"751","nom":"FORET de MONDON","_dept":"54","numero":"1989-D54-36","commune":"MONCEL-les-LUNEVILLE","echelle":"1/15000","surface":"6.09 km²","format":"A4","annee":"1989","cartographes":"Daniel Favard,Christian Liènard,Jean-Baptiste Foisel,Maurice Lecomte,Nicolas Lemercier","proprietaire":"5411","niveau":"Régional","specialite":"CO à pied","contacts":"Foyer rural, 54300, Moncel-les-Lunéville","latitude":"48.5702393263","longitude":"6.55942906964","valide":"Oui","ppo":"Non","type_carte":"Nouvelle carte","fond":"IGN","ref_ign":"Lunéville 1-2","obsolete":true}},{"type":"Feature","geometry":null,"properties":{"id_ffco":"1305","nom":"PETITE HAYE","_dept":"54","numero":"1983-D54-35","commune":"NANCY","echelle":"1/15000","surface":"5.5 km²","annee":"1983","proprietaire":"LLCO","niveau":"Interrégional","specialite":"CO à pied","latitude":"48.6907887","longitude":"6.1825044","valide":"Non","ppo":"Non","obsolete":true}},{"type":"Feature","geometry":null,"properties":{"id_ffco":"2334","nom":"PLAINE JEUX","_dept":"54","numero":"1990-D54-34","commune":"LONGWY","echelle":"1/3000","surface":"0.1 km²","annee":"1990","proprietaire":"LLCO","specialite":"CO à pied","latitude":"49.5145285","longitude":"5.7692641","valide":"Non","ppo":"Non","obsolete":true}},{"type":"Feature","geometry":null,"properties":{"id_ffco":"2333","nom":"REMICOURT","_dept":"54","numero":"1990-D54-33","commune":"REMICOURT","echelle":"1/4000","surface":"0.1 km²","annee":"1990","proprietaire":"5402 - SCAPA NANCY ORIENTATION","specialite":"CO à pied","latitude":"48.667999","longitude":"6.1521837","valide":"Non","ppo":"Non","obsolete":true}},{"type":"Feature","geometry":null,"properties":{"id_ffco":"1304","nom":"PARC HAYE","_dept":"54","numero":"1983-D54-32","commune":"NANCY","echelle":"1/10000","surface":"3.6 km²","annee":"1983","proprietaire":"5712","niveau":"Interrégional","specialite":"CO à pied","latitude":"48.6907887","longitude":"6.1825044","valide":"Non","ppo":"Non","obsolete":true}},{"type":"Feature","geometry":null,"properties":{"id_ffco":"1303","nom":"TRANCHEE DES LOUPS","_dept":"54","numero":"1983-D54-31","commune":"LUNEVILLE","echelle":"1/15000","surface":"4.8 km²","annee":"1983","proprietaire":"5411","niveau":"Interrégional","specialite":"CO à pied","latitude":"48.5913501","longitude":"6.4908193","valide":"Non","ppo":"Non","obsolete":true}},{"type":"Feature","geometry":null,"properties":{"id_ffco":"1302","nom":"PLATEAU DE MALZEVILLE","_dept":"54","numero":"1983-D54-29","commune":"ESSEY NANCY","echelle":"1/15000","surface":"5.4 km²","annee":"1983","proprietaire":"LLCO","niveau":"Interrégional","specialite":"CO à pied","latitude":"48.7066858","longitude":"6.2193024","valide":"Non","ppo":"Non","obsolete":true}},{"type":"Feature","geometry":null,"properties":{"id_ffco":"2332","nom":"GRANDE CORVEE","_dept":"54","numero":"1990-D54-28","commune":"MONCEL","echelle":"1/10000","surface":"1.3 km²","annee":"1990","proprietaire":"5411","specialite":"CO à pied","latitude":"48.7649948","longitude":"6.4219537","valide":"Non","ppo":"Non","obsolete":true}},{"type":"Feature","geometry":null,"properties":{"id_ffco":"2331","nom":"CREPS NANCY","_dept":"54","numero":"1990-D54-27","commune":"ESSEY NANCY","echelle":"1/2000","surface":"0.1 km²","annee":"1990","proprietaire":"LLCO","specialite":"CO à pied","latitude":"48.7066858","longitude":"6.2193024","valide":"Non","ppo":"Non","obsolete":true}},{"type":"Feature","geometry":null,"properties":{"id_ffco":"2330","nom":"SAPINIERE VANDOEUVRE","_dept":"54","numero":"1987-D54-26","commune":"VANDOEUVRE","echelle":"1/5000","surface":"0.3 km²","format":"A5","annee":"1987","proprietaire":"LO - Lorraine","niveau":"Initiation, Scolaire","specialite":"CO à pied","latitude":"48.6518601","longitude":"6.1803324","valide":"Non","ppo":"Non","obsolete":true}},{"type":"Feature","geometry":null,"properties":{"id_ffco":"1301","nom":"FORET DE SECHE FONTAINE","_dept":"54","numero":"1983-D54-25","commune":"TOUL","echelle":"1/15000","surface":"6.2 km²","annee":"1983","proprietaire":"5404","niveau":"Interrégional","specialite":"CO à pied","latitude":"48.6834594","longitude":"5.8951006","valide":"Non","ppo":"Non","obsolete":true}},{"type":"Feature","geometry":null,"properties":{"id_ffco":"2329","nom":"HAUT PLACES","_dept":"54","numero":"1990-D54-24","commune":"BLAINVILLE","echelle":"1/10000","surface":"3.0 km²","annee":"1990","proprietaire":"LLCO","specialite":"CO à pied","latitude":"48.5555645","longitude":"6.4054388","valide":"Non","ppo":"Non","obsolete":true}},{"type":"Feature","geometry":null,"properties":{"id_ffco":"2329","nom":"BLAINVILLE COLLEGE","_dept":"54","numero":"1990-D54-24","commune":"BLAINVILLE","echelle":"1/10000","surface":"3.0 km²","annee":"1990","proprietaire":"LLCO","specialite":"CO à pied","latitude":"48.5555645","longitude":"6.4054388","valide":"Non","ppo":"Non","obsolete":true}},{"type":"Feature","geometry":null,"properties":{"id_ffco":"2327","nom":"PARC PUBLIC DE BRABOIS","_dept":"54","numero":"1985-D54-23","commune":"NANCY","echelle":"1/6000","surface":"0.5 km²","format":"A5","annee":"1985","proprietaire":"LO - Lorraine","niveau":"Initiation, Scolaire","specialite":"CO à pied","latitude":"48.6907887","longitude":"6.1825044","valide":"Non","ppo":"Non","obsolete":true}},{"type":"Feature","geometry":null,"properties":{"id_ffco":"2326","nom":"NANCY / LA PEPINIERE","_dept":"54","numero":"1985-D54-22","commune":"NANCY","echelle":"1/3000","surface":"0.2 km²","format":"A5","annee":"1985","proprietaire":"LO - Lorraine","niveau":"Initiation, Scolaire","specialite":"CO à pied","latitude":"48.6907887","longitude":"6.1825044","valide":"Non","ppo":"Non","obsolete":true}},{"type":"Feature","geometry":{"type":"Polygon","coordinates":[[[6.503,48.5969],[6.5028,48.5968],[6.4989,48.5965],[6.4989,48.5965],[6.4928,48.5955],[6.4935,48.5939],[6.4966,48.5941],[6.497,48.5936],[6.503,48.5932],[6.5029,48.5968],[6.503,48.5969]]]},"properties":{"id_ffco":"2325","nom":"BOSQUETS","_dept":"54","numero":"1990-D54-21","commune":"LUNEVILLE","echelle":"1/4000","surface":"0.21 km²","annee":"1990","proprietaire":"5407 - SPORTS ORIENTATION LUNEVILLE","specialite":"CO à pied","latitude":"48.594975924","longitude":"6.49873382273","valide":"Non","ppo":"Non","obsolete":true}},{"type":"Feature","geometry":null,"properties":{"id_ffco":"2324","nom":"BEAUREGARD HARDEVAL","_dept":"54","numero":"1990-D54-20","commune":"NANCY-LAXOU","echelle":"1/15000","surface":"3.5 km²","format":"A4","annee":"1990","proprietaire":"5402 - SCAPA NANCY ORIENTATION","niveau":"Régional","specialite":"CO à pied","latitude":"48.693354","longitude":"6.18424","valide":"Non","ppo":"Non","obsolete":true}},{"type":"Feature","geometry":null,"properties":{"id_ffco":"2323","nom":"BEAUREGARD","_dept":"54","numero":"1984-D54-19","commune":"NANCY LAXOU","echelle":"1/10000","surface":"2.0 km²","format":"A4","annee":"1984","proprietaire":"5402 - SCAPA NANCY ORIENTATION","niveau":"Départemental","specialite":"CO à pied","latitude":"48.693354","longitude":"6.18424","valide":"Non","ppo":"Non","obsolete":true}},{"type":"Feature","geometry":null,"properties":{"id_ffco":"1300","nom":"BOIS FAULX","_dept":"54","numero":"1983-D54-18","commune":"NANCY","echelle":"1/15000","surface":"11.0 km²","format":"A4","annee":"1983","proprietaire":"LO - Lorraine","niveau":"Interrégional","specialite":"CO à pied","latitude":"48.6907887","longitude":"6.1825044","valide":"Non","ppo":"Non","obsolete":true}},{"type":"Feature","geometry":null,"properties":{"id_ffco":"2322","nom":"GEORGES DE LA TOUR","_dept":"54","numero":"1990-D54-16","commune":"NANCY","echelle":"1/2500","surface":"0.1 km²","annee":"1990","proprietaire":"5402 - SCAPA NANCY ORIENTATION","specialite":"CO à pied","latitude":"48.6907887","longitude":"6.1825044","valide":"Non","ppo":"Non","obsolete":true}},{"type":"Feature","geometry":null,"properties":{"id_ffco":"1299","nom":"PLATEAU MALZEVILLE","_dept":"54","numero":"1983-D54-15","commune":"ESSEY NANCY","echelle":"1/15000","surface":"6.0 km²","annee":"1983","proprietaire":"LLCO","niveau":"Interrégional","specialite":"CO à pied","latitude":"48.7066858","longitude":"6.2193024","valide":"Non","ppo":"Non","obsolete":true}},{"type":"Feature","geometry":null,"properties":{"id_ffco":"2321","nom":"FORET MONDON","_dept":"54","numero":"1990-D54-14","commune":"MONCEL LUNEVILLE","echelle":"1/7500","surface":"1.2 km²","annee":"1990","proprietaire":"LLCO","specialite":"CO à pied","latitude":"48.5897655","longitude":"6.4938665","valide":"Non","ppo":"Non","obsolete":true}},{"type":"Feature","geometry":null,"properties":{"id_ffco":"1298","nom":"QUARTIER LASSALLE","_dept":"54","numero":"1983-D54-12","commune":"CHENEVIERES","echelle":"1/15000","surface":"5.0 km²","annee":"1983","proprietaire":"5407 - SPORTS ORIENTATION LUNEVILLE","niveau":"Interrégional","specialite":"CO à pied","latitude":"48.5169236","longitude":"6.6304181","valide":"Non","ppo":"Non","obsolete":true}},{"type":"Feature","geometry":null,"properties":{"id_ffco":"1297","nom":"ETANG DE BRIN","_dept":"54","numero":"1983-D54-11","commune":"NANCY","echelle":"1/15000","surface":"5.0 km²","annee":"1983","proprietaire":"5402 - SCAPA NANCY ORIENTATION","niveau":"Interrégional","specialite":"CO à pied","latitude":"48.6907887","longitude":"6.1825044","valide":"Non","ppo":"Non","obsolete":true}},{"type":"Feature","geometry":null,"properties":{"id_ffco":"4321","nom":"Le Louet","_dept":"54","numero":"2005-D54-107","commune":"Tonnoy","echelle":"1/10000","surface":"1.24 km²","annee":"2005","cartographes":"C Pierron","proprietaire":"5414 - CLUB D'ORIENTATION DE SAINT-NICOLAS","specialite":"CO à pied","latitude":"48.5510218","longitude":"6.2560629","date_saisie":"07/12/2006","date_depot":"30/05/2007","valide":"Non","ppo":"Non","obsolete":true}},{"type":"Feature","geometry":null,"properties":{"id_ffco":"4322","nom":"Le Bois Impérial","_dept":"54","numero":"2005-D54-106","commune":"Richardménil","echelle":"1/15000","surface":"7.5 km²","annee":"2005","cartographes":"C Pierron","proprietaire":"5414 - CLUB D'ORIENTATION DE SAINT-NICOLAS","specialite":"CO à pied","latitude":"48.5925513","longitude":"6.1691397","date_saisie":"07/12/2006","date_depot":"30/05/2007","valide":"Non","ppo":"Non","obsolete":true}},{"type":"Feature","geometry":null,"properties":{"id_ffco":"1296","nom":"VAL DE FER","_dept":"54","numero":"1983-D54-10","commune":"NANCY","echelle":"1/15000","surface":"6.0 km²","annee":"1983","proprietaire":"5402 - SCAPA NANCY ORIENTATION","niveau":"Interrégional","specialite":"CO à pied","latitude":"48.6907887","longitude":"6.1825044","valide":"Non","ppo":"Non","obsolete":true}},{"type":"Feature","geometry":{"type":"Polygon","coordinates":[[[6.1774,48.6673],[6.1772,48.6671],[6.1769,48.6667],[6.1764,48.6663],[6.176,48.666],[6.1758,48.6657],[6.1756,48.6655],[6.1755,48.6654],[6.1756,48.6653],[6.1756,48.6652],[6.1756,48.6648],[6.1755,48.6645],[6.1755,48.6641],[6.1754,48.6639],[6.1751,48.6637],[6.1751,48.6635],[6.1755,48.6634],[6.1761,48.6631],[6.1764,48.6629],[6.1767,48.6626],[6.177,48.6625],[6.1776,48.663],[6.1778,48.6632],[6.1781,48.6634],[6.1785,48.6636],[6.1789,48.6637],[6.1792,48.6638],[6.1794,48.6639],[6.1798,48.6641],[6.18,48.6641],[6.1805,48.6642],[6.1808,48.6642],[6.1812,48.6641],[6.1816,48.664],[6.1821,48.6636],[6.1823,48.6634],[6.1824,48.6633],[6.1826,48.6635],[6.1829,48.6637],[6.183,48.6639],[6.1829,48.664],[6.1825,48.6642],[6.1822,48.6644],[6.1818,48.6646],[6.1817,48.6647],[6.1819,48.6647],[6.1817,48.6652],[6.1815,48.6654],[6.1814,48.6656],[6.1814,48.6657],[6.1816,48.6659],[6.1817,48.666],[6.182,48.6664],[6.1817,48.6665],[6.1813,48.6666],[6.1807,48.6668],[6.1797,48.6669],[6.1792,48.667],[6.1788,48.6671],[6.1785,48.6671],[6.1781,48.6672],[6.1778,48.6673],[6.1775,48.6673],[6.1774,48.6673]]]},"properties":{"id_ffco":"3274","nom":"PARC RICHARD POUILLE","_dept":"54","numero":"2000-D54-075","commune":"Vandoeuvre-les-Nancy","echelle":"1/4000","surface":"0.17 km²","format":"A5","annee":"2000","cartographes":"D Rollet","proprietaire":"5402 - SCAPA NANCY ORIENTATION","niveau":"Initiation, Scolaire","specialite":"CO à pied","latitude":"48.6650648024","longitude":"6.17858531884","valide":"Oui","ppo":"Non","type_carte":"Nouvelle carte","fond":"Cadastre","obsolete":true}},{"type":"Feature","geometry":null,"properties":{"id_ffco":"3364","nom":"LE BOIS DE GREVE","_dept":"54","numero":"1999-D54-074","commune":"MESSEIN","echelle":"1/5000","surface":"0.35 km²","format":"A5","annee":"1999","cartographes":"D Rollet","proprietaire":"54 - Meurthe-et-Moselle","niveau":"Initiation, Scolaire","specialite":"CO à pied","latitude":"48.6106036","longitude":"6.1423955","date_saisie":"20/11/2001","date_depot":"06/12/2001","valide":"Non","ppo":"Non","obsolete":true}},{"type":"Feature","geometry":null,"properties":{"id_ffco":"3327","nom":"BOIS DU JURE","_dept":"54","numero":"1999-D54-073","commune":"NANCY","echelle":"1/15000","surface":"7.7 km²","format":"A4","annee":"1999","cartographes":"Ph Pogu","proprietaire":"5402 - SCAPA NANCY ORIENTATION","niveau":"Interrégional","specialite":"CO à pied","latitude":"48.6907887","longitude":"6.1825044","valide":"Non","ppo":"Non","obsolete":true}},{"type":"Feature","geometry":null,"properties":{"id_ffco":"3356","nom":"FLAVIGNY - Zone du Breuil","_dept":"54","numero":"1999-D54-071","commune":"FLAVIGNY SUR MOSELLE","echelle":"1/10000","surface":"2.2 km²","format":"A4","annee":"1999","proprietaire":"5402 - SCAPA NANCY ORIENTATION","niveau":"Initiation, Scolaire","specialite":"CO à pied","latitude":"48.572564","longitude":"6.1862388","date_saisie":"18/10/2001","date_depot":"06/12/2001","valide":"Non","ppo":"Non","obsolete":true}},{"type":"Feature","geometry":null,"properties":{"id_ffco":"3114","nom":"LA SAPINIERE -VANDOEUVRE","_dept":"54","numero":"1998-D54-068","commune":"NANCY","echelle":"1/5000","surface":"1.0 km²","annee":"1998","proprietaire":"LLCO","specialite":"CO à pied","latitude":"48.6907887","longitude":"6.1825044","date_depot":"11/03/2002","valide":"Non","ppo":"Non","obsolete":true}},{"type":"Feature","geometry":null,"properties":{"id_ffco":"754","nom":"FORET DE HAYE - CREDENCE","_dept":"54","numero":"1977-D54-050","commune":"NANCY","echelle":"1/15000","surface":"8.5 km²","annee":"1977","proprietaire":"5402 - SCAPA NANCY ORIENTATION","specialite":"CO à pied","latitude":"48.6907887","longitude":"6.1825044","valide":"Non","ppo":"Non","obsolete":true}},{"type":"Feature","geometry":null,"properties":{"id_ffco":"753","nom":"FORET de HAYE-MARON","_dept":"54","numero":"1977-D54-046","commune":"NANCY","echelle":"1/15000","surface":"9.0 km²","annee":"1977","proprietaire":"54 - Meurthe-et-Moselle","specialite":"CO à pied","latitude":"48.6907887","longitude":"6.1825044","valide":"Non","ppo":"Non","obsolete":true}},{"type":"Feature","geometry":null,"properties":{"id_ffco":"752","nom":"CARRIERE NANQUETTE","_dept":"54","numero":"1977-D54-045","commune":"CLAIRLIEU","echelle":"1/15000","surface":"9.0 km²","annee":"1977","proprietaire":"54 - Meurthe-et-Moselle","specialite":"CO à pied","latitude":"48.6374957","longitude":"6.0928993","valide":"Non","ppo":"Non","obsolete":true}},{"type":"Feature","geometry":null,"properties":{"id_ffco":"1295","nom":"FOURASSE","_dept":"54","numero":"1983-D54-04","commune":"NANCY","echelle":"1/15000","surface":"7.0 km²","annee":"1983","proprietaire":"5402 - SCAPA NANCY ORIENTATION","niveau":"Interrégional","specialite":"CO à pied","latitude":"48.6907887","longitude":"6.1825044","valide":"Non","ppo":"Non","obsolete":true}},{"type":"Feature","geometry":null,"properties":{"id_ffco":"750","nom":"RAYS","_dept":"54","numero":"1977-D54-030","commune":"NANCY","echelle":"1/15000","surface":"10.0 km²","annee":"1977","proprietaire":"5402 - SCAPA NANCY ORIENTATION","specialite":"CO à pied","latitude":"48.6907887","longitude":"6.1825044","valide":"Non","ppo":"Non","obsolete":true}},{"type":"Feature","geometry":null,"properties":{"id_ffco":"1294","nom":"FORET SECHE FONTAINE","_dept":"54","numero":"1983-D54-03","commune":"TOUL","echelle":"1/15000","surface":"5.0 km²","annee":"1983","proprietaire":"5404","niveau":"Interrégional","specialite":"CO à pied","latitude":"48.6834594","longitude":"5.8951006","valide":"Non","ppo":"Non","obsolete":true}},{"type":"Feature","geometry":null,"properties":{"id_ffco":"1293","nom":"BICQUELEY","_dept":"54","numero":"1983-D54-02","commune":"TOUL","echelle":"1/20000","surface":"10.0 km²","annee":"1983","proprietaire":"5403","niveau":"Interrégional","specialite":"CO à pied","latitude":"48.6834594","longitude":"5.8951006","valide":"Non","ppo":"Non","obsolete":true}},{"type":"Feature","geometry":null,"properties":{"id_ffco":"749","nom":"FORET HAYE 6 BORNES","_dept":"54","numero":"1977-D54-017","commune":"NANCY","echelle":"1/15000","surface":"22.0 km²","annee":"1977","proprietaire":"LLCO","specialite":"CO à pied","latitude":"48.6907887","longitude":"6.1825044","valide":"Non","ppo":"Non","obsolete":true}},{"type":"Feature","geometry":null,"properties":{"id_ffco":"748","nom":"CHOUETTE","_dept":"54","numero":"1977-D54-013","commune":"BACCARAT","echelle":"1/15000","surface":"4.0 km²","annee":"1977","proprietaire":"8801","specialite":"CO à pied","latitude":"48.4485299","longitude":"6.7335021","valide":"Non","ppo":"Non","obsolete":true}},{"type":"Feature","geometry":null,"properties":{"id_ffco":"3214","nom":"FORET DE HAYE","_dept":"54","numero":"1974-D54-01","surface":"None km²","annee":"1974","cartographes":"G Belmas","proprietaire":"CSA 126ème RI","specialite":"CO à pied","latitude":"48.7997007","longitude":"6.0947014","valide":"Non","ppo":"Non","obsolete":true}},{"type":"Feature","geometry":null,"properties":{"id_ffco":"747","nom":"FORET DES ELIEUX","_dept":"54","numero":"1977-D54-009","commune":"BADONVILLERS","echelle":"1/15000","surface":"4.0 km²","annee":"1977","proprietaire":"8801","specialite":"CO à pied","latitude":"48.4988387","longitude":"6.894624","valide":"Non","ppo":"Non","obsolete":true}},{"type":"Feature","geometry":null,"properties":{"id_ffco":"746","nom":"TROIS FOURCHONS","_dept":"54","numero":"1977-D54-007","commune":"NANCY","echelle":"1/15000","surface":"4.0 km²","annee":"1977","proprietaire":"5408","specialite":"CO à pied","latitude":"48.6907887","longitude":"6.1825044","valide":"Non","ppo":"Non","obsolete":true}},{"type":"Feature","geometry":{"type":"Polygon","coordinates":[[[6.4712,48.679],[6.4676,48.678],[6.4634,48.6768],[6.4612,48.676],[6.4588,48.676],[6.4561,48.6768],[6.4556,48.677],[6.454,48.678],[6.4526,48.6787],[6.4503,48.6796],[6.4486,48.6799],[6.4477,48.6785],[6.447,48.6772],[6.4455,48.6759],[6.4447,48.6745],[6.4446,48.6736],[6.4435,48.6717],[6.4428,48.6699],[6.442,48.6682],[6.4412,48.6674],[6.4403,48.6663],[6.4402,48.665],[6.4397,48.6642],[6.4402,48.6626],[6.4403,48.6613],[6.4396,48.6604],[6.439,48.66],[6.4381,48.6601],[6.4373,48.6593],[6.4366,48.6581],[6.4362,48.6574],[6.4371,48.6549],[6.4423,48.6549],[6.4449,48.6555],[6.4466,48.6549],[6.448,48.6543],[6.4503,48.6536],[6.4526,48.6536],[6.4553,48.6537],[6.4577,48.6545],[6.4615,48.6553],[6.466,48.6556],[6.4675,48.6564],[6.4683,48.6571],[6.4697,48.6589],[6.4701,48.6609],[6.4709,48.6621],[6.4718,48.6644],[6.4726,48.6658],[6.4739,48.6673],[6.4749,48.6682],[6.4764,48.6689],[6.4771,48.6697],[6.4785,48.6719],[6.4782,48.6726],[6.4778,48.6737],[6.4789,48.6744],[6.4786,48.6753],[6.4777,48.676],[6.4775,48.6766],[6.476,48.6771],[6.4749,48.6777],[6.4737,48.6782],[6.4731,48.6785],[6.4712,48.679]]]},"properties":{"id_ffco":"745","nom":"EINVILLE AU JARD","_dept":"54","numero":"1977-D54-006","commune":"LUNEVILLE","echelle":"1/15000","surface":"6.11 km²","format":"A4","annee":"1977","cartographes":"LEMERCIER Bernard","proprietaire":"LLCO","niveau":"National, International","specialite":"CO à pied","latitude":"48.6663689804","longitude":"6.45729091916","valide":"Oui","ppo":"Non","type_carte":"Nouvelle carte","fond":"IGN","obsolete":true}},{"type":"Feature","geometry":null,"properties":{"id_ffco":"744","nom":"MARON-VALLONIERS","_dept":"54","numero":"1977-D54-005","commune":"NANCY","echelle":"1/15000","surface":"6.0 km²","annee":"1977","proprietaire":"LLCO","specialite":"CO à pied","latitude":"48.6907887","longitude":"6.1825044","valide":"Non","ppo":"Non","obsolete":true}},{"type":"Feature","geometry":null,"properties":{"id_ffco":"1291","nom":"FORET HAYE","_dept":"54","numero":"1983-D54-00","commune":"NANCY","echelle":"1/20000","surface":"16.0 km²","annee":"1983","proprietaire":"5404","niveau":"Interrégional","specialite":"CO à pied","latitude":"48.6907887","longitude":"6.1825044","valide":"Non","ppo":"Non","obsolete":true}},{"type":"Feature","geometry":null,"properties":{"id_ffco":"1291","nom":"FORET HAYE - SUD","_dept":"54","numero":"1983-D54-00","commune":"NANCY","echelle":"1/20000","surface":"7.25 km²","annee":"1983","proprietaire":"5404","niveau":"Interrégional","specialite":"CO à pied","latitude":"48.6907887","longitude":"6.1825044","valide":"Non","ppo":"Non","obsolete":true}},{"type":"Feature","geometry":null,"properties":{"id_ffco":"1291","nom":"BICQUELEY","_dept":"54","numero":"1983-D54-00","commune":"TOUL","echelle":"1/5000","surface":"0.2 km²","annee":"1983","proprietaire":"5403","niveau":"Interrégional","specialite":"CO à pied","latitude":"48.6834594","longitude":"5.8951006","valide":"Non","ppo":"Non","obsolete":true}}]}