{"type":"FeatureCollection","features":[{"type":"Feature","geometry":{"type":"Polygon","coordinates":[[[5.052,48.6189],[5.0685,48.6192],[5.0669,48.6435],[5.0518,48.6431],[5.0317,48.6431],[5.0208,48.6368],[5.0209,48.6293],[5.0424,48.6223],[5.052,48.6189]]]},"properties":{"id_ffco":"2025-D55-53","nom":"Ancerville -Bruly","_dept":"55","numero":"2025-D55-53","commune":"Ancerville","echelle":"1/10000","surface":"7.67 km²","format":"A3","annee":"2025","cartographes":"Hugo Piszczorowicz, Sophie Piszczorowicz","proprietaire":"GE - Grand Est","niveau":"National, International","specialite":"CO à VTT","contacts":"6008 HF CO NOYON, http://www.noyon-co.org/","latitude":"48.6321437962","longitude":"5.04729873878","date_saisie":"23/05/2025","date_depot":"18/02/2026","valide":"Oui","ppo":"Non","type_carte":"Nouvelle carte","fond":"Laser","obsolete":false}},{"type":"Feature","geometry":{"type":"Polygon","coordinates":[[[5.0115,49.223],[5.0104,49.2244],[5.0094,49.2254],[5.0085,49.2258],[5.0082,49.2263],[5.0091,49.2272],[5.0086,49.2277],[5.0087,49.2286],[5.0071,49.2282],[5.0056,49.2282],[5.0052,49.2285],[5.0007,49.2306],[4.9977,49.2324],[4.9968,49.2327],[4.9952,49.2323],[4.9925,49.2319],[4.9905,49.2316],[4.9902,49.2311],[4.9904,49.2308],[4.9909,49.2296],[4.9913,49.2288],[4.9922,49.2284],[4.9929,49.2273],[4.9902,49.2267],[4.9897,49.2261],[4.9894,49.2261],[4.99,49.2247],[4.9891,49.2241],[4.9876,49.2236],[4.9882,49.222],[4.9894,49.2187],[4.9897,49.2179],[4.9915,49.2181],[4.9929,49.2184],[4.9931,49.2189],[4.999,49.2201],[5.0001,49.2202],[5.0018,49.2206],[5.0009,49.2212],[5.0002,49.2219],[5.0006,49.2226],[5.0049,49.2229],[5.0073,49.2231],[5.0115,49.223]]]},"properties":{"id_ffco":"2025-D55-52","nom":"Les Sept fontaines","_dept":"55","numero":"2025-D55-52","commune":"Varennes-en-Argonne","echelle":"1/10000","surface":"1.56 km²","format":"A4","annee":"2025","cartographes":"Franz Mareigner","proprietaire":"GE - Grand Est","niveau":"Régional","specialite":"CO à pied","latitude":"49.2253595339","longitude":"4.99768363526","date_saisie":"18/03/2025","date_depot":"17/09/2025","valide":"Oui","ppo":"Non","type_carte":"Nouvelle carte","fond":"Ortho","obsolete":false}},{"type":"Feature","geometry":{"type":"Polygon","coordinates":[[[5.0597,49.1066],[5.059,49.1065],[5.0579,49.1068],[5.0576,49.1077],[5.0573,49.1081],[5.0557,49.1082],[5.0534,49.1085],[5.053,49.1103],[5.0528,49.1111],[5.0521,49.1112],[5.0509,49.1111],[5.0505,49.1106],[5.0497,49.1105],[5.0485,49.1106],[5.0477,49.1114],[5.0465,49.1113],[5.0453,49.1108],[5.0439,49.1103],[5.0425,49.1094],[5.0406,49.109],[5.0383,49.1085],[5.0359,49.1076],[5.0329,49.1063],[5.0318,49.1056],[5.0354,49.1027],[5.037,49.1025],[5.0403,49.1008],[5.0401,49.0998],[5.0423,49.1001],[5.0438,49.1007],[5.0473,49.1023],[5.0494,49.1032],[5.0506,49.1042],[5.0535,49.1045],[5.0571,49.1053],[5.0587,49.106],[5.0601,49.1066],[5.0597,49.1066]]]},"properties":{"id_ffco":"2025-D55-51","nom":"Le Brûly","_dept":"55","numero":"2025-D55-51","commune":"Clermont-en-Argonne","echelle":"1/10000","surface":"1.33 km²","format":"A4","annee":"2025","cartographes":"Franz Mareigner","proprietaire":"GE - Grand Est","niveau":"Régional","specialite":"CO à pied","latitude":"49.105959792","longitude":"5.04502385512","date_saisie":"18/03/2025","date_depot":"17/09/2025","valide":"Oui","ppo":"Non","type_carte":"Nouvelle carte","fond":"Ortho","obsolete":false}},{"type":"Feature","geometry":{"type":"Polygon","coordinates":[[[5.0695,48.7038],[5.0694,48.7048],[5.0693,48.7063],[5.0675,48.7096],[5.0637,48.7109],[5.06,48.7112],[5.0571,48.7102],[5.0557,48.7097],[5.0537,48.711],[5.053,48.7132],[5.055,48.717],[5.0515,48.7173],[5.0454,48.7163],[5.0425,48.7179],[5.0459,48.7198],[5.0488,48.7227],[5.0492,48.7249],[5.0475,48.7278],[5.0456,48.7293],[5.0474,48.7323],[5.0571,48.7328],[5.065,48.7382],[5.0709,48.7358],[5.0733,48.7379],[5.0726,48.7386],[5.0739,48.7395],[5.0797,48.7396],[5.0806,48.7375],[5.083,48.7374],[5.0833,48.7367],[5.0842,48.7369],[5.0852,48.7356],[5.0862,48.7357],[5.0862,48.7367],[5.0881,48.7369],[5.0887,48.7355],[5.0897,48.7355],[5.0894,48.7373],[5.0921,48.738],[5.0956,48.7397],[5.0969,48.7405],[5.1014,48.7352],[5.1027,48.734],[5.0968,48.7292],[5.0914,48.7327],[5.0859,48.7303],[5.0883,48.7286],[5.0874,48.7274],[5.0864,48.7275],[5.0861,48.7247],[5.0803,48.7237],[5.0807,48.7206],[5.0858,48.7192],[5.0864,48.7181],[5.0863,48.7164],[5.086,48.7111],[5.0729,48.7038],[5.0695,48.7038]]]},"properties":{"id_ffco":"2023-D55-50","nom":"Les Hauts de Ville-Sur-Saulx","_dept":"55","numero":"2023-D55-50","commune":"Ville-sur-Saulx","echelle":"1/15000","surface":"9.05 km²","format":"A3","annee":"2023","cartographes":"Hugo Piszczorowicz, Sophie Piszczorowicz","proprietaire":"GE - Grand Est","niveau":"Régional","specialite":"CO à VTT","contacts":"6008 HF CO NOYON, http://www.noyon-co.org/","latitude":"48.7238508489","longitude":"5.07072275949","date_saisie":"24/07/2023","date_depot":"26/10/2023","valide":"Oui","ppo":"Non","type_carte":"Nouvelle carte","fond":"Ortho","obsolete":false}},{"type":"Feature","geometry":{"type":"Polygon","coordinates":[[[4.9748,48.7392],[4.9787,48.7407],[4.9893,48.7412],[5.0025,48.7412],[5.0156,48.741],[5.0259,48.742],[5.0249,48.7259],[5.0226,48.7242],[5.0196,48.7211],[5.018,48.7153],[5.0168,48.7102],[5.0165,48.7091],[5.0144,48.7093],[5.0153,48.7048],[5.0143,48.6985],[5.0161,48.6934],[5.0106,48.6946],[5.0059,48.6917],[5.001,48.6934],[4.9999,48.6926],[4.9986,48.6921],[4.9971,48.6916],[4.9946,48.6916],[4.9915,48.6928],[4.985,48.6986],[4.9817,48.6982],[4.9831,48.6934],[4.9758,48.692],[4.9724,48.6912],[4.9709,48.7001],[4.9709,48.706],[4.9698,48.7067],[4.9735,48.7167],[4.9701,48.72],[4.9683,48.7215],[4.9694,48.7293],[4.9717,48.7293],[4.9771,48.7375],[4.9748,48.7392]]]},"properties":{"id_ffco":"2023-D55-49","nom":"Foret de Trois Fontaines","_dept":"55","numero":"2023-D55-49","commune":"Pont sur Saulx","echelle":"1/12500","surface":"18.72 km²","format":"A3","annee":"2023","cartographes":"Sophie Piszczorowicz, Hugo Piszczorowicz","niveau":"Régional","specialite":"CO à VTT","contacts":"6008 HF CO NOYON, http://www.noyon-co.org/","latitude":"48.7181567272","longitude":"4.996019434","date_saisie":"24/07/2023","date_depot":"26/10/2023","valide":"Oui","ppo":"Non","type_carte":"Nouvelle carte","fond":"Ortho","obsolete":false}},{"type":"Feature","geometry":{"type":"Polygon","coordinates":[[[5.0472,48.7173],[5.0459,48.7142],[5.0438,48.712],[5.0411,48.7076],[5.0438,48.7056],[5.0417,48.7045],[5.0431,48.7024],[5.0427,48.6955],[5.056,48.697],[5.0577,48.6992],[5.0605,48.6995],[5.0619,48.7039],[5.0659,48.7047],[5.0656,48.7064],[5.0642,48.7081],[5.0633,48.7087],[5.0619,48.7098],[5.061,48.711],[5.0612,48.7124],[5.059,48.7124],[5.0568,48.7119],[5.0565,48.7127],[5.057,48.7158],[5.0565,48.7173],[5.0472,48.7173]]]},"properties":{"id_ffco":"2023-D55-48","nom":"Ville-sur-Saulx La Jeaux","_dept":"55","numero":"2023-D55-48","commune":"Ville-sur-Saulx","echelle":"1/7500","surface":"2.92 km²","format":"A4","annee":"2023","cartographes":"Sophie Piszczorowicz, Hugo Piszczorowicz","proprietaire":"GE - Grand Est","niveau":"Régional","specialite":"CO à VTT","contacts":"6008 HF CO NOYON, http://www.noyon-co.org/","latitude":"48.7062546442","longitude":"5.05209890617","date_saisie":"22/07/2023","date_depot":"26/10/2023","valide":"Oui","ppo":"Non","type_carte":"Nouvelle carte","fond":"Ortho","obsolete":false}},{"type":"Feature","geometry":{"type":"Polygon","coordinates":[[[5.0571,48.7125],[5.0572,48.7176],[5.0497,48.7178],[5.0491,48.7141],[5.0467,48.7104],[5.043,48.7064],[5.0341,48.7025],[5.0277,48.7133],[5.0163,48.7138],[5.0138,48.7096],[5.0136,48.7081],[5.014,48.706],[5.0148,48.7046],[5.0139,48.7008],[5.0133,48.6983],[5.0147,48.6906],[5.0195,48.688],[5.0303,48.6881],[5.0374,48.6882],[5.0363,48.6938],[5.0433,48.6953],[5.0558,48.6971],[5.06,48.699],[5.0617,48.6999],[5.0623,48.7035],[5.0662,48.7047],[5.066,48.712],[5.06,48.7126],[5.0571,48.7125]]]},"properties":{"id_ffco":"2023-D55-47","nom":"Foret Domaniale de Jean d'Heurs","_dept":"55","numero":"2023-D55-47","commune":"Ville sur Saulx","echelle":"1/12500","surface":"7.57 km²","format":"A4","annee":"2023","cartographes":"Sophie Piszczorowicz, Hugo Piszczorowicz","proprietaire":"GE - Grand Est","niveau":"Régional","specialite":"CO à VTT","latitude":"48.7021881855","longitude":"5.03682597154","date_saisie":"21/07/2023","date_depot":"26/10/2023","valide":"Oui","ppo":"Non","type_carte":"Nouvelle carte","fond":"Ortho","obsolete":false}},{"type":"Feature","geometry":{"type":"Polygon","coordinates":[[[5.5823,48.7542],[5.5827,48.7545],[5.5826,48.7547],[5.5844,48.7557],[5.586,48.7549],[5.5862,48.7546],[5.5869,48.7541],[5.5863,48.7518],[5.5851,48.752],[5.5823,48.7542]]]},"properties":{"id_ffco":"2021-D55-46","nom":"Lycée Henri Vogt - Commercy","_dept":"55","numero":"2021-D55-46","commune":"Commercy","echelle":"1/1500","surface":"0.09 km²","format":"A4","annee":"2021","cartographes":"Philippe Pogu","proprietaire":"GE - Grand Est","niveau":"Initiation, Scolaire","specialite":"CO à pied","latitude":"48.7538283711","longitude":"5.58483817776","date_saisie":"10/04/2021","date_depot":"13/10/2021","valide":"Oui","ppo":"Non","type_carte":"Nouvelle carte","fond":"Ortho","obsolete":false}},{"type":"Feature","geometry":{"type":"Polygon","coordinates":[[[5.3881,49.1643],[5.389,49.1637],[5.3901,49.1631],[5.3917,49.162],[5.3928,49.1614],[5.393,49.1605],[5.3929,49.16],[5.3937,49.1593],[5.3949,49.1586],[5.3956,49.1581],[5.3953,49.1576],[5.395,49.1573],[5.3955,49.1564],[5.396,49.1555],[5.3956,49.1554],[5.3947,49.1551],[5.3938,49.1548],[5.391,49.1547],[5.3902,49.1547],[5.39,49.155],[5.3898,49.1549],[5.3886,49.1548],[5.3842,49.155],[5.3836,49.1545],[5.3825,49.1533],[5.3813,49.153],[5.3804,49.1525],[5.3801,49.1524],[5.3775,49.1522],[5.3739,49.1522],[5.3732,49.1524],[5.3725,49.1533],[5.3717,49.1541],[5.3713,49.1549],[5.3711,49.1555],[5.3685,49.1561],[5.3678,49.1564],[5.368,49.1577],[5.3683,49.1588],[5.3691,49.1601],[5.3696,49.161],[5.3698,49.1614],[5.3707,49.162],[5.3718,49.1621],[5.3732,49.1619],[5.3752,49.1619],[5.3762,49.1625],[5.3768,49.1628],[5.378,49.1633],[5.3792,49.1639],[5.3796,49.1643],[5.3808,49.1648],[5.3818,49.165],[5.3831,49.1648],[5.3848,49.1645],[5.3857,49.1643],[5.387,49.1642],[5.3879,49.1642],[5.3881,49.1643]]]},"properties":{"id_ffco":"2016-D55-45","nom":"VERDUN 2016","_dept":"55","numero":"2016-D55-45","commune":"VERDUN","echelle":"1/5000","surface":"1.92 km²","format":"A3","annee":"2016","cartographes":"KENANE André, KENANE Abdelkader, ROLLET Daniel","proprietaire":"5501 - SPORT ATHLETIQUE VERDUNOIS","niveau":"National, International","specialite":"Sprint (ISSOM)","latitude":"49.1584351605","longitude":"5.38147390146","date_saisie":"11/10/2016","date_depot":"07/12/2016","valide":"Oui","ppo":"Non","type_carte":"Nouvelle carte","fond":"Ortho","obsolete":false}},{"type":"Feature","geometry":{"type":"Polygon","coordinates":[[[5.7001,48.9359],[5.6998,48.9354],[5.6979,48.9347],[5.6966,48.9342],[5.6963,48.9341],[5.6939,48.9335],[5.692,48.9333],[5.6908,48.9334],[5.6893,48.9333],[5.6872,48.934],[5.6859,48.9341],[5.6847,48.9337],[5.6831,48.9329],[5.6821,48.9325],[5.6809,48.9323],[5.6799,48.9315],[5.6782,48.9317],[5.6762,48.9322],[5.6757,48.9324],[5.6736,48.933],[5.6724,48.9335],[5.6707,48.9337],[5.6693,48.9347],[5.6682,48.9367],[5.6678,48.937],[5.6669,48.9375],[5.6634,48.9372],[5.6622,48.937],[5.66,48.9368],[5.6591,48.9363],[5.6585,48.9354],[5.6592,48.9346],[5.6599,48.9336],[5.656,48.935],[5.6532,48.9367],[5.6514,48.9378],[5.6469,48.9381],[5.6418,48.9378],[5.6414,48.9339],[5.6419,48.9296],[5.642,48.9256],[5.6414,48.9178],[5.6418,48.9173],[5.6436,48.9168],[5.6451,48.9152],[5.6513,48.9139],[5.6559,48.9125],[5.6595,48.9114],[5.6599,48.9108],[5.661,48.9112],[5.663,48.913],[5.6647,48.9134],[5.6665,48.9137],[5.667,48.9145],[5.6685,48.9148],[5.6691,48.9153],[5.6704,48.9149],[5.6712,48.9147],[5.6719,48.9157],[5.6736,48.9163],[5.6795,48.9187],[5.6814,48.9202],[5.683,48.9218],[5.6897,48.927],[5.6911,48.9288],[5.6948,48.9287],[5.7059,48.9269],[5.71,48.9271],[5.7126,48.9269],[5.7191,48.9259],[5.7203,48.9264],[5.7261,48.9351],[5.7283,48.9369],[5.7304,48.9359],[5.7326,48.9354],[5.7371,48.9345],[5.7401,48.9337],[5.7447,48.9294],[5.7471,48.9261],[5.7491,48.9259],[5.7511,48.9253],[5.7562,48.9238],[5.7573,48.9228],[5.7588,48.9226],[5.7619,48.9226],[5.7642,48.9228],[5.7634,48.924],[5.7624,48.9259],[5.7609,48.9279],[5.7627,48.9279],[5.764,48.9286],[5.7652,48.9294],[5.7653,48.9298],[5.7585,48.9347],[5.7559,48.937],[5.755,48.9388],[5.7489,48.9418],[5.7458,48.9437],[5.7433,48.9451],[5.741,48.9467],[5.739,48.9481],[5.7371,48.9476],[5.7356,48.9473],[5.7334,48.9476],[5.7303,48.948],[5.7269,48.9479],[5.7245,48.9475],[5.7228,48.9463],[5.7211,48.9451],[5.7193,48.9441],[5.717,48.9428],[5.7156,48.9422],[5.7136,48.9414],[5.7118,48.9403],[5.7097,48.9388],[5.7075,48.9379],[5.705,48.9377],[5.7028,48.9374],[5.7008,48.9367],[5.7001,48.9361],[5.7001,48.9359]]]},"properties":{"id_ffco":"2016-D55-44","nom":"Les promenades de la MADINE VTT","_dept":"55","numero":"2016-D55-44","commune":"Buxières sous les côtes","echelle":"1/15000","surface":"14.8 km²","format":"A3","annee":"2016","cartographes":"Pogu Philippe, Fath Jean Marie, Becker Philippe","proprietaire":"54 - Meurthe-et-Moselle","niveau":"Interrégional","specialite":"CO à VTT","latitude":"48.9304004243","longitude":"5.6959957132","date_saisie":"31/05/2016","date_depot":"06/06/2016","valide":"Oui","ppo":"Non","type_carte":"Reprise","base":"2003-D55-29 Les Hauts de Buxières","fond":"IGN","ref_ign":"3214E","obsolete":false}},{"type":"Feature","geometry":{"type":"Polygon","coordinates":[[[5.7627,48.931],[5.7613,48.9317],[5.7562,48.9375],[5.7549,48.9387],[5.7424,48.9454],[5.7409,48.9468],[5.739,48.9483],[5.7384,48.9479],[5.7364,48.9474],[5.7328,48.9476],[5.7278,48.9481],[5.7263,48.9481],[5.7248,48.9476],[5.7227,48.9462],[5.7213,48.9455],[5.7191,48.9442],[5.718,48.9432],[5.7168,48.9424],[5.7138,48.9413],[5.7125,48.9404],[5.7108,48.9392],[5.7082,48.938],[5.7056,48.9377],[5.703,48.9374],[5.7008,48.9366],[5.6999,48.9358],[5.6979,48.9349],[5.6964,48.9341],[5.6961,48.934],[5.6962,48.9331],[5.6956,48.9331],[5.6941,48.9331],[5.6936,48.9334],[5.6916,48.9334],[5.6899,48.9334],[5.689,48.9334],[5.686,48.934],[5.6849,48.9338],[5.6836,48.9333],[5.6827,48.9326],[5.6808,48.9323],[5.6803,48.9315],[5.679,48.9314],[5.6781,48.9317],[5.6759,48.9323],[5.6735,48.9332],[5.6721,48.9336],[5.6701,48.9339],[5.6691,48.935],[5.6683,48.9362],[5.6675,48.937],[5.6667,48.9375],[5.6637,48.9375],[5.6634,48.937],[5.6621,48.937],[5.6603,48.937],[5.6587,48.9363],[5.6584,48.9353],[5.6573,48.9353],[5.6542,48.9354],[5.6534,48.9352],[5.6542,48.934],[5.6544,48.933],[5.6548,48.9321],[5.6533,48.9319],[5.6505,48.9317],[5.6494,48.9316],[5.6479,48.9314],[5.6454,48.9316],[5.6442,48.9314],[5.6433,48.9311],[5.6423,48.931],[5.6417,48.9314],[5.64,48.931],[5.6389,48.9305],[5.6417,48.9255],[5.6432,48.9246],[5.6439,48.924],[5.644,48.9224],[5.643,48.9206],[5.6425,48.919],[5.6421,48.9176],[5.6424,48.9171],[5.6439,48.9168],[5.6448,48.9155],[5.6457,48.9149],[5.6475,48.9142],[5.6494,48.914],[5.6513,48.9138],[5.6527,48.9134],[5.6562,48.9125],[5.6572,48.9123],[5.659,48.9118],[5.6596,48.9112],[5.6594,48.9107],[5.6603,48.9111],[5.6617,48.9118],[5.6627,48.9125],[5.6637,48.9131],[5.6643,48.9134],[5.6645,48.9129],[5.6655,48.9134],[5.6663,48.9136],[5.6675,48.9143],[5.6691,48.9152],[5.6699,48.915],[5.6707,48.9144],[5.6714,48.9151],[5.6749,48.9167],[5.6772,48.9173],[5.6788,48.918],[5.6871,48.9251],[5.6895,48.9268],[5.6908,48.9279],[5.6912,48.9291],[5.6924,48.9282],[5.6976,48.9285],[5.7015,48.9291],[5.7091,48.9283],[5.7104,48.9286],[5.7115,48.9283],[5.7129,48.9278],[5.7142,48.9276],[5.7145,48.9268],[5.7156,48.9264],[5.7174,48.9261],[5.7191,48.9259],[5.7201,48.9262],[5.723,48.9318],[5.7248,48.9336],[5.7266,48.9348],[5.7295,48.936],[5.7308,48.936],[5.7324,48.936],[5.7345,48.9358],[5.7363,48.9353],[5.7386,48.9348],[5.7411,48.9337],[5.7421,48.9329],[5.744,48.9321],[5.7457,48.9309],[5.7476,48.9287],[5.7464,48.9268],[5.7499,48.9261],[5.7516,48.9264],[5.7557,48.9246],[5.7576,48.9237],[5.7589,48.9228],[5.7608,48.9227],[5.7636,48.9229],[5.7641,48.9231],[5.7636,48.9244],[5.762,48.9262],[5.7613,48.9274],[5.7624,48.9277],[5.7637,48.9284],[5.7648,48.9292],[5.7651,48.9301],[5.7641,48.9305],[5.7632,48.9308],[5.7627,48.931]]]},"properties":{"id_ffco":"2016-D55-43","nom":"Les promenades de la MADINE","_dept":"55","numero":"2016-D55-43","commune":"Nonsard-Lamarche","echelle":"1/15000","surface":"13.79 km²","format":"A3","annee":"2016","cartographes":"Pogu Philippe, Fath Jean Marie, Becker Philippe","proprietaire":"54 - Meurthe-et-Moselle","niveau":"Interrégional","specialite":"Rand'O","latitude":"48.9302749607","longitude":"5.69709269524","date_saisie":"31/05/2016","date_depot":"06/06/2016","valide":"Oui","ppo":"Non","type_carte":"Reprise","base":"2003-D55-28 Lac de Madine","fond":"IGN","ref_ign":"3214E","obsolete":false}},{"type":"Feature","geometry":{"type":"Polygon","coordinates":[[[5.3948,49.1574],[5.3941,49.1574],[5.3937,49.1574],[5.3931,49.1574],[5.3925,49.1574],[5.3921,49.1575],[5.3921,49.1579],[5.3919,49.1582],[5.3917,49.1587],[5.3912,49.159],[5.3907,49.1594],[5.39,49.1597],[5.3897,49.16],[5.3895,49.1602],[5.3901,49.1604],[5.3903,49.1606],[5.3904,49.1612],[5.3913,49.1612],[5.392,49.1612],[5.3928,49.161],[5.3929,49.1606],[5.3929,49.16],[5.3929,49.1596],[5.3936,49.1593],[5.3942,49.1589],[5.395,49.1584],[5.3955,49.158],[5.3953,49.1577],[5.3948,49.1574]]]},"properties":{"id_ffco":"2013-D55-42","nom":"Verdun - Parc de Londres","_dept":"55","numero":"2013-D55-42","commune":"Verdun","echelle":"1/2000","surface":"0.09 km²","format":"A4","annee":"2013","cartographes":"Kenane André","proprietaire":"5501 - SPORT ATHLETIQUE VERDUNOIS","niveau":"Initiation, Scolaire","specialite":"CO à pied","latitude":"49.1592354569","longitude":"5.3924289112","date_saisie":"06/12/2013","date_depot":"15/05/2014","valide":"Oui","ppo":"Non","type_carte":"Nouvelle carte","fond":"Cadastre","obsolete":false}},{"type":"Feature","geometry":{"type":"Polygon","coordinates":[[[5.3906,49.1624],[5.3906,49.1622],[5.3905,49.162],[5.3905,49.1618],[5.3903,49.1617],[5.3902,49.1616],[5.3899,49.1615],[5.3897,49.1614],[5.3894,49.1615],[5.3891,49.1616],[5.3888,49.1617],[5.3885,49.1618],[5.3883,49.1619],[5.3881,49.162],[5.3878,49.162],[5.3877,49.162],[5.3874,49.162],[5.3874,49.1622],[5.3875,49.1625],[5.3875,49.1627],[5.3875,49.1633],[5.3875,49.1637],[5.3876,49.164],[5.3876,49.1643],[5.3876,49.1644],[5.3878,49.1643],[5.388,49.1642],[5.3883,49.164],[5.3887,49.1637],[5.3893,49.1633],[5.3897,49.1631],[5.3903,49.1628],[5.3906,49.1625],[5.3906,49.1624]]]},"properties":{"id_ffco":"2013-D55-41","nom":"Verdun - Parc Japiot","_dept":"55","numero":"2013-D55-41","commune":"Verdun","echelle":"1/1200","surface":"0.04 km²","format":"A4","annee":"2013","cartographes":"Kenane André","proprietaire":"5501 - SPORT ATHLETIQUE VERDUNOIS","niveau":"Initiation, Scolaire","specialite":"CO à pied","latitude":"49.1626686137","longitude":"5.38884106565","date_saisie":"06/12/2013","date_depot":"15/05/2014","valide":"Oui","ppo":"Non","type_carte":"Nouvelle carte","fond":"Cadastre","obsolete":false}},{"type":"Feature","geometry":{"type":"Polygon","coordinates":[[[5.3741,49.1509],[5.3715,49.1545],[5.3718,49.1547],[5.372,49.1552],[5.3719,49.1555],[5.3722,49.1558],[5.3727,49.1562],[5.3735,49.1564],[5.3741,49.1566],[5.3748,49.1567],[5.3756,49.1569],[5.3766,49.157],[5.3771,49.1571],[5.378,49.1571],[5.3786,49.1572],[5.3791,49.1573],[5.3794,49.1573],[5.3797,49.1569],[5.38,49.1564],[5.3795,49.1564],[5.3791,49.1561],[5.379,49.1555],[5.3793,49.1553],[5.3796,49.1549],[5.3798,49.1544],[5.3797,49.1542],[5.3797,49.153],[5.3797,49.1525],[5.3797,49.1521],[5.3792,49.1519],[5.3783,49.1517],[5.3772,49.1513],[5.3757,49.1511],[5.3748,49.1511],[5.3741,49.1509]]]},"properties":{"id_ffco":"2013-D55-40","nom":"Verdun - Base de Loisirs du Pré l'eveque","_dept":"55","numero":"2013-D55-40","commune":"Verdun","echelle":"1/3000","surface":"0.32 km²","format":"A4","annee":"2013","cartographes":"A. Kenane","proprietaire":"5501 - SPORT ATHLETIQUE VERDUNOIS","niveau":"Initiation, Scolaire","specialite":"CO à pied","latitude":"49.1541680971","longitude":"5.37604254292","date_saisie":"06/12/2013","date_depot":"15/05/2014","valide":"Oui","ppo":"Non","type_carte":"Nouvelle carte","fond":"Cadastre","obsolete":false}},{"type":"Feature","geometry":{"type":"Polygon","coordinates":[[[5.1339,49.4715],[5.131,49.4642],[5.1354,49.4624],[5.1427,49.4604],[5.1481,49.4578],[5.152,49.4564],[5.1534,49.4602],[5.1523,49.4612],[5.1564,49.4676],[5.164,49.4704],[5.1607,49.4777],[5.1587,49.4775],[5.1554,49.4809],[5.151,49.48],[5.1487,49.4806],[5.1465,49.4768],[5.1428,49.4742],[5.1343,49.472],[5.1339,49.4715]]]},"properties":{"id_ffco":"2010-D55-39","nom":"Stenay - Bois de Laneuville","_dept":"55","numero":"2010-D55-39","commune":"Stenay","echelle":"1/10000","surface":"3.45 km²","format":"A4","annee":"2010","cartographes":"Ch Goutaudier","proprietaire":"5402 - SCAPA NANCY ORIENTATION","niveau":"Initiation, Scolaire","specialite":"CO à pied","latitude":"49.4691917478","longitude":"5.14779616579","date_saisie":"08/12/2010","date_depot":"14/12/2010","valide":"Oui","ppo":"Non","type_carte":"Nouvelle carte","fond":"IGN","obsolete":false}},{"type":"Feature","geometry":{"type":"Polygon","coordinates":[[[5.4928,49.1653],[5.4916,49.1685],[5.4887,49.1697],[5.4875,49.1694],[5.487,49.1698],[5.4862,49.1706],[5.4851,49.1711],[5.4883,49.1746],[5.4889,49.1783],[5.4869,49.1786],[5.4838,49.1781],[5.4754,49.1779],[5.4708,49.1773],[5.4649,49.1759],[5.4566,49.1708],[5.4512,49.1672],[5.4514,49.1664],[5.4532,49.1656],[5.4581,49.1641],[5.4586,49.1634],[5.4585,49.1628],[5.4583,49.1621],[5.4579,49.1595],[5.4545,49.1575],[5.4573,49.155],[5.4597,49.1531],[5.4614,49.1517],[5.463,49.1504],[5.4641,49.1493],[5.4664,49.1472],[5.469,49.145],[5.4705,49.1435],[5.4711,49.1428],[5.4717,49.1422],[5.4721,49.1418],[5.4725,49.1417],[5.4726,49.1418],[5.4725,49.1417],[5.4733,49.141],[5.473,49.142],[5.473,49.142],[5.4735,49.1421],[5.4741,49.1423],[5.4729,49.1444],[5.4755,49.1457],[5.4775,49.1468],[5.4793,49.146],[5.4817,49.1458],[5.4817,49.1468],[5.4816,49.1483],[5.4818,49.1498],[5.4822,49.1538],[5.4822,49.1576],[5.4871,49.1574],[5.4909,49.1524],[5.4921,49.1548],[5.4914,49.1565],[5.4913,49.1575],[5.4931,49.1584],[5.4887,49.1625],[5.4928,49.1653]]]},"properties":{"id_ffco":"2007-D55-38","nom":"Moulainville","_dept":"55","numero":"2007-D55-38","commune":"Verdun","echelle":"1/10000","surface":"7.38 km²","format":"A3","annee":"2007","cartographes":"Bousser Etienne","proprietaire":"5501 - SPORT ATHLETIQUE VERDUNOIS","niveau":"Régional","specialite":"CO à pied","latitude":"49.162598624","longitude":"5.47327120724","date_saisie":"17/12/2013","date_depot":"01/02/2017","valide":"Oui","ppo":"Non","type_carte":"Nouvelle carte","fond":"IGN","obsolete":false}},{"type":"Feature","geometry":{"type":"Polygon","coordinates":[[[5.7163,49.2246],[5.7238,49.2254],[5.7307,49.2244],[5.7396,49.2274],[5.7437,49.2294],[5.7465,49.2367],[5.7434,49.2428],[5.7333,49.2433],[5.7266,49.2436],[5.7244,49.2425],[5.7218,49.2404],[5.7206,49.2398],[5.7192,49.2393],[5.7172,49.2384],[5.7156,49.238],[5.7124,49.2368],[5.7091,49.2344],[5.7074,49.2324],[5.7055,49.2317],[5.7047,49.2321],[5.7038,49.2318],[5.7031,49.2314],[5.7031,49.2314],[5.7019,49.2307],[5.7031,49.2313],[5.7151,49.2246],[5.7163,49.2246]]]},"properties":{"id_ffco":"2007-D55-37","nom":"Le Ruisseau deRouvres","_dept":"55","numero":"2007-D55-37","commune":"Rouvres En Woëvre","echelle":"1/10000","surface":"4.55 km²","format":"A3","annee":"2007","cartographes":"D Rollet, M Duboc","proprietaire":"5413 - CLUB ORIENTATION DE PIENNES","niveau":"Régional","specialite":"CO à pied","contacts":"3ème RHC, 55400, Étain-Rouvres","latitude":"49.2336425249","longitude":"5.72756985435","date_saisie":"28/12/2007","date_depot":"24/11/2009","valide":"Oui","ppo":"Non","type_carte":"Nouvelle carte","fond":"IGN","ref_ign":"3212 E","obsolete":false}},{"type":"Feature","geometry":{"type":"Polygon","coordinates":[[[5.5698,48.7724],[5.5652,48.7783],[5.5632,48.7784],[5.5602,48.7743],[5.5585,48.7711],[5.5616,48.7694],[5.5599,48.7649],[5.5592,48.7616],[5.568,48.7628],[5.5747,48.7646],[5.574,48.7689],[5.5707,48.7715],[5.5698,48.7724]]]},"properties":{"id_ffco":"2007-D55-36","nom":"Terrain de manoeuvres - Commercy","_dept":"55","numero":"2007-D55-36","commune":"Commercy","echelle":"1/10000","surface":"1.35 km²","format":"A4","annee":"2007","cartographes":"D Rollet","proprietaire":"8ème RA Commercy","niveau":"Initiation, Scolaire","specialite":"CO à pied","latitude":"48.769068056","longitude":"5.5659225278","date_saisie":"28/12/2007","date_depot":"24/11/2009","valide":"Oui","ppo":"Non","type_carte":"Nouvelle carte","fond":"IGN","ref_ign":"3215 O","obsolete":false}},{"type":"Feature","geometry":{"type":"Polygon","coordinates":[[[5.7144,49.2245],[5.7238,49.2253],[5.7293,49.2248],[5.7403,49.2281],[5.7425,49.23],[5.7441,49.2333],[5.7465,49.2344],[5.7458,49.2371],[5.7431,49.2432],[5.734,49.2431],[5.729,49.2437],[5.7197,49.2394],[5.7113,49.235],[5.7082,49.2322],[5.7108,49.2297],[5.7137,49.2268],[5.7139,49.225],[5.7144,49.2245]]]},"properties":{"id_ffco":"2007-D55-35","nom":"Rouvres-en-Woëvre","_dept":"55","numero":"2007-D55-35","commune":"Rouvres En Woëvre","echelle":"1/10000","surface":"4.12 km²","format":"A3","annee":"2007","cartographes":"D Rollet","proprietaire":"5413 - CLUB ORIENTATION DE PIENNES","niveau":"Régional","specialite":"CO à pied","latitude":"49.2338682327","longitude":"5.72844269409","date_saisie":"28/12/2007","date_depot":"24/11/2009","valide":"Oui","ppo":"Non","type_carte":"Nouvelle carte","fond":"IGN","ref_ign":"3212 E","obsolete":false}},{"type":"Feature","geometry":{"type":"Polygon","coordinates":[[[5.6128,49.2763],[5.6143,49.2777],[5.6179,49.2811],[5.6174,49.2843],[5.6135,49.2857],[5.6138,49.2875],[5.6191,49.2886],[5.6205,49.2914],[5.6219,49.295],[5.6246,49.2982],[5.6258,49.3008],[5.6265,49.3045],[5.6251,49.3053],[5.621,49.3012],[5.6181,49.3024],[5.6159,49.303],[5.6114,49.3049],[5.6009,49.3039],[5.5985,49.303],[5.5978,49.3008],[5.5939,49.3009],[5.5946,49.2965],[5.5944,49.2935],[5.5932,49.2901],[5.5916,49.2876],[5.5923,49.2822],[5.5971,49.2763],[5.5989,49.2736],[5.6069,49.274],[5.6109,49.2749],[5.6109,49.2749],[5.6131,49.2756],[5.6128,49.2763]]]},"properties":{"id_ffco":"2006-D55-34","nom":"Les Mares De Spincourt","_dept":"55","numero":"2006-D55-34","commune":"Senon","echelle":"1/10000","surface":"5.95 km²","format":"A3","annee":"2006","cartographes":"E Bousser","proprietaire":"5413 - CLUB ORIENTATION DE PIENNES","niveau":"Régional","specialite":"CO à pied","latitude":"49.2902934319","longitude":"5.60699257747","date_saisie":"07/12/2006","date_depot":"30/05/2007","valide":"Oui","ppo":"Non","type_carte":"Nouvelle carte","fond":"IGN","ref_ign":"3211E","obsolete":false}},{"type":"Feature","geometry":{"type":"Polygon","coordinates":[[[5.5679,48.7509],[5.57,48.7477],[5.5708,48.7468],[5.5717,48.7451],[5.5727,48.7442],[5.5704,48.7428],[5.5682,48.742],[5.5644,48.7412],[5.5628,48.7408],[5.5602,48.7402],[5.5586,48.7398],[5.5573,48.7396],[5.5565,48.7395],[5.5552,48.739],[5.5542,48.7387],[5.5512,48.7377],[5.5508,48.7385],[5.5499,48.7396],[5.5487,48.7392],[5.5452,48.7383],[5.5435,48.7378],[5.5422,48.7375],[5.5412,48.7369],[5.539,48.736],[5.5387,48.7358],[5.5375,48.7384],[5.5365,48.7403],[5.5357,48.742],[5.5344,48.7442],[5.534,48.7452],[5.5334,48.7466],[5.5329,48.7472],[5.5352,48.7478],[5.5391,48.7484],[5.5421,48.749],[5.5514,48.7506],[5.5537,48.7509],[5.5556,48.7512],[5.5572,48.7515],[5.5593,48.7518],[5.5608,48.7521],[5.5619,48.7522],[5.563,48.7523],[5.5641,48.7519],[5.5653,48.7514],[5.5665,48.7509],[5.5674,48.7508],[5.5679,48.7509]]]},"properties":{"id_ffco":"2005-D55-33","nom":"La Fontaine Royale - Commercy","_dept":"55","numero":"2005-D55-33","commune":"Commercy","echelle":"1/10000","surface":"3.2 km²","format":"A4","annee":"2005","cartographes":"ROLLET Daniel","proprietaire":"LO - Lorraine","niveau":"Régional","specialite":"CO à pied","latitude":"48.7447795642","longitude":"5.55243691623","date_saisie":"01/09/2005","date_depot":"20/09/2005","valide":"Oui","ppo":"Non","type_carte":"Nouvelle carte","fond":"IGN","ref_ign":"3215 O","obsolete":false}},{"type":"Feature","geometry":{"type":"Polygon","coordinates":[[[5.7089,49.233],[5.6892,49.2396],[5.6847,49.2402],[5.6825,49.2409],[5.6835,49.2436],[5.6864,49.2466],[5.6864,49.2476],[5.6813,49.2498],[5.6758,49.2522],[5.6783,49.2543],[5.6807,49.2579],[5.683,49.2626],[5.6979,49.2632],[5.7007,49.2619],[5.7065,49.2607],[5.708,49.2565],[5.711,49.2523],[5.7132,49.2472],[5.7195,49.248],[5.7231,49.2452],[5.7273,49.2436],[5.7089,49.233]]]},"properties":{"id_ffco":"2005-D55-32","nom":"Le Bois de Rouvres","_dept":"55","numero":"2005-D55-32","commune":"Rouvres en Woëvre","echelle":"1/10000","surface":"6.83 km²","format":"A3","annee":"2005","cartographes":"M Duboc","proprietaire":"5413 - CLUB ORIENTATION DE PIENNES","niveau":"Interrégional","specialite":"CO à pied","latitude":"49.2484802365","longitude":"5.69949407701","date_saisie":"03/05/2005","date_depot":"13/05/2005","valide":"Oui","ppo":"Non","type_carte":"Nouvelle carte","fond":"IGN","ref_ign":"3212 E","obsolete":false}},{"type":"Feature","geometry":{"type":"Polygon","coordinates":[[[5.7073,49.2333],[5.7012,49.235],[5.6962,49.2374],[5.691,49.2392],[5.685,49.24],[5.6826,49.2403],[5.6825,49.243],[5.6867,49.2467],[5.6823,49.2496],[5.6771,49.2516],[5.679,49.2543],[5.6816,49.2588],[5.7065,49.2605],[5.7084,49.2561],[5.7096,49.2556],[5.7111,49.2505],[5.7128,49.2485],[5.7173,49.2484],[5.7214,49.2469],[5.7252,49.2443],[5.7271,49.2432],[5.7192,49.2396],[5.7073,49.2333]]]},"properties":{"id_ffco":"2005-D55-31","nom":"Le Ruisseau de l'Homme Noyé","_dept":"55","numero":"2005-D55-31","commune":"Rouvres en Woëvre","echelle":"1/10000","surface":"6.23 km²","format":"A4","annee":"2005","cartographes":"M Duboc","proprietaire":"5413 - CLUB ORIENTATION DE PIENNES","niveau":"Régional","specialite":"CO à pied","latitude":"49.2474115539","longitude":"5.70016753703","date_saisie":"03/05/2005","date_depot":"13/05/2005","valide":"Oui","ppo":"Non","type_carte":"Nouvelle carte","fond":"IGN","ref_ign":"3212 E","obsolete":false}},{"type":"Feature","geometry":{"type":"Polygon","coordinates":[[[5.6167,49.0982],[5.6162,49.0952],[5.6158,49.0928],[5.6145,49.093],[5.6141,49.0941],[5.6136,49.0943],[5.6117,49.0938],[5.6105,49.0941],[5.6106,49.0958],[5.6099,49.096],[5.6091,49.0961],[5.6091,49.0973],[5.6069,49.0979],[5.6134,49.0981],[5.6134,49.0981],[5.6134,49.0981],[5.6167,49.0982]]]},"properties":{"id_ffco":"2004-D55-30","nom":"Base de loisirs du Col Vert - BONZEE","_dept":"55","numero":"2004-D55-30","commune":"Fresnes en Woevre","echelle":"1/5000","surface":"0.24 km²","format":"A5","annee":"2004","cartographes":"Abdelkader Kenane et Bernard Lemercier","proprietaire":"5501 - SPORT ATHLETIQUE VERDUNOIS","niveau":"Initiation, Scolaire","specialite":"CO à pied","latitude":"49.0960935942","longitude":"5.61307546347","date_saisie":"16/11/2004","date_depot":"23/11/2004","valide":"Oui","ppo":"Non","type_carte":"Nouvelle carte","fond":"Cadastre","obsolete":false}},{"type":"Feature","geometry":{"type":"Polygon","coordinates":[[[5.6916,48.9313],[5.6909,48.9325],[5.6866,48.9341],[5.6825,48.9324],[5.6787,48.9316],[5.6734,48.9334],[5.6699,48.9344],[5.6663,48.9378],[5.6631,48.9377],[5.6596,48.9363],[5.6572,48.9351],[5.6534,48.9361],[5.6538,48.9332],[5.6512,48.932],[5.6411,48.931],[5.65,48.9286],[5.6488,48.9258],[5.648,48.924],[5.6507,48.9178],[5.6468,48.9135],[5.6431,48.9114],[5.6428,48.908],[5.6411,48.9063],[5.6447,48.9031],[5.6485,48.9045],[5.6552,48.9082],[5.6608,48.9113],[5.6668,48.9137],[5.6694,48.9151],[5.6713,48.9141],[5.6766,48.9175],[5.6904,48.9283],[5.6916,48.9313]]]},"properties":{"id_ffco":"2003-D55-29","nom":"Les Hauts de Buxières","_dept":"55","numero":"2003-D55-29","commune":"Heudicourt sous les Côtes","echelle":"1/10000","surface":"6.96 km²","format":"A3","annee":"2003","cartographes":"Mortellier Bernard","proprietaire":"5413 - CLUB ORIENTATION DE PIENNES","niveau":"Régional","specialite":"CO à pied","latitude":"48.9229045469","longitude":"5.66380443516","date_saisie":"04/06/2003","date_depot":"23/06/2003","valide":"Oui","ppo":"Non","type_carte":"Nouvelle carte","fond":"IGN","ref_ign":"3214 E et 3314 O","obsolete":false}},{"type":"Feature","geometry":{"type":"Polygon","coordinates":[[[5.7621,48.9314],[5.7589,48.9347],[5.7552,48.9386],[5.7498,48.9416],[5.7429,48.9457],[5.7391,48.9486],[5.737,48.9479],[5.7337,48.9475],[5.7264,48.9481],[5.7201,48.9447],[5.7182,48.9433],[5.7129,48.9412],[5.7101,48.9391],[5.7081,48.9381],[5.7076,48.9271],[5.71,48.9263],[5.7126,48.9269],[5.7197,48.9261],[5.7191,48.9272],[5.7158,48.9291],[5.7134,48.9304],[5.721,48.9376],[5.7446,48.9302],[5.7483,48.9282],[5.754,48.9255],[5.7591,48.9227],[5.7643,48.923],[5.7603,48.9284],[5.7619,48.931],[5.7621,48.9314]]]},"properties":{"id_ffco":"2003-D55-28","nom":"Lac de Madine","_dept":"55","numero":"2003-D55-28","commune":"Nonsard","echelle":"1/10000","surface":"5.68 km²","format":"A3","annee":"2003","cartographes":"ROLLET Daniel","proprietaire":"5415 - LOISIRS ORIENTATION JEANDELAINCOURT","niveau":"Régional","specialite":"CO à pied","latitude":"48.9367086835","longitude":"5.73563303733","date_saisie":"16/05/2003","date_depot":"20/05/2003","valide":"Oui","ppo":"Non","type_carte":"Nouvelle carte","fond":"IGN","ref_ign":"3214 E et 3314 O","obsolete":false}},{"type":"Feature","geometry":{"type":"Polygon","coordinates":[[[5.6617,49.2442],[5.6593,49.2473],[5.651,49.2461],[5.644,49.2448],[5.6375,49.2414],[5.6385,49.2372],[5.6394,49.2355],[5.6344,49.2333],[5.6354,49.2293],[5.6373,49.2271],[5.6443,49.2288],[5.6545,49.2302],[5.6588,49.2331],[5.6636,49.2375],[5.6649,49.2394],[5.6617,49.2442]]]},"properties":{"id_ffco":"2001-D55-27","nom":"Le Bois d'Etain","_dept":"55","numero":"2001-D55-27","commune":"Etain","echelle":"1/10000","surface":"3.18 km²","format":"A4","annee":"2001","cartographes":"D Rollet","proprietaire":"5413 - CLUB ORIENTATION DE PIENNES","niveau":"Régional","specialite":"CO à pied","latitude":"49.2374411072","longitude":"5.64943613045","date_saisie":"10/02/2010","date_depot":"17/02/2010","valide":"Oui","ppo":"Non","type_carte":"Nouvelle carte","fond":"IGN","ref_ign":"3212 E","obsolete":false}},{"type":"Feature","geometry":{"type":"Polygon","coordinates":[[[5.664,49.2395],[5.6622,49.2422],[5.6599,49.2462],[5.6564,49.2473],[5.6531,49.2464],[5.6478,49.2457],[5.6423,49.2448],[5.6392,49.2428],[5.6368,49.2402],[5.6383,49.2388],[5.6373,49.2375],[5.6404,49.2357],[5.6389,49.2348],[5.6357,49.2341],[5.6316,49.2339],[5.6301,49.2328],[5.6329,49.2319],[5.6348,49.2312],[5.6349,49.2292],[5.6369,49.2266],[5.6444,49.2287],[5.6486,49.2298],[5.6549,49.2301],[5.6585,49.2303],[5.6634,49.2376],[5.664,49.2395]]]},"properties":{"id_ffco":"2001-D55-26","nom":"LE BOIS DE TILLY","_dept":"55","numero":"2001-D55-26","commune":"Etain","echelle":"1/15000","surface":"3.35 km²","format":"A4","annee":"2001","cartographes":"D Rollet","proprietaire":"5413 - CLUB ORIENTATION DE PIENNES","niveau":"Régional","specialite":"CO à pied","latitude":"49.2371656817","longitude":"5.6489533167","date_saisie":"10/02/2010","date_depot":"17/02/2010","valide":"Oui","ppo":"Non","type_carte":"Nouvelle carte","fond":"IGN","ref_ign":"3212 E","obsolete":false}},{"type":"Feature","geometry":null,"properties":{"id_ffco":"2006-D55-","nom":"Le bois d'Etain","_dept":"55","numero":"2006-D55-","commune":"Etain","echelle":"1/10000","surface":"4.54 km²","annee":"2006","niveau":"Initiation, Scolaire","contacts":"club 5413, 03 82 21 76 28, gerardmarie1@hotmail.fr","latitude":"49.2134217","longitude":"5.6351625","valide":"Non","ppo":"Oui (30 postes)","obsolete":false}},{"type":"Feature","geometry":null,"properties":{"id_ffco":"????-D55-","nom":"Les Hauts de Buxière","_dept":"55","numero":"????-D55-","commune":"Heudicourt sous les cotes","surface":"None km²","latitude":"48.9317346","longitude":"5.6977297","valide":"Non","ppo":"Oui","obsolete":false}},{"type":"Feature","geometry":null,"properties":{"id_ffco":"????-D55-","nom":"Lac de Madine","_dept":"55","numero":"????-D55-","commune":"Heudicourt sous les cotes","surface":"None km²","latitude":"48.9317346","longitude":"5.6977297","valide":"Non","ppo":"Oui","obsolete":false}},{"type":"Feature","geometry":null,"properties":{"id_ffco":"????-D55-","nom":"Le Ruisseau de l'Homme Noyé","_dept":"55","numero":"????-D55-","commune":"Rouvre en Woëvre","surface":"None km²","latitude":"49.2193624","longitude":"5.6889616","valide":"Non","ppo":"Oui","obsolete":false}},{"type":"Feature","geometry":null,"properties":{"id_ffco":"????-D55-","nom":"Le bois de Rouvre","_dept":"55","numero":"????-D55-","commune":"Rouvre en Woëvre","surface":"None km²","latitude":"49.2193624","longitude":"5.6889616","valide":"Non","ppo":"Oui","obsolete":false}}]}