{"type":"FeatureCollection","features":[{"type":"Feature","geometry":null,"properties":{"id_ffco":"1317","nom":"TACOT","_dept":"55","numero":"1983-D55-23","commune":"VERDUN","echelle":"1/15000","surface":"4.5 km²","annee":"1983","proprietaire":"5501 - SPORT ATHLETIQUE VERDUNOIS","niveau":"Interrégional","specialite":"CO à pied","latitude":"49.159011","longitude":"5.3839994","valide":"Non","ppo":"Non","obsolete":true}},{"type":"Feature","geometry":null,"properties":{"id_ffco":"2355","nom":"TERRAIN de MANOEUVRE","_dept":"55","numero":"1990-D55-21","commune":"COMMERCY","echelle":"1/10000","surface":"1.0 km²","format":"A5","annee":"1990","cartographes":"Brandely Philippe","proprietaire":"LLCO","niveau":"Initiation, Scolaire","specialite":"CO à pied","latitude":"48.7627879","longitude":"5.5906633","valide":"Non","ppo":"Non","obsolete":true}},{"type":"Feature","geometry":null,"properties":{"id_ffco":"2354","nom":"Forêt domaniale-COMMERCY","_dept":"55","numero":"1990-D55-20","commune":"COMMERCY","echelle":"1/10000","surface":"3.0 km²","format":"A5","annee":"1990","cartographes":"Munier Philippe","proprietaire":"LLCO","niveau":"Initiation, Scolaire","specialite":"CO à pied","latitude":"48.7627879","longitude":"5.5906633","valide":"Non","ppo":"Non","obsolete":true}},{"type":"Feature","geometry":null,"properties":{"id_ffco":"2353","nom":"COMMUNAUTE","_dept":"55","numero":"1991-D55-19","commune":"THIERVILLE","echelle":"1/5000","surface":"0.2 km²","format":"A5","annee":"1991","cartographes":"Hutin Guy","proprietaire":"5501 - SPORT ATHLETIQUE VERDUNOIS","niveau":"Initiation, Scolaire","specialite":"CO à pied","latitude":"49.1729212","longitude":"5.3558893","valide":"Non","ppo":"Non","obsolete":true}},{"type":"Feature","geometry":null,"properties":{"id_ffco":"2352","nom":"FOND D'ENFER","_dept":"55","numero":"1989-D55-18","commune":"BAR LE DUC","echelle":"1/10000","surface":"2.0 km²","format":"A5","annee":"1989","cartographes":"Correggio Patrick","proprietaire":"5505","niveau":"Départemental","specialite":"CO à pied","latitude":"48.7737192","longitude":"5.1605745","valide":"Non","ppo":"Non","obsolete":true}},{"type":"Feature","geometry":null,"properties":{"id_ffco":"2351","nom":"PARC COTE STE CATHERINE","_dept":"55","numero":"1988-D55-17","commune":"BAR LE DUC","echelle":"1/2000","surface":"0.3 km²","format":"A5","annee":"1988","cartographes":"Correggio Patrick","proprietaire":"5505","niveau":"Initiation, Scolaire","specialite":"CO à pied","latitude":"48.7737192","longitude":"5.1605745","valide":"Non","ppo":"Non","obsolete":true}},{"type":"Feature","geometry":null,"properties":{"id_ffco":"2350","nom":"PARC CHATEAU MARBEAUMONT","_dept":"55","numero":"1988-D55-16","commune":"BAR LE DUC","echelle":"1/2000","surface":"0.3 km²","format":"A5","annee":"1988","cartographes":"Correggio Patrick","proprietaire":"5505","niveau":"Initiation, Scolaire","specialite":"CO à pied","latitude":"48.7737192","longitude":"5.1605745","valide":"Non","ppo":"Non","obsolete":true}},{"type":"Feature","geometry":null,"properties":{"id_ffco":"2349","nom":"PARC DE L'HOTEL VILLE","_dept":"55","numero":"1991-D55-15","commune":"BAR LE DUC","echelle":"1/1000","surface":"0.2 km²","format":"A4","annee":"1991","cartographes":"Correggio Patrick","proprietaire":"5505","niveau":"Initiation, Scolaire","specialite":"CO à pied","latitude":"48.7737192","longitude":"5.1605745","valide":"Non","ppo":"Non","obsolete":true}},{"type":"Feature","geometry":null,"properties":{"id_ffco":"2348","nom":"BASE DE MADINE","_dept":"55","numero":"1991-D55-14","commune":"NONSARD","echelle":"1/5000","surface":"0.4 km²","format":"A5","annee":"1991","cartographes":"stage Ligue","proprietaire":"LLCO","niveau":"Initiation, Scolaire","specialite":"CO à pied","latitude":"48.942136","longitude":"5.7618677","valide":"Non","ppo":"Non","obsolete":true}},{"type":"Feature","geometry":null,"properties":{"id_ffco":"2347","nom":"MASSONGES","_dept":"55","numero":"1991-D55-13","commune":"BAR DUC","echelle":"1/10000","surface":"4.5 km²","format":"A4","annee":"1991","cartographes":"collectif club","proprietaire":"5505","niveau":"Régional","specialite":"CO à pied","latitude":"48.7737192","longitude":"5.1605745","valide":"Non","ppo":"Non","obsolete":true}},{"type":"Feature","geometry":null,"properties":{"id_ffco":"1316","nom":"CINQ FRERES","_dept":"55","numero":"1986-D55-12","commune":"VERDUN","echelle":"1/15000","surface":"6.0 km²","format":"A4","annee":"1986","cartographes":"Hutin Guy","proprietaire":"5501 - SPORT ATHLETIQUE VERDUNOIS","niveau":"Interrégional","specialite":"CO à pied","latitude":"49.159011","longitude":"5.3839994","valide":"Non","ppo":"Non","obsolete":true}},{"type":"Feature","geometry":null,"properties":{"id_ffco":"2346","nom":"ROZELIER","_dept":"55","numero":"1991-D55-11","commune":"VERDUN","echelle":"1/15000","surface":"3.5 km²","format":"A4","annee":"1991","cartographes":"Hutin Guy","proprietaire":"5501 - SPORT ATHLETIQUE VERDUNOIS","niveau":"Départemental","specialite":"CO à pied","latitude":"49.159011","longitude":"5.3839994","valide":"Non","ppo":"Non","obsolete":true}},{"type":"Feature","geometry":null,"properties":{"id_ffco":"2345","nom":"GRIVE","_dept":"55","numero":"1991-D55-10","commune":"VERDUN","echelle":"1/10000","surface":"1.0 km²","format":"A5","annee":"1991","cartographes":"Hutin Guy","proprietaire":"5501 - SPORT ATHLETIQUE VERDUNOIS","niveau":"Départemental","specialite":"CO à pied","latitude":"49.159011","longitude":"5.3839994","valide":"Non","ppo":"Non","obsolete":true}},{"type":"Feature","geometry":null,"properties":{"id_ffco":"1315","nom":"VOIE MASSA","_dept":"55","numero":"1983-D55-08","commune":"VERDUN","echelle":"1/15000","surface":"5.0 km²","format":"A4","annee":"1983","cartographes":"Hutin Guy","proprietaire":"5501 - SPORT ATHLETIQUE VERDUNOIS","niveau":"Interrégional","specialite":"CO à pied","latitude":"49.159011","longitude":"5.3839994","valide":"Non","ppo":"Non","obsolete":true}},{"type":"Feature","geometry":null,"properties":{"id_ffco":"1314","nom":"St Mihiel Haie Champs N","_dept":"55","numero":"1983-D55-07","commune":"ST MIHIEL","echelle":"1/15000","surface":"7.0 km²","annee":"1983","proprietaire":"5409","niveau":"Interrégional","specialite":"CO à pied","latitude":"48.8922609","longitude":"5.5412628","valide":"Non","ppo":"Non","obsolete":true}},{"type":"Feature","geometry":null,"properties":{"id_ffco":"1313","nom":"St Mihiel Haie Champs S","_dept":"55","numero":"1983-D55-06","commune":"ST MIHIEL","echelle":"1/15000","surface":"9.0 km²","annee":"1983","proprietaire":"5409","niveau":"Interrégional","specialite":"CO à pied","latitude":"48.8922609","longitude":"5.5412628","valide":"Non","ppo":"Non","obsolete":true}},{"type":"Feature","geometry":null,"properties":{"id_ffco":"2344","nom":"ST MIHIEL BOIS GERVAISE","_dept":"55","numero":"1991-D55-05","commune":"ST MIHIEL","echelle":"1/15000","surface":"3.0 km²","annee":"1991","proprietaire":"5409","specialite":"CO à pied","latitude":"48.8922609","longitude":"5.5412628","valide":"Non","ppo":"Non","obsolete":true}},{"type":"Feature","geometry":null,"properties":{"id_ffco":"1312","nom":"SENON","_dept":"55","numero":"1983-D55-04","commune":"ETAIN","echelle":"1/15000","surface":"6.0 km²","annee":"1983","proprietaire":"5503","niveau":"Interrégional","specialite":"CO à pied","latitude":"49.2134217","longitude":"5.6351625","valide":"Non","ppo":"Non","obsolete":true}},{"type":"Feature","geometry":null,"properties":{"id_ffco":"1311","nom":"BOIS DE LA HAIE HERLIN","_dept":"55","numero":"1983-D55-03","commune":"REVIGNY/ORNAIN","echelle":"1/10000","surface":"3.6 km²","annee":"1983","proprietaire":"5502","niveau":"Interrégional","specialite":"CO à pied","latitude":"48.829886","longitude":"4.9824005","valide":"Non","ppo":"Non","obsolete":true}},{"type":"Feature","geometry":null,"properties":{"id_ffco":"756","nom":"FORET DE STE GENEVIEVE","_dept":"55","numero":"1990-D55-022","commune":"BAR LE DUC","echelle":"1/15000","surface":"9.0 km²","format":"A4","annee":"1990","cartographes":"Correggio Patrick,Oeillet Richard,Maillard Chantal","proprietaire":"5505","niveau":"Régional","specialite":"CO à pied","latitude":"48.7737192","longitude":"5.1605745","valide":"Non","ppo":"Non","obsolete":true}},{"type":"Feature","geometry":null,"properties":{"id_ffco":"1310","nom":"FORET DOM. DE LISLE","_dept":"55","numero":"1983-D55-02","commune":"LAHEYCOURT","echelle":"1/20000","surface":"5.0 km²","annee":"1983","proprietaire":"5502","niveau":"Interrégional","specialite":"CO à pied","latitude":"48.890518","longitude":"5.0221713","valide":"Non","ppo":"Non","obsolete":true}},{"type":"Feature","geometry":null,"properties":{"id_ffco":"1127","nom":"CLERMONT EN ARGONNE","_dept":"55","numero":"1975-D55-01","commune":"Clermont en Argonne","echelle":"1/16666","surface":"5.0 km²","annee":"1975","niveau":"Interrégional","specialite":"CO à pied","latitude":"49.1049624","longitude":"5.0686925","valide":"Non","ppo":"Non","obsolete":true}},{"type":"Feature","geometry":null,"properties":{"id_ffco":"755","nom":"BOIS D'HINVAUX","_dept":"55","numero":"1977-D55-009","commune":"SOMMEDIEUE","echelle":"1/15000","surface":"6.5 km²","format":"A4","annee":"1977","cartographes":"BILLET Serge","proprietaire":"5501 - SPORT ATHLETIQUE VERDUNOIS","niveau":"Interrégional","specialite":"CO à pied","latitude":"49.0857111","longitude":"5.4634763","valide":"Non","ppo":"Non","obsolete":true}}]}