{"type":"FeatureCollection","features":[{"type":"Feature","geometry":{"type":"Polygon","coordinates":[[[-3.3805,47.7625],[-3.3771,47.7616],[-3.376,47.7617],[-3.3737,47.7623],[-3.3711,47.7635],[-3.3702,47.7635],[-3.3702,47.7631],[-3.3693,47.7624],[-3.3695,47.7615],[-3.369,47.7609],[-3.3689,47.7604],[-3.3691,47.7602],[-3.3688,47.7599],[-3.367,47.7607],[-3.3675,47.7617],[-3.3668,47.7623],[-3.3674,47.7634],[-3.368,47.7641],[-3.3679,47.765],[-3.3689,47.7652],[-3.3688,47.7657],[-3.3686,47.7669],[-3.3704,47.7676],[-3.3716,47.7682],[-3.3725,47.7676],[-3.3736,47.7678],[-3.3748,47.7684],[-3.3754,47.7689],[-3.3765,47.7683],[-3.3771,47.7678],[-3.3774,47.7667],[-3.3796,47.7637],[-3.3805,47.7625]]]},"properties":{"id_ffco":"5484","nom":"Bois du Chateau","_dept":"56","numero":"2011-D56-146","commune":"Lorient","echelle":"1/5000","surface":"0.52 km²","format":"A4","annee":"2011","cartographes":"Anne Coniel","proprietaire":"56 - Morbihan","niveau":"Régional","specialite":"CO à pied","latitude":"47.7646190785","longitude":"-3.37340261615","date_saisie":"02/09/2012","date_depot":"15/11/2012","valide":"Oui","ppo":"Non","type_carte":"Reprise","base":"2009-D56-132 Bois du Château","fond":"Cadastre","obsolete":true}},{"type":"Feature","geometry":{"type":"Polygon","coordinates":[[[-2.4152,47.9556],[-2.4156,47.9547],[-2.4162,47.9542],[-2.4164,47.954],[-2.4168,47.9539],[-2.4177,47.9539],[-2.4182,47.954],[-2.4184,47.9537],[-2.4174,47.9528],[-2.4177,47.9522],[-2.4183,47.9517],[-2.4195,47.9513],[-2.4206,47.9514],[-2.4215,47.9509],[-2.4229,47.9494],[-2.4235,47.9485],[-2.422,47.9469],[-2.4204,47.9451],[-2.4198,47.9457],[-2.4204,47.9463],[-2.4203,47.9469],[-2.4197,47.9482],[-2.4195,47.9483],[-2.4195,47.9492],[-2.4188,47.9497],[-2.4185,47.9498],[-2.4186,47.95],[-2.4184,47.9506],[-2.4173,47.951],[-2.4174,47.9513],[-2.4167,47.9514],[-2.4168,47.9518],[-2.4162,47.9522],[-2.416,47.9526],[-2.4156,47.9529],[-2.4146,47.9539],[-2.4139,47.9552],[-2.414,47.9555],[-2.4152,47.9556]]]},"properties":{"id_ffco":"5486","nom":"Base de Loisirs - Etang au Duc","_dept":"56","numero":"2011-D56-139","commune":"Taupont","echelle":"1/5000","surface":"0.2 km²","format":"A4","annee":"2011","cartographes":"Anne Coniel","proprietaire":"56 - Morbihan","niveau":"Initiation, Scolaire","specialite":"CO à pied","latitude":"47.9504097331","longitude":"-2.41928233931","date_saisie":"02/09/2012","date_depot":"15/11/2012","valide":"Oui","ppo":"Non","type_carte":"Nouvelle carte","fond":"Ortho","obsolete":true}},{"type":"Feature","geometry":{"type":"Polygon","coordinates":[[[-3.3753,47.769],[-3.3753,47.7686],[-3.3737,47.7678],[-3.3722,47.7674],[-3.3716,47.7677],[-3.3705,47.7677],[-3.3688,47.7668],[-3.3689,47.7652],[-3.3689,47.7648],[-3.368,47.7645],[-3.3686,47.7639],[-3.3686,47.7637],[-3.3678,47.7637],[-3.3675,47.7631],[-3.3672,47.7624],[-3.3673,47.7622],[-3.3676,47.7617],[-3.3671,47.7605],[-3.3688,47.7599],[-3.3693,47.7603],[-3.3689,47.7605],[-3.3696,47.7615],[-3.3694,47.7623],[-3.3702,47.7633],[-3.3708,47.7637],[-3.3708,47.764],[-3.3713,47.7641],[-3.3736,47.7637],[-3.3754,47.7653],[-3.3757,47.7661],[-3.3773,47.7667],[-3.377,47.7679],[-3.3762,47.7685],[-3.3753,47.769]]]},"properties":{"id_ffco":"4843","nom":"Bois du Château","_dept":"56","numero":"2009-D56-132","commune":"Lorient","echelle":"1/2500","surface":"0.3 km²","format":"A4","annee":"2009","cartographes":"E Charles","proprietaire":"56 - Morbihan","niveau":"Initiation, Scolaire","specialite":"CO à pied","latitude":"47.7651660433","longitude":"-3.37173108685","date_saisie":"30/01/2010","date_depot":"17/02/2010","valide":"Oui","ppo":"Non","type_carte":"Nouvelle carte","fond":"Cadastre","obsolete":true}},{"type":"Feature","geometry":{"type":"Polygon","coordinates":[[[-3.31,47.7755],[-3.3101,47.7765],[-3.31,47.7778],[-3.314,47.7776],[-3.3142,47.7774],[-3.3146,47.7768],[-3.3151,47.7764],[-3.3152,47.776],[-3.3168,47.7759],[-3.3172,47.7758],[-3.3172,47.7754],[-3.3177,47.775],[-3.318,47.7748],[-3.318,47.7747],[-3.3177,47.7746],[-3.318,47.7739],[-3.3187,47.7737],[-3.32,47.7732],[-3.3192,47.773],[-3.3179,47.7728],[-3.3174,47.7723],[-3.3165,47.7733],[-3.3156,47.7736],[-3.3148,47.7732],[-3.3145,47.7732],[-3.3145,47.7737],[-3.3132,47.774],[-3.312,47.7742],[-3.3114,47.7745],[-3.3115,47.7754],[-3.31,47.7755]]]},"properties":{"id_ffco":"4840","nom":"Centre de loisirs de Saint Niau (Lanester)","_dept":"56","numero":"2009-D56-128","commune":"Lanester","echelle":"1/3000","surface":"0.21 km²","format":"A4","annee":"2009","cartographes":"E Charles","proprietaire":"56 - Morbihan","niveau":"Départemental","specialite":"CO à pied","latitude":"47.7752814532","longitude":"-3.31421240773","date_saisie":"30/01/2010","date_depot":"17/02/2010","valide":"Oui","ppo":"Non","type_carte":"Nouvelle carte","fond":"Ortho","obsolete":true}},{"type":"Feature","geometry":{"type":"Polygon","coordinates":[[[-3.3547,47.7612],[-3.3546,47.7615],[-3.3546,47.7617],[-3.3534,47.762],[-3.3538,47.7629],[-3.3512,47.7647],[-3.3495,47.7659],[-3.3492,47.7661],[-3.3483,47.7658],[-3.3476,47.7657],[-3.3453,47.7657],[-3.3451,47.7673],[-3.3439,47.7671],[-3.3432,47.7672],[-3.3402,47.7665],[-3.3402,47.7662],[-3.3429,47.7639],[-3.3444,47.7623],[-3.3445,47.7619],[-3.3468,47.7616],[-3.3486,47.7626],[-3.3492,47.763],[-3.3532,47.7608],[-3.3541,47.7608],[-3.3547,47.7612]]]},"properties":{"id_ffco":"7326","nom":"centre ville Lanester","_dept":"56","numero":"2007-D56-119","commune":"Lanester","echelle":"1/2500","surface":"0.36 km²","format":"A4","annee":"2007","cartographes":"Eric Charles","proprietaire":"56 - Morbihan","niveau":"Initiation, Scolaire","specialite":"CO à pied","latitude":"47.7640895514","longitude":"-3.34718502239","date_saisie":"02/04/2014","valide":"Non","ppo":"Non","type_carte":"Nouvelle carte","fond":"Ortho","obsolete":true}},{"type":"Feature","geometry":{"type":"Polygon","coordinates":[[[-3.3665,47.7479],[-3.3663,47.7483],[-3.3671,47.7497],[-3.3698,47.7512],[-3.3701,47.7515],[-3.3709,47.7514],[-3.3709,47.7512],[-3.373,47.7489],[-3.3716,47.7484],[-3.3709,47.7483],[-3.369,47.7476],[-3.3683,47.7467],[-3.368,47.7466],[-3.3667,47.7477],[-3.3665,47.7479]]]},"properties":{"id_ffco":"7344","nom":"Parc du Moustoir","_dept":"56","numero":"2009-D56-117","commune":"Lorient","echelle":"1/3000","surface":"0.14 km²","format":"A4","annee":"2009","cartographes":"Anne Coniel,Maes Bruno","proprietaire":"5604 - CLUB D'ORIENTATION LORIENTAIS","niveau":"Initiation, Scolaire","specialite":"CO à pied","latitude":"47.7491218934","longitude":"-3.36941664844","date_saisie":"03/04/2014","valide":"Non","ppo":"Non","type_carte":"Nouvelle carte","fond":"Ortho","obsolete":true}},{"type":"Feature","geometry":{"type":"Polygon","coordinates":[[[-3.4221,47.7026],[-3.4223,47.703],[-3.4229,47.7041],[-3.4228,47.7042],[-3.4217,47.7046],[-3.4217,47.705],[-3.4218,47.7051],[-3.4219,47.7054],[-3.4203,47.7053],[-3.4185,47.7058],[-3.4162,47.7063],[-3.4158,47.7047],[-3.4154,47.7038],[-3.4152,47.7031],[-3.4138,47.7017],[-3.4143,47.7014],[-3.4146,47.7011],[-3.4148,47.7008],[-3.4151,47.7006],[-3.4154,47.7004],[-3.4157,47.7004],[-3.4162,47.7004],[-3.4165,47.7003],[-3.4172,47.7004],[-3.4174,47.7003],[-3.4179,47.7007],[-3.4183,47.7008],[-3.4185,47.7009],[-3.4187,47.7009],[-3.4188,47.7008],[-3.4189,47.7009],[-3.4191,47.7008],[-3.4206,47.701],[-3.421,47.7013],[-3.4211,47.7016],[-3.4216,47.7019],[-3.422,47.7021],[-3.4222,47.7022],[-3.4223,47.7024],[-3.4221,47.7026]]]},"properties":{"id_ffco":"7345","nom":"Centre de Kerpape","_dept":"56","numero":"2008-D56-115","commune":"Ploemeur","echelle":"1/3500","surface":"0.29 km²","format":"A4","annee":"2008","cartographes":"Maes Bruno","proprietaire":"5604 - CLUB D'ORIENTATION LORIENTAIS","niveau":"Régional","specialite":"CO à pied","latitude":"47.7031302713","longitude":"-3.41833539947","date_saisie":"03/04/2014","valide":"Non","ppo":"Non","type_carte":"Nouvelle carte","fond":"Cadastre","obsolete":true}},{"type":"Feature","geometry":{"type":"Polygon","coordinates":[[[-3.244,47.9413],[-3.2467,47.9362],[-3.2472,47.9329],[-3.2499,47.9293],[-3.2591,47.9336],[-3.2647,47.9339],[-3.2654,47.9356],[-3.2572,47.9406],[-3.2556,47.9407],[-3.2555,47.942],[-3.2541,47.9424],[-3.253,47.9422],[-3.2522,47.9429],[-3.2479,47.9424],[-3.2474,47.9406],[-3.2451,47.9405],[-3.244,47.9413]]]},"properties":{"id_ffco":"4301","nom":"Forêt Communale De Lann Bourgeol","_dept":"56","numero":"2006-D56-107","commune":"Inguinel","echelle":"1/7500","surface":"1.29 km²","format":"A4","annee":"2006","cartographes":"C Malarde","niveau":"Départemental","specialite":"CO à pied","latitude":"47.9365597516","longitude":"-3.25364016191","date_saisie":"04/12/2006","date_depot":"28/12/2006","valide":"Non","ppo":"Non","type_carte":"Nouvelle carte","fond":"IGN","obsolete":true}},{"type":"Feature","geometry":{"type":"Polygon","coordinates":[[[-2.894,47.5386],[-2.8937,47.5388],[-2.8932,47.5389],[-2.8925,47.5392],[-2.8916,47.5393],[-2.8904,47.5395],[-2.8898,47.5395],[-2.8894,47.5396],[-2.889,47.5396],[-2.8885,47.5398],[-2.8887,47.5402],[-2.8884,47.5405],[-2.8875,47.5408],[-2.8868,47.5406],[-2.8862,47.5405],[-2.886,47.5399],[-2.8854,47.54],[-2.885,47.5401],[-2.8843,47.5394],[-2.8837,47.5389],[-2.8828,47.5385],[-2.8824,47.5381],[-2.883,47.5381],[-2.8837,47.5378],[-2.8868,47.5384],[-2.8898,47.5386],[-2.894,47.5386]]]},"properties":{"id_ffco":"317","nom":"Parc du Fogeo","_dept":"56","numero":"2004-D56-100","commune":"Arzon","echelle":"1/10000","surface":"0.12 km²","format":"A4","annee":"2004","cartographes":"Eric Charles","proprietaire":"56 - Morbihan","niveau":"Initiation, Scolaire","specialite":"CO à pied","latitude":"47.5391464661","longitude":"-2.88739896587","valide":"Non","ppo":"Oui (20 postes)","type_carte":"Nouvelle carte","fond":"Ortho","obsolete":true}},{"type":"Feature","geometry":null,"properties":{"id_ffco":"2924","nom":"LE CUR DE PONT-CALLECK","_dept":"56","numero":"1996-D56-038","commune":"PONT-CALLECK","echelle":"1/10000","surface":"3.8 km²","annee":"1996","niveau":"National, International","specialite":"CO à pied","latitude":"47.6521932","longitude":"-2.7779932","valide":"Non","ppo":"Non","obsolete":true}},{"type":"Feature","geometry":null,"properties":{"id_ffco":"1953","nom":"FORET DE LANN BOURGEOL","_dept":"56","numero":"1988-D56-030","commune":"INGUINIEL","echelle":"1/5000","surface":"0.67 km²","annee":"1988","proprietaire":"56 - Morbihan","specialite":"CO à pied","latitude":"47.9768276","longitude":"-3.2823836","valide":"Non","ppo":"Non","obsolete":true}},{"type":"Feature","geometry":null,"properties":{"id_ffco":"1951","nom":"DOMAINE DE TRONJOLY","_dept":"56","numero":"1988-D56-027","commune":"GOURIN","echelle":"1/2500","surface":"0.2 km²","annee":"1988","proprietaire":"56 - Morbihan","specialite":"CO à pied","latitude":"48.1391231","longitude":"-3.6086844","valide":"Non","ppo":"Non","obsolete":true}},{"type":"Feature","geometry":{"type":"Polygon","coordinates":[[[-3.1478,47.6493],[-3.1507,47.6492],[-3.1513,47.6466],[-3.1514,47.6457],[-3.1527,47.6459],[-3.1528,47.6456],[-3.1471,47.6447],[-3.1448,47.645],[-3.1433,47.6463],[-3.1436,47.6476],[-3.1443,47.6487],[-3.1445,47.6494],[-3.1449,47.6497],[-3.1478,47.6493]]]},"properties":{"id_ffco":"1950","nom":"PARC KERAVEON ERDEVEN","_dept":"56","numero":"1988-D56-022","commune":"ERDEVEN","echelle":"1/2500","surface":"0.27 km²","format":"A4","annee":"1988","proprietaire":"56 - Morbihan","niveau":"Initiation, Scolaire","specialite":"CO à pied","latitude":"47.6471090338","longitude":"-3.14748101455","valide":"Non","ppo":"Non","type_carte":"Nouvelle carte","fond":"IGN","obsolete":true}}]}