{"type":"FeatureCollection","features":[{"type":"Feature","geometry":{"type":"Polygon","coordinates":[[[3.0985,47.0808],[3.0986,47.0806],[3.0992,47.0799],[3.1005,47.0806],[3.1008,47.0812],[3.1011,47.0816],[3.1007,47.0821],[3.1006,47.0822],[3.0995,47.0824],[3.0993,47.0825],[3.0975,47.0824],[3.0971,47.0823],[3.0971,47.0822],[3.0975,47.0819],[3.0972,47.0817],[3.0976,47.0815],[3.0978,47.0816],[3.0983,47.0811],[3.0984,47.0809],[3.0985,47.0808]]]},"properties":{"id_ffco":"7191","nom":"Le Parc de Pougues les Eaux","_dept":"58","numero":"2009-D58-023","commune":"Pougues les Eaux","echelle":"1/1500","surface":"0.05 km²","format":"A4","annee":"2009","cartographes":"Regino GOROSPE","proprietaire":"5803 - NIEVRE ORIENTATION RAID DECOUVERTE","niveau":"Initiation, Scolaire","specialite":"CO à pied","contacts":"Club NORD 58, balisenord58@gmail.com","latitude":"47.0814654559","longitude":"3.09923098158","date_saisie":"27/12/2013","valide":"Oui","ppo":"Non","type_carte":"Nouvelle carte","fond":"IGN","ref_ign":"2524 Est","obsolete":true}},{"type":"Feature","geometry":{"type":"Polygon","coordinates":[[[3.1531,46.9916],[3.1571,46.9914],[3.1568,46.9894],[3.153,46.9896],[3.1527,46.9897],[3.1531,46.9908],[3.1531,46.9916]]]},"properties":{"id_ffco":"3809","nom":"Parc Roger Salengro","_dept":"58","numero":"2003-D58-018","commune":"Nevers","echelle":"1/1000","surface":"0.07 km²","format":"A3","annee":"2003","cartographes":"Regino GOROSPE","proprietaire":"5803 - NIEVRE ORIENTATION RAID DECOUVERTE","niveau":"Initiation, Scolaire","specialite":"CO à pied","contacts":"Club NORD 58, balisenord58@gmail.com // Service des sports Ville de Nevers, 03.86.68.47.30 // USEP 58, 03.86.71.97.34, usep58@wanadoo.fr","latitude":"46.9905206763","longitude":"3.15498139686","date_saisie":"24/09/2004","date_depot":"13/10/2004","valide":"Oui","ppo":"Non","type_carte":"Nouvelle carte","fond":"Cadastre","obsolete":true}},{"type":"Feature","geometry":{"type":"Polygon","coordinates":[[[4.0298,47.045],[4.033,47.0455],[4.0363,47.0462],[4.0392,47.0463],[4.0406,47.0459],[4.0416,47.0448],[4.0445,47.0434],[4.0502,47.0422],[4.0523,47.0424],[4.0539,47.0421],[4.0557,47.0409],[4.056,47.0398],[4.0555,47.0392],[4.0547,47.0375],[4.0559,47.0354],[4.0561,47.0341],[4.0555,47.0327],[4.0557,47.0318],[4.0571,47.0312],[4.0574,47.0302],[4.0584,47.0296],[4.0599,47.0287],[4.0594,47.0254],[4.0606,47.0243],[4.061,47.0232],[4.0606,47.0219],[4.0591,47.0205],[4.0577,47.0172],[4.0571,47.0145],[4.0567,47.0135],[4.0591,47.0118],[4.0606,47.0111],[4.0617,47.0106],[4.0619,47.01],[4.0588,47.0084],[4.0567,47.0068],[4.0544,47.0063],[4.0554,47.006],[4.0546,47.0048],[4.0532,47.0043],[4.0519,47.0041],[4.0503,47.0042],[4.0475,47.0039],[4.0441,47.0036],[4.0421,47.0029],[4.0406,47.004],[4.0391,47.0043],[4.0388,47.0048],[4.0381,47.0053],[4.0372,47.005],[4.0361,47.0051],[4.0349,47.0056],[4.0337,47.0065],[4.0327,47.0078],[4.0306,47.0104],[4.0292,47.0115],[4.0267,47.0119],[4.0263,47.0122],[4.0256,47.0132],[4.0258,47.0153],[4.0274,47.0171],[4.0274,47.0174],[4.0263,47.0185],[4.0252,47.0195],[4.0253,47.0198],[4.0256,47.0202],[4.0261,47.0207],[4.0266,47.0208],[4.0272,47.0212],[4.0288,47.0218],[4.0293,47.0217],[4.0305,47.0213],[4.031,47.0216],[4.031,47.0222],[4.0305,47.0232],[4.03,47.0239],[4.0294,47.025],[4.0294,47.0254],[4.0295,47.0259],[4.0295,47.0265],[4.0294,47.027],[4.0292,47.0275],[4.0291,47.0278],[4.0295,47.0289],[4.0286,47.0308],[4.0278,47.0329],[4.0272,47.0339],[4.0267,47.0348],[4.0268,47.0358],[4.027,47.0363],[4.0277,47.0372],[4.0276,47.0374],[4.0272,47.0377],[4.0268,47.038],[4.0263,47.0388],[4.026,47.0395],[4.0259,47.0401],[4.0254,47.0408],[4.0254,47.0416],[4.0255,47.0422],[4.0246,47.0433],[4.024,47.0439],[4.0252,47.044],[4.0268,47.0445],[4.0282,47.045],[4.0298,47.045]]]},"properties":{"id_ffco":"2807","nom":"Le Grand Montarnu","_dept":"58","numero":"1998-D58-017","commune":"Arleuf","echelle":"1/15000","surface":"9.92 km²","format":"A3","annee":"1998","cartographes":"Gérard VENON","proprietaire":"BO - Bourgogne","niveau":"National, International","specialite":"CO à pied","latitude":"47.0245380542","longitude":"4.04267438968","valide":"Oui","ppo":"Non","type_carte":"Nouvelle carte","fond":"IGN","ref_ign":"2825 OT","obsolete":true}},{"type":"Feature","geometry":null,"properties":{"id_ffco":"1067","nom":"La Folie II-Sous Montaigu","_dept":"58","numero":"1987-D58-01301","commune":"Montsauche les Settons","echelle":"1/15000","surface":"7.1 km²","format":"A4","annee":"1987","cartographes":"Marcel SAUVAIN,Jacques CHARLES","proprietaire":"BO - Bourgogne","niveau":"Régional","specialite":"CO à pied","latitude":"47.214672","longitude":"4.0256126","valide":"Non","ppo":"Non","type_carte":"Reprise","base":"1985-D58-008 La Folie","fond":"IGN","ref_ign":"2823 Ouest","obsolete":true}},{"type":"Feature","geometry":{"type":"Polygon","coordinates":[[[4.0615,47.1576],[4.0613,47.1572],[4.0614,47.1566],[4.0619,47.1565],[4.0629,47.1551],[4.0636,47.1549],[4.0637,47.1547],[4.0637,47.154],[4.0641,47.1538],[4.0646,47.1528],[4.0659,47.1521],[4.066,47.1518],[4.0659,47.1516],[4.0662,47.151],[4.066,47.1506],[4.0662,47.1499],[4.0665,47.1495],[4.0668,47.1493],[4.067,47.1489],[4.0677,47.1486],[4.0681,47.1481],[4.0679,47.148],[4.0681,47.1472],[4.0684,47.1471],[4.0685,47.1471],[4.069,47.1471],[4.0691,47.1469],[4.0699,47.1463],[4.0717,47.1465],[4.073,47.1462],[4.0736,47.1463],[4.0743,47.1459],[4.0754,47.1466],[4.0746,47.1471],[4.076,47.1484],[4.0756,47.1491],[4.0744,47.1501],[4.0732,47.1513],[4.0729,47.1517],[4.0727,47.1522],[4.073,47.153],[4.074,47.1544],[4.0743,47.1549],[4.0746,47.1552],[4.0752,47.156],[4.0758,47.1567],[4.076,47.1569],[4.0758,47.1616],[4.0749,47.1628],[4.0733,47.1648],[4.0719,47.1654],[4.0711,47.166],[4.0703,47.1663],[4.069,47.1664],[4.0663,47.1659],[4.0647,47.1663],[4.0643,47.1663],[4.0628,47.1663],[4.0626,47.166],[4.0617,47.1652],[4.0604,47.1643],[4.0598,47.1645],[4.0594,47.1638],[4.0591,47.1634],[4.0586,47.1628],[4.0589,47.1625],[4.059,47.162],[4.0593,47.1618],[4.0595,47.1614],[4.059,47.1607],[4.0588,47.1596],[4.0591,47.159],[4.0608,47.1582],[4.061,47.1579],[4.0614,47.1579],[4.0615,47.1576]]]},"properties":{"id_ffco":"1068","nom":"Le Parc Vert","_dept":"58","numero":"1991-D58-012","commune":"Montsauche les Settons","echelle":"1/15000","surface":"1.96 km²","format":"A5","annee":"1991","cartographes":"Ligue de Bourgogne (collectif).","proprietaire":"BF - Bourgogne-Franche-Comté","niveau":"Initiation, Scolaire","specialite":"CO à pied","latitude":"47.1576157062","longitude":"4.06837459886","valide":"Oui","ppo":"Non","type_carte":"Nouvelle carte","fond":"IGN","ref_ign":"2823ET","obsolete":true}},{"type":"Feature","geometry":{"type":"Polygon","coordinates":[[[4.108,47.2023],[4.1091,47.2027],[4.1099,47.2027],[4.1106,47.2024],[4.1116,47.2016],[4.1123,47.2012],[4.1136,47.2008],[4.1144,47.2007],[4.1159,47.2004],[4.1163,47.2003],[4.1177,47.2004],[4.1191,47.2004],[4.1204,47.2],[4.1212,47.1998],[4.1221,47.2],[4.1236,47.2001],[4.1242,47.2002],[4.1261,47.2014],[4.1267,47.2015],[4.1269,47.2015],[4.1271,47.2014],[4.1272,47.2012],[4.127,47.2005],[4.1271,47.2003],[4.1279,47.2002],[4.1287,47.2004],[4.1296,47.2003],[4.1305,47.2003],[4.1311,47.2001],[4.1317,47.1999],[4.133,47.1991],[4.1338,47.1985],[4.1342,47.1984],[4.1346,47.1984],[4.137,47.1987],[4.1375,47.1986],[4.1376,47.1982],[4.1383,47.1973],[4.1386,47.1968],[4.1383,47.1952],[4.1386,47.1941],[4.1389,47.1937],[4.1395,47.1934],[4.1402,47.1932],[4.1328,47.189],[4.1255,47.1896],[4.1253,47.1894],[4.1253,47.1891],[4.1252,47.1889],[4.1244,47.1885],[4.1238,47.1881],[4.1236,47.1874],[4.1236,47.1868],[4.1233,47.1867],[4.1231,47.1863],[4.1228,47.1863],[4.1224,47.1866],[4.1217,47.1868],[4.1198,47.1875],[4.1187,47.1875],[4.1174,47.1876],[4.1167,47.1879],[4.1162,47.1882],[4.1151,47.188],[4.1149,47.19],[4.1144,47.1907],[4.1138,47.1915],[4.1125,47.1923],[4.1121,47.1926],[4.1117,47.1932],[4.1109,47.1936],[4.1102,47.1941],[4.1099,47.1947],[4.1096,47.1959],[4.1102,47.1968],[4.1102,47.1971],[4.1099,47.1974],[4.1091,47.1979],[4.108,47.1986],[4.1072,47.1993],[4.1068,47.2],[4.1067,47.2005],[4.1068,47.201],[4.1072,47.2017],[4.108,47.2023]]]},"properties":{"id_ffco":"1878","nom":"Montboblin","_dept":"58","numero":"1988-D58-011","commune":"Montsauche les Settons","echelle":"1/15000","surface":"2.68 km²","format":"A5","annee":"1988","cartographes":"Y-CHAIZE;J-F CHAPUIS;M de LA CHAPELLE;M-CATIAUX,A-GARTMAN;F-GRANDVAUX;J-C-ROUSSEAU;P-TINGUELY,Marcel SAUVAIN","proprietaire":"BF - Bourgogne-Franche-Comté","niveau":"Départemental","specialite":"CO à pied","latitude":"47.1948884604","longitude":"4.12314172754","valide":"Oui","ppo":"Non","type_carte":"Nouvelle carte","fond":"IGN","ref_ign":"2823Est et 2823Ouest","obsolete":true}},{"type":"Feature","geometry":{"type":"Polygon","coordinates":[[[3.5162,47.4606],[3.517,47.4621],[3.5179,47.4619],[3.5181,47.4621],[3.5183,47.4622],[3.5184,47.4622],[3.5186,47.4623],[3.5185,47.4624],[3.5187,47.4629],[3.519,47.4641],[3.5191,47.4644],[3.5194,47.4647],[3.5196,47.465],[3.5196,47.4651],[3.5192,47.4649],[3.5188,47.4647],[3.5184,47.4646],[3.5177,47.4644],[3.5171,47.4642],[3.5166,47.464],[3.5162,47.4638],[3.5156,47.4634],[3.5153,47.4631],[3.515,47.4627],[3.5149,47.4626],[3.5149,47.4624],[3.515,47.4613],[3.5149,47.4608],[3.5158,47.4607],[3.5162,47.4606]]]},"properties":{"id_ffco":"1876","nom":"Parc Vauvert","_dept":"58","numero":"1985-D58-010","commune":"Clamecy","echelle":"1/4000","surface":"0.08 km²","format":"A5","annee":"1985","cartographes":"x","proprietaire":"BO - Bourgogne","niveau":"Initiation, Scolaire","specialite":"CO à pied","latitude":"47.4627579596","longitude":"3.5169014229","valide":"Oui","ppo":"Non","type_carte":"Nouvelle carte","fond":"Cadastre","obsolete":true}},{"type":"Feature","geometry":{"type":"Polygon","coordinates":[[[4.0745,47.1904],[4.0747,47.1907],[4.0743,47.1908],[4.0734,47.1896],[4.0735,47.1893],[4.0733,47.1888],[4.0727,47.1882],[4.0724,47.1882],[4.0716,47.1887],[4.0713,47.189],[4.0709,47.1891],[4.0704,47.1892],[4.0695,47.1892],[4.069,47.189],[4.0685,47.1886],[4.0681,47.188],[4.0683,47.1876],[4.0678,47.1875],[4.0679,47.1873],[4.0685,47.1873],[4.0685,47.187],[4.0689,47.1868],[4.0691,47.1866],[4.0692,47.1864],[4.069,47.1862],[4.0691,47.1862],[4.0693,47.1862],[4.0698,47.1859],[4.0706,47.1855],[4.0709,47.185],[4.0718,47.1843],[4.0725,47.1835],[4.074,47.183],[4.0751,47.1828],[4.076,47.1829],[4.0763,47.1823],[4.077,47.1823],[4.0767,47.186],[4.0759,47.1864],[4.0755,47.1867],[4.0752,47.187],[4.0749,47.1874],[4.0746,47.1881],[4.0744,47.189],[4.0743,47.1896],[4.0744,47.1901],[4.0745,47.1904]]]},"properties":{"id_ffco":"1877","nom":"Base de loisirs des Settons-La Branlasse","_dept":"58","numero":"1985-D58-009","commune":"Montsauche les Settons","echelle":"1/5000","surface":"0.31 km²","format":"A5","annee":"1985","cartographes":"Jacques CHARLES","proprietaire":"BO - Bourgogne","niveau":"Initiation, Scolaire","specialite":"CO à pied","latitude":"47.1861858271","longitude":"4.07296180494","valide":"Oui","ppo":"Non","type_carte":"Extrait","base":"1985-D58-008 La Folie","fond":"IGN","ref_ign":"2823 Ouest","obsolete":true}},{"type":"Feature","geometry":{"type":"Polygon","coordinates":[[[4.0726,47.1986],[4.0722,47.1985],[4.0719,47.1981],[4.0713,47.1961],[4.0677,47.1922],[4.0677,47.1919],[4.0683,47.1917],[4.069,47.192],[4.0696,47.1925],[4.0712,47.1921],[4.0718,47.1912],[4.0717,47.1901],[4.0712,47.189],[4.0703,47.1892],[4.0694,47.1892],[4.0679,47.1884],[4.068,47.1874],[4.0692,47.1864],[4.0703,47.1857],[4.0711,47.1848],[4.0721,47.184],[4.0724,47.1836],[4.0731,47.1832],[4.0747,47.1828],[4.0753,47.1828],[4.076,47.1829],[4.0766,47.1821],[4.0818,47.1821],[4.0827,47.1822],[4.0831,47.1825],[4.0839,47.1829],[4.0847,47.1832],[4.085,47.1831],[4.0852,47.183],[4.0862,47.1819],[4.087,47.1812],[4.088,47.1807],[4.0888,47.1805],[4.0896,47.1805],[4.0901,47.1806],[4.0911,47.1812],[4.0915,47.1813],[4.0921,47.1813],[4.0938,47.181],[4.0943,47.1808],[4.095,47.1804],[4.0961,47.1801],[4.0965,47.1802],[4.0986,47.1806],[4.0992,47.1807],[4.1,47.1805],[4.1006,47.18],[4.1016,47.1794],[4.1024,47.1791],[4.104,47.1788],[4.105,47.1789],[4.1061,47.1789],[4.1091,47.1789],[4.11,47.1787],[4.111,47.1782],[4.112,47.1779],[4.1132,47.1778],[4.1136,47.1782],[4.1146,47.1788],[4.1149,47.1792],[4.1149,47.1797],[4.1147,47.1801],[4.1142,47.1804],[4.1137,47.1807],[4.1134,47.1811],[4.1134,47.1817],[4.1139,47.1823],[4.1147,47.1855],[4.1146,47.1858],[4.114,47.1863],[4.1137,47.1866],[4.1139,47.1869],[4.1146,47.1872],[4.1148,47.1874],[4.115,47.1876],[4.115,47.1887],[4.1149,47.19],[4.1145,47.1907],[4.1138,47.1915],[4.1121,47.1925],[4.1116,47.1932],[4.1104,47.1939],[4.1099,47.1945],[4.1097,47.1951],[4.1096,47.1959],[4.1102,47.1968],[4.1102,47.1971],[4.1099,47.1974],[4.1083,47.1984],[4.1072,47.1993],[4.1062,47.1991],[4.1046,47.1987],[4.1037,47.1984],[4.1035,47.1984],[4.1032,47.1986],[4.1029,47.1986],[4.1025,47.1985],[4.1009,47.1987],[4.1008,47.1988],[4.1001,47.2],[4.0996,47.2004],[4.0988,47.2007],[4.0978,47.2015],[4.0977,47.2018],[4.0975,47.202],[4.0959,47.2026],[4.0957,47.2028],[4.0954,47.2039],[4.0946,47.2039],[4.0943,47.204],[4.0938,47.2041],[4.0933,47.2041],[4.0925,47.2038],[4.0916,47.2038],[4.0912,47.2038],[4.0906,47.2036],[4.0901,47.2036],[4.0892,47.2035],[4.0884,47.2037],[4.0875,47.2037],[4.0863,47.2035],[4.0855,47.2035],[4.0848,47.2033],[4.0848,47.2028],[4.0847,47.2025],[4.0843,47.2024],[4.0836,47.2024],[4.0815,47.2007],[4.0811,47.2004],[4.0792,47.1999],[4.0785,47.1997],[4.0778,47.1995],[4.0774,47.1993],[4.0772,47.199],[4.0769,47.1989],[4.0764,47.1987],[4.0755,47.1986],[4.0746,47.1988],[4.0735,47.1988],[4.0726,47.1986]]]},"properties":{"id_ffco":"1066","nom":"La Folie","_dept":"58","numero":"1985-D58-008","commune":"Montsauche les Settons","echelle":"1/15000","surface":"7.11 km²","format":"+","annee":"1985","cartographes":"Marcel SAUVAIN,Jacques CHARLES","proprietaire":"BO - Bourgogne","niveau":"Régional","specialite":"CO à pied","latitude":"47.1905529546","longitude":"4.09252221086","valide":"Oui","ppo":"Non","type_carte":"Nouvelle carte","fond":"IGN","ref_ign":"2823 Ouest","obsolete":true}},{"type":"Feature","geometry":{"type":"Polygon","coordinates":[[[4.0494,47.1552],[4.0491,47.1557],[4.0492,47.156],[4.0495,47.1561],[4.0504,47.1566],[4.0509,47.1568],[4.0511,47.157],[4.0512,47.1573],[4.0508,47.1582],[4.0505,47.1586],[4.0504,47.1589],[4.0506,47.1593],[4.0519,47.16],[4.0521,47.1602],[4.0523,47.1615],[4.0526,47.162],[4.0543,47.1634],[4.0567,47.1652],[4.057,47.1652],[4.0586,47.1647],[4.0604,47.1643],[4.0607,47.1642],[4.0608,47.164],[4.0609,47.1625],[4.061,47.1622],[4.0611,47.162],[4.0614,47.1619],[4.0619,47.1618],[4.0623,47.1619],[4.0631,47.1623],[4.0635,47.1625],[4.0642,47.1627],[4.0658,47.1629],[4.0662,47.1629],[4.0672,47.1623],[4.0686,47.1614],[4.069,47.1605],[4.0689,47.1595],[4.069,47.1592],[4.0693,47.1588],[4.0694,47.1584],[4.0664,47.1573],[4.0644,47.1566],[4.063,47.1563],[4.0623,47.1563],[4.063,47.1553],[4.0639,47.1549],[4.0639,47.1541],[4.0643,47.1538],[4.0647,47.1529],[4.0661,47.1522],[4.0663,47.1511],[4.0662,47.1502],[4.0672,47.149],[4.0679,47.1487],[4.0682,47.1481],[4.068,47.148],[4.0683,47.1472],[4.0686,47.1472],[4.0691,47.147],[4.0691,47.1469],[4.0696,47.1469],[4.0698,47.1467],[4.0706,47.1456],[4.071,47.1448],[4.0706,47.1426],[4.0702,47.1416],[4.0691,47.1398],[4.069,47.1385],[4.0683,47.137],[4.0563,47.1369],[4.0524,47.1369],[4.052,47.1369],[4.0513,47.137],[4.0504,47.1371],[4.049,47.137],[4.0482,47.1368],[4.0471,47.1372],[4.0469,47.1375],[4.0469,47.1401],[4.0456,47.1414],[4.0442,47.1428],[4.043,47.1438],[4.0425,47.1444],[4.0418,47.1454],[4.0416,47.1458],[4.0412,47.1461],[4.0422,47.1462],[4.0427,47.1464],[4.043,47.1468],[4.043,47.1475],[4.0434,47.1483],[4.0437,47.1488],[4.0444,47.1492],[4.0445,47.1495],[4.0444,47.1498],[4.0444,47.1502],[4.0447,47.1505],[4.045,47.1506],[4.0452,47.1506],[4.0456,47.1506],[4.0459,47.1509],[4.0459,47.1512],[4.0461,47.1515],[4.0475,47.1526],[4.0485,47.1533],[4.0491,47.1538],[4.0496,47.1543],[4.0496,47.1546],[4.0496,47.1547],[4.0494,47.1552]]]},"properties":{"id_ffco":"1065","nom":"Grosse","_dept":"58","numero":"1983-D58-007","commune":"Planchez en Morvan","echelle":"1/15000","surface":"4.62 km²","format":"A4","annee":"1983","cartographes":"Marcel SAUVAIN","proprietaire":"BO - Bourgogne","niveau":"Régional","specialite":"CO à pied","latitude":"47.1488627259","longitude":"4.05732604412","valide":"Oui","ppo":"Non","type_carte":"Nouvelle carte","fond":"IGN","ref_ign":"2823 Ouest","obsolete":true}},{"type":"Feature","geometry":{"type":"Polygon","coordinates":[[[4.0628,47.167],[4.0627,47.1667],[4.0628,47.1662],[4.0624,47.1658],[4.0619,47.1654],[4.0608,47.1646],[4.0605,47.1643],[4.0608,47.1641],[4.0609,47.1632],[4.0609,47.1626],[4.0609,47.1623],[4.061,47.1621],[4.0614,47.1619],[4.0618,47.1618],[4.0622,47.1618],[4.0626,47.1621],[4.0633,47.1624],[4.0637,47.1625],[4.0647,47.1627],[4.0657,47.1629],[4.0661,47.1629],[4.0666,47.1627],[4.0676,47.1621],[4.0685,47.1615],[4.0687,47.1612],[4.0689,47.1608],[4.0705,47.1611],[4.0704,47.1616],[4.073,47.1622],[4.0737,47.1624],[4.0745,47.163],[4.0748,47.1631],[4.0754,47.1633],[4.0754,47.1636],[4.0742,47.1646],[4.072,47.1656],[4.0718,47.1664],[4.0703,47.1667],[4.0697,47.1669],[4.0687,47.167],[4.0681,47.1667],[4.0674,47.1667],[4.0628,47.167]]]},"properties":{"id_ffco":"1873","nom":"Nid Martine","_dept":"58","numero":"1982-D58-00603","commune":"Montsauche les Settons","echelle":"1/5000","surface":"0.49 km²","format":"A4","annee":"1982","cartographes":"Jacques CHARLES;Marcel SAUVAIN,Guy DRECLERC,Georges GERMAIN,Martine BERTO","proprietaire":"BO - Bourgogne","specialite":"CO à pied","latitude":"47.1642056824","longitude":"4.06765404472","valide":"Non","ppo":"Non","type_carte":"Extrait","base":"1982-D58-00601 Les Ligerons","fond":"IGN","ref_ign":"2823 Ouest","obsolete":true}},{"type":"Feature","geometry":{"type":"Polygon","coordinates":[[[4.0685,47.1672],[4.0677,47.1668],[4.0628,47.1671],[4.0627,47.1668],[4.0628,47.1664],[4.0628,47.1661],[4.0624,47.1657],[4.0617,47.1653],[4.0607,47.1645],[4.0604,47.1643],[4.0608,47.1641],[4.0609,47.1636],[4.0609,47.1628],[4.0609,47.1625],[4.061,47.1622],[4.0614,47.1618],[4.0622,47.1618],[4.0634,47.1624],[4.0639,47.1626],[4.0646,47.1627],[4.0659,47.1629],[4.0662,47.1629],[4.0666,47.1628],[4.0671,47.1623],[4.068,47.1618],[4.0685,47.1615],[4.0689,47.1608],[4.0707,47.1612],[4.0705,47.1616],[4.0729,47.1622],[4.0737,47.1624],[4.0744,47.1629],[4.0747,47.1629],[4.0749,47.1626],[4.0752,47.1622],[4.0766,47.1624],[4.0763,47.1629],[4.0761,47.1634],[4.0753,47.1635],[4.0741,47.1647],[4.0722,47.1656],[4.0716,47.1666],[4.0709,47.1669],[4.0701,47.1669],[4.0694,47.1672],[4.0685,47.1672]]]},"properties":{"id_ffco":"1875","nom":"Bois du Ravan","_dept":"58","numero":"1982-D58-00602","commune":"Montsauche les Settons","echelle":"1/5000","surface":"0.51 km²","format":"A5","annee":"1982","cartographes":"Marcel SAUVAIN,Jacques CHARLES,G. DRECLERC (DDJS Macon).,G. GERMAIN (DDJS Macon).","proprietaire":"BO - Bourgogne","niveau":"Départemental","specialite":"CO à pied","latitude":"47.1642386576","longitude":"4.0678723299","valide":"Oui","ppo":"Non","type_carte":"Extrait","base":"1982-D58-00601 Les Ligerons","fond":"IGN","ref_ign":"2823 Ouest","obsolete":true}},{"type":"Feature","geometry":{"type":"Polygon","coordinates":[[[4.0655,47.1695],[4.0653,47.1691],[4.0647,47.1689],[4.063,47.1678],[4.0628,47.1674],[4.0627,47.1669],[4.0628,47.1665],[4.0628,47.1661],[4.0617,47.1653],[4.0605,47.1643],[4.0608,47.1641],[4.0608,47.1636],[4.0609,47.1624],[4.0611,47.1621],[4.0614,47.1619],[4.0618,47.1618],[4.0624,47.1619],[4.0632,47.1624],[4.0638,47.1626],[4.0643,47.1627],[4.0655,47.1629],[4.0659,47.1629],[4.0663,47.1628],[4.0667,47.1626],[4.0676,47.1621],[4.0686,47.1615],[4.069,47.1606],[4.0753,47.162],[4.0758,47.1613],[4.0764,47.1604],[4.0769,47.159],[4.0775,47.1583],[4.0786,47.1579],[4.0793,47.1577],[4.0802,47.158],[4.0799,47.1584],[4.0825,47.1591],[4.0828,47.1597],[4.0846,47.1592],[4.0847,47.1596],[4.085,47.1611],[4.0876,47.1622],[4.0879,47.162],[4.0883,47.1619],[4.0886,47.1616],[4.089,47.1615],[4.0896,47.1619],[4.0899,47.1623],[4.0903,47.1631],[4.0906,47.1638],[4.0907,47.1645],[4.091,47.1651],[4.0912,47.1655],[4.091,47.1658],[4.091,47.1667],[4.0912,47.167],[4.0911,47.1674],[4.0912,47.1677],[4.0913,47.168],[4.0912,47.1683],[4.0907,47.1686],[4.0906,47.1685],[4.0899,47.1687],[4.0896,47.1688],[4.0887,47.1688],[4.0878,47.1689],[4.0873,47.1688],[4.0809,47.1704],[4.0799,47.1706],[4.0792,47.1709],[4.0775,47.1712],[4.0756,47.1719],[4.0655,47.1695]]]},"properties":{"id_ffco":"1064","nom":"Les Ligerons","_dept":"58","numero":"1982-D58-00601","commune":"Montsauche les Settons","echelle":"1/10000","surface":"2.23 km²","format":"A4","annee":"1982","cartographes":"Marcel SAUVAIN,Jacques CHARLES","proprietaire":"BO - Bourgogne","niveau":"Interrégional","specialite":"CO à pied","latitude":"47.1653747213","longitude":"4.07668024704","valide":"Non","ppo":"Non","type_carte":"Nouvelle carte","fond":"IGN","ref_ign":"2823 Ouest","obsolete":true}},{"type":"Feature","geometry":{"type":"Polygon","coordinates":[[[4.0608,47.1749],[4.0611,47.175],[4.0615,47.1752],[4.0617,47.1754],[4.0619,47.1756],[4.0621,47.1758],[4.0622,47.1759],[4.0625,47.1762],[4.0627,47.1763],[4.0631,47.1764],[4.0635,47.1764],[4.0642,47.1762],[4.0644,47.1762],[4.0653,47.1761],[4.0656,47.1761],[4.0657,47.176],[4.0659,47.1759],[4.0661,47.1757],[4.0662,47.1754],[4.0661,47.1753],[4.066,47.1752],[4.0655,47.1752],[4.0649,47.1752],[4.0644,47.175],[4.064,47.1748],[4.0637,47.1747],[4.0628,47.1747],[4.0624,47.1747],[4.0621,47.1747],[4.062,47.1747],[4.062,47.1746],[4.062,47.1745],[4.062,47.1744],[4.0618,47.1742],[4.0617,47.174],[4.0615,47.1739],[4.0612,47.1738],[4.0609,47.1739],[4.0607,47.1741],[4.0604,47.1744],[4.0605,47.1747],[4.0608,47.1749]]]},"properties":{"id_ffco":"1874","nom":"La Grande Ile (Lac des Settons).","_dept":"58","numero":"1982-D58-005","commune":"Montsauche les Settons","echelle":"1/2500","surface":"0.06 km²","format":"A5","annee":"1982","cartographes":"Marcel SAUVAIN","proprietaire":"BO - Bourgogne","niveau":"Initiation, Scolaire","specialite":"CO à pied","latitude":"47.1752987597","longitude":"4.06321768121","valide":"Oui","ppo":"Non","type_carte":"Nouvelle carte","fond":"IGN","ref_ign":"2723 ET","obsolete":true}},{"type":"Feature","geometry":{"type":"Polygon","coordinates":[[[3.4336,46.8805],[3.4346,46.8793],[3.4344,46.8732],[3.4329,46.8707],[3.4364,46.8665],[3.4372,46.866],[3.4362,46.8647],[3.4341,46.866],[3.4335,46.866],[3.4329,46.8659],[3.4325,46.8653],[3.4326,46.8646],[3.4343,46.8639],[3.4358,46.8637],[3.4397,46.8618],[3.4415,46.8605],[3.4434,46.8584],[3.4423,46.857],[3.4471,46.8521],[3.4489,46.8516],[3.4495,46.8511],[3.4493,46.8504],[3.4483,46.8493],[3.4476,46.8492],[3.4473,46.8487],[3.4478,46.8485],[3.4473,46.8463],[3.4511,46.8461],[3.457,46.8468],[3.4579,46.8483],[3.4581,46.8487],[3.458,46.8492],[3.457,46.8521],[3.4561,46.8557],[3.4561,46.8562],[3.4562,46.8566],[3.4565,46.8569],[3.4586,46.8594],[3.4589,46.86],[3.4591,46.8632],[3.4591,46.8644],[3.459,46.8666],[3.459,46.8681],[3.4593,46.8694],[3.4597,46.8702],[3.4601,46.8717],[3.4607,46.8745],[3.4609,46.8751],[3.4619,46.8768],[3.4632,46.8785],[3.464,46.8801],[3.4643,46.8817],[3.4641,46.8826],[3.4637,46.8835],[3.4636,46.8843],[3.4637,46.8856],[3.456,46.8855],[3.4466,46.8855],[3.4466,46.8807],[3.4336,46.8805]]]},"properties":{"id_ffco":"622","nom":"L'Ouche Margot","_dept":"58","numero":"1981-D58-004","commune":"Decize","echelle":"1/15000","surface":"6.42 km²","format":"A4","annee":"1981","cartographes":"PAULUS;PARIS,DEVOUCOUX;BOZEC,MARIOTTE","proprietaire":"BO - Bourgogne","niveau":"Régional","specialite":"CO à pied","latitude":"46.8687973158","longitude":"3.44929997299","valide":"Oui","ppo":"Non","type_carte":"Nouvelle carte","fond":"IGN","ref_ign":"2625 Est","obsolete":true}},{"type":"Feature","geometry":{"type":"Polygon","coordinates":[[[3.4336,46.9022],[3.4345,46.9016],[3.4355,46.9009],[3.4402,46.898],[3.445,46.8951],[3.4457,46.8948],[3.4463,46.8947],[3.4469,46.8948],[3.4488,46.8951],[3.4494,46.8952],[3.4499,46.8951],[3.4503,46.8948],[3.4503,46.8951],[3.4501,46.8959],[3.4505,46.8966],[3.4509,46.8968],[3.4515,46.8969],[3.4522,46.8973],[3.4543,46.898],[3.4554,46.8982],[3.456,46.8981],[3.4566,46.8982],[3.4565,46.8985],[3.4566,46.8988],[3.4569,46.899],[3.4563,46.9007],[3.4556,46.901],[3.455,46.9011],[3.4538,46.9014],[3.4526,46.9022],[3.4531,46.9029],[3.4532,46.9036],[3.4528,46.9042],[3.4522,46.9048],[3.4522,46.9052],[3.4523,46.9056],[3.4519,46.9058],[3.4517,46.9061],[3.4511,46.9062],[3.4508,46.906],[3.4482,46.9068],[3.4481,46.9072],[3.4484,46.9076],[3.4491,46.9076],[3.4497,46.9076],[3.4501,46.9078],[3.4526,46.9099],[3.4557,46.9097],[3.4609,46.91],[3.4608,46.9105],[3.46,46.9109],[3.4596,46.9118],[3.4593,46.9126],[3.4584,46.9132],[3.4557,46.9147],[3.4555,46.9151],[3.4555,46.9155],[3.4555,46.9156],[3.4429,46.9153],[3.4411,46.9159],[3.441,46.9174],[3.4414,46.9188],[3.4413,46.9205],[3.4416,46.922],[3.4415,46.9225],[3.4381,46.9253],[3.4368,46.9264],[3.4367,46.9271],[3.4261,46.9271],[3.426,46.9263],[3.4235,46.9224],[3.422,46.9201],[3.4213,46.9188],[3.4222,46.9154],[3.4233,46.9156],[3.4244,46.9159],[3.4259,46.9157],[3.4264,46.9152],[3.4269,46.9135],[3.4281,46.9122],[3.4284,46.9122],[3.4286,46.9114],[3.4272,46.9112],[3.4263,46.911],[3.4266,46.91],[3.4262,46.909],[3.4255,46.9084],[3.4282,46.9063],[3.4313,46.904],[3.4336,46.9022]]]},"properties":{"id_ffco":"1063","nom":"Bois des Minimes","_dept":"58","numero":"1980-D58-003","commune":"Decize","echelle":"1/15000","surface":"5.52 km²","format":"A4","annee":"1980","cartographes":"M. DEVOUCOUX","proprietaire":"BO - Bourgogne","niveau":"Régional","specialite":"CO à pied","latitude":"46.9112249883","longitude":"3.43934276811","valide":"Oui","ppo":"Non","type_carte":"Nouvelle carte","fond":"IGN","ref_ign":"2625 Est","obsolete":true}},{"type":"Feature","geometry":{"type":"Polygon","coordinates":[[[3.1725,47.0705],[3.1725,47.0724],[3.1711,47.073],[3.1704,47.0733],[3.1697,47.0735],[3.169,47.0737],[3.168,47.0744],[3.1676,47.0749],[3.1671,47.0752],[3.1657,47.0753],[3.1657,47.0754],[3.165,47.0754],[3.1644,47.0755],[3.1638,47.0758],[3.1629,47.0764],[3.1624,47.0767],[3.1611,47.0768],[3.1599,47.0769],[3.1599,47.0771],[3.1602,47.0775],[3.16,47.0776],[3.1586,47.0772],[3.1579,47.0765],[3.1573,47.076],[3.1568,47.076],[3.1564,47.0754],[3.1559,47.0746],[3.1555,47.0748],[3.1555,47.075],[3.1542,47.075],[3.1538,47.0744],[3.1524,47.0748],[3.1514,47.0755],[3.1514,47.0761],[3.1495,47.0762],[3.1493,47.0758],[3.1468,47.0757],[3.1468,47.0688],[3.1485,47.0689],[3.1493,47.0692],[3.15,47.0695],[3.1513,47.0695],[3.1512,47.0692],[3.1504,47.0688],[3.1511,47.0688],[3.1524,47.0684],[3.1529,47.0682],[3.1527,47.0672],[3.1513,47.0671],[3.1512,47.0668],[3.1509,47.0665],[3.1507,47.0653],[3.1505,47.0637],[3.1507,47.0635],[3.1511,47.0635],[3.1516,47.0626],[3.1518,47.0614],[3.1514,47.0613],[3.1516,47.0596],[3.1513,47.0593],[3.1524,47.0589],[3.155,47.0583],[3.157,47.0579],[3.1586,47.0577],[3.159,47.0577],[3.1597,47.0575],[3.1601,47.0573],[3.1612,47.0569],[3.1639,47.0563],[3.165,47.0561],[3.166,47.0559],[3.1657,47.0553],[3.1656,47.0543],[3.1647,47.053],[3.164,47.0527],[3.1628,47.0525],[3.1622,47.0522],[3.1606,47.0506],[3.159,47.0491],[3.1588,47.0481],[3.1583,47.0469],[3.1581,47.0444],[3.1596,47.043],[3.1614,47.0411],[3.1641,47.0404],[3.1645,47.0408],[3.165,47.0407],[3.1653,47.0411],[3.1655,47.041],[3.1657,47.0414],[3.1665,47.0411],[3.1671,47.0418],[3.1689,47.0414],[3.1689,47.0412],[3.17,47.0411],[3.1723,47.0412],[3.1775,47.0405],[3.178,47.0408],[3.1783,47.0405],[3.1785,47.0402],[3.1788,47.04],[3.1792,47.0387],[3.182,47.0397],[3.1844,47.0408],[3.1875,47.0411],[3.1894,47.0405],[3.1892,47.0397],[3.1901,47.0399],[3.1913,47.0403],[3.1924,47.0407],[3.1934,47.0413],[3.194,47.0418],[3.1945,47.0425],[3.195,47.043],[3.1953,47.0437],[3.1966,47.0479],[3.1971,47.0491],[3.1972,47.05],[3.197,47.0511],[3.1965,47.0523],[3.1954,47.0545],[3.1944,47.056],[3.1939,47.0567],[3.1934,47.0575],[3.1931,47.0582],[3.193,47.059],[3.193,47.0599],[3.193,47.064],[3.193,47.0649],[3.1926,47.0657],[3.1921,47.0665],[3.1906,47.0683],[3.189,47.0691],[3.1873,47.069],[3.1853,47.069],[3.179,47.0694],[3.1722,47.0695],[3.1725,47.0705]]]},"properties":{"id_ffco":"9164","nom":"Bois de la Brosse","_dept":"58","numero":"1977-D58-002","commune":"Varennes-Vauzelles","echelle":"1/20000","surface":"10.28 km²","format":"A4","annee":"1977","cartographes":"M. JACQUINET","proprietaire":"BO - Bourgogne","niveau":"Départemental","specialite":"CO à pied","latitude":"47.0575836417","longitude":"3.17340163664","date_saisie":"10/01/2016","valide":"Non","ppo":"Non","type_carte":"Nouvelle carte","fond":"IGN","ref_ign":"2524 Est","obsolete":true}},{"type":"Feature","geometry":{"type":"Polygon","coordinates":[[[3.4968,47.1179],[3.4944,47.1194],[3.4903,47.1191],[3.4884,47.119],[3.4866,47.1185],[3.4837,47.117],[3.4804,47.1157],[3.4776,47.1118],[3.4773,47.1102],[3.476,47.1062],[3.476,47.1022],[3.4762,47.0994],[3.4767,47.0977],[3.4772,47.0967],[3.4775,47.0961],[3.4776,47.0956],[3.4776,47.0949],[3.4783,47.094],[3.4784,47.0935],[3.4787,47.0931],[3.4786,47.0925],[3.4788,47.0918],[3.4791,47.0915],[3.4805,47.0911],[3.4809,47.0898],[3.4808,47.0888],[3.4812,47.087],[3.4818,47.0856],[3.483,47.0851],[3.4836,47.0846],[3.4849,47.0835],[3.4855,47.0825],[3.4859,47.082],[3.4921,47.082],[3.4934,47.083],[3.4973,47.0844],[3.4981,47.0847],[3.4988,47.0848],[3.4991,47.0846],[3.4997,47.0842],[3.5006,47.0839],[3.5012,47.0839],[3.5019,47.084],[3.5024,47.0844],[3.5026,47.0852],[3.5026,47.0862],[3.5028,47.0867],[3.5033,47.0871],[3.5041,47.0873],[3.5137,47.0887],[3.5134,47.09],[3.5136,47.1008],[3.5135,47.1011],[3.5136,47.1014],[3.5139,47.1018],[3.5139,47.102],[3.5135,47.1028],[3.5132,47.1035],[3.5129,47.1039],[3.5128,47.1041],[3.5126,47.1042],[3.5122,47.1042],[3.512,47.1049],[3.5122,47.1051],[3.5122,47.1057],[3.5122,47.1061],[3.5118,47.1068],[3.5114,47.1078],[3.511,47.1086],[3.5106,47.1089],[3.51,47.1091],[3.5096,47.1093],[3.5094,47.1095],[3.5087,47.1105],[3.5081,47.1112],[3.5076,47.1116],[3.5071,47.1117],[3.5059,47.1118],[3.5054,47.1118],[3.5048,47.112],[3.5031,47.1134],[3.5024,47.1141],[3.5014,47.1155],[3.5006,47.116],[3.4998,47.1164],[3.4968,47.1179]]]},"properties":{"id_ffco":"1062","nom":"Saint Saulge","_dept":"58","numero":"1976-D58-001","commune":"Saint Saulge","echelle":"1/20000","surface":"9.07 km²","format":"A4","annee":"1976","cartographes":"Jacques CHARLES","proprietaire":"BO - Bourgogne","niveau":"Interrégional","specialite":"CO à pied","latitude":"47.1005115694","longitude":"3.49419987001","valide":"Oui","ppo":"Non","type_carte":"Nouvelle carte","fond":"IGN","obsolete":true}}]}