{"type":"FeatureCollection","features":[{"type":"Feature","geometry":{"type":"Polygon","coordinates":[[[4.0764,50.1101],[4.071,50.1059],[4.0655,50.0977],[4.0608,50.0921],[4.07,50.0902],[4.0828,50.0931],[4.0947,50.0958],[4.0889,50.1036],[4.0874,50.1047],[4.0856,50.1082],[4.0819,50.109],[4.0798,50.1083],[4.0764,50.1101]]]},"properties":{"id_ffco":"12365","nom":"Liessies Etang de Breucq","_dept":"59","numero":"2000-D59-23","commune":"Liessies","echelle":"1/10000","surface":"3.03 km²","format":"A4","annee":"2000","cartographes":"Michel ALLONSIUS","proprietaire":"59 - Nord","niveau":"Régional","specialite":"CO à pied","contacts":"CDCO59, Maison des sports rue Denis Papin, 59650, Villeneuve d'Ascq, 0638646587, jefecol@orange.fr","latitude":"50.0992123418","longitude":"4.07778654825","date_saisie":"05/12/2020","valide":"Non","ppo":"Non","type_carte":"Nouvelle carte","fond":"IGN","ref_ign":"Top 25","obsolete":false}},{"type":"Feature","geometry":null,"properties":{"id_ffco":"3745","nom":"Le mont des ermites","_dept":"59","numero":"2003-D59-19","commune":"Saint Amand","echelle":"1/10000","surface":"3.5 km²","format":"A5","annee":"2003","cartographes":"Besbot François","proprietaire":"LNO","specialite":"CO à pied","latitude":"50.4480262","longitude":"3.4276906","date_saisie":"21/12/2003","date_depot":"04/01/2004","valide":"Non","ppo":"Non","obsolete":false}},{"type":"Feature","geometry":{"type":"Polygon","coordinates":[[[3.1337,50.3987],[3.1282,50.3989],[3.129,50.3949],[3.126,50.3934],[3.1243,50.3919],[3.1261,50.391],[3.1285,50.3903],[3.1308,50.39],[3.1324,50.3917],[3.1332,50.3926],[3.1337,50.3942],[3.1346,50.3969],[3.1366,50.398],[3.1337,50.3987]]]},"properties":{"id_ffco":"15615","nom":"Douai - Frais Marais","_dept":"59","numero":"2026-D59-128","commune":"Douai","echelle":"1/4000","surface":"0.43 km²","format":"A4","annee":"2026","cartographes":"Louis HALTZ","proprietaire":"59 - Nord","niveau":"Régional","specialite":"Sprint (ISSOM)","contacts":"CDCO59, Maison des sports rue Denis Papin, 59650, Villeneuve d'Ascq, 0638646587, jefecol@orange.fr","latitude":"50.3945371508","longitude":"3.13046385521","date_saisie":"14/04/2026","valide":"Non","ppo":"Non","type_carte":"Nouvelle carte","fond":"Cadastre","obsolete":false}},{"type":"Feature","geometry":{"type":"Polygon","coordinates":[[[3.4079,50.4171],[3.4287,50.411],[3.428,50.4067],[3.4289,50.4036],[3.4257,50.3992],[3.4146,50.3933],[3.3995,50.3954],[3.4049,50.4059],[3.4038,50.408],[3.4079,50.4171]]]},"properties":{"id_ffco":"15578","nom":"Trouée d'Arenberg","_dept":"59","numero":"2025-D59-127","commune":"Hasnon","echelle":"1/10000","surface":"3.65 km²","format":"A4","annee":"2025","cartographes":"Rémi LEQUINT","proprietaire":"59 - Nord","niveau":"Régional","specialite":"CO à pied","contacts":"CDCO59, Maison des sports rue Denis Papin, 59650, Villeneuve d'Ascq, 0638646587, jefecol@orange.fr","latitude":"50.4044690906","longitude":"3.41454265891","date_saisie":"28/03/2026","valide":"Non","ppo":"Non","type_carte":"Nouvelle carte","fond":"Laser","obsolete":false}},{"type":"Feature","geometry":{"type":"Polygon","coordinates":[[[3.4492,50.4344],[3.446,50.431],[3.4412,50.4331],[3.44,50.4311],[3.4407,50.4289],[3.4438,50.4256],[3.4449,50.4253],[3.4456,50.4258],[3.4471,50.4253],[3.4499,50.4222],[3.4534,50.4169],[3.4557,50.4148],[3.4636,50.4175],[3.4693,50.4239],[3.4718,50.4312],[3.4658,50.4337],[3.4659,50.4348],[3.465,50.4352],[3.4629,50.4353],[3.464,50.4348],[3.464,50.4343],[3.4631,50.4339],[3.4606,50.434],[3.4546,50.4355],[3.453,50.4331],[3.4492,50.4344]]]},"properties":{"id_ffco":"15519","nom":"St-Amand Mont des Bruyères","_dept":"59","numero":"2026-D59-126","commune":"St Amand les Eaux","echelle":"1/10000","surface":"3.06 km²","format":"A3","annee":"2026","cartographes":"Rémi LEQUINT","proprietaire":"59 - Nord","niveau":"National, International","specialite":"CO à pied","latitude":"50.4265179818","longitude":"3.4572467656","date_saisie":"01/03/2026","valide":"Non","ppo":"Non","type_carte":"Reprise","base":"2014-D59-0084 Saint-Amand-les-Eaux - Le Mont des Bruyères","fond":"Ortho","obsolete":false}},{"type":"Feature","geometry":{"type":"Polygon","coordinates":[[[3.1224,50.7904],[3.12,50.7914],[3.1171,50.7928],[3.1152,50.794],[3.1141,50.7944],[3.1125,50.7949],[3.1109,50.794],[3.1105,50.7937],[3.1121,50.7927],[3.1128,50.7918],[3.113,50.7909],[3.1142,50.7894],[3.1146,50.7891],[3.1168,50.7895],[3.1195,50.7899],[3.1213,50.7901],[3.1224,50.7904]]]},"properties":{"id_ffco":"15277","nom":"Parc du port fluvial","_dept":"59","numero":"2025-D59-125","commune":"Halluin","echelle":"1/3000","surface":"0.24 km²","format":"A4","annee":"2025","niveau":"Initiation, Scolaire","specialite":"CO à pied","latitude":"50.7917431937","longitude":"3.11572448089","date_saisie":"25/10/2025","valide":"Non","ppo":"Non","type_carte":"Nouvelle carte","fond":"Ortho","obsolete":false}},{"type":"Feature","geometry":{"type":"Polygon","coordinates":[[[3.1036,50.7738],[3.1043,50.7731],[3.1052,50.7726],[3.1067,50.7724],[3.1084,50.7727],[3.1094,50.773],[3.11,50.7735],[3.1103,50.7735],[3.1117,50.7745],[3.1111,50.7751],[3.1098,50.7748],[3.1083,50.7743],[3.1067,50.7739],[3.1047,50.774],[3.104,50.7741],[3.1036,50.7738]]]},"properties":{"id_ffco":"15276","nom":"Parc du Colbras","_dept":"59","numero":"2025-D59-124","commune":"Halluin","echelle":"1/2000","surface":"0.08 km²","format":"A4","annee":"2025","niveau":"Initiation, Scolaire","specialite":"CO à pied","latitude":"50.7736178134","longitude":"3.10773058844","date_saisie":"25/10/2025","valide":"Non","ppo":"Non","type_carte":"Nouvelle carte","fond":"Ortho","obsolete":false}},{"type":"Feature","geometry":{"type":"Polygon","coordinates":[[[3.0472,50.7682],[3.0435,50.7682],[3.0437,50.7677],[3.0429,50.7674],[3.043,50.7665],[3.0417,50.7647],[3.0406,50.763],[3.0408,50.7611],[3.0429,50.7613],[3.0428,50.762],[3.0438,50.7622],[3.0441,50.7637],[3.0474,50.7641],[3.0476,50.7662],[3.0475,50.767],[3.0472,50.7682]]]},"properties":{"id_ffco":"15275","nom":"Parc Dalle Dumont","_dept":"59","numero":"2025-D59-123","commune":"Wervicq Sud","echelle":"1/3000","surface":"0.23 km²","format":"A4","annee":"2025","niveau":"Initiation, Scolaire","specialite":"CO à pied","latitude":"50.7650197734","longitude":"3.04422637814","date_saisie":"25/10/2025","valide":"Non","ppo":"Non","type_carte":"Nouvelle carte","fond":"IGN","obsolete":false}},{"type":"Feature","geometry":{"type":"Polygon","coordinates":[[[3.4319,50.4148],[3.4292,50.4117],[3.4119,50.4171],[3.4081,50.4205],[3.4095,50.4229],[3.4113,50.4242],[3.4094,50.4272],[3.4115,50.4283],[3.4183,50.4295],[3.4216,50.4271],[3.4255,50.4258],[3.4274,50.4264],[3.4318,50.4267],[3.4336,50.4286],[3.4376,50.4278],[3.44,50.4276],[3.444,50.4244],[3.4458,50.4221],[3.4446,50.4175],[3.4444,50.4156],[3.4436,50.4153],[3.4425,50.4158],[3.441,50.417],[3.4401,50.4169],[3.439,50.4165],[3.437,50.416],[3.4344,50.4158],[3.4319,50.4148]]]},"properties":{"id_ffco":"14910","nom":"Les Trois Abbés","_dept":"59","numero":"2025-D59-122","commune":"Saint-Amand-les-Eaux","echelle":"1/10000","surface":"3.43 km²","format":"A4","annee":"2025","cartographes":"Rémi LEQUINT","proprietaire":"59 - Nord","niveau":"Régional","specialite":"CO à pied","contacts":"CDCO59, Maison des sports rue Denis Papin, 59650, Villeneuve d'Ascq, 0638646587, jefecol@orange.fr","latitude":"50.4211906188","longitude":"3.42684344126","date_saisie":"18/02/2025","valide":"Non","ppo":"Non","type_carte":"Nouvelle carte","fond":"Cadastre","obsolete":false}},{"type":"Feature","geometry":{"type":"Polygon","coordinates":[[[2.1117,51.0004],[2.1109,51.0023],[2.1127,51.0034],[2.1149,51.0047],[2.1183,51.0054],[2.1204,51.0029],[2.1224,51.0011],[2.1256,50.9987],[2.1285,50.9967],[2.1259,50.9948],[2.1217,50.9924],[2.117,50.9965],[2.1117,51.0004]]]},"properties":{"id_ffco":"14699","nom":"Gravelines Nord","_dept":"59","numero":"2024-D59-121","commune":"Gravelines","echelle":"1/4000","surface":"0.84 km²","format":"A4","annee":"2024","cartographes":"Gautier FLANDRIN","proprietaire":"62 - Pas-de-Calais","niveau":"Régional","specialite":"Sprint (ISSOM)","contacts":"CDCO 62, courseorientation62@gmail.com","latitude":"50.9991188062","longitude":"2.11937779761","date_saisie":"23/10/2024","valide":"Non","ppo":"Non","type_carte":"Nouvelle carte","fond":"Cadastre","obsolete":false}},{"type":"Feature","geometry":{"type":"Polygon","coordinates":[[[3.1496,50.6462],[3.1493,50.6458],[3.1478,50.6444],[3.1482,50.641],[3.1487,50.6399],[3.1493,50.6394],[3.1484,50.6385],[3.1516,50.6376],[3.1525,50.6371],[3.1544,50.6375],[3.1542,50.6387],[3.1549,50.6399],[3.1573,50.6422],[3.1581,50.6436],[3.1584,50.6446],[3.157,50.6446],[3.1559,50.6448],[3.1558,50.6455],[3.1545,50.6462],[3.1496,50.6462]]]},"properties":{"id_ffco":"14498","nom":"Cousinerie ouest","_dept":"59","numero":"2024-D59-120","commune":"Villeneuve d'Ascq","echelle":"1/4000","surface":"0.52 km²","format":"A4","annee":"2024","proprietaire":"5906 - VILLENEUVE D'ASCQ LILLE METROPOLE ORIENTATION","niveau":"Régional","specialite":"CO à pied","latitude":"50.6422124534","longitude":"3.15241118565","date_saisie":"03/06/2024","valide":"Non","ppo":"Non","type_carte":"Extrait","base":"2012-D59-0077 Cousinerie","fond":"Cadastre","obsolete":false}},{"type":"Feature","geometry":{"type":"Polygon","coordinates":[[[3.1328,50.6509],[3.131,50.6508],[3.1293,50.6499],[3.1279,50.6485],[3.1289,50.6466],[3.1314,50.6462],[3.1333,50.6453],[3.1347,50.644],[3.1367,50.6436],[3.1392,50.6436],[3.1387,50.6451],[3.1382,50.6462],[3.1382,50.6476],[3.1376,50.6478],[3.1382,50.6485],[3.1328,50.6509]]]},"properties":{"id_ffco":"14497","nom":"Villeneuve d'Ascq Les Près","_dept":"59","numero":"2024-D59-119","commune":"Villeneuve d'Ascq","echelle":"1/4000","surface":"0.39 km²","format":"A4","annee":"2024","cartographes":"Papin Philippe","proprietaire":"5906 - VILLENEUVE D'ASCQ LILLE METROPOLE ORIENTATION","niveau":"Régional","specialite":"CO à pied","latitude":"50.6473718187","longitude":"3.13384245212","date_saisie":"03/06/2024","valide":"Non","ppo":"Non","type_carte":"Nouvelle carte","fond":"Cadastre","obsolete":false}},{"type":"Feature","geometry":{"type":"Polygon","coordinates":[[[2.4549,50.9668],[2.4547,50.9691],[2.4526,50.9691],[2.4517,50.974],[2.4535,50.9743],[2.4535,50.9762],[2.4565,50.9771],[2.4572,50.979],[2.4556,50.9807],[2.451,50.98],[2.448,50.9783],[2.4387,50.9741],[2.448,50.9671],[2.4495,50.9671],[2.4549,50.9668]]]},"properties":{"id_ffco":"14423","nom":"HOYMILLE","_dept":"59","numero":"2024-D59-118","commune":"Hoymille","echelle":"1/4000","surface":"1.01 km²","format":"A4","annee":"2024","cartographes":"Rémi LEQUINT","proprietaire":"5909 - CAPONORD, SPORTS D'ORIENTATION","niveau":"Régional","specialite":"Sprint (ISSOM)","contacts":"CapOnord, Sports d'orientation, contact@caponord-sport-orientation.fr","latitude":"50.9737208017","longitude":"2.44883493806","date_saisie":"28/03/2024","date_depot":"11/12/2024","valide":"Oui","ppo":"Non","type_carte":"Nouvelle carte","fond":"Cadastre","obsolete":false}},{"type":"Feature","geometry":{"type":"Polygon","coordinates":[[[2.4541,51.0137],[2.4518,51.0174],[2.4501,51.0192],[2.4474,51.021],[2.4438,51.024],[2.4408,51.0226],[2.4397,51.0222],[2.4344,51.0209],[2.4287,51.0179],[2.4268,51.017],[2.4293,51.0143],[2.4368,51.0133],[2.4495,51.0132],[2.4541,51.0137]]]},"properties":{"id_ffco":"14422","nom":"TETEGHEM","_dept":"59","numero":"2024-D59-117","commune":"Teteghem","echelle":"1/4000","surface":"1.42 km²","format":"A4","annee":"2024","cartographes":"Rémi LEQUINT","proprietaire":"5909 - CAPONORD, SPORTS D'ORIENTATION","niveau":"Régional","specialite":"Sprint (ISSOM)","contacts":"CapOnord, Sports d'orientation, contact@caponord-sport-orientation.fr","latitude":"51.0173600556","longitude":"2.44086515149","date_saisie":"28/03/2024","date_depot":"11/12/2024","valide":"Oui","ppo":"Non","type_carte":"Nouvelle carte","fond":"Ortho","obsolete":false}},{"type":"Feature","geometry":{"type":"Polygon","coordinates":[[[2.4387,50.9737],[2.4479,50.9669],[2.4535,50.9664],[2.4552,50.9673],[2.4545,50.9686],[2.4532,50.9693],[2.4518,50.9742],[2.4556,50.9752],[2.4526,50.9804],[2.4488,50.9796],[2.4387,50.9737]]]},"properties":{"id_ffco":"14364","nom":"Hoymille","_dept":"59","numero":"2024-D59-116","commune":"Hoymille","echelle":"1/4000","surface":"1.03 km²","format":"A3","annee":"2024","cartographes":"Rémi LEQUINT","proprietaire":"5909 - CAPONORD, SPORTS D'ORIENTATION","niveau":"Régional","specialite":"CO à pied","contacts":"CapOnord, Sports d'orientation, contact@caponord-sport-orientation.fr","latitude":"50.9732627497","longitude":"2.44832380192","date_saisie":"12/02/2024","valide":"Non","ppo":"Non","type_carte":"Nouvelle carte","fond":"Ortho","obsolete":false}},{"type":"Feature","geometry":{"type":"Polygon","coordinates":[[[3.0284,50.6356],[3.0254,50.6336],[3.0241,50.6352],[3.0212,50.6344],[3.0174,50.6326],[3.0201,50.63],[3.0195,50.6261],[3.0205,50.6255],[3.0269,50.6271],[3.0297,50.6291],[3.0328,50.6315],[3.0321,50.6323],[3.0301,50.635],[3.0284,50.6356]]]},"properties":{"id_ffco":"14149","nom":"Lille Bois-Blanc","_dept":"59","numero":"2023-D59-115","commune":"Lille","echelle":"1/4000","surface":"0.73 km²","format":"A3","annee":"2023","cartographes":"Rémi Lequint / ISOHYPSE,Ludovic Mamet (Valmo)","proprietaire":"59 - Nord","niveau":"Régional","specialite":"CO à pied","contacts":"CDCO59, Maison des sports rue Denis Papin, 59650, Villeneuve d'Ascq, 0638646587, jefecol@orange.fr","latitude":"50.6308767948","longitude":"3.0249088076","date_saisie":"22/11/2023","valide":"Non","ppo":"Non","type_carte":"Nouvelle carte","fond":"Cadastre","obsolete":false}},{"type":"Feature","geometry":{"type":"Polygon","coordinates":[[[3.0808,50.3631],[3.0786,50.3628],[3.0675,50.3653],[3.0641,50.3674],[3.0636,50.3704],[3.0673,50.3737],[3.0736,50.3777],[3.0785,50.38],[3.0842,50.3811],[3.0887,50.3806],[3.0913,50.3791],[3.0898,50.3775],[3.0894,50.3711],[3.0898,50.3688],[3.0881,50.3669],[3.0901,50.3651],[3.0885,50.3639],[3.0868,50.3636],[3.0851,50.3639],[3.0808,50.3631]]]},"properties":{"id_ffco":"13567","nom":"Douai Centre ville","_dept":"59","numero":"2022-D59-114","commune":"Douai","echelle":"1/4000","surface":"2.81 km²","format":"+","annee":"2022","cartographes":"Rémi LEQUINT,Pierre MAHIEU","proprietaire":"59 - Nord","niveau":"Régional","specialite":"CO à pied","contacts":"CDCO59, Maison des sports rue Denis Papin, 59650, Villeneuve d'Ascq, 0638646587, jefecol@orange.fr","latitude":"50.3714464287","longitude":"3.07874153635","date_saisie":"11/09/2022","date_depot":"18/01/2023","valide":"Oui","ppo":"Non","type_carte":"Nouvelle carte","fond":"Cadastre","obsolete":false}},{"type":"Feature","geometry":{"type":"Polygon","coordinates":[[[3.0839,50.6692],[3.0856,50.6678],[3.0885,50.6677],[3.0903,50.6696],[3.0916,50.67],[3.0926,50.67],[3.0922,50.6713],[3.0916,50.6719],[3.0955,50.6735],[3.0934,50.6752],[3.0913,50.6768],[3.0877,50.6751],[3.0846,50.6743],[3.0847,50.6721],[3.084,50.6711],[3.0839,50.6692]]]},"properties":{"id_ffco":"13020","nom":"Marcq en Baroeul Haute Loge","_dept":"59","numero":"2021-D59-113","commune":"Marcq en Baroeul","echelle":"1/4000","surface":"0.48 km²","format":"A4","annee":"2021","cartographes":"Laurent Bizot,Papin Philippe","proprietaire":"5906 - VILLENEUVE D'ASCQ LILLE METROPOLE ORIENTATION","niveau":"Interrégional","specialite":"Sprint (ISSOM)","latitude":"50.6721655821","longitude":"3.08884207387","date_saisie":"14/11/2021","valide":"Non","ppo":"Non","type_carte":"Nouvelle carte","fond":"Cadastre","obsolete":false}},{"type":"Feature","geometry":{"type":"Polygon","coordinates":[[[3.1392,50.6436],[3.143,50.6438],[3.1431,50.6443],[3.1439,50.6447],[3.1447,50.6457],[3.1453,50.6461],[3.1454,50.6474],[3.145,50.6474],[3.1439,50.6473],[3.1432,50.6483],[3.1398,50.6489],[3.1385,50.6484],[3.138,50.6477],[3.1381,50.6462],[3.1392,50.6438],[3.1392,50.6436]]]},"properties":{"id_ffco":"12889","nom":"Decathlon Campus","_dept":"59","numero":"2018-D59-112","commune":"Villeneuve d'Ascq","echelle":"1/3000","surface":"0.22 km²","format":"A4","annee":"2018","cartographes":"Papin Philippe","niveau":"Initiation, Scolaire","specialite":"CO à pied","latitude":"50.6462552484","longitude":"3.14131404509","date_saisie":"21/09/2021","valide":"Non","ppo":"Non","type_carte":"Nouvelle carte","fond":"Ortho","obsolete":false}},{"type":"Feature","geometry":null,"properties":{"id_ffco":"12879","nom":"Decathlon Campus","_dept":"59","numero":"2021-D59-111","surface":"None km²","annee":"2021","date_saisie":"14/09/2021","valide":"Non","ppo":"Non","obsolete":false}},{"type":"Feature","geometry":{"type":"Polygon","coordinates":[[[2.3658,51.0506],[2.3719,51.0507],[2.3782,51.0499],[2.3808,51.0481],[2.3826,51.0474],[2.3841,51.0467],[2.385,51.0456],[2.3859,51.0445],[2.3866,51.0434],[2.3867,51.042],[2.3868,51.0401],[2.3872,51.0386],[2.3881,51.0373],[2.3883,51.036],[2.3868,51.0341],[2.385,51.0325],[2.3842,51.0322],[2.3827,51.0296],[2.3813,51.0282],[2.38,51.0273],[2.3786,51.0279],[2.3776,51.0274],[2.3761,51.0271],[2.3754,51.0281],[2.3712,51.0274],[2.3693,51.0269],[2.3664,51.0269],[2.3662,51.0278],[2.366,51.029],[2.3664,51.0299],[2.3658,51.0317],[2.3652,51.0333],[2.3643,51.0344],[2.3676,51.0382],[2.369,51.0396],[2.3675,51.0436],[2.366,51.0461],[2.3658,51.0506]]]},"properties":{"id_ffco":"12312","nom":"Dunkerque","_dept":"59","numero":"2020-D59-107","commune":"Dunkerque","echelle":"1/7500","surface":"3.29 km²","format":"A3","annee":"2020","cartographes":"Rémi LEQUINT","proprietaire":"5909 - CAPONORD, SPORTS D'ORIENTATION","niveau":"Régional","specialite":"CO à pied","contacts":"CapOnord, Sports d'orientation, contact@caponord-sport-orientation.fr","latitude":"51.0386859528","longitude":"2.3757678005","date_saisie":"21/11/2020","date_depot":"08/12/2020","valide":"Oui","ppo":"Non","type_carte":"Nouvelle carte","fond":"Cadastre","obsolete":false}},{"type":"Feature","geometry":null,"properties":{"id_ffco":"3242","nom":"LE LURON","_dept":"59","numero":"1996-D59-09","commune":"ST AMAND LES EAUX","echelle":"1/10000","surface":"4.0 km²","annee":"1996","niveau":"Interrégional","specialite":"CO à pied","latitude":"50.4480262","longitude":"3.4276906","valide":"Non","ppo":"Non","obsolete":false}},{"type":"Feature","geometry":null,"properties":{"id_ffco":"3744","nom":"LE JARDIN DES PLANTES","_dept":"59","numero":"2002-D59-08","commune":"Lille","echelle":"1/3000","surface":"0.15 km²","annee":"2002","cartographes":"Benjamin Deceuninck","proprietaire":"LNO","specialite":"CO à pied","latitude":"50.6371834","longitude":"3.0630174","date_saisie":"21/12/2003","date_depot":"04/01/2004","valide":"Non","ppo":"Non","obsolete":false}},{"type":"Feature","geometry":null,"properties":{"id_ffco":"3225","nom":"FORET DE MORMAL","_dept":"59","numero":"1998-D59-04","commune":"LE QUESNOY","echelle":"1/15000","surface":"3.0 km²","annee":"1998","niveau":"Interrégional","specialite":"CO à pied","latitude":"50.2476526","longitude":"3.6385154","valide":"Non","ppo":"Non","obsolete":false}},{"type":"Feature","geometry":null,"properties":{"id_ffco":"2473","nom":"GARE D'EAU","_dept":"59","numero":"1991-D59-04","commune":"LA BASSEE","echelle":"1/5000","surface":"0.5 km²","annee":"1991","proprietaire":"NO","specialite":"CO à pied","latitude":"50.5311245","longitude":"2.8024011","valide":"Non","ppo":"Non","obsolete":false}},{"type":"Feature","geometry":null,"properties":{"id_ffco":"3742","nom":"Bois de Lewarde","_dept":"59","numero":"2001-D59-03","commune":"Le Wardes","echelle":"1/5000","surface":"0.25 km²","annee":"2001","cartographes":"JF Loterie,JL Korus","proprietaire":"LNO","specialite":"CO à pied","latitude":"50.3851246","longitude":"3.2642436","date_saisie":"21/12/2003","date_depot":"04/01/2004","valide":"Non","ppo":"Non","obsolete":false}},{"type":"Feature","geometry":null,"properties":{"id_ffco":"3216","nom":"L'ERMITAGE","_dept":"59","numero":"1997-D59-02","echelle":"1/10000","surface":"3.0 km²","annee":"1997","specialite":"CO à pied","latitude":"50.3851246","longitude":"3.2642436","valide":"Non","ppo":"Non","obsolete":false}},{"type":"Feature","geometry":{"type":"Polygon","coordinates":[[[3.4791,50.3987],[3.4736,50.4073],[3.4696,50.4065],[3.4655,50.4124],[3.4618,50.4169],[3.4638,50.4175],[3.4695,50.424],[3.4719,50.4313],[3.4812,50.4326],[3.4927,50.4353],[3.4962,50.4277],[3.4984,50.4228],[3.4972,50.4227],[3.4935,50.4233],[3.4919,50.4218],[3.5006,50.4184],[3.512,50.4233],[3.5141,50.4173],[3.5107,50.4145],[3.5055,50.408],[3.5066,50.4057],[3.5073,50.4044],[3.505,50.4042],[3.5026,50.4015],[3.4969,50.3992],[3.4913,50.3972],[3.4884,50.4005],[3.485,50.3972],[3.4799,50.3976],[3.4791,50.3987]]]},"properties":{"id_ffco":"12585","nom":"Etoile de la Princesse","_dept":"59","numero":"2021-D59-0110","commune":"Raismes","echelle":"1/15000","surface":"9.12 km²","format":"A3","annee":"2021","cartographes":"Rémi LEQUINT","proprietaire":"5907 - TOUS AZIMUTS DOUAI","niveau":"National, International","specialite":"CO à pied","contacts":"CDCO59, Maison des sports rue Denis Papin, 59650, Villeneuve d'Ascq, 0638646587, jefecol@orange.fr","latitude":"50.4153861903","longitude":"3.48702147601","date_saisie":"29/01/2021","date_depot":"08/06/2021","valide":"Oui","ppo":"Non","type_carte":"Reprise","base":"2016-D59-0090 Raismes L'Etoile de la Princesse","fond":"IGN","ref_ign":"Top 25","obsolete":false}},{"type":"Feature","geometry":{"type":"Polygon","coordinates":[[[3.2721,50.4379],[3.2705,50.4417],[3.2778,50.4415],[3.2829,50.4422],[3.2869,50.4445],[3.2936,50.444],[3.2953,50.4455],[3.3041,50.4438],[3.3088,50.4446],[3.3154,50.4433],[3.3154,50.4373],[3.3137,50.4354],[3.3136,50.4324],[3.3099,50.4277],[3.3101,50.4256],[3.3085,50.4235],[3.3066,50.4228],[3.3026,50.4228],[3.298,50.4228],[3.2971,50.4186],[3.2936,50.4186],[3.292,50.4213],[3.2849,50.4206],[3.2836,50.4192],[3.277,50.4198],[3.2682,50.4206],[3.2665,50.421],[3.2638,50.4319],[3.2676,50.4366],[3.2698,50.4378],[3.2721,50.4379]]]},"properties":{"id_ffco":"12355","nom":"Forêt de Marchiennes","_dept":"59","numero":"2017-D59-0109","commune":"Marchiennes","echelle":"1/10000","surface":"8.19 km²","format":"+","annee":"2017","cartographes":"Rémi LEQUINT","proprietaire":"59 - Nord","niveau":"Régional","specialite":"CO à pied","latitude":"50.432219785","longitude":"3.28981434872","date_saisie":"01/12/2020","date_depot":"19/01/2021","valide":"Oui","ppo":"Non","type_carte":"Reprise","base":"2012-D59-0067 Marchiennes","fond":"IGN","ref_ign":"Top 25","obsolete":false}},{"type":"Feature","geometry":{"type":"Polygon","coordinates":[[[3.7186,50.2034],[3.7201,50.2116],[3.7203,50.2123],[3.7255,50.2139],[3.7379,50.2069],[3.7313,50.2],[3.7216,50.2006],[3.7186,50.2034]]]},"properties":{"id_ffco":"12354","nom":"Locquignol - La Traperie","_dept":"59","numero":"2014-D59-0108","commune":"Locquignol","echelle":"1/10000","surface":"1.42 km²","format":"A5","annee":"2014","cartographes":"Jiri Danek (2002),Remi Lequint (2014)","proprietaire":"59 - Nord","niveau":"Régional","specialite":"CO à pied","contacts":"CDCO59, Maison des sports rue Denis Papin, 59650, Villeneuve d'Ascq, 0638646587, jefecol@orange.fr","latitude":"50.2063779634","longitude":"3.72697574263","date_saisie":"01/12/2020","date_depot":"19/01/2021","valide":"Oui","ppo":"Non","type_carte":"Nouvelle carte","fond":"IGN","ref_ign":"Top 25","obsolete":false}},{"type":"Feature","geometry":{"type":"Polygon","coordinates":[[[3.1342,50.3667],[3.1348,50.3661],[3.1358,50.3639],[3.136,50.3636],[3.14,50.3643],[3.141,50.365],[3.1423,50.3659],[3.1425,50.3668],[3.1416,50.3682],[3.1409,50.3697],[3.1398,50.3713],[3.1352,50.3678],[3.1339,50.3668],[3.1342,50.3667]]]},"properties":{"id_ffco":"12289","nom":"Dechy - Le camp des indiens","_dept":"59","numero":"2016-D59-0106","commune":"Dechy","echelle":"1/5000","surface":"0.3 km²","format":"A5","annee":"2016","cartographes":"Rémi LEQUINT","proprietaire":"59 - Nord","niveau":"Initiation, Scolaire","specialite":"CO à pied","contacts":"CDCO59, Maison des sports rue Denis Papin, 59650, Villeneuve d'Ascq, 0638646587, jefecol@orange.fr","latitude":"50.3669860383","longitude":"3.13851013181","date_saisie":"15/11/2020","date_depot":"19/01/2021","valide":"Oui","ppo":"Non","type_carte":"Nouvelle carte","fond":"Ortho","obsolete":false}},{"type":"Feature","geometry":{"type":"Polygon","coordinates":[[[3.0438,50.448],[3.0403,50.45],[3.0389,50.4503],[3.0377,50.4506],[3.0367,50.4529],[3.0384,50.4539],[3.0412,50.4554],[3.0428,50.4567],[3.0455,50.4564],[3.0468,50.457],[3.0503,50.4575],[3.0523,50.4581],[3.059,50.4582],[3.0591,50.4565],[3.0619,50.4544],[3.0553,50.452],[3.0537,50.4537],[3.0523,50.4543],[3.0524,50.4526],[3.0489,50.4515],[3.0461,50.4505],[3.0443,50.4496],[3.0438,50.448]]]},"properties":{"id_ffco":"12278","nom":"Leforest - Bois du Court Digeau","_dept":"59","numero":"2016-D59-0105","commune":"Leforest","echelle":"1/7500","surface":"1.0 km²","format":"A4","annee":"2016","cartographes":"Rémi LEQUINT","proprietaire":"59 - Nord","niveau":"Initiation, Scolaire","specialite":"CO à pied","contacts":"CDCO59, Maison des sports rue Denis Papin, 59650, Villeneuve d'Ascq, 0638646587, jefecol@orange.fr","latitude":"50.4540228263","longitude":"3.04855976468","date_saisie":"10/11/2020","date_depot":"19/01/2021","valide":"Oui","ppo":"Non","type_carte":"Nouvelle carte","fond":"IGN","ref_ign":"Top 25","obsolete":false}},{"type":"Feature","geometry":{"type":"Polygon","coordinates":[[[3.247,50.3737],[3.2499,50.3784],[3.2513,50.379],[3.2524,50.3797],[3.2542,50.3802],[3.2552,50.3812],[3.2546,50.3827],[3.253,50.3847],[3.2515,50.3857],[3.2495,50.3861],[3.2472,50.386],[3.2439,50.3866],[3.2408,50.3871],[3.2377,50.3828],[3.2348,50.3808],[3.2345,50.3801],[3.2382,50.3775],[3.2406,50.3759],[3.2436,50.3746],[3.247,50.3737]]]},"properties":{"id_ffco":"12277","nom":"Rieulay - Terril des Argales","_dept":"59","numero":"2016-D59-0104","commune":"Rieulay","echelle":"1/5000","surface":"1.29 km²","format":"+","annee":"2016","cartographes":"Rémi LEQUINT","proprietaire":"59 - Nord","niveau":"Initiation, Scolaire","specialite":"CO à pied","contacts":"CDCO59, Maison des sports rue Denis Papin, 59650, Villeneuve d'Ascq, 0638646587, jefecol@orange.fr","latitude":"50.3809589921","longitude":"3.24491994965","date_saisie":"10/11/2020","date_depot":"19/01/2021","valide":"Oui","ppo":"Non","type_carte":"Nouvelle carte","fond":"Ortho","obsolete":false}},{"type":"Feature","geometry":{"type":"Polygon","coordinates":[[[3.0619,50.3334],[3.0613,50.3326],[3.0597,50.3336],[3.0563,50.3372],[3.0568,50.3379],[3.0573,50.3387],[3.0626,50.3414],[3.0649,50.3411],[3.0661,50.3383],[3.065,50.3369],[3.0639,50.3339],[3.0619,50.3334]]]},"properties":{"id_ffco":"12276","nom":"Courchelettes - Le grand carré","_dept":"59","numero":"2015-D59-0103","commune":"Courchelettes","echelle":"1/5000","surface":"0.41 km²","format":"A4","annee":"2015","cartographes":"Rémi LEQUINT","proprietaire":"59 - Nord","niveau":"Initiation, Scolaire","specialite":"CO à pied","contacts":"CDCO59, Maison des sports rue Denis Papin, 59650, Villeneuve d'Ascq, 0638646587, jefecol@orange.fr","latitude":"50.3373133662","longitude":"3.06151361689","date_saisie":"10/11/2020","date_depot":"19/01/2021","valide":"Oui","ppo":"Non","type_carte":"Nouvelle carte","fond":"IGN","ref_ign":"Top 25","obsolete":false}},{"type":"Feature","geometry":{"type":"Polygon","coordinates":[[[3.1435,50.6528],[3.1447,50.6531],[3.1471,50.6555],[3.1474,50.6566],[3.1483,50.6576],[3.1486,50.6587],[3.147,50.6595],[3.1463,50.6603],[3.1446,50.6587],[3.1423,50.6595],[3.142,50.6592],[3.1392,50.6603],[3.1384,50.6592],[3.136,50.6605],[3.1348,50.6593],[3.1342,50.6583],[3.1374,50.6553],[3.141,50.6536],[3.1435,50.6528]]]},"properties":{"id_ffco":"12261","nom":"Babylone","_dept":"59","numero":"2020-D59-0102","commune":"Villeneuve d'Ascq","echelle":"1/4000","surface":"0.53 km²","format":"A4","annee":"2020","cartographes":"Papin Philippe","proprietaire":"5906 - VILLENEUVE D'ASCQ LILLE METROPOLE ORIENTATION","niveau":"Régional","specialite":"Sprint (ISSOM)","contacts":"CDCO59, Maison des sports rue Denis Papin, 59650, Villeneuve d'Ascq, 0638646587, jefecol@orange.fr // VALMO, 78/1 rue du pavé bleu, 59650, Villeneuve d'Ascq, contact@valmo.net, http://www.valmo.net/","latitude":"50.656955128","longitude":"3.14168282017","date_saisie":"07/11/2020","date_depot":"19/01/2021","valide":"Oui","ppo":"Non","type_carte":"Nouvelle carte","fond":"Cadastre","obsolete":false}},{"type":"Feature","geometry":{"type":"Polygon","coordinates":[[[3.1406,50.6317],[3.1414,50.6314],[3.1423,50.6317],[3.1432,50.6329],[3.1551,50.6324],[3.1555,50.6354],[3.1569,50.6381],[3.1527,50.6374],[3.1519,50.6379],[3.1483,50.6387],[3.1474,50.6378],[3.144,50.6371],[3.1426,50.6372],[3.1412,50.6336],[3.1406,50.6317]]]},"properties":{"id_ffco":"12282","nom":"Parc St Jean","_dept":"59","numero":"2020-D59-0101","commune":"Villeneuve d'Ascq","echelle":"1/4000","surface":"0.58 km²","format":"A4","annee":"2020","cartographes":"Papin Philippe,Dickburt Michel","proprietaire":"5906 - VILLENEUVE D'ASCQ LILLE METROPOLE ORIENTATION","niveau":"Départemental","specialite":"CO à pied","contacts":"VALMO, 78/1 rue du pavé bleu, 59650, Villeneuve d'Ascq, contact@valmo.net, http://www.valmo.net/","latitude":"50.6351465728","longitude":"3.14875138003","date_saisie":"11/11/2020","date_depot":"19/01/2021","valide":"Oui","ppo":"Non","type_carte":"Reprise","base":"????-D59- Parc St. Jean","fond":"Ortho","obsolete":false}},{"type":"Feature","geometry":{"type":"Polygon","coordinates":[[[3.1364,50.6271],[3.134,50.6281],[3.1332,50.6281],[3.13,50.6266],[3.1292,50.6271],[3.1274,50.6263],[3.1265,50.627],[3.1251,50.6266],[3.1234,50.6255],[3.1234,50.6243],[3.1243,50.6237],[3.1269,50.6231],[3.1262,50.6224],[3.1254,50.6209],[3.1256,50.6201],[3.1292,50.6201],[3.1315,50.6204],[3.1319,50.6236],[3.1345,50.6235],[3.1351,50.6251],[3.1363,50.6264],[3.1364,50.6271]]]},"properties":{"id_ffco":"12283","nom":"Pont-de-Bois","_dept":"59","numero":"2019-D59-0100","commune":"Villeneuve d'Ascq","echelle":"1/4000","surface":"0.48 km²","format":"A4","annee":"2019","cartographes":"Papin Philippe,Mamet Ludovic","proprietaire":"5906 - VILLENEUVE D'ASCQ LILLE METROPOLE ORIENTATION","niveau":"Régional","specialite":"CO à pied","contacts":"VALMO, 78/1 rue du pavé bleu, 59650, Villeneuve d'Ascq, contact@valmo.net, http://www.valmo.net/","latitude":"50.624285812","longitude":"3.12968210084","date_saisie":"11/11/2020","date_depot":"19/01/2021","valide":"Oui","ppo":"Non","type_carte":"Nouvelle carte","fond":"Cadastre","obsolete":false}},{"type":"Feature","geometry":null,"properties":{"id_ffco":"2471","nom":"LILLE - BOIS DE BOULOGNE","_dept":"59","numero":"1991-D59-01","commune":"LILLE","echelle":"1/8000","surface":"1.0 km²","annee":"1991","proprietaire":"FLFCCOO","specialite":"CO à pied","latitude":"50.6371834","longitude":"3.0630174","valide":"Non","ppo":"Non","obsolete":false}},{"type":"Feature","geometry":null,"properties":{"id_ffco":"3757","nom":"PARC FENAIN","_dept":"59","numero":"2002-D59-01","commune":"Douai","echelle":"1/4000","surface":"0.18 km²","annee":"2002","cartographes":"Jacques Leroy","proprietaire":"59 - Nord","specialite":"CO à pied","latitude":"50.3941914872","longitude":"3.0545566109","date_saisie":"21/12/2003","date_depot":"04/01/2004","valide":"Non","ppo":"Non","obsolete":false}},{"type":"Feature","geometry":null,"properties":{"id_ffco":"2471","nom":"ETANG DES MOINES - 59 FOURMIES","_dept":"59","numero":"1991-D59-01","commune":"FOURMIES","echelle":"1/10000","surface":"2.5 km²","annee":"1991","proprietaire":"NO","specialite":"CO à pied","latitude":"50.0155233","longitude":"4.0465509","valide":"Non","ppo":"Non","obsolete":false}},{"type":"Feature","geometry":{"type":"Polygon","coordinates":[[[4.1193,50.122],[4.1203,50.1209],[4.1251,50.1222],[4.1282,50.1213],[4.1308,50.1204],[4.1323,50.1198],[4.1318,50.1188],[4.1324,50.1179],[4.1348,50.1171],[4.1385,50.1169],[4.1411,50.1169],[4.1443,50.1166],[4.147,50.1166],[4.1482,50.1178],[4.1479,50.1201],[4.1489,50.1217],[4.1515,50.1228],[4.1542,50.1229],[4.1511,50.1252],[4.1495,50.1255],[4.1442,50.1232],[4.1405,50.1217],[4.1368,50.1226],[4.1319,50.1247],[4.1288,50.1254],[4.1258,50.1247],[4.1234,50.1228],[4.1193,50.122]]]},"properties":{"id_ffco":"12269","nom":"Val Joly Station","_dept":"59","numero":"2017-D59-0099","commune":"Eppe-Sauvage","echelle":"1/4000","surface":"1.16 km²","format":"+","annee":"2017","cartographes":"Rémi LEQUINT","proprietaire":"59 - Nord","niveau":"National, International","specialite":"CO à pied","contacts":"CDCO59, Maison des sports rue Denis Papin, 59650, Villeneuve d'Ascq, 0638646587, jefecol@orange.fr","latitude":"50.12106401","longitude":"4.13838017069","date_saisie":"10/11/2020","date_depot":"19/01/2021","valide":"Oui","ppo":"Non","type_carte":"Nouvelle carte","fond":"Ortho","obsolete":false}},{"type":"Feature","geometry":{"type":"Polygon","coordinates":[[[4.1182,50.0981],[4.1158,50.0965],[4.1274,50.0921],[4.1341,50.0901],[4.1409,50.0959],[4.1474,50.1009],[4.1448,50.1026],[4.1417,50.1043],[4.1405,50.1058],[4.1377,50.1062],[4.1351,50.1097],[4.1337,50.1128],[4.1299,50.1157],[4.1275,50.1182],[4.1257,50.1195],[4.1215,50.1178],[4.1178,50.1176],[4.1187,50.1153],[4.1123,50.1112],[4.1132,50.1083],[4.1213,50.1055],[4.1212,50.1041],[4.1182,50.0981]]]},"properties":{"id_ffco":"12385","nom":"Val Joly - Les Garennes","_dept":"59","numero":"2019-D59-0098","commune":"Eppe-Sauvage","echelle":"1/10000","surface":"4.24 km²","format":"A3","annee":"2019","cartographes":"Rémi LEQUINT","proprietaire":"59 - Nord","niveau":"Régional","specialite":"CO à pied","latitude":"50.1041171845","longitude":"4.12863830696","date_saisie":"09/12/2020","date_depot":"19/01/2021","valide":"Oui","ppo":"Non","type_carte":"Nouvelle carte","fond":"IGN","ref_ign":"Top 25","obsolete":false}},{"type":"Feature","geometry":{"type":"Polygon","coordinates":[[[3.6961,50.1705],[3.6827,50.1824],[3.705,50.1872],[3.7223,50.1785],[3.6961,50.1705]]]},"properties":{"id_ffco":"12267","nom":"La Quesne au Maronne","_dept":"59","numero":"2019-D59-0097","commune":"Locquignol","echelle":"1/10000","surface":"2.77 km²","format":"A4","annee":"2019","cartographes":"Rémi LEQUINT","proprietaire":"59 - Nord","niveau":"Régional","specialite":"CO à pied","contacts":"CDCO59, Maison des sports rue Denis Papin, 59650, Villeneuve d'Ascq, 0638646587, jefecol@orange.fr","latitude":"50.179346454","longitude":"3.70153365027","date_saisie":"10/11/2020","date_depot":"19/01/2021","valide":"Oui","ppo":"Non","type_carte":"Nouvelle carte","fond":"IGN","ref_ign":"Top 25","obsolete":false}},{"type":"Feature","geometry":{"type":"Polygon","coordinates":[[[3.053,50.3948],[3.0499,50.3937],[3.0509,50.393],[3.0521,50.3924],[3.0534,50.3919],[3.0555,50.3919],[3.0556,50.3914],[3.0576,50.3916],[3.0601,50.3921],[3.0617,50.3928],[3.0634,50.393],[3.0627,50.3938],[3.0564,50.3935],[3.0547,50.3941],[3.053,50.3948]]]},"properties":{"id_ffco":"12271","nom":"Douai - Parc Fenain","_dept":"59","numero":"2019-D59-0096","commune":"Douai","echelle":"1/4000","surface":"0.18 km²","format":"A4","annee":"2019","cartographes":"Jean-François Loterie","proprietaire":"5907 - TOUS AZIMUTS DOUAI","niveau":"Initiation, Scolaire","specialite":"CO à pied","contacts":"Tous Azimuts Douai, jefecol@orange.fr","latitude":"50.3930139768","longitude":"3.05608662109","date_saisie":"10/11/2020","date_depot":"19/01/2021","valide":"Oui","ppo":"Oui (26 postes)","type_carte":"Reprise","base":"2002-D59-01 PARC FENAIN","fond":"Ortho","obsolete":false}},{"type":"Feature","geometry":{"type":"Polygon","coordinates":[[[3.1045,50.3933],[3.101,50.3911],[3.0992,50.3895],[3.0961,50.3873],[3.094,50.3859],[3.0932,50.384],[3.0919,50.3823],[3.0928,50.382],[3.0948,50.3834],[3.0967,50.3837],[3.0974,50.384],[3.1013,50.388],[3.1029,50.3898],[3.1055,50.392],[3.1058,50.3925],[3.1045,50.3933]]]},"properties":{"id_ffco":"12273","nom":"Douai - Parc Jacques Vernier","_dept":"59","numero":"2018-D59-0095","commune":"Douai","echelle":"1/5000","surface":"0.31 km²","format":"+","annee":"2018","cartographes":"Rémi LEQUINT","proprietaire":"5907 - TOUS AZIMUTS DOUAI","niveau":"Initiation, Scolaire","specialite":"CO à pied","contacts":"Tous Azimuts Douai, jefecol@orange.fr","latitude":"50.3875408569","longitude":"3.09872770926","date_saisie":"10/11/2020","date_depot":"19/01/2021","valide":"Oui","ppo":"Oui (35 postes)","type_carte":"Nouvelle carte","fond":"Ortho","obsolete":false}},{"type":"Feature","geometry":{"type":"Polygon","coordinates":[[[2.4231,50.975],[2.4331,50.9749],[2.4348,50.9746],[2.4366,50.9726],[2.4392,50.9739],[2.4476,50.9677],[2.4457,50.9666],[2.4406,50.9638],[2.4328,50.9632],[2.4317,50.9647],[2.4277,50.9671],[2.4258,50.9694],[2.426,50.972],[2.4254,50.9729],[2.4242,50.9739],[2.4228,50.9748],[2.4231,50.975]]]},"properties":{"id_ffco":"12281","nom":"Bergues","_dept":"59","numero":"2019-D59-0094","commune":"Bergues","echelle":"1/10000","surface":"1.38 km²","format":"A4","annee":"2019","cartographes":"David Barranger","proprietaire":"5909 - CAPONORD, SPORTS D'ORIENTATION","niveau":"Régional","specialite":"CO à pied","contacts":"CapOnord, Sports d'orientation, contact@caponord-sport-orientation.fr","latitude":"50.9693015278","longitude":"2.43506878522","date_saisie":"11/11/2020","date_depot":"08/12/2020","valide":"Oui","ppo":"Non","type_carte":"Nouvelle carte","fond":"Ortho","obsolete":false}},{"type":"Feature","geometry":{"type":"Polygon","coordinates":[[[3.1226,50.6325],[3.1258,50.6316],[3.1304,50.6306],[3.134,50.6298],[3.1357,50.6292],[3.1387,50.6293],[3.1403,50.6318],[3.1417,50.6364],[3.1428,50.6389],[3.1432,50.6397],[3.1392,50.6398],[3.1347,50.6392],[3.1301,50.6395],[3.1278,50.6394],[3.1254,50.6383],[3.1237,50.6377],[3.1233,50.6355],[3.1225,50.6349],[3.1232,50.6339],[3.1226,50.6325]]]},"properties":{"id_ffco":"12313","nom":"Flers-Château","_dept":"59","numero":"2018-D59-0093","commune":"Villeneuve d'Ascq","echelle":"1/4000","surface":"1.25 km²","format":"A3","annee":"2018","cartographes":"Papin Philippe,Mamet Ludovic","proprietaire":"5906 - VILLENEUVE D'ASCQ LILLE METROPOLE ORIENTATION","niveau":"Régional","specialite":"CO à pied","contacts":"VALMO, 78/1 rue du pavé bleu, 59650, Villeneuve d'Ascq, contact@valmo.net, http://www.valmo.net/","latitude":"50.634952225","longitude":"3.13300007011","date_saisie":"22/11/2020","date_depot":"19/01/2021","valide":"Oui","ppo":"Non","type_carte":"Nouvelle carte","fond":"Cadastre","obsolete":false}},{"type":"Feature","geometry":{"type":"Polygon","coordinates":[[[3.1409,50.6152],[3.1412,50.6147],[3.1436,50.6147],[3.1443,50.6146],[3.1461,50.6134],[3.1476,50.6134],[3.1483,50.6136],[3.1504,50.6137],[3.1516,50.6138],[3.1514,50.615],[3.1501,50.6157],[3.1491,50.6163],[3.1473,50.6163],[3.1467,50.6166],[3.1469,50.6169],[3.1476,50.6171],[3.1473,50.6175],[3.1436,50.6187],[3.1382,50.6203],[3.1376,50.6196],[3.136,50.6202],[3.1354,50.6202],[3.136,50.6184],[3.1363,50.6171],[3.1374,50.6171],[3.1381,50.616],[3.1393,50.6161],[3.1408,50.616],[3.1409,50.6152]]]},"properties":{"id_ffco":"12284","nom":"Triolo","_dept":"59","numero":"2016-D59-0091","commune":"Villeneuve d'Ascq","echelle":"1/4000","surface":"0.42 km²","format":"A4","annee":"2016","cartographes":"Papin Philippe","proprietaire":"5906 - VILLENEUVE D'ASCQ LILLE METROPOLE ORIENTATION","niveau":"Régional","specialite":"CO à pied","contacts":"VALMO, 78/1 rue du pavé bleu, 59650, Villeneuve d'Ascq, contact@valmo.net, http://www.valmo.net/","latitude":"50.6166889008","longitude":"3.14316409652","date_saisie":"11/11/2020","date_depot":"19/01/2021","valide":"Oui","ppo":"Non","type_carte":"Nouvelle carte","fond":"Cadastre","obsolete":false}},{"type":"Feature","geometry":{"type":"Polygon","coordinates":[[[3.4871,50.4015],[3.4851,50.4109],[3.4827,50.4211],[3.4819,50.4257],[3.4948,50.4209],[3.5004,50.4187],[3.512,50.4235],[3.5145,50.418],[3.5079,50.4109],[3.5047,50.4075],[3.4871,50.4015]]]},"properties":{"id_ffco":"12367","nom":"Raismes L'Etoile de la Princesse","_dept":"59","numero":"2016-D59-0090","commune":"Raismes","echelle":"1/10000","surface":"3.43 km²","format":"+","annee":"2016","cartographes":"Rémi LEQUINT","proprietaire":"59 - Nord","niveau":"Régional","specialite":"CO à pied","contacts":"CDCO59, Maison des sports rue Denis Papin, 59650, Villeneuve d'Ascq, 0638646587, jefecol@orange.fr","latitude":"50.4140638084","longitude":"3.49640099753","date_saisie":"05/12/2020","date_depot":"19/01/2021","valide":"Oui","ppo":"Non","type_carte":"Nouvelle carte","fond":"IGN","ref_ign":"Top 25","obsolete":false}},{"type":"Feature","geometry":{"type":"Polygon","coordinates":[[[3.0401,50.6357],[3.0447,50.6365],[3.0467,50.6356],[3.0507,50.6362],[3.0537,50.6393],[3.0534,50.643],[3.0502,50.6458],[3.0515,50.6466],[3.0528,50.6473],[3.0519,50.6489],[3.0552,50.6504],[3.0543,50.6511],[3.0523,50.6514],[3.0468,50.6491],[3.0414,50.6465],[3.0391,50.6454],[3.0372,50.645],[3.0378,50.6444],[3.0368,50.643],[3.0352,50.6432],[3.0357,50.6419],[3.0352,50.6414],[3.0345,50.641],[3.0349,50.6397],[3.0333,50.6392],[3.0354,50.6369],[3.0384,50.6361],[3.0401,50.6357]]]},"properties":{"id_ffco":"12317","nom":"Citadelle de Lille","_dept":"59","numero":"2016-D59-0089","commune":"Lille","echelle":"1/5000","surface":"1.6 km²","format":"A3","annee":"2016","cartographes":"Rémi LEQUINT","proprietaire":"59 - Nord","niveau":"National, International","specialite":"CO à pied","contacts":"Joël POULAIN, poulainjoel59@gmail.com // Service des sports mairie de Lille, parcoursdorientation@mairie-lille.fr","latitude":"50.6421266949","longitude":"3.0449797199","date_saisie":"22/11/2020","date_depot":"19/01/2021","valide":"Oui","ppo":"Oui (50 postes)","type_carte":"Nouvelle carte","fond":"Cadastre","obsolete":false}},{"type":"Feature","geometry":{"type":"Polygon","coordinates":[[[3.0518,50.6375],[3.0619,50.6318],[3.0625,50.6322],[3.0696,50.635],[3.0706,50.6356],[3.0718,50.6372],[3.0695,50.6399],[3.0702,50.6403],[3.0722,50.6429],[3.0711,50.6442],[3.0706,50.646],[3.0689,50.6476],[3.067,50.6494],[3.0633,50.6505],[3.0594,50.6511],[3.0566,50.6509],[3.0539,50.6505],[3.0515,50.6491],[3.0531,50.6474],[3.0503,50.6456],[3.0532,50.6431],[3.0536,50.6398],[3.0518,50.6375]]]},"properties":{"id_ffco":"12319","nom":"Vieux- Lille","_dept":"59","numero":"2020-D59-0088","commune":"Lille","echelle":"1/5000","surface":"2.3 km²","format":"A3","annee":"2020","cartographes":"Rémi LEQUINT,Papin Philippe","proprietaire":"59 - Nord","niveau":"National, International","specialite":"CO à pied","contacts":"VALMO, 78/1 rue du pavé bleu, 59650, Villeneuve d'Ascq, contact@valmo.net, http://www.valmo.net/ // Ville de Lille (serv des Sports), 03 20 49 55 376","latitude":"50.6420709328","longitude":"3.06151174314","date_saisie":"22/11/2020","date_depot":"19/01/2021","valide":"Oui","ppo":"Non","type_carte":"Nouvelle carte","fond":"Cadastre","obsolete":false}},{"type":"Feature","geometry":{"type":"Polygon","coordinates":[[[4.0762,50.1103],[4.0706,50.1051],[4.0618,50.0946],[4.0601,50.0916],[4.0697,50.09],[4.0945,50.0954],[4.0918,50.0995],[4.0884,50.1052],[4.0852,50.1093],[4.0762,50.1103]]]},"properties":{"id_ffco":"12366","nom":"Liessies L'Etang de Breucq","_dept":"59","numero":"2016-D59-0087","commune":"Liessies","echelle":"1/10000","surface":"3.29 km²","format":"A4","annee":"2016","cartographes":"Rémi LEQUINT","proprietaire":"59 - Nord","niveau":"Régional","specialite":"CO à pied","contacts":"CDCO59, Maison des sports rue Denis Papin, 59650, Villeneuve d'Ascq, 0638646587, jefecol@orange.fr","latitude":"50.0992598343","longitude":"4.07759356271","date_saisie":"05/12/2020","date_depot":"19/01/2021","valide":"Oui","ppo":"Non","type_carte":"Reprise","base":"2000-D59-23 Liessies Etang de Breucq","fond":"IGN","ref_ign":"Top 25","obsolete":false}},{"type":"Feature","geometry":{"type":"Polygon","coordinates":[[[3.13,50.606],[3.1363,50.6026],[3.1385,50.6027],[3.1421,50.6034],[3.1514,50.6077],[3.1497,50.6101],[3.149,50.6114],[3.1476,50.6126],[3.1484,50.6129],[3.1481,50.6135],[3.1466,50.6134],[3.1459,50.6135],[3.1443,50.6147],[3.1417,50.6147],[3.1413,50.6148],[3.1411,50.6152],[3.1348,50.6141],[3.1337,50.6122],[3.1317,50.6098],[3.1303,50.6075],[3.13,50.606]]]},"properties":{"id_ffco":"12316","nom":"Cité scientifique","_dept":"59","numero":"2015-D59-0086","commune":"Villeneuve d'Ascq","echelle":"1/5000","surface":"1.42 km²","format":"A3","annee":"2015","cartographes":"Ligue NPDC,Papin Philippe","proprietaire":"59 - Nord","niveau":"Régional","specialite":"CO à pied","contacts":"VALMO, 78/1 rue du pavé bleu, 59650, Villeneuve d'Ascq, contact@valmo.net, http://www.valmo.net/","latitude":"50.6088653196","longitude":"3.14021346091","date_saisie":"22/11/2020","date_depot":"19/01/2021","valide":"Oui","ppo":"Non","type_carte":"Nouvelle carte","fond":"Cadastre","obsolete":false}},{"type":"Feature","geometry":{"type":"Polygon","coordinates":[[[3.1654,50.3373],[3.1646,50.3366],[3.1632,50.337],[3.1618,50.3352],[3.1639,50.3344],[3.163,50.3332],[3.1621,50.3333],[3.1612,50.3322],[3.1612,50.3312],[3.1609,50.3311],[3.1609,50.3292],[3.1605,50.3282],[3.1607,50.3267],[3.1629,50.3272],[3.1629,50.3292],[3.1629,50.3301],[3.1643,50.3311],[3.1649,50.3313],[3.1653,50.3316],[3.1667,50.3315],[3.1668,50.3317],[3.166,50.3319],[3.1663,50.3336],[3.1669,50.3354],[3.1661,50.3353],[3.1657,50.3361],[3.1654,50.3373]]]},"properties":{"id_ffco":"8898","nom":"Bois de Lewarde","_dept":"59","numero":"2015-D59-0085","commune":"Lewarde","echelle":"1/5000","surface":"0.25 km²","format":"A4","annee":"2015","cartographes":"Rémi LEQUINT","proprietaire":"5907 - TOUS AZIMUTS DOUAI","niveau":"Initiation, Scolaire","specialite":"CO à pied","contacts":"Tous Azimuts Douai, jefecol@orange.fr","latitude":"50.3323679906","longitude":"3.16347205481","date_saisie":"17/11/2015","date_depot":"19/01/2021","valide":"Oui","ppo":"Oui (30 postes)","type_carte":"Reprise","base":"2001-D59-03 Bois de Lewarde","fond":"Ortho","obsolete":false}},{"type":"Feature","geometry":{"type":"Polygon","coordinates":[[[3.7176,50.1987],[3.7177,50.1947],[3.7198,50.1894],[3.7203,50.1886],[3.7158,50.1837],[3.6915,50.1763],[3.6826,50.1737],[3.6764,50.1718],[3.671,50.1796],[3.6699,50.1793],[3.6672,50.1891],[3.6684,50.1894],[3.6698,50.1909],[3.6548,50.2004],[3.6712,50.212],[3.6839,50.221],[3.6887,50.2166],[3.6914,50.2146],[3.6973,50.2137],[3.6987,50.2124],[3.7,50.2087],[3.7004,50.2063],[3.7051,50.2026],[3.7084,50.2012],[3.7137,50.1998],[3.7165,50.1987],[3.7176,50.1987]]]},"properties":{"id_ffco":"8918","nom":"Mormal - Les Officiers","_dept":"59","numero":"2014-D59-0083","commune":"Locquignol","echelle":"1/10000","surface":"13.81 km²","format":"A3","annee":"2014","cartographes":"Rui Antunes,José Batista","proprietaire":"59 - Nord","niveau":"National, International","specialite":"CO à pied","contacts":"CDCO59, Maison des sports rue Denis Papin, 59650, Villeneuve d'Ascq, 0638646587, jefecol@orange.fr","latitude":"50.195185221","longitude":"3.68774398199","date_saisie":"24/11/2015","date_depot":"19/01/2021","valide":"Oui","ppo":"Non","type_carte":"Nouvelle carte","fond":"Ortho","obsolete":false}},{"type":"Feature","geometry":{"type":"Polygon","coordinates":[[[3.645,50.2503],[3.6406,50.2519],[3.6372,50.253],[3.6356,50.253],[3.6336,50.253],[3.6302,50.2528],[3.6287,50.2518],[3.6276,50.2501],[3.6279,50.2491],[3.6274,50.2483],[3.6279,50.2476],[3.6263,50.2462],[3.6278,50.2455],[3.6306,50.2449],[3.6308,50.2439],[3.6328,50.2441],[3.6335,50.2431],[3.6348,50.2436],[3.6357,50.2428],[3.6379,50.243],[3.6404,50.2411],[3.6439,50.2437],[3.6431,50.2456],[3.6447,50.2461],[3.645,50.2471],[3.644,50.2494],[3.6453,50.25],[3.645,50.2503]]]},"properties":{"id_ffco":"12275","nom":"Le Quesnoy Centre-ville","_dept":"59","numero":"2014-D59-0082","commune":"Le Quesnoy","echelle":"1/5000","surface":"1.19 km²","format":"+","annee":"2014","cartographes":"Rémi LEQUINT","proprietaire":"59 - Nord","niveau":"National, International","specialite":"CO à pied","contacts":"CDCO59, Maison des sports rue Denis Papin, 59650, Villeneuve d'Ascq, 0638646587, jefecol@orange.fr","latitude":"50.2477897127","longitude":"3.63622919833","date_saisie":"10/11/2020","date_depot":"19/01/2021","valide":"Oui","ppo":"Non","type_carte":"Nouvelle carte","fond":"Cadastre","obsolete":false}},{"type":"Feature","geometry":{"type":"Polygon","coordinates":[[[3.4875,50.4014],[3.4871,50.403],[3.4861,50.403],[3.4848,50.4025],[3.4828,50.4024],[3.4807,50.4025],[3.4807,50.401],[3.4776,50.4012],[3.4801,50.3976],[3.4848,50.3972],[3.4859,50.3986],[3.4866,50.3984],[3.4881,50.4007],[3.4875,50.4014]]]},"properties":{"id_ffco":"12364","nom":"Raismes - Parc de la Porte du Hainaut","_dept":"59","numero":"2015-D59-0080","commune":"Raismes","echelle":"1/3000","surface":"0.31 km²","format":"A4","annee":"2015","cartographes":"Rémi LEQUINT","proprietaire":"59 - Nord","niveau":"O+","specialite":"CO à pied","contacts":"CAPH, https://www.tourisme-porteduhainaut.com/decouvrir/parc-de-la-porte-du-hainaut/activites/1043526-parcours-permanent-dorientation // CDCO59, Maison des sports rue Denis Papin, 59650, Villeneuve d'Ascq, 0638646587, jefecol@orange.fr","latitude":"50.4001040711","longitude":"3.48329785269","date_saisie":"05/12/2020","date_depot":"19/01/2021","valide":"Oui","ppo":"Oui (40 postes)","type_carte":"Nouvelle carte","fond":"Ortho","obsolete":false}},{"type":"Feature","geometry":{"type":"Polygon","coordinates":[[[3.1547,50.6365],[3.1562,50.6368],[3.1594,50.6374],[3.1606,50.6379],[3.1656,50.6376],[3.1671,50.6373],[3.1704,50.6376],[3.1704,50.6379],[3.1675,50.6391],[3.1661,50.6393],[3.1653,50.6409],[3.1653,50.6416],[3.1678,50.6422],[3.1692,50.645],[3.1685,50.6467],[3.1646,50.6475],[3.163,50.6469],[3.16,50.6465],[3.1596,50.6464],[3.1587,50.6454],[3.158,50.6453],[3.1581,50.6444],[3.1559,50.6448],[3.1556,50.6457],[3.1547,50.6462],[3.1532,50.6463],[3.1498,50.6463],[3.1492,50.6465],[3.1491,50.6463],[3.1492,50.6461],[3.1477,50.6446],[3.1484,50.64],[3.1487,50.6396],[3.1479,50.6392],[3.1481,50.6384],[3.1514,50.6377],[3.1531,50.6366],[3.1547,50.6365]]]},"properties":{"id_ffco":"12315","nom":"Cousinerie","_dept":"59","numero":"2012-D59-0077","commune":"Villeneuve d'Ascq","echelle":"1/4000","surface":"1.38 km²","format":"A3","annee":"2012","cartographes":"Papin Philippe,Mamet Ludovic,Dickburt Michel,Kotecky Ondrej","proprietaire":"5906 - VILLENEUVE D'ASCQ LILLE METROPOLE ORIENTATION","niveau":"Régional","specialite":"CO à pied","contacts":"VALMO, 78/1 rue du pavé bleu, 59650, Villeneuve d'Ascq, contact@valmo.net, http://www.valmo.net/","latitude":"50.6419350068","longitude":"3.15828259589","date_saisie":"22/11/2020","date_depot":"19/01/2021","valide":"Oui","ppo":"Non","type_carte":"Nouvelle carte","fond":"Cadastre","obsolete":false}},{"type":"Feature","geometry":{"type":"Polygon","coordinates":[[[2.384,51.0027],[2.3859,51.0038],[2.3868,51.0037],[2.3894,51.0034],[2.392,51.0033],[2.3931,51.0037],[2.3958,51.0034],[2.3976,51.003],[2.3999,51.003],[2.4015,51.003],[2.4036,51.0028],[2.406,51.0015],[2.4083,51.0009],[2.409,51.001],[2.409,51.0001],[2.4098,50.9987],[2.4116,50.9966],[2.4139,50.9959],[2.4158,50.9947],[2.4169,50.9915],[2.4191,50.989],[2.4203,50.9877],[2.4232,50.9824],[2.4239,50.98],[2.4241,50.9772],[2.4243,50.9751],[2.4231,50.975],[2.4078,50.9839],[2.4014,50.9893],[2.3979,50.9917],[2.3969,50.9934],[2.3926,50.9976],[2.3845,51.0019],[2.384,51.0027]]]},"properties":{"id_ffco":"12258","nom":"Bois des forts","_dept":"59","numero":"2019-D59-0074","commune":"Téteghem-Coudekerque-Village","echelle":"1/10000","surface":"3.38 km²","format":"A3","annee":"2019","cartographes":"Rémi LEQUINT","proprietaire":"5909 - CAPONORD, SPORTS D'ORIENTATION","niveau":"Régional","specialite":"CO à pied","contacts":"CapOnord, Sports d'orientation, contact@caponord-sport-orientation.fr","latitude":"50.9917945969","longitude":"2.40721656163","date_saisie":"04/11/2020","date_depot":"08/12/2020","valide":"Oui","ppo":"Non","type_carte":"Nouvelle carte","base":"2019-D59-0074 Bois des forts","fond":"Ortho","obsolete":false}},{"type":"Feature","geometry":{"type":"Polygon","coordinates":[[[3.5066,50.4367],[3.5188,50.442],[3.5269,50.4424],[3.5502,50.4286],[3.5463,50.423],[3.5473,50.4181],[3.5494,50.415],[3.5313,50.4041],[3.5224,50.4074],[3.5097,50.4126],[3.5013,50.4189],[3.5066,50.4367]]]},"properties":{"id_ffco":"12146","nom":"Saint Amand Le Coucou","_dept":"59","numero":"2017-D59-0073","commune":"Escaupont","echelle":"1/25000","surface":"10.02 km²","format":"A3","annee":"2017","cartographes":"Rémi LEQUINT","proprietaire":"59 - Nord","niveau":"Interrégional","specialite":"CO à pied","contacts":"CDCO59, Maison des sports rue Denis Papin, 59650, Villeneuve d'Ascq, 0638646587, jefecol@orange.fr","latitude":"50.4237420127","longitude":"3.52552021475","date_saisie":"26/09/2020","date_depot":"19/01/2021","valide":"Oui","ppo":"Non","type_carte":"Nouvelle carte","fond":"IGN","ref_ign":"Top 25","obsolete":false}},{"type":"Feature","geometry":{"type":"Polygon","coordinates":[[[4.1476,50.1011],[4.1453,50.1],[4.1385,50.0941],[4.1306,50.087],[4.1214,50.0902],[4.1143,50.0927],[4.1145,50.0954],[4.1185,50.0981],[4.12,50.102],[4.1218,50.1055],[4.1214,50.1057],[4.1169,50.107],[4.1136,50.1083],[4.1134,50.1086],[4.1134,50.1095],[4.1123,50.1116],[4.111,50.1127],[4.1122,50.114],[4.1126,50.115],[4.1153,50.1155],[4.1161,50.1161],[4.1169,50.1177],[4.1209,50.1178],[4.1256,50.1196],[4.1273,50.1189],[4.1285,50.1166],[4.1307,50.1149],[4.1331,50.1132],[4.1342,50.1125],[4.1359,50.1098],[4.1373,50.1069],[4.1386,50.1061],[4.141,50.1058],[4.1421,50.1046],[4.1452,50.1024],[4.1476,50.1011]]]},"properties":{"id_ffco":"8921","nom":"Val Joly","_dept":"59","numero":"2011-D59-0072","commune":"Trélon","echelle":"1/10000","surface":"4.97 km²","format":"A3","annee":"2011","cartographes":"Bastien MENGIN","proprietaire":"NO - Nord-Pas-de-Calais","niveau":"National, International","specialite":"CO à pied","latitude":"50.1030575839","longitude":"4.12764964235","date_saisie":"24/11/2015","valide":"Non","ppo":"Non","type_carte":"Nouvelle carte","fond":"Ortho","obsolete":false}},{"type":"Feature","geometry":{"type":"Polygon","coordinates":[[[3.3045,50.421],[3.3091,50.4241],[3.311,50.4272],[3.3129,50.4325],[3.3156,50.4366],[3.3152,50.443],[3.3127,50.444],[3.3134,50.4456],[3.3122,50.4466],[3.3111,50.4465],[3.3087,50.4444],[3.2982,50.4449],[3.2955,50.4458],[3.2942,50.4436],[3.2878,50.4444],[3.2862,50.4442],[3.284,50.442],[3.2769,50.4414],[3.2703,50.4417],[3.2732,50.4358],[3.2779,50.4244],[3.2808,50.4195],[3.2847,50.4191],[3.2889,50.4195],[3.2931,50.419],[3.297,50.4187],[3.2981,50.4181],[3.3045,50.421]]]},"properties":{"id_ffco":"8920","nom":"Marchiennes","_dept":"59","numero":"2012-D59-0067","commune":"Marchiennes","echelle":"1/10000","surface":"7.12 km²","format":"A3","annee":"2012","cartographes":"Bastien MENGIN","proprietaire":"NO - Nord-Pas-de-Calais","niveau":"National, International","specialite":"CO à pied","latitude":"50.4327386102","longitude":"3.29430337906","date_saisie":"24/11/2015","valide":"Non","ppo":"Non","type_carte":"Nouvelle carte","fond":"Ortho","obsolete":false}},{"type":"Feature","geometry":{"type":"Polygon","coordinates":[[[3.7308,50.2003],[3.7214,50.201],[3.717,50.2054],[3.7026,50.2115],[3.6974,50.2137],[3.6912,50.2148],[3.6893,50.2159],[3.6839,50.2211],[3.6991,50.2319],[3.7197,50.2246],[3.7211,50.2253],[3.7216,50.2369],[3.719,50.2397],[3.7247,50.2386],[3.7308,50.2363],[3.7336,50.2352],[3.736,50.2328],[3.7408,50.2302],[3.739,50.2159],[3.7375,50.2068],[3.7308,50.2003]]]},"properties":{"id_ffco":"8919","nom":"Mormal","_dept":"59","numero":"2010-D59-0066","commune":"Locquignol","echelle":"1/10000","surface":"9.62 km²","format":"A3","annee":"2010","proprietaire":"59 - Nord","niveau":"National, International","specialite":"CO à pied","contacts":"CDCO59, Maison des sports rue Denis Papin, 59650, Villeneuve d'Ascq, 0638646587, jefecol@orange.fr","latitude":"50.2191628745","longitude":"3.71781330849","date_saisie":"24/11/2015","valide":"Non","ppo":"Non","type_carte":"Reprise","base":"1998-D59-04 FORET DE MORMAL","fond":"Ortho","obsolete":false}},{"type":"Feature","geometry":null,"properties":{"id_ffco":"3743","nom":"LA GARE D'EAU","_dept":"59","numero":"2001-D59-004","commune":"La Bassée","echelle":"1/5000","surface":"0.33 km²","annee":"2001","cartographes":"Jean Ejsmont","proprietaire":"LNO","specialite":"CO à pied","latitude":"50.5311245","longitude":"2.8024011","date_saisie":"21/12/2003","date_depot":"04/01/2004","valide":"Non","ppo":"Non","obsolete":false}},{"type":"Feature","geometry":null,"properties":{"id_ffco":"3693","nom":"Le Bois de Boulogne - Lille","_dept":"59","numero":"2001-D59-0027","commune":"Lille","echelle":"1/2000","surface":"1.0 km²","format":"A4","annee":"2001","proprietaire":"59 - Nord","specialite":"CO à pied","latitude":"50.6371834","longitude":"3.0630174","date_saisie":"21/11/2003","date_depot":"24/11/2003","valide":"Non","ppo":"Non","obsolete":false}},{"type":"Feature","geometry":{"type":"Polygon","coordinates":[[[3.0427,50.5028],[3.0456,50.5081],[3.0446,50.5106],[3.0397,50.5145],[3.0378,50.5151],[3.0364,50.5169],[3.0336,50.514],[3.0258,50.5087],[3.0279,50.5068],[3.03,50.5056],[3.0333,50.5032],[3.038,50.5005],[3.0396,50.5016],[3.0411,50.5019],[3.0416,50.503],[3.0427,50.5028]]]},"properties":{"id_ffco":"2470","nom":"FORET DE PHALEMPIN","_dept":"59","numero":"1991-D59-002","commune":"Phalempin","echelle":"1/10000","surface":"1.39 km²","annee":"1991","proprietaire":"FLFCCOO","specialite":"CO à pied","latitude":"50.5083321207","longitude":"3.03671499689","valide":"Non","ppo":"Non","obsolete":false}},{"type":"Feature","geometry":{"type":"Polygon","coordinates":[[[3.0448,50.6365],[3.0463,50.6357],[3.0503,50.6362],[3.053,50.6385],[3.0537,50.6399],[3.0532,50.6431],[3.0497,50.646],[3.0478,50.6488],[3.0459,50.6488],[3.0427,50.6472],[3.0382,50.6447],[3.0362,50.6423],[3.036,50.64],[3.0357,50.6381],[3.0361,50.6366],[3.0385,50.6361],[3.0396,50.6353],[3.0421,50.636],[3.0448,50.6365]]]},"properties":{"id_ffco":"329","nom":"Parc de la Citadelle","_dept":"59","numero":"2007-D59-","commune":"Lille","echelle":"1/7500","surface":"1.36 km²","annee":"2007","contacts":"ASPTT Lille CO, 03 20 85 27 72, http://www.aspttlilleco.fr/ // Ville de Lille (serv des Sports), 03 20 49 55 376","latitude":"50.6413788701","longitude":"3.04467329523","valide":"Non","ppo":"Oui (41 postes)","url":"https://www.aspttlilleco.fr/ppo.htm","obsolete":false}},{"type":"Feature","geometry":{"type":"Polygon","coordinates":[[[3.5288,50.4681],[3.5285,50.466],[3.5348,50.4631],[3.5361,50.4618],[3.5385,50.4601],[3.5394,50.4611],[3.5366,50.4631],[3.538,50.4636],[3.539,50.465],[3.5315,50.4675],[3.5288,50.4681]]]},"properties":{"id_ffco":"328","nom":"Site d'Amaury","_dept":"59","numero":"????-D59-","commune":"Hergnies","surface":"0.26 km²","latitude":"50.4648146177","longitude":"3.53411034858","valide":"Non","ppo":"Oui","obsolete":false}},{"type":"Feature","geometry":{"type":"Polygon","coordinates":[[[3.1419,50.635],[3.1427,50.6371],[3.1461,50.6375],[3.1485,50.6387],[3.1503,50.6399],[3.1542,50.6402],[3.1547,50.64],[3.158,50.6431],[3.1587,50.644],[3.1622,50.6437],[3.1643,50.6418],[3.1654,50.6401],[3.167,50.6391],[3.1684,50.6386],[3.1694,50.6377],[3.1652,50.6371],[3.163,50.6365],[3.1616,50.6372],[3.16,50.6366],[3.1573,50.6351],[3.1554,50.6351],[3.1549,50.6325],[3.1475,50.6328],[3.1432,50.633],[3.1423,50.6317],[3.1411,50.6314],[3.1405,50.6316],[3.1419,50.635]]]},"properties":{"id_ffco":"328","nom":"Parc St. Jean","_dept":"59","numero":"????-D59-","commune":"Villeneuve d'Ascq","surface":"1.21 km²","contacts":"Mairie","latitude":"50.6374575221","longitude":"3.15452056179","valide":"Non","ppo":"Oui (34 postes)","obsolete":false}}]}