{"type":"FeatureCollection","features":[{"type":"Feature","geometry":{"type":"Polygon","coordinates":[[[3.4408,50.4292],[3.4401,50.4318],[3.4412,50.433],[3.446,50.4312],[3.4477,50.433],[3.4491,50.4344],[3.4529,50.4331],[3.4549,50.4353],[3.4601,50.4339],[3.4617,50.434],[3.463,50.4353],[3.4647,50.4353],[3.466,50.4348],[3.4658,50.4338],[3.469,50.4324],[3.472,50.4312],[3.4695,50.4241],[3.4638,50.4176],[3.456,50.4149],[3.4532,50.4167],[3.451,50.4204],[3.4495,50.4232],[3.4466,50.4256],[3.445,50.426],[3.4439,50.4256],[3.4416,50.4277],[3.4408,50.4292]]]},"properties":{"id_ffco":"12274","nom":"Saint-Amand-les-Eaux - Le Mont des Bruyères","_dept":"59","numero":"2014-D59-0084","commune":"Saint-Amand-les-Eaux","echelle":"1/10000","surface":"3.08 km²","format":"A3","annee":"2014","cartographes":"Rémi LEQUINT","proprietaire":"59 - Nord","niveau":"Régional","specialite":"CO à pied","contacts":"CDCO59, Maison des sports rue Denis Papin, 59650, Villeneuve d'Ascq, 0638646587, jefecol@orange.fr","latitude":"50.4265284234","longitude":"3.45733948822","date_saisie":"10/11/2020","date_depot":"19/01/2021","valide":"Oui","ppo":"Non","type_carte":"Reprise","base":"2003-D59-19 Le mont des ermites","fond":"IGN","ref_ign":"Top 25","obsolete":true}}]}