{"type":"FeatureCollection","features":[{"type":"Feature","geometry":{"type":"Polygon","coordinates":[[[2.814,49.3996],[2.8051,49.3944],[2.8037,49.3927],[2.8025,49.3911],[2.8122,49.3852],[2.7991,49.3763],[2.8002,49.376],[2.8154,49.3733],[2.8234,49.3782],[2.8271,49.3806],[2.8261,49.3886],[2.8267,49.392],[2.8238,49.4005],[2.814,49.3996]]]},"properties":{"id_ffco":"9463","nom":"Carrefour du puit de Royallieu","_dept":"60","numero":"1999-D60-68","commune":"Compiègne","echelle":"1/10000","surface":"3.87 km²","format":"A4","annee":"1999","cartographes":"Michel EPINAY,Bertrand PATURET","proprietaire":"60 - Oise","niveau":"Interrégional","specialite":"CO à pied","latitude":"49.3868169933","longitude":"2.81563895696","date_saisie":"13/03/2016","valide":"Non","ppo":"Non","type_carte":"Reprise","base":"1999-D60-36 Compiegne Royallieu","fond":"IGN","obsolete":true}},{"type":"Feature","geometry":{"type":"Polygon","coordinates":[[[2.8133,49.3999],[2.8014,49.3916],[2.8123,49.385],[2.8378,49.3936],[2.8363,49.399],[2.8294,49.3965],[2.8262,49.4007],[2.8133,49.3999]]]},"properties":{"id_ffco":"3261","nom":"Compiegne Royallieu","_dept":"60","numero":"1999-D60-36","commune":"COMPIEGNE","echelle":"1/10000","surface":"2.64 km²","format":"A4","annee":"1999","cartographes":"Michel EPINAY,René Yves et Bernadette BOURGES,Erick LASNE,Myriam LAMARQUE","proprietaire":"60 - Oise","niveau":"Régional","specialite":"CO à pied","latitude":"49.3935299643","longitude":"2.81917121044","valide":"Non","ppo":"Non","type_carte":"Reprise","base":"1992-D60-06 COMPIEGNE : LES SABLONS","obsolete":true}}]}