{"type":"FeatureCollection","features":[{"type":"Feature","geometry":{"type":"Polygon","coordinates":[[[-0.6397,48.789],[-0.6423,48.7895],[-0.6447,48.7908],[-0.646,48.7928],[-0.6473,48.7947],[-0.6479,48.7956],[-0.6477,48.7973],[-0.647,48.7987],[-0.6438,48.799],[-0.6399,48.7993],[-0.6362,48.7993],[-0.6364,48.7975],[-0.636,48.7969],[-0.6352,48.7961],[-0.6331,48.7954],[-0.6308,48.7936],[-0.6311,48.7924],[-0.6319,48.7905],[-0.6328,48.7892],[-0.6348,48.7889],[-0.6373,48.7887],[-0.6397,48.789]]]},"properties":{"id_ffco":"9999","nom":"Mont de Cerisy II","_dept":"61","numero":"2016-D61-48","commune":"Flers","echelle":"1/7500","surface":"1.07 km²","format":"A4","annee":"2016","cartographes":"Valentin Chareyre","proprietaire":"NM - Normandie","niveau":"Régional","specialite":"CO à pied","latitude":"48.7940085988","longitude":"-0.639575922977","date_saisie":"22/12/2016","date_depot":"13/02/2017","valide":"Oui","ppo":"Oui (30 postes)","type_carte":"Reprise","base":"2009-D61-37 Le Mont de Cerisy","fond":"Ortho","obsolete":true}},{"type":"Feature","geometry":{"type":"Polygon","coordinates":[[[-0.4168,48.553],[-0.4179,48.5524],[-0.4193,48.552],[-0.4201,48.5515],[-0.4209,48.5511],[-0.4216,48.5509],[-0.4237,48.5514],[-0.4239,48.5517],[-0.4242,48.5536],[-0.4238,48.5539],[-0.4234,48.5543],[-0.4221,48.5553],[-0.4216,48.5556],[-0.4198,48.5551],[-0.42,48.5551],[-0.4194,48.5547],[-0.4184,48.5549],[-0.4174,48.5543],[-0.4163,48.5534],[-0.4161,48.5529],[-0.4168,48.553]]]},"properties":{"id_ffco":"8450","nom":"Château de Tessé","_dept":"61","numero":"2015-D61-45","commune":"Bagnoles de l'Orne","echelle":"1/3000","surface":"0.19 km²","format":"A4","annee":"2015","cartographes":"D Barranger","proprietaire":"NM - Normandie","niveau":"Départemental","specialite":"CO à pied","latitude":"48.5532327068","longitude":"-0.420759787153","date_saisie":"01/06/2015","date_depot":"22/10/2015","valide":"Oui","ppo":"Oui (20 postes)","type_carte":"Nouvelle carte","fond":"Ortho","obsolete":true}},{"type":"Feature","geometry":{"type":"Polygon","coordinates":[[[0.0545,48.7417],[0.0478,48.741],[0.0401,48.7391],[0.038,48.7366],[0.0418,48.7328],[0.048,48.7312],[0.0559,48.7303],[0.0615,48.7311],[0.0653,48.728],[0.0658,48.7254],[0.0653,48.7225],[0.0682,48.7201],[0.0705,48.7217],[0.0777,48.7264],[0.0799,48.7291],[0.0689,48.7354],[0.0609,48.7401],[0.0545,48.7417]]]},"properties":{"id_ffco":"8452","nom":"Le pommier à la femme","_dept":"61","numero":"2015-D61-44","commune":"Argentan","echelle":"1/10000","surface":"3.12 km²","format":"A4","annee":"2015","proprietaire":"NM - Normandie","niveau":"Interrégional","specialite":"CO à pied","latitude":"48.7330420854","longitude":"0.0594874748985","date_saisie":"01/06/2015","date_depot":"22/10/2015","valide":"Oui","ppo":"Non","type_carte":"Reprise","base":"2008-D61-35 Forêt Domaniale de Gouffern","fond":"Ortho","obsolete":true}},{"type":"Feature","geometry":{"type":"Polygon","coordinates":[[[-0.4062,48.5676],[-0.4132,48.5647],[-0.4154,48.5625],[-0.4157,48.5606],[-0.4139,48.5582],[-0.412,48.5568],[-0.4078,48.5563],[-0.4035,48.5574],[-0.3984,48.5591],[-0.3956,48.5616],[-0.4062,48.5676]]]},"properties":{"id_ffco":"8451","nom":"St Ortaire","_dept":"61","numero":"2015-D61-43","commune":"Bagnoles de l'Orne","echelle":"1/7500","surface":"1.16 km²","format":"A4","annee":"2015","proprietaire":"NM - Normandie","niveau":"Régional","specialite":"CO à pied","latitude":"48.5615331456","longitude":"-0.406624611427","date_saisie":"01/06/2015","date_depot":"22/10/2015","valide":"Oui","ppo":"Oui (30 postes)","type_carte":"Reprise","base":"2008-D61-35 Forêt Domaniale de Gouffern","fond":"Ortho","obsolete":true}},{"type":"Feature","geometry":{"type":"Polygon","coordinates":[[[-0.5752,48.7513],[-0.5753,48.7515],[-0.5743,48.7517],[-0.5734,48.7506],[-0.5742,48.7505],[-0.5735,48.7496],[-0.574,48.7495],[-0.5731,48.7479],[-0.5746,48.7473],[-0.5767,48.7465],[-0.5764,48.7462],[-0.5767,48.746],[-0.5772,48.7464],[-0.5814,48.7442],[-0.5831,48.7451],[-0.5841,48.7452],[-0.5848,48.7462],[-0.5857,48.7477],[-0.583,48.748],[-0.5805,48.7492],[-0.5795,48.75],[-0.5752,48.7513]]]},"properties":{"id_ffco":"11668","nom":"Le Parc du Chateau","_dept":"61","numero":"2013-D61-41","commune":"Flers","echelle":"1/4000","surface":"0.37 km²","format":"A4","annee":"2013","proprietaire":"NM - Normandie","niveau":"Départemental","specialite":"CO à pied","latitude":"48.7478201981","longitude":"-0.578942497444","date_saisie":"13/09/2019","date_depot":"03/06/2020","valide":"Oui","ppo":"Oui (30 postes)","type_carte":"Nouvelle carte","fond":"Cadastre","obsolete":true}},{"type":"Feature","geometry":{"type":"Polygon","coordinates":[[[-0.6482,48.7969],[-0.647,48.7986],[-0.6444,48.7986],[-0.6409,48.7993],[-0.6366,48.799],[-0.6368,48.7972],[-0.6348,48.796],[-0.6313,48.7941],[-0.6317,48.7911],[-0.6337,48.7891],[-0.635,48.7896],[-0.6368,48.7892],[-0.6411,48.7895],[-0.6448,48.7911],[-0.6472,48.7944],[-0.6482,48.7969]]]},"properties":{"id_ffco":"5019","nom":"Le Mont de Cerisy","_dept":"61","numero":"2009-D61-37","commune":"Cerisy Belle Etoile","echelle":"1/7500","surface":"1.0 km²","format":"A4","annee":"2009","cartographes":"F Besbot,Y Mareigner,F Mareigner","proprietaire":"NM - Normandie","niveau":"National, International","specialite":"CO à pied","latitude":"48.7941590035","longitude":"-0.63976400593","date_saisie":"07/07/2010","date_depot":"12/07/2010","valide":"Non","ppo":"Non","type_carte":"Nouvelle carte","fond":"Ortho","obsolete":true}},{"type":"Feature","geometry":null,"properties":{"id_ffco":"4824","nom":"Forêt Domaniale de Gouffern","_dept":"61","numero":"2008-D61-35","commune":"Argentan","echelle":"1/10000","surface":"1.2 km²","format":"A4","annee":"2008","cartographes":"E Brassart","proprietaire":"NM - Normandie","niveau":"Régional","specialite":"CO à pied","latitude":"48.7420462","longitude":"-0.0253282","date_saisie":"30/01/2010","date_depot":"17/02/2010","valide":"Non","ppo":"Non","obsolete":true}},{"type":"Feature","geometry":{"type":"Polygon","coordinates":[[[-0.4061,48.5675],[-0.4125,48.5649],[-0.4149,48.5631],[-0.4156,48.5618],[-0.4148,48.5596],[-0.4136,48.5584],[-0.4121,48.5569],[-0.4079,48.5565],[-0.4059,48.5566],[-0.3983,48.5591],[-0.396,48.5615],[-0.4061,48.5675]]]},"properties":{"id_ffco":"4823","nom":"TREIZE NEIGES","_dept":"61","numero":"2007-D61-33","commune":"Bagnoles de l'Orne","echelle":"1/7500","surface":"1.13 km²","format":"A4","annee":"2007","cartographes":"F Besbot,Y Mareigner,F Mareigner","proprietaire":"NM - Normandie","niveau":"Régional","specialite":"CO à pied","latitude":"48.5614782222","longitude":"-0.406571746989","date_saisie":"30/01/2010","date_depot":"17/02/2010","valide":"Non","ppo":"Non","obsolete":true}},{"type":"Feature","geometry":{"type":"Polygon","coordinates":[[[0.2826,48.5332],[0.2846,48.5302],[0.2872,48.5314],[0.2954,48.5238],[0.3035,48.5222],[0.3088,48.5285],[0.3016,48.535],[0.3011,48.5384],[0.2932,48.5401],[0.286,48.5399],[0.2826,48.5332]]]},"properties":{"id_ffco":"4822","nom":"Bois de Montmirel","_dept":"61","numero":"2007-D61-32","commune":"Alençon","echelle":"1/10000","surface":"2.3 km²","format":"A4","annee":"2007","cartographes":"R Taillebois","proprietaire":"NM - Normandie","niveau":"National, International","specialite":"CO à pied","latitude":"48.5318001958","longitude":"0.295716252768","date_saisie":"30/01/2010","date_depot":"17/02/2010","valide":"Non","ppo":"Non","type_carte":"Nouvelle carte","fond":"Cadastre","obsolete":true}},{"type":"Feature","geometry":null,"properties":{"id_ffco":"3499","nom":"FORET DOMANIALE DE GOUFFERN","_dept":"61","numero":"2002-D61-30","commune":"Argentan","echelle":"1/10000","surface":"2.92 km²","annee":"2002","proprietaire":"NM - Normandie","specialite":"CO à pied","latitude":"48.7420462","longitude":"-0.0253282","date_saisie":"18/04/2002","date_depot":"02/05/2002","valide":"Non","ppo":"Non","obsolete":true}},{"type":"Feature","geometry":null,"properties":{"id_ffco":"1826","nom":"PARC MUNICIPAL","_dept":"61","numero":"1987-D61-22","commune":"TESSE LA MADELEINE","echelle":"1/2500","surface":"0.3 km²","annee":"1987","proprietaire":"NM - Normandie","specialite":"CO à pied","latitude":"48.5490621","longitude":"-0.4254073","valide":"Non","ppo":"Non","obsolete":true}},{"type":"Feature","geometry":null,"properties":{"id_ffco":"604","nom":"PIERRE CHIEN","_dept":"61","numero":"1991-D61-21","commune":"ALENCON","echelle":"1/15000","surface":"6.0 km²","annee":"1991","proprietaire":"NM - Normandie","specialite":"CO à pied","latitude":"48.4306517","longitude":"0.0836219","valide":"Non","ppo":"Non","obsolete":true}},{"type":"Feature","geometry":null,"properties":{"id_ffco":"1825","nom":"PARC DU CHATEAU","_dept":"61","numero":"1987-D61-20","commune":"FLERS","echelle":"1/10000","surface":"1.0 km²","annee":"1987","proprietaire":"61 - Orne","specialite":"CO à pied","latitude":"48.7487387","longitude":"-0.568881","valide":"Non","ppo":"Non","obsolete":true}},{"type":"Feature","geometry":null,"properties":{"id_ffco":"1823","nom":"GRANDE GOUFFERN","_dept":"61","numero":"1987-D61-18","commune":"ARGENTAN","echelle":"1/2500","surface":"2.5 km²","annee":"1987","proprietaire":"61 - Orne","specialite":"CO à pied","latitude":"48.7420462","longitude":"-0.0253282","valide":"Non","ppo":"Non","obsolete":true}},{"type":"Feature","geometry":null,"properties":{"id_ffco":"1819","nom":"MARCHEMAISONS","_dept":"61","numero":"1987-D61-12","commune":"MONTCHEVREL","echelle":"1/10000","surface":"1.1 km²","annee":"1987","proprietaire":"6101","specialite":"CO à pied","latitude":"48.572334","longitude":"0.3381207","valide":"Non","ppo":"Non","obsolete":true}},{"type":"Feature","geometry":null,"properties":{"id_ffco":"1818","nom":"HAIE D'AUNOU 2","_dept":"61","numero":"1987-D61-11","commune":"ARGENTAN","echelle":"1/10000","surface":"1.7 km²","annee":"1987","proprietaire":"6101","specialite":"CO à pied","latitude":"48.7420462","longitude":"-0.0253282","valide":"Non","ppo":"Non","obsolete":true}},{"type":"Feature","geometry":null,"properties":{"id_ffco":"1814","nom":"HAIE AUNOU","_dept":"61","numero":"1987-D61-06","commune":"ARGENTAN","echelle":"1/10000","surface":"1.7 km²","annee":"1987","proprietaire":"6101","specialite":"CO à pied","latitude":"48.7420462","longitude":"-0.0253282","valide":"Non","ppo":"Non","obsolete":true}},{"type":"Feature","geometry":null,"properties":{"id_ffco":"1814","nom":"HAIE AUNOU II","_dept":"61","numero":"1987-D61-06","commune":"ARGENTAN","echelle":"1/10000","surface":"1.7 km²","annee":"1987","proprietaire":"6101","specialite":"CO à pied","latitude":"48.7420462","longitude":"-0.0253282","valide":"Non","ppo":"Non","obsolete":true}},{"type":"Feature","geometry":null,"properties":{"id_ffco":"1811","nom":"BAGNOLES DE L' ORNE","_dept":"61","numero":"1987-D61-03","commune":"BAGNOLES ORNE","echelle":"1/6000","surface":"1.4 km²","annee":"1987","proprietaire":"NM - Normandie","specialite":"CO à pied","latitude":"48.5569961","longitude":"-0.4123781","valide":"Non","ppo":"Non","obsolete":true}},{"type":"Feature","geometry":null,"properties":{"id_ffco":"1036","nom":"PETITE GOUFFERN","_dept":"61","numero":"1981-D61-02","commune":"SEES","echelle":"1/15000","surface":"4.2 km²","annee":"1981","proprietaire":"6101","niveau":"Interrégional","specialite":"CO à pied","latitude":"48.6068687","longitude":"0.1727616","valide":"Non","ppo":"Non","obsolete":true}},{"type":"Feature","geometry":null,"properties":{"id_ffco":"602","nom":"RENO VALDIEU","_dept":"61","numero":"2000-D61-004","commune":"RENO VALDIEU","echelle":"1/15000","surface":"5.4 km²","annee":"2000","proprietaire":"NM - Normandie","specialite":"CO à pied","latitude":"48.5326761","longitude":"0.6995852","valide":"Non","ppo":"Non","obsolete":true}},{"type":"Feature","geometry":null,"properties":{"id_ffco":"331","nom":"Les 13 neiges et le Plateau du Château","_dept":"61","numero":"????-D61-","commune":"Bagnoles de l'Orne","surface":"None km²","latitude":"48.5569961","longitude":"-0.4123781","valide":"Non","ppo":"Oui","obsolete":true}}]}