{"type":"FeatureCollection","features":[{"type":"Feature","geometry":{"type":"Polygon","coordinates":[[[0.059,43.2435],[0.0589,43.2448],[0.0587,43.245],[0.0569,43.245],[0.057,43.2437],[0.0574,43.2438],[0.0575,43.2435],[0.059,43.2435]]]},"properties":{"id_ffco":"2020-D65-55","nom":"Paul Eluard","_dept":"65","numero":"2020-D65-55","commune":"Tarbes","echelle":"1/1000","surface":"0.03 km²","format":"A4","annee":"2020","cartographes":"Patrick CASTELLO","proprietaire":"65 - Hautes-Pyrénées","niveau":"Initiation, Scolaire","specialite":"Sprint (ISSOM)","contacts":"CDCO 65, http://www.o65.fr/","latitude":"43.2442633948","longitude":"0.0579864780836","date_saisie":"14/12/2020","date_depot":"21/01/2021","valide":"Oui","ppo":"Non","type_carte":"Nouvelle carte","fond":"Cadastre","obsolete":false}},{"type":"Feature","geometry":{"type":"Polygon","coordinates":[[[0.041,43.2467],[0.0414,43.2482],[0.0411,43.2483],[0.0415,43.2496],[0.0427,43.2497],[0.0435,43.2484],[0.0437,43.2475],[0.0434,43.2468],[0.041,43.2467]]]},"properties":{"id_ffco":"2020-D65-54","nom":"Chateau d'Urac","_dept":"65","numero":"2020-D65-54","commune":"Borderes sur l'Echez","echelle":"1/1500","surface":"0.06 km²","format":"A4","annee":"2020","cartographes":"Patrick CASTELLO","proprietaire":"65 - Hautes-Pyrénées","niveau":"Initiation, Scolaire","specialite":"Sprint (ISSOM)","latitude":"43.2480562157","longitude":"0.0423050243501","date_saisie":"14/12/2020","date_depot":"21/01/2021","valide":"Oui","ppo":"Non","type_carte":"Nouvelle carte","fond":"Cadastre","obsolete":false}},{"type":"Feature","geometry":{"type":"Polygon","coordinates":[[[0.062,43.1971],[0.0606,43.1965],[0.0609,43.1956],[0.0599,43.1954],[0.0595,43.1964],[0.0587,43.1963],[0.0586,43.197],[0.0583,43.1974],[0.0579,43.1978],[0.0578,43.1981],[0.059,43.1984],[0.0591,43.1984],[0.0594,43.1984],[0.0601,43.1985],[0.0603,43.1985],[0.0609,43.1985],[0.062,43.1971]]]},"properties":{"id_ffco":"2019-D65-53","nom":"Ecole du Bourg","_dept":"65","numero":"2019-D65-53","commune":"Odos","echelle":"1/2000","surface":"0.07 km²","format":"A4","annee":"2019","cartographes":"CASTELLO Patrick","proprietaire":"65 - Hautes-Pyrénées","niveau":"Initiation, Scolaire","specialite":"CO à pied","latitude":"43.1972523251","longitude":"0.0599160339806","date_saisie":"18/12/2019","date_depot":"14/02/2020","valide":"Oui","ppo":"Non","type_carte":"Nouvelle carte","fond":"Cadastre","obsolete":false}},{"type":"Feature","geometry":{"type":"Polygon","coordinates":[[[0.0757,43.228],[0.0764,43.2269],[0.0769,43.2269],[0.0773,43.2264],[0.0783,43.2265],[0.0789,43.2269],[0.0786,43.2278],[0.0776,43.2278],[0.0774,43.2284],[0.0764,43.2284],[0.0759,43.2282],[0.0757,43.228]]]},"properties":{"id_ffco":"2019-D65-52","nom":"Parc Chastelin","_dept":"65","numero":"2019-D65-52","commune":"Tarbes","echelle":"1/1500","surface":"0.04 km²","format":"A4","annee":"2019","cartographes":"CASTELLO Patrick","proprietaire":"65 - Hautes-Pyrénées","niveau":"Initiation, Scolaire","specialite":"CO à pied","latitude":"43.2274047998","longitude":"0.0773304774924","date_saisie":"18/12/2019","date_depot":"14/02/2020","valide":"Oui","ppo":"Non","type_carte":"Nouvelle carte","fond":"Cadastre","obsolete":false}},{"type":"Feature","geometry":{"type":"Polygon","coordinates":[[[0.1487,43.0671],[0.1499,43.0675],[0.1503,43.0666],[0.1493,43.0661],[0.1487,43.0671]]]},"properties":{"id_ffco":"2018-D65-51","nom":"Les vigneaux","_dept":"65","numero":"2018-D65-51","commune":"Bagneres de Bigorre","echelle":"1/1000","surface":"0.01 km²","format":"A4","annee":"2018","cartographes":"CASTELLO Patrick","proprietaire":"65 - Hautes-Pyrénées","niveau":"Initiation, Scolaire","specialite":"CO à pied","latitude":"43.0668476087","longitude":"0.149537202337","date_saisie":"18/12/2019","date_depot":"14/02/2020","valide":"Oui","ppo":"Non","type_carte":"Nouvelle carte","fond":"Cadastre","obsolete":false}},{"type":"Feature","geometry":{"type":"Polygon","coordinates":[[[0.0657,43.2199],[0.0668,43.2197],[0.0681,43.2194],[0.0684,43.2184],[0.066,43.2182],[0.0659,43.2184],[0.0657,43.2199]]]},"properties":{"id_ffco":"2019-D65-50","nom":"College victor hugo","_dept":"65","numero":"2019-D65-50","commune":"Tarbes","echelle":"1/1000","surface":"0.03 km²","format":"A4","annee":"2019","cartographes":"CASTELLO Patrick","proprietaire":"65 - Hautes-Pyrénées","niveau":"Initiation, Scolaire","specialite":"CO à pied","latitude":"43.2190181826","longitude":"0.0669572411629","date_saisie":"18/12/2019","date_depot":"14/02/2020","valide":"Oui","ppo":"Non","type_carte":"Nouvelle carte","fond":"Cadastre","obsolete":false}},{"type":"Feature","geometry":{"type":"Polygon","coordinates":[[[0.0029,43.3164],[0.0075,43.3138],[0.0127,43.3181],[0.0161,43.3203],[0.0181,43.3226],[0.0186,43.3242],[0.0156,43.3258],[0.012,43.3253],[0.0109,43.325],[0.0094,43.3251],[0.0066,43.3238],[0.0059,43.3222],[0.0056,43.3191],[0.0048,43.3179],[0.0029,43.3164]]]},"properties":{"id_ffco":"2018-D65-49","nom":"Abbaye de Tarasteix","_dept":"65","numero":"2018-D65-49","commune":"Tarasteix","echelle":"1/5000","surface":"0.88 km²","format":"A4","annee":"2018","cartographes":"CASTELLO Patrick","proprietaire":"65 - Hautes-Pyrénées","niveau":"Départemental","specialite":"CO à pied","contacts":"CDCO 65, http://www.o65.fr/","latitude":"43.3205931996","longitude":"0.0106285924115","date_saisie":"18/12/2019","date_depot":"14/02/2020","valide":"Oui","ppo":"Non","type_carte":"Nouvelle carte","fond":"Cadastre","obsolete":false}},{"type":"Feature","geometry":{"type":"Polygon","coordinates":[[[0.0821,43.2759],[0.0814,43.2761],[0.0799,43.2772],[0.0794,43.2771],[0.0795,43.2756],[0.079,43.2755],[0.079,43.2749],[0.0806,43.2748],[0.0814,43.2753],[0.0817,43.2753],[0.0821,43.2759],[0.0821,43.2759]]]},"properties":{"id_ffco":"2018-D65-48","nom":"Venise plage","_dept":"65","numero":"2018-D65-48","commune":"BOURS","echelle":"1/1500","surface":"0.04 km²","format":"A4","annee":"2018","cartographes":"CASTELLO Patrick","proprietaire":"65 - Hautes-Pyrénées","niveau":"Initiation, Scolaire","specialite":"CO à pied","latitude":"43.2758319291","longitude":"0.0803328034356","date_saisie":"18/12/2019","date_depot":"14/02/2020","valide":"Oui","ppo":"Non","type_carte":"Nouvelle carte","fond":"Cadastre","ref_ign":"?","obsolete":false}},{"type":"Feature","geometry":{"type":"Polygon","coordinates":[[[0.0528,43.257],[0.0527,43.2576],[0.0533,43.258],[0.0532,43.2582],[0.0555,43.2582],[0.0553,43.2575],[0.0538,43.2574],[0.0536,43.257],[0.0528,43.257]]]},"properties":{"id_ffco":"2017-D65-47","nom":"Ecole Arc en ciel","_dept":"65","numero":"2017-D65-47","commune":"Bordères sur l'Echez","echelle":"1/1000","surface":"0.02 km²","format":"A4","annee":"2017","cartographes":"CASTELLO Patrick","proprietaire":"65 - Hautes-Pyrénées","niveau":"Initiation, Scolaire","specialite":"CO à pied","contacts":"CDCO 65, http://www.o65.fr/","latitude":"43.2576899775","longitude":"0.0539980901334","date_saisie":"18/12/2017","date_depot":"14/02/2020","valide":"Oui","ppo":"Non","type_carte":"Nouvelle carte","fond":"Cadastre","obsolete":false}},{"type":"Feature","geometry":{"type":"Polygon","coordinates":[[[0.1553,43.0613],[0.1535,43.0646],[0.1547,43.065],[0.1561,43.0621],[0.1561,43.0615],[0.1553,43.0613]]]},"properties":{"id_ffco":"2017-D65-46","nom":"Stade CAZENAVE","_dept":"65","numero":"2017-D65-46","commune":"BAGNERES DE BIGORRE","echelle":"1/2000","surface":"0.04 km²","format":"A4","annee":"2017","cartographes":"CASTELLO Patrick","proprietaire":"65 - Hautes-Pyrénées","niveau":"Initiation, Scolaire","specialite":"CO à pied","contacts":"CDCO 65, http://www.o65.fr/","latitude":"43.0631695346","longitude":"0.154891990341","date_saisie":"18/12/2017","date_depot":"14/02/2020","valide":"Oui","ppo":"Non","type_carte":"Nouvelle carte","fond":"Cadastre","obsolete":false}},{"type":"Feature","geometry":{"type":"Polygon","coordinates":[[[0.3873,43.1259],[0.3888,43.1254],[0.3895,43.1249],[0.3903,43.1247],[0.3909,43.126],[0.39,43.1262],[0.3903,43.1269],[0.3898,43.1271],[0.3891,43.1273],[0.3882,43.1272],[0.3878,43.1271],[0.3872,43.1259],[0.3873,43.1259]]]},"properties":{"id_ffco":"2017-D65-45","nom":"Stade François SARRAT","_dept":"65","numero":"2017-D65-45","commune":"LANNEMEZAN","echelle":"1/2000","surface":"0.05 km²","format":"A4","annee":"2017","cartographes":"CASTELLO Patrick","proprietaire":"65 - Hautes-Pyrénées","niveau":"Initiation, Scolaire","specialite":"CO à pied","contacts":"CDCO 65, http://www.o65.fr/","latitude":"43.1261246642","longitude":"0.389124261345","date_saisie":"18/12/2017","date_depot":"14/02/2020","valide":"Oui","ppo":"Non","type_carte":"Nouvelle carte","fond":"Cadastre","obsolete":false}},{"type":"Feature","geometry":{"type":"Polygon","coordinates":[[[-0.1291,42.9918],[-0.1295,42.9922],[-0.1296,42.993],[-0.1296,42.9934],[-0.1298,42.9936],[-0.1302,42.9949],[-0.1292,42.9951],[-0.1282,42.9952],[-0.1276,42.9955],[-0.1273,42.9955],[-0.1271,42.9956],[-0.1268,42.9957],[-0.1262,42.9959],[-0.1246,42.9951],[-0.1232,42.9946],[-0.1218,42.995],[-0.1212,42.9951],[-0.1204,42.995],[-0.12,42.9948],[-0.1205,42.9942],[-0.1206,42.994],[-0.1207,42.9938],[-0.1209,42.9935],[-0.121,42.9933],[-0.1211,42.993],[-0.1211,42.9928],[-0.1209,42.9928],[-0.1201,42.9925],[-0.1197,42.9919],[-0.1195,42.9918],[-0.1206,42.9907],[-0.1218,42.9898],[-0.1223,42.9894],[-0.1242,42.9897],[-0.1262,42.989],[-0.1283,42.989],[-0.1282,42.9894],[-0.1281,42.9897],[-0.128,42.9898],[-0.129,42.9907],[-0.1297,42.9915],[-0.1295,42.9917],[-0.1291,42.9918]]]},"properties":{"id_ffco":"2017-D65-44","nom":"Arras en Lavedan","_dept":"65","numero":"2017-D65-44","commune":"ARRAS EN LAVEDAN","echelle":"1/4000","surface":"0.47 km²","format":"A4","annee":"2017","cartographes":"CASTELLO Patrick","proprietaire":"65 - Hautes-Pyrénées","niveau":"Départemental","specialite":"CO à pied","latitude":"42.992402119","longitude":"-0.125106895164","date_saisie":"18/12/2017","date_depot":"21/01/2021","valide":"Oui","ppo":"Non","type_carte":"Nouvelle carte","fond":"IGN","obsolete":false}},{"type":"Feature","geometry":{"type":"Polygon","coordinates":[[[-0.2174,42.9053],[-0.2171,42.9038],[-0.2167,42.9021],[-0.2152,42.902],[-0.2127,42.9017],[-0.2105,42.9016],[-0.2078,42.9016],[-0.2078,42.9019],[-0.2082,42.9023],[-0.2081,42.9026],[-0.2065,42.9028],[-0.206,42.9031],[-0.2056,42.9044],[-0.2041,42.9048],[-0.2039,42.9051],[-0.2038,42.9056],[-0.2026,42.9061],[-0.2017,42.9068],[-0.2017,42.9075],[-0.2012,42.9083],[-0.2006,42.9086],[-0.1997,42.909],[-0.1992,42.9092],[-0.1993,42.9095],[-0.2,42.9095],[-0.2005,42.9108],[-0.2016,42.9104],[-0.2025,42.91],[-0.2029,42.9103],[-0.2035,42.9104],[-0.2044,42.9103],[-0.2052,42.91],[-0.2061,42.9096],[-0.2065,42.9098],[-0.207,42.9098],[-0.2072,42.9096],[-0.2072,42.9092],[-0.2097,42.9086],[-0.2107,42.9083],[-0.211,42.9084],[-0.2112,42.9083],[-0.2112,42.9081],[-0.2128,42.9074],[-0.2144,42.9068],[-0.2174,42.9053]]]},"properties":{"id_ffco":"2017-D65-43","nom":"Lac d'Estaing","_dept":"65","numero":"2017-D65-43","commune":"Estaing","echelle":"1/7500","surface":"0.82 km²","format":"A4","annee":"2017","cartographes":"CASTELLO Patrick","proprietaire":"65 - Hautes-Pyrénées","niveau":"Régional","specialite":"CO à pied","latitude":"42.9058257624","longitude":"-0.208901914435","date_saisie":"18/12/2017","date_depot":"14/02/2020","valide":"Oui","ppo":"Non","type_carte":"Nouvelle carte","fond":"IGN","obsolete":false}},{"type":"Feature","geometry":{"type":"Polygon","coordinates":[[[-0.1321,43.0022],[-0.1325,43.0024],[-0.1336,43.003],[-0.1345,43.0038],[-0.1347,43.0046],[-0.1351,43.0056],[-0.1361,43.0066],[-0.1365,43.0073],[-0.1363,43.0086],[-0.1367,43.0096],[-0.1371,43.0108],[-0.1383,43.0115],[-0.1357,43.015],[-0.1338,43.0153],[-0.1329,43.0154],[-0.1318,43.0152],[-0.1309,43.0152],[-0.1293,43.0154],[-0.1275,43.0153],[-0.1257,43.0156],[-0.1238,43.0157],[-0.1251,43.0145],[-0.1245,43.0131],[-0.1236,43.0125],[-0.1225,43.0116],[-0.1214,43.0102],[-0.1206,43.0089],[-0.1202,43.0081],[-0.1193,43.0075],[-0.119,43.0067],[-0.1194,43.006],[-0.121,43.0055],[-0.1217,43.0053],[-0.123,43.0048],[-0.1231,43.0042],[-0.1225,43.0037],[-0.1218,43.0033],[-0.1236,43.0027],[-0.1238,43.0013],[-0.1242,43.0006],[-0.1244,42.9998],[-0.1252,43.0],[-0.1263,42.9997],[-0.1275,42.9993],[-0.1279,43.0002],[-0.1284,43.001],[-0.1293,43.0015],[-0.1306,43.0021],[-0.1321,43.0022]]]},"properties":{"id_ffco":"2017-D65-42","nom":"Mont de Gez","_dept":"65","numero":"2017-D65-42","commune":"ARRAS EN LAVEDAN","echelle":"1/10000","surface":"1.77 km²","format":"A4","annee":"2017","cartographes":"CASTELLO Patrick","proprietaire":"65 - Hautes-Pyrénées","niveau":"Régional","specialite":"CO à pied","contacts":"Maison du Val d'Azun, ARRENS MARSOUS","latitude":"43.0083502728","longitude":"-0.128834570263","date_saisie":"18/12/2017","date_depot":"14/02/2020","valide":"Oui","ppo":"Non","type_carte":"Nouvelle carte","fond":"IGN","obsolete":false}},{"type":"Feature","geometry":{"type":"Polygon","coordinates":[[[-0.2399,42.9639],[-0.2404,42.9637],[-0.2408,42.9634],[-0.2411,42.9626],[-0.2423,42.9625],[-0.2426,42.963],[-0.2427,42.9632],[-0.2441,42.9625],[-0.2452,42.9617],[-0.2465,42.9609],[-0.2477,42.9605],[-0.2488,42.96],[-0.2502,42.9599],[-0.2505,42.9603],[-0.2506,42.9609],[-0.2512,42.9609],[-0.2517,42.9608],[-0.2525,42.9611],[-0.2535,42.961],[-0.2541,42.9605],[-0.2549,42.9601],[-0.2558,42.9601],[-0.2564,42.9605],[-0.2575,42.9605],[-0.2589,42.9603],[-0.2599,42.9602],[-0.2609,42.9604],[-0.262,42.9604],[-0.2621,42.9607],[-0.262,42.9616],[-0.2626,42.9617],[-0.2636,42.9614],[-0.2641,42.9617],[-0.2644,42.9621],[-0.264,42.9627],[-0.264,42.963],[-0.2642,42.9636],[-0.2641,42.9647],[-0.2647,42.9651],[-0.2651,42.9661],[-0.2653,42.9673],[-0.2649,42.9684],[-0.2647,42.9696],[-0.2648,42.9701],[-0.2661,42.9705],[-0.2666,42.9707],[-0.2674,42.9711],[-0.2672,42.9722],[-0.2668,42.973],[-0.2662,42.9735],[-0.2655,42.9735],[-0.2649,42.9732],[-0.2651,42.9727],[-0.2654,42.9726],[-0.2653,42.9724],[-0.2643,42.9722],[-0.2633,42.972],[-0.2612,42.9721],[-0.26,42.9719],[-0.2583,42.9713],[-0.2572,42.9713],[-0.2562,42.9713],[-0.2551,42.9717],[-0.2536,42.9721],[-0.2521,42.972],[-0.2512,42.9719],[-0.2497,42.9721],[-0.2485,42.9727],[-0.2479,42.9732],[-0.2476,42.9749],[-0.2476,42.9757],[-0.2462,42.9759],[-0.2452,42.9753],[-0.2439,42.9742],[-0.2431,42.9729],[-0.2406,42.9708],[-0.2404,42.9702],[-0.2406,42.9687],[-0.243,42.9685],[-0.2434,42.9667],[-0.243,42.9654],[-0.2412,42.965],[-0.2397,42.9643],[-0.2399,42.9639]]]},"properties":{"id_ffco":"2017-D65-41","nom":"Col du Soulor","_dept":"65","numero":"2017-D65-41","commune":"ARRENS MARSOUS","echelle":"1/10000","surface":"2.49 km²","format":"A4","annee":"2017","cartographes":"CASTELLO Patrick","proprietaire":"65 - Hautes-Pyrénées","niveau":"Régional","specialite":"CO à pied","contacts":"Maison du Val d'Azun, ARRENS MARSOUS","latitude":"42.9669687922","longitude":"-0.253145766368","date_saisie":"18/12/2017","date_depot":"14/02/2020","valide":"Oui","ppo":"Non","type_carte":"Nouvelle carte","fond":"IGN","obsolete":false}},{"type":"Feature","geometry":{"type":"Polygon","coordinates":[[[0.5725,42.9614],[0.5722,42.9607],[0.5729,42.9603],[0.5726,42.96],[0.5734,42.9595],[0.5752,42.959],[0.5761,42.9587],[0.5765,42.9592],[0.576,42.9597],[0.5752,42.9599],[0.5746,42.9605],[0.5739,42.9608],[0.573,42.9613],[0.5725,42.9614]]]},"properties":{"id_ffco":"2016-D65-40","nom":"MAULEON BAROUSSE LE LAC","_dept":"65","numero":"2016-D65-40","commune":"MAULEON BAROUSSE","echelle":"1/2000","surface":"0.04 km²","format":"A4","annee":"2016","cartographes":"Patrick CASTELLO","proprietaire":"65 - Hautes-Pyrénées","niveau":"Initiation, Scolaire","specialite":"CO à pied","contacts":"CDCO 65, http://www.o65.fr/ // Les amis du Lac, 0677656928","latitude":"42.9599782223","longitude":"0.574183510934","date_saisie":"07/03/2016","date_depot":"04/10/2016","valide":"Oui","ppo":"Non","type_carte":"Nouvelle carte","fond":"IGN","obsolete":false}},{"type":"Feature","geometry":{"type":"Polygon","coordinates":[[[0.5706,42.959],[0.57,42.9587],[0.5704,42.9585],[0.5714,42.9583],[0.571,42.9578],[0.5704,42.9574],[0.5698,42.9571],[0.5694,42.9569],[0.5688,42.9565],[0.5684,42.9559],[0.5676,42.9555],[0.5667,42.9549],[0.5665,42.9549],[0.5663,42.9552],[0.5665,42.9555],[0.5667,42.9558],[0.5667,42.956],[0.5662,42.9567],[0.5659,42.9572],[0.5656,42.9578],[0.5652,42.958],[0.5646,42.9581],[0.5633,42.9586],[0.5639,42.9589],[0.5646,42.9592],[0.5651,42.9595],[0.5656,42.9602],[0.5656,42.9606],[0.5658,42.9608],[0.5661,42.9613],[0.5669,42.9615],[0.5677,42.9616],[0.5684,42.9617],[0.5689,42.9618],[0.5692,42.9626],[0.5693,42.963],[0.5702,42.9627],[0.5704,42.9616],[0.5705,42.9602],[0.5711,42.9593],[0.5706,42.959]]]},"properties":{"id_ffco":"2016-D65-39","nom":"MAULEON BAROUSSE","_dept":"65","numero":"2016-D65-39","commune":"MAULEON BAROUSSE","echelle":"1/4000","surface":"0.27 km²","format":"A4","annee":"2016","cartographes":"Patrick CASTELLO","proprietaire":"65 - Hautes-Pyrénées","niveau":"Départemental","specialite":"CO à pied","contacts":"CDCO 65, http://www.o65.fr/ // Les amis du Lac, 0677656928","latitude":"42.9590121224","longitude":"0.567924266116","date_saisie":"07/03/2016","date_depot":"04/10/2016","valide":"Oui","ppo":"Non","type_carte":"Nouvelle carte","fond":"IGN","obsolete":false}},{"type":"Feature","geometry":{"type":"Polygon","coordinates":[[[0.3874,42.7939],[0.3877,42.7934],[0.3883,42.7925],[0.3896,42.7922],[0.3906,42.7914],[0.3919,42.791],[0.3924,42.7908],[0.3922,42.7902],[0.3921,42.7896],[0.3922,42.7888],[0.393,42.7883],[0.3934,42.7882],[0.3934,42.7876],[0.3934,42.7864],[0.3906,42.7863],[0.3903,42.7877],[0.3879,42.7889],[0.386,42.7904],[0.384,42.7922],[0.3846,42.7931],[0.3856,42.7935],[0.3863,42.7937],[0.3874,42.7939]]]},"properties":{"id_ffco":"2015-D65-38","nom":"VAL LOURON","_dept":"65","numero":"2015-D65-38","commune":"LOUDENVIELLE","echelle":"1/4000","surface":"0.29 km²","format":"A4","annee":"2015","cartographes":"Patrick CASTELLO","proprietaire":"65 - Hautes-Pyrénées","niveau":"Départemental","specialite":"Sprint (ISSOM)","contacts":"CDCO 65, http://www.o65.fr/","latitude":"42.7901846987","longitude":"0.389064157768","date_saisie":"07/03/2016","date_depot":"04/10/2016","valide":"Oui","ppo":"Non","type_carte":"Nouvelle carte","fond":"IGN","obsolete":false}},{"type":"Feature","geometry":{"type":"Polygon","coordinates":[[[-0.2106,42.9044],[-0.2118,42.9028],[-0.212,42.9027],[-0.2124,42.9032],[-0.213,42.9033],[-0.2134,42.9039],[-0.2127,42.9043],[-0.2117,42.9045],[-0.2106,42.9044]]]},"properties":{"id_ffco":"2015-D65-37","nom":"LAC D'ESTAIND LE CAMPING","_dept":"65","numero":"2015-D65-37","commune":"ESTAING","echelle":"1/1500","surface":"0.02 km²","format":"A4","annee":"2015","cartographes":"Patrick CASTELLO","proprietaire":"65 - Hautes-Pyrénées","niveau":"Initiation, Scolaire","specialite":"CO à pied","contacts":"CDCO 65, http://www.o65.fr/","latitude":"42.9037551072","longitude":"-0.212010051932","date_saisie":"07/03/2016","date_depot":"04/10/2016","valide":"Oui","ppo":"Non","type_carte":"Nouvelle carte","fond":"IGN","obsolete":false}},{"type":"Feature","geometry":{"type":"Polygon","coordinates":[[[0.0499,43.2295],[0.0498,43.2289],[0.0488,43.2279],[0.0472,43.2269],[0.0463,43.2266],[0.0458,43.2271],[0.0458,43.2274],[0.0456,43.2278],[0.046,43.2289],[0.0461,43.2295],[0.0461,43.2299],[0.0462,43.2302],[0.0464,43.2304],[0.0467,43.2305],[0.0473,43.2305],[0.0478,43.2305],[0.0483,43.2306],[0.0488,43.2307],[0.049,43.2308],[0.0494,43.2309],[0.0491,43.2305],[0.0491,43.2303],[0.0496,43.2298],[0.0499,43.2297],[0.0499,43.2295]]]},"properties":{"id_ffco":"2015-D65-36","nom":"PARC DE L'ECHEZ","_dept":"65","numero":"2015-D65-36","commune":"TARBES","echelle":"1/2500","surface":"0.11 km²","format":"A4","annee":"2015","cartographes":"Patrick CASTELLO","proprietaire":"65 - Hautes-Pyrénées","niveau":"Initiation, Scolaire","specialite":"CO à pied","contacts":"CDCO 65, http://www.o65.fr/","latitude":"43.2288498641","longitude":"0.0476106684869","date_saisie":"07/03/2016","date_depot":"04/10/2016","valide":"Oui","ppo":"Non","type_carte":"Nouvelle carte","fond":"Cadastre","obsolete":false}},{"type":"Feature","geometry":{"type":"Polygon","coordinates":[[[0.2799,42.9423],[0.2791,42.9421],[0.2785,42.9413],[0.2743,42.9408],[0.2734,42.9407],[0.2727,42.9398],[0.2721,42.9385],[0.2716,42.9375],[0.2696,42.9367],[0.268,42.9369],[0.2666,42.9374],[0.2662,42.9378],[0.2642,42.938],[0.2621,42.9383],[0.2597,42.9385],[0.2577,42.9384],[0.2556,42.9375],[0.2544,42.9364],[0.2513,42.939],[0.2495,42.9414],[0.2495,42.9423],[0.2531,42.9443],[0.2548,42.9449],[0.2557,42.9463],[0.2562,42.9461],[0.2567,42.9468],[0.2585,42.9477],[0.2588,42.9481],[0.2608,42.9491],[0.261,42.9489],[0.2623,42.9492],[0.2624,42.9487],[0.2634,42.9491],[0.2645,42.949],[0.2669,42.9487],[0.268,42.9488],[0.2689,42.9488],[0.2697,42.9483],[0.27,42.9485],[0.2694,42.9491],[0.2685,42.9494],[0.2691,42.9495],[0.2699,42.9494],[0.2705,42.9489],[0.2708,42.948],[0.2713,42.9468],[0.2723,42.9458],[0.2736,42.9452],[0.2751,42.9447],[0.2764,42.9443],[0.2775,42.9437],[0.2781,42.9433],[0.2788,42.9429],[0.2802,42.9423],[0.2799,42.9423]]]},"properties":{"id_ffco":"2015-D65-35","nom":"PAYOLLE ARTIGUSSY","_dept":"65","numero":"2015-D65-35","commune":"PAYOLLE","echelle":"1/10000","surface":"2.12 km²","format":"A4","annee":"2015","cartographes":"Patrick CASTELLO","proprietaire":"65 - Hautes-Pyrénées","niveau":"Interrégional","specialite":"CO à pied","contacts":"CDCO 65, http://www.o65.fr/","latitude":"42.942740719","longitude":"0.263721449788","date_saisie":"07/03/2016","date_depot":"04/10/2016","valide":"Oui","ppo":"Oui (60 postes)","type_carte":"Nouvelle carte","fond":"IGN","obsolete":false}},{"type":"Feature","geometry":{"type":"Polygon","coordinates":[[[0.1472,43.0681],[0.1503,43.0691],[0.1522,43.0702],[0.1535,43.0715],[0.155,43.073],[0.1544,43.071],[0.1563,43.07],[0.1568,43.0663],[0.1569,43.0642],[0.1575,43.0628],[0.157,43.0607],[0.1539,43.0607],[0.152,43.0606],[0.1496,43.0599],[0.1483,43.0614],[0.145,43.0631],[0.1425,43.0666],[0.1472,43.0681]]]},"properties":{"id_ffco":"2015-D65-34","nom":"BAGNERES DE BIGORRE","_dept":"65","numero":"2015-D65-34","commune":"BAGNERES DE BIGORRE","echelle":"1/4000","surface":"0.96 km²","format":"A4","annee":"2015","cartographes":"Patrick CASTELLO","proprietaire":"65 - Hautes-Pyrénées","niveau":"Interrégional","specialite":"Sprint (ISSOM)","contacts":"CDCO 65, http://www.o65.fr/","latitude":"43.0652649758","longitude":"0.15126663913","date_saisie":"07/03/2016","date_depot":"04/10/2016","valide":"Oui","ppo":"Non","type_carte":"Nouvelle carte","fond":"Cadastre","obsolete":false}},{"type":"Feature","geometry":{"type":"Polygon","coordinates":[[[0.1482,43.0528],[0.1489,43.0526],[0.1495,43.0524],[0.1498,43.0523],[0.1502,43.052],[0.15,43.0504],[0.1494,43.0503],[0.1491,43.0501],[0.1481,43.0507],[0.1474,43.0509],[0.1469,43.0512],[0.1459,43.0515],[0.1465,43.0521],[0.147,43.0526],[0.1473,43.0529],[0.1482,43.0528]]]},"properties":{"id_ffco":"2015-D65-33","nom":"Vallon du Salut le Musée","_dept":"65","numero":"2015-D65-33","commune":"Bagnères de Bigorre","echelle":"1/2000","surface":"0.07 km²","format":"A4","annee":"2015","cartographes":"CASTELLO Patrick","proprietaire":"65 - Hautes-Pyrénées","niveau":"Initiation, Scolaire","specialite":"CO à pied","contacts":"CDCO 65, http://www.o65.fr/","latitude":"43.0515957344","longitude":"0.148396446188","date_saisie":"23/03/2015","date_depot":"01/01/2015","valide":"Oui","ppo":"Non","type_carte":"Extrait","base":"2009-D65-13 Vallon du Salut","fond":"Ortho","obsolete":false}},{"type":"Feature","geometry":{"type":"Polygon","coordinates":[[[0.1441,43.0654],[0.1441,43.0657],[0.1439,43.0668],[0.1429,43.0666],[0.1424,43.0666],[0.142,43.067],[0.1415,43.0671],[0.1402,43.0678],[0.1377,43.0687],[0.137,43.0687],[0.1361,43.0684],[0.1358,43.0683],[0.1366,43.0673],[0.1371,43.067],[0.137,43.0667],[0.1364,43.0664],[0.1358,43.066],[0.1363,43.066],[0.1367,43.0658],[0.1371,43.0656],[0.1367,43.0655],[0.1367,43.0653],[0.1375,43.0647],[0.138,43.0642],[0.1383,43.0639],[0.138,43.0634],[0.1374,43.0632],[0.137,43.0629],[0.1364,43.0629],[0.1358,43.063],[0.136,43.0627],[0.1361,43.0624],[0.1366,43.0623],[0.1371,43.0617],[0.1378,43.0616],[0.1384,43.0615],[0.1406,43.0608],[0.1397,43.0615],[0.14,43.0619],[0.1406,43.0618],[0.1414,43.0619],[0.1422,43.0621],[0.1428,43.0623],[0.1435,43.0626],[0.144,43.0626],[0.1446,43.0628],[0.1449,43.0631],[0.144,43.0641],[0.1441,43.0649],[0.1441,43.0654]]]},"properties":{"id_ffco":"2015-D65-32","nom":"Bedat 3","_dept":"65","numero":"2015-D65-32","commune":"Bagnères de Bigorre","echelle":"1/7500","surface":"0.38 km²","format":"A4","annee":"2015","cartographes":"CASTELLO Patrick","proprietaire":"65 - Hautes-Pyrénées","niveau":"Départemental","specialite":"CO à pied","contacts":"CDCO 65, http://www.o65.fr/","latitude":"43.0648318356","longitude":"0.140099688876","date_saisie":"23/03/2015","date_depot":"27/07/2015","valide":"Oui","ppo":"Non","type_carte":"Reprise","base":"2009-D65-12 Le bedat 3","fond":"Ortho","obsolete":false}},{"type":"Feature","geometry":{"type":"Polygon","coordinates":[[[0.1429,43.0666],[0.1431,43.0665],[0.1432,43.0661],[0.1432,43.0658],[0.1435,43.0653],[0.1441,43.0653],[0.144,43.0658],[0.144,43.0666],[0.1439,43.0667],[0.144,43.0669],[0.1438,43.0668],[0.1429,43.0666]]]},"properties":{"id_ffco":"2015-D65-31","nom":"Le vergès","_dept":"65","numero":"2015-D65-31","commune":"Bagnères de Bigorre","echelle":"1/1500","surface":"0.01 km²","format":"A5","annee":"2015","cartographes":"CASTELLO Patrick","proprietaire":"65 - Hautes-Pyrénées","niveau":"Initiation, Scolaire","specialite":"CO à pied","contacts":"CDCO 65, http://www.o65.fr/","latitude":"43.0660868854","longitude":"0.143606206508","date_saisie":"23/03/2015","date_depot":"01/01/2015","valide":"Oui","ppo":"Non","type_carte":"Nouvelle carte","fond":"Cadastre","obsolete":false}},{"type":"Feature","geometry":{"type":"Polygon","coordinates":[[[0.3915,43.1041],[0.3948,43.1034],[0.3948,43.103],[0.395,43.1025],[0.3954,43.102],[0.3959,43.1018],[0.3968,43.1016],[0.3974,43.1017],[0.3976,43.1013],[0.3959,43.0995],[0.394,43.0997],[0.3932,43.0998],[0.3925,43.1004],[0.392,43.1011],[0.3916,43.1014],[0.3909,43.1014],[0.3907,43.1013],[0.3902,43.102],[0.3915,43.1041]]]},"properties":{"id_ffco":"2015-D65-30","nom":"N'CO PARK","_dept":"65","numero":"2015-D65-30","commune":"Lannemezan","echelle":"1/3000","surface":"0.17 km²","format":"A4","annee":"2015","cartographes":"CASTELLO Patrick","proprietaire":"65 - Hautes-Pyrénées","niveau":"Initiation, Scolaire","specialite":"CO à pied","contacts":"N'CO PARK, Allée du Bocage, 65300, LANNEMEZAN, http://www.ncopark-aventure.com/","latitude":"43.1016975366","longitude":"0.393690751984","date_saisie":"03/03/2015","date_depot":"01/01/2015","valide":"Oui","ppo":"Non","type_carte":"Nouvelle carte","fond":"Ortho","obsolete":false}},{"type":"Feature","geometry":{"type":"Polygon","coordinates":[[[0.0823,43.219],[0.0825,43.2189],[0.0825,43.2184],[0.0833,43.2184],[0.0835,43.2169],[0.0841,43.2169],[0.0843,43.2168],[0.0861,43.2169],[0.0862,43.2162],[0.086,43.2159],[0.0851,43.2157],[0.0834,43.2166],[0.0827,43.2168],[0.0812,43.218],[0.0808,43.2184],[0.0807,43.2187],[0.0808,43.2189],[0.0811,43.2191],[0.0814,43.2191],[0.0823,43.219]]]},"properties":{"id_ffco":"2014-D65-29","nom":"Plaine de jeux \"Robert Camescasse\"","_dept":"65","numero":"2014-D65-29","commune":"Tarbes","echelle":"1/2500","surface":"0.06 km²","format":"A4","annee":"2014","cartographes":"CASTELLO Patrick","proprietaire":"65 - Hautes-Pyrénées","niveau":"Initiation, Scolaire","specialite":"CO à pied","contacts":"CDCO 65, http://www.o65.fr/","latitude":"43.217415103","longitude":"0.0832507703631","date_saisie":"03/03/2015","date_depot":"01/01/2014","valide":"Oui","ppo":"Non","type_carte":"Nouvelle carte","fond":"Ortho","obsolete":false}},{"type":"Feature","geometry":{"type":"Polygon","coordinates":[[[0.082,43.2205],[0.0808,43.2202],[0.0812,43.2193],[0.0819,43.2192],[0.0823,43.2191],[0.0825,43.2191],[0.082,43.2205]]]},"properties":{"id_ffco":"2014-D65-28","nom":"Collège Voltaire","_dept":"65","numero":"2014-D65-28","commune":"Tarbes","echelle":"1/1000","surface":"0.01 km²","format":"A4","annee":"2014","cartographes":"CASTELLO Patrick","proprietaire":"65 - Hautes-Pyrénées","niveau":"Initiation, Scolaire","specialite":"CO à pied","contacts":"CDCO 65, http://www.o65.fr/","latitude":"43.2197768916","longitude":"0.0816841212051","date_saisie":"03/03/2015","date_depot":"01/01/2014","valide":"Oui","ppo":"Non","type_carte":"Nouvelle carte","fond":"Ortho","obsolete":false}},{"type":"Feature","geometry":{"type":"Polygon","coordinates":[[[0.0201,43.2714],[0.0194,43.2712],[0.0177,43.2703],[0.0172,43.2698],[0.0171,43.2691],[0.0112,43.269],[0.0106,43.2693],[0.0101,43.2692],[0.0096,43.269],[0.0054,43.269],[0.0049,43.2688],[0.0039,43.2685],[0.0019,43.2682],[0.001,43.2679],[0.0004,43.2675],[-0.0004,43.2672],[-0.0009,43.2673],[-0.0014,43.2673],[-0.0019,43.2676],[-0.0008,43.2696],[-0.0006,43.2702],[0.0007,43.2711],[0.0017,43.2708],[0.0056,43.2797],[0.0048,43.2805],[0.0047,43.281],[0.0042,43.2817],[0.0055,43.2813],[0.0065,43.2813],[0.0089,43.2803],[0.0097,43.2801],[0.0113,43.2795],[0.0124,43.2794],[0.013,43.2792],[0.0132,43.2787],[0.0132,43.2779],[0.0129,43.277],[0.0131,43.2766],[0.0195,43.2722],[0.0201,43.2714]]]},"properties":{"id_ffco":"2014-D65-27","nom":"Bois de Bordères","_dept":"65","numero":"2014-D65-27","commune":"Bordères l'Echez","echelle":"1/7500","surface":"1.36 km²","format":"A4","annee":"2014","cartographes":"CASTELLO Patrick","proprietaire":"65 - Hautes-Pyrénées","niveau":"Régional","specialite":"CO à pied","contacts":"CDCO 65, http://www.o65.fr/","latitude":"43.2734657935","longitude":"0.00903276528091","date_saisie":"03/03/2015","date_depot":"01/01/2014","valide":"Oui","ppo":"Non","type_carte":"Nouvelle carte","fond":"Ortho","ref_ign":"?","obsolete":false}},{"type":"Feature","geometry":{"type":"Polygon","coordinates":[[[0.0777,43.2217],[0.0715,43.2207],[0.0713,43.2198],[0.0721,43.2198],[0.0721,43.219],[0.0733,43.2188],[0.0743,43.2187],[0.0754,43.2187],[0.0765,43.2189],[0.0786,43.2192],[0.0783,43.2199],[0.0769,43.2197],[0.0766,43.2206],[0.078,43.2209],[0.0777,43.2217]]]},"properties":{"id_ffco":"2014-D65-26","nom":"Stades Trelut","_dept":"65","numero":"2014-D65-26","commune":"Tarbes","echelle":"1/2500","surface":"0.13 km²","format":"A4","annee":"2014","cartographes":"CASTELLO Patrick","proprietaire":"65 - Hautes-Pyrénées","niveau":"Initiation, Scolaire","specialite":"CO à pied","contacts":"CDCO 65, http://www.o65.fr/","latitude":"43.2200462038","longitude":"0.0748891761738","date_saisie":"03/03/2015","date_depot":"01/01/2014","valide":"Oui","ppo":"Non","type_carte":"Reprise","base":"2010-D65-15 Complexe sportif Tarbes","fond":"Ortho","obsolete":false}},{"type":"Feature","geometry":{"type":"Polygon","coordinates":[[[-0.0777,43.098],[-0.0797,43.0984],[-0.081,43.0991],[-0.0822,43.0998],[-0.084,43.1],[-0.0859,43.1003],[-0.0874,43.1005],[-0.0889,43.1002],[-0.0905,43.0997],[-0.0913,43.0998],[-0.0932,43.0994],[-0.0951,43.0993],[-0.0968,43.0996],[-0.0976,43.0998],[-0.0992,43.0978],[-0.0995,43.0964],[-0.1,43.0939],[-0.0988,43.0941],[-0.0978,43.0941],[-0.0965,43.0937],[-0.0949,43.0935],[-0.092,43.0936],[-0.0901,43.0937],[-0.0884,43.0945],[-0.0877,43.0951],[-0.086,43.0954],[-0.0836,43.0955],[-0.0816,43.0954],[-0.0801,43.0952],[-0.0784,43.0951],[-0.0777,43.095],[-0.0773,43.0955],[-0.078,43.0961],[-0.0777,43.098]]]},"properties":{"id_ffco":"2014-D65-25","nom":"Lourdes-est","_dept":"65","numero":"2014-D65-25","commune":"Lourdes","echelle":"1/7500","surface":"0.99 km²","format":"A4","annee":"2014","cartographes":"CASTELLO Patrick","proprietaire":"65 - Hautes-Pyrénées","niveau":"Régional","specialite":"CO à pied","contacts":"CDCO 65, http://www.o65.fr/","latitude":"43.0969843411","longitude":"-0.0895210169402","date_saisie":"03/03/2015","date_depot":"01/01/2014","valide":"Oui","ppo":"Non","type_carte":"Reprise","base":"2004-D65-09 Bois de Lourdes 1","fond":"Ortho","obsolete":false}},{"type":"Feature","geometry":{"type":"Polygon","coordinates":[[[-0.2197,42.9501],[-0.2184,42.9514],[-0.2174,42.9515],[-0.2172,42.9564],[-0.217,42.9575],[-0.2144,42.9582],[-0.2088,42.9594],[-0.2075,42.9593],[-0.2072,42.9592],[-0.2064,42.9582],[-0.207,42.9579],[-0.2075,42.9573],[-0.2086,42.9567],[-0.209,42.9559],[-0.2095,42.9556],[-0.2098,42.9552],[-0.2105,42.9548],[-0.2102,42.9547],[-0.2102,42.9539],[-0.2104,42.953],[-0.2093,42.9522],[-0.2098,42.9517],[-0.2104,42.9517],[-0.211,42.9513],[-0.2121,42.9511],[-0.2126,42.9509],[-0.214,42.9508],[-0.2146,42.9506],[-0.2149,42.9499],[-0.2157,42.9498],[-0.2165,42.949],[-0.2169,42.9492],[-0.2197,42.9501]]]},"properties":{"id_ffco":"2014-D65-24","nom":"Arrens-Marsous","_dept":"65","numero":"2014-D65-24","commune":"Arrens-Marsous","echelle":"1/4000","surface":"0.62 km²","format":"A4","annee":"2014","cartographes":"CASTELLO Patrick","proprietaire":"65 - Hautes-Pyrénées","niveau":"Régional","specialite":"CO à pied","contacts":"CDCO 65, http://www.o65.fr/","latitude":"42.9546060502","longitude":"-0.213311071687","date_saisie":"03/03/2015","date_depot":"01/01/2014","valide":"Oui","ppo":"Non","type_carte":"Nouvelle carte","fond":"Ortho","obsolete":false}},{"type":"Feature","geometry":{"type":"Polygon","coordinates":[[[0.2388,43.1881],[0.2388,43.1889],[0.2416,43.1889],[0.2417,43.1888],[0.2417,43.1885],[0.2419,43.1884],[0.2418,43.1879],[0.2417,43.1877],[0.2413,43.1876],[0.2409,43.1876],[0.2403,43.1877],[0.2388,43.1881],[0.2388,43.1881]]]},"properties":{"id_ffco":"2013-D65-23","nom":"Stade Tournay","_dept":"65","numero":"2013-D65-23","commune":"Tournay","echelle":"1/2500","surface":"0.03 km²","format":"A4","annee":"2013","cartographes":"CASTELLO Patrick","proprietaire":"65 - Hautes-Pyrénées","niveau":"Initiation, Scolaire","specialite":"CO à pied","contacts":"CDCO 65, http://www.o65.fr/","latitude":"43.1883241796","longitude":"0.240393405855","date_saisie":"03/03/2015","date_depot":"01/01/2013","valide":"Oui","ppo":"Non","type_carte":"Nouvelle carte","fond":"Ortho","obsolete":false}},{"type":"Feature","geometry":{"type":"Polygon","coordinates":[[[0.3583,42.9035],[0.3582,42.9026],[0.3579,42.9015],[0.3576,42.9006],[0.3557,42.9011],[0.3564,42.9021],[0.357,42.9029],[0.3572,42.9029],[0.3572,42.9031],[0.3577,42.9036],[0.3583,42.9035]]]},"properties":{"id_ffco":"2013-D65-22","nom":"Collège Arreau","_dept":"65","numero":"2013-D65-22","commune":"Arreau","echelle":"1/2500","surface":"0.04 km²","format":"A4","annee":"2013","cartographes":"CASTELLO Patrick","proprietaire":"65 - Hautes-Pyrénées","niveau":"Initiation, Scolaire","specialite":"CO à pied","contacts":"CDCO 65, http://www.o65.fr/","latitude":"42.9019827241","longitude":"0.357207674563","date_saisie":"03/03/2015","date_depot":"01/01/2013","valide":"Oui","ppo":"Non","type_carte":"Nouvelle carte","fond":"Ortho","obsolete":false}},{"type":"Feature","geometry":{"type":"Polygon","coordinates":[[[0.1123,43.2187],[0.1144,43.2195],[0.1174,43.2211],[0.1223,43.2239],[0.1227,43.2229],[0.123,43.2222],[0.1231,43.2228],[0.1231,43.2234],[0.1243,43.2248],[0.1243,43.2243],[0.1258,43.2178],[0.1265,43.2166],[0.1273,43.2161],[0.1278,43.2156],[0.129,43.215],[0.1315,43.213],[0.1316,43.2113],[0.1321,43.2107],[0.133,43.2101],[0.1328,43.2094],[0.1297,43.2103],[0.1253,43.212],[0.1213,43.2139],[0.1187,43.2152],[0.1163,43.2161],[0.1153,43.2163],[0.1139,43.2164],[0.1124,43.2166],[0.1123,43.2187]]]},"properties":{"id_ffco":"2013-D65-21","nom":"Bois de Labarthe","_dept":"65","numero":"2013-D65-21","commune":"Séméac","echelle":"1/7500","surface":"1.07 km²","format":"A4","annee":"2013","cartographes":"CASTELLO Patrick","proprietaire":"65 - Hautes-Pyrénées","niveau":"Régional","specialite":"CO à pied","contacts":"CDCO 65, http://www.o65.fr/","latitude":"43.2169702817","longitude":"0.122442573857","date_saisie":"03/03/2015","date_depot":"01/01/2013","valide":"Oui","ppo":"Non","type_carte":"Nouvelle carte","base":"2013-D65-20 Couraduque","fond":"Ortho","obsolete":false}},{"type":"Feature","geometry":{"type":"Polygon","coordinates":[[[-0.2258,42.9922],[-0.2252,42.9931],[-0.2234,42.9933],[-0.2209,42.9943],[-0.2197,42.996],[-0.219,42.9974],[-0.2183,42.9972],[-0.2182,42.996],[-0.2171,42.9968],[-0.2177,42.9995],[-0.2162,43.0006],[-0.2156,43.0015],[-0.2141,43.0022],[-0.2142,43.0017],[-0.213,43.0017],[-0.2122,43.0023],[-0.2102,42.9999],[-0.2092,43.0001],[-0.2081,42.9998],[-0.2071,42.9996],[-0.206,42.9997],[-0.2049,42.9999],[-0.2038,42.9999],[-0.2031,42.9997],[-0.2052,43.0001],[-0.2043,43.0002],[-0.2035,43.0005],[-0.2028,43.0006],[-0.2022,43.0004],[-0.2023,42.9998],[-0.202,42.9992],[-0.2019,42.9984],[-0.2022,42.9979],[-0.2018,42.9974],[-0.2018,42.9968],[-0.2016,42.9963],[-0.2016,42.9958],[-0.2013,42.9952],[-0.2022,42.9944],[-0.2018,42.994],[-0.2012,42.9936],[-0.2002,42.9933],[-0.1992,42.9937],[-0.1988,42.9941],[-0.1982,42.9939],[-0.1976,42.9941],[-0.197,42.9939],[-0.196,42.9937],[-0.1954,42.9938],[-0.1941,42.9953],[-0.1934,42.9964],[-0.1927,42.9973],[-0.1926,42.9979],[-0.193,42.9982],[-0.189,42.9987],[-0.1873,42.9962],[-0.1787,42.9923],[-0.1773,42.9914],[-0.1782,42.9906],[-0.1797,42.9898],[-0.18,42.9893],[-0.1799,42.9883],[-0.1798,42.9871],[-0.1805,42.9864],[-0.1822,42.9865],[-0.1831,42.9868],[-0.1836,42.9869],[-0.1843,42.9865],[-0.185,42.9866],[-0.1854,42.9869],[-0.1858,42.9869],[-0.1861,42.9871],[-0.1874,42.9863],[-0.1901,42.985],[-0.1907,42.9838],[-0.1892,42.9819],[-0.1883,42.9807],[-0.1858,42.9803],[-0.1868,42.9792],[-0.1896,42.9783],[-0.1909,42.9771],[-0.1931,42.9774],[-0.1971,42.9797],[-0.1983,42.9805],[-0.1991,42.9807],[-0.1998,42.981],[-0.2002,42.9803],[-0.1998,42.9793],[-0.2007,42.9791],[-0.2015,42.979],[-0.2032,42.9782],[-0.2032,42.9777],[-0.2037,42.9775],[-0.2053,42.9781],[-0.205,42.9785],[-0.2046,42.9787],[-0.2046,42.979],[-0.2032,42.9801],[-0.2037,42.9807],[-0.2053,42.9814],[-0.2076,42.9822],[-0.2097,42.9829],[-0.2115,42.9832],[-0.2136,42.9835],[-0.2141,42.9839],[-0.2163,42.9861],[-0.2166,42.9866],[-0.2164,42.9873],[-0.2167,42.9876],[-0.2166,42.9884],[-0.2168,42.9887],[-0.2177,42.9889],[-0.2191,42.9888],[-0.2203,42.9885],[-0.2216,42.9888],[-0.222,42.9894],[-0.2239,42.9907],[-0.2247,42.9909],[-0.2254,42.9912],[-0.2262,42.9915],[-0.2258,42.9922]]]},"properties":{"id_ffco":"2013-D65-20","nom":"Couraduque","_dept":"65","numero":"2013-D65-20","commune":"Aucun (65)","echelle":"1/10000","surface":"5.62 km²","format":"A4","annee":"2013","cartographes":"Thomas Olivier","proprietaire":"65 - Hautes-Pyrénées","niveau":"Régional","specialite":"CO à pied","contacts":"CDCO 65, http://www.o65.fr/ // Maison du Val d'Azun, ARRENS MARSOUS","latitude":"42.9899025522","longitude":"-0.201651663429","date_saisie":"03/03/2015","date_depot":"01/01/2013","valide":"Oui","ppo":"Oui (40 postes)","type_carte":"Nouvelle carte","fond":"Ortho","obsolete":false}},{"type":"Feature","geometry":{"type":"Polygon","coordinates":[[[0.3865,43.1252],[0.388,43.1276],[0.3879,43.1279],[0.3883,43.1285],[0.3891,43.1292],[0.3887,43.1293],[0.3881,43.1296],[0.3882,43.1302],[0.3879,43.1303],[0.3887,43.1326],[0.3904,43.1328],[0.3916,43.1328],[0.3933,43.1327],[0.391,43.133],[0.3911,43.1344],[0.3913,43.135],[0.3915,43.1353],[0.3897,43.1354],[0.3895,43.1357],[0.3916,43.1375],[0.3929,43.1385],[0.3939,43.1388],[0.3948,43.1388],[0.3951,43.1383],[0.3948,43.1379],[0.3968,43.1378],[0.3966,43.1387],[0.3975,43.1387],[0.3987,43.1384],[0.4002,43.1376],[0.4002,43.1369],[0.4024,43.1365],[0.4042,43.1346],[0.4054,43.1345],[0.4049,43.1301],[0.4047,43.1279],[0.4044,43.1255],[0.404,43.1244],[0.4027,43.1238],[0.4011,43.1233],[0.3989,43.1236],[0.3953,43.1232],[0.3917,43.1224],[0.391,43.1221],[0.3905,43.1219],[0.3876,43.1223],[0.3877,43.1229],[0.3882,43.1237],[0.3884,43.1242],[0.3871,43.125],[0.3865,43.1252]]]},"properties":{"id_ffco":"2012-D65-19","nom":"Les Agalès","_dept":"65","numero":"2012-D65-19","commune":"Lannemezan","echelle":"1/10000","surface":"2.07 km²","format":"A4","annee":"2012","cartographes":"Thomas Olivier","proprietaire":"65 - Hautes-Pyrénées","niveau":"Régional","specialite":"CO à pied","contacts":"CDCO 65, http://www.o65.fr/","latitude":"43.130037472","longitude":"0.396335894089","date_saisie":"03/03/2015","date_depot":"01/01/2012","valide":"Oui","ppo":"Non","type_carte":"Nouvelle carte","fond":"Ortho","obsolete":false}},{"type":"Feature","geometry":{"type":"Polygon","coordinates":[[[0.0542,43.3912],[0.0535,43.3913],[0.053,43.3913],[0.0531,43.3898],[0.0547,43.3896],[0.0549,43.3889],[0.0558,43.3892],[0.0561,43.3892],[0.0566,43.3891],[0.0564,43.3901],[0.0578,43.3902],[0.0574,43.3914],[0.0569,43.3913],[0.057,43.393],[0.0554,43.3929],[0.0557,43.3916],[0.0551,43.3916],[0.0551,43.3914],[0.0542,43.3912]]]},"properties":{"id_ffco":"2012-D65-18","nom":"Complex Vic","_dept":"65","numero":"2012-D65-18","commune":"Vic en Bigorre","echelle":"1/2000","surface":"0.09 km²","format":"A4","annee":"2012","cartographes":"Thomas Olivier","proprietaire":"65 - Hautes-Pyrénées","niveau":"Initiation, Scolaire","specialite":"CO à pied","contacts":"CDCO 65, http://www.o65.fr/","latitude":"43.3907825738","longitude":"0.0554803265042","date_saisie":"03/03/2015","date_depot":"01/01/2012","valide":"Oui","ppo":"Non","type_carte":"Nouvelle carte","fond":"Ortho","obsolete":false}},{"type":"Feature","geometry":{"type":"Polygon","coordinates":[[[-0.076,42.99],[-0.0766,42.9912],[-0.077,42.9918],[-0.0779,42.9924],[-0.0782,42.9929],[-0.0792,42.9953],[-0.08,42.997],[-0.0813,42.9988],[-0.0823,42.9987],[-0.0827,42.9982],[-0.0829,42.998],[-0.0834,42.998],[-0.084,42.998],[-0.0846,42.9978],[-0.0864,42.9977],[-0.0837,42.9934],[-0.0831,42.992],[-0.0819,42.9894],[-0.0814,42.9882],[-0.0811,42.9876],[-0.0771,42.9885],[-0.076,42.99]]]},"properties":{"id_ffco":"2010-D65-17","nom":"Le Sailhet","_dept":"65","numero":"2010-D65-17","commune":"Lau Balagnas","echelle":"1/5000","surface":"0.51 km²","format":"A4","annee":"2010","cartographes":"Thomas Olivier","proprietaire":"65 - Hautes-Pyrénées","niveau":"Départemental","specialite":"CO à pied","contacts":"CDCO 65, http://www.o65.fr/","latitude":"42.9931758059","longitude":"-0.0809501188366","date_saisie":"03/03/2015","date_depot":"01/01/2012","valide":"Oui","ppo":"Non","type_carte":"Nouvelle carte","fond":"Ortho","obsolete":false}},{"type":"Feature","geometry":{"type":"Polygon","coordinates":[[[0.1125,43.2427],[0.1143,43.2424],[0.1145,43.2437],[0.1148,43.2439],[0.1149,43.2436],[0.1159,43.2425],[0.1165,43.2413],[0.1177,43.2413],[0.1171,43.2447],[0.1166,43.2448],[0.1152,43.2507],[0.1146,43.2521],[0.1152,43.2523],[0.1148,43.2531],[0.1141,43.2528],[0.1137,43.2531],[0.1134,43.2531],[0.1131,43.2525],[0.113,43.2517],[0.1128,43.2515],[0.1126,43.2516],[0.1123,43.2508],[0.1124,43.2501],[0.1125,43.2497],[0.112,43.2496],[0.1121,43.249],[0.1098,43.2485],[0.1104,43.2478],[0.1107,43.247],[0.111,43.2465],[0.1109,43.246],[0.1113,43.2457],[0.1116,43.2451],[0.1119,43.2448],[0.1118,43.2445],[0.1121,43.2442],[0.1117,43.2437],[0.1121,43.2436],[0.1123,43.2432],[0.1122,43.2428],[0.1125,43.2427]]]},"properties":{"id_ffco":"2010-D65-16","nom":"Le bois d'Aureilhan","_dept":"65","numero":"2010-D65-16","commune":"Aureilhan","echelle":"1/5000","surface":"0.4 km²","format":"A4","annee":"2010","cartographes":"Thomas Olivier","proprietaire":"65 - Hautes-Pyrénées","niveau":"Initiation, Scolaire","specialite":"CO à pied","contacts":"CDCO 65, http://www.o65.fr/","latitude":"43.2468465048","longitude":"0.113976623003","date_saisie":"03/03/2015","date_depot":"01/01/2010","valide":"Oui","ppo":"Non","type_carte":"Nouvelle carte","fond":"Ortho","obsolete":false}},{"type":"Feature","geometry":{"type":"Polygon","coordinates":[[[0.0755,43.2236],[0.076,43.2217],[0.0713,43.2211],[0.0712,43.2196],[0.0717,43.219],[0.0735,43.2187],[0.0748,43.2186],[0.0774,43.219],[0.0785,43.2191],[0.0779,43.2219],[0.0774,43.2239],[0.0755,43.2236]]]},"properties":{"id_ffco":"2010-D65-15","nom":"Complexe sportif Tarbes","_dept":"65","numero":"2010-D65-15","commune":"Tarbes","echelle":"1/3000","surface":"0.2 km²","format":"A4","annee":"2010","cartographes":"Thomas Olivier","proprietaire":"65 - Hautes-Pyrénées","niveau":"Initiation, Scolaire","specialite":"CO à pied","contacts":"CDCO 65, http://www.o65.fr/","latitude":"43.2206028204","longitude":"0.075235084811","date_saisie":"03/03/2015","date_depot":"01/01/2010","valide":"Oui","ppo":"Non","type_carte":"Nouvelle carte","fond":"Ortho","obsolete":false}},{"type":"Feature","geometry":{"type":"Polygon","coordinates":[[[0.0917,43.2152],[0.0949,43.2154],[0.0957,43.2137],[0.0952,43.2131],[0.0951,43.2119],[0.0947,43.2109],[0.0949,43.2098],[0.0953,43.2084],[0.0953,43.2078],[0.0937,43.2079],[0.0932,43.2083],[0.092,43.2104],[0.0912,43.2114],[0.0914,43.2126],[0.0912,43.214],[0.0914,43.2145],[0.0917,43.2152]]]},"properties":{"id_ffco":"2010-D65-14","nom":"Lac de Soues","_dept":"65","numero":"2010-D65-14","commune":"Soues","echelle":"1/4000","surface":"0.22 km²","format":"A4","annee":"2010","cartographes":"Thomas Olivier","proprietaire":"65 - Hautes-Pyrénées","niveau":"Initiation, Scolaire","specialite":"CO à pied","contacts":"CDCO 65, http://www.o65.fr/","latitude":"43.2120187997","longitude":"0.0934394179938","date_saisie":"03/03/2015","date_depot":"01/01/2010","valide":"Oui","ppo":"Non","type_carte":"Nouvelle carte","fond":"Ortho","obsolete":false}},{"type":"Feature","geometry":{"type":"Polygon","coordinates":[[[0.1481,43.0505],[0.1467,43.0509],[0.146,43.0514],[0.1467,43.0522],[0.1455,43.0527],[0.1458,43.0531],[0.1456,43.0535],[0.1451,43.054],[0.1447,43.0544],[0.1446,43.0548],[0.1449,43.0552],[0.1448,43.0555],[0.1451,43.0559],[0.1451,43.0564],[0.145,43.057],[0.1453,43.0577],[0.1458,43.0583],[0.1466,43.0591],[0.147,43.0593],[0.1477,43.0592],[0.1475,43.0588],[0.1471,43.0581],[0.1467,43.0576],[0.1464,43.057],[0.1465,43.0566],[0.1469,43.0561],[0.147,43.0555],[0.1476,43.0548],[0.1481,43.054],[0.1483,43.0534],[0.1485,43.0529],[0.1485,43.0524],[0.1483,43.052],[0.1498,43.0519],[0.1504,43.0513],[0.1496,43.0494],[0.1492,43.0493],[0.1484,43.0502],[0.1481,43.0505]]]},"properties":{"id_ffco":"2009-D65-13","nom":"Vallon du Salut","_dept":"65","numero":"2009-D65-13","commune":"Bagnères de Bigorre","echelle":"1/4000","surface":"0.19 km²","format":"A4","annee":"2009","cartographes":"Olivier THOMAS","proprietaire":"Collège Blanche Odin Bagnères de Bigorre","niveau":"Initiation, Scolaire","specialite":"CO à pied","contacts":"CDCO 65, http://www.o65.fr/","latitude":"43.053846224","longitude":"0.1470963577","date_saisie":"03/03/2015","date_depot":"01/01/2009","valide":"Oui","ppo":"Non","type_carte":"Nouvelle carte","fond":"Cadastre","obsolete":false}},{"type":"Feature","geometry":{"type":"Polygon","coordinates":[[[0.1465,43.0601],[0.145,43.0595],[0.1436,43.0592],[0.1432,43.0598],[0.1425,43.0602],[0.1419,43.0605],[0.1421,43.0602],[0.142,43.0599],[0.1413,43.0602],[0.1401,43.0608],[0.1383,43.0613],[0.1371,43.0616],[0.1363,43.0621],[0.1356,43.0627],[0.1357,43.0631],[0.1369,43.0631],[0.1376,43.0635],[0.1378,43.064],[0.1373,43.0645],[0.1367,43.065],[0.1365,43.0653],[0.1366,43.0656],[0.1365,43.0657],[0.1358,43.0659],[0.1356,43.0661],[0.1358,43.0663],[0.1363,43.0666],[0.1367,43.0669],[0.1369,43.0671],[0.1369,43.0675],[0.1366,43.0672],[0.1356,43.0684],[0.1362,43.0686],[0.1374,43.0689],[0.139,43.0685],[0.1399,43.068],[0.1404,43.0675],[0.1404,43.068],[0.141,43.0676],[0.1414,43.0673],[0.1421,43.067],[0.1423,43.0668],[0.1429,43.0667],[0.1438,43.0668],[0.1438,43.0664],[0.1438,43.0661],[0.1437,43.0658],[0.144,43.0656],[0.1446,43.065],[0.1452,43.0646],[0.1447,43.0642],[0.1447,43.064],[0.1451,43.0632],[0.1458,43.0627],[0.148,43.062],[0.1482,43.0614],[0.1478,43.0612],[0.1472,43.0612],[0.1465,43.0601]]]},"properties":{"id_ffco":"2009-D65-12","nom":"Le bedat 3","_dept":"65","numero":"2009-D65-12","commune":"Bagneres de Bigorre","echelle":"1/4000","surface":"0.59 km²","format":"A4","annee":"2009","cartographes":"Thomas Olivier","proprietaire":"65 - Hautes-Pyrénées","niveau":"Initiation, Scolaire","specialite":"CO à pied","contacts":"CDCO 65, http://www.o65.fr/","latitude":"43.0638303421","longitude":"0.141137000416","date_saisie":"03/03/2015","date_depot":"01/01/2009","valide":"Oui","ppo":"Non","type_carte":"Reprise","base":"1999-D65-07 LE BEDAT 2","fond":"Cadastre","obsolete":false}},{"type":"Feature","geometry":{"type":"Polygon","coordinates":[[[-0.0768,43.0984],[-0.0766,43.0946],[-0.0775,43.0949],[-0.0784,43.0953],[-0.0795,43.0953],[-0.0812,43.0955],[-0.0836,43.0956],[-0.0857,43.0956],[-0.0871,43.0953],[-0.0883,43.0951],[-0.0888,43.0943],[-0.0905,43.0939],[-0.0919,43.0938],[-0.0955,43.0936],[-0.0967,43.0938],[-0.0983,43.0943],[-0.0991,43.0944],[-0.1002,43.0941],[-0.1008,43.0941],[-0.1009,43.0938],[-0.1006,43.0921],[-0.1004,43.0909],[-0.1012,43.0911],[-0.1016,43.0913],[-0.1021,43.0913],[-0.1026,43.091],[-0.1031,43.0908],[-0.1042,43.0911],[-0.1048,43.091],[-0.1056,43.0909],[-0.1062,43.0909],[-0.1072,43.0908],[-0.1077,43.091],[-0.1086,43.091],[-0.1093,43.091],[-0.1095,43.091],[-0.1096,43.0918],[-0.1099,43.0921],[-0.1102,43.0928],[-0.1107,43.0932],[-0.1111,43.0934],[-0.1112,43.0943],[-0.1127,43.0946],[-0.1142,43.0949],[-0.1149,43.0949],[-0.1158,43.0949],[-0.1167,43.0951],[-0.1177,43.0955],[-0.1185,43.0952],[-0.1191,43.095],[-0.1197,43.0955],[-0.1202,43.0959],[-0.1208,43.0957],[-0.1214,43.0955],[-0.1222,43.0955],[-0.1227,43.0959],[-0.1236,43.096],[-0.1249,43.0962],[-0.1258,43.0968],[-0.1277,43.0973],[-0.1283,43.0976],[-0.1284,43.0988],[-0.1272,43.0994],[-0.1264,43.1001],[-0.1258,43.1008],[-0.1251,43.1013],[-0.1239,43.1014],[-0.1226,43.1014],[-0.1211,43.1017],[-0.1189,43.1027],[-0.1177,43.103],[-0.1158,43.1033],[-0.1143,43.1033],[-0.1121,43.1032],[-0.1101,43.1028],[-0.1073,43.1023],[-0.1063,43.1021],[-0.1044,43.102],[-0.1017,43.1013],[-0.0991,43.1003],[-0.0968,43.0996],[-0.0951,43.0994],[-0.0927,43.0996],[-0.0906,43.0998],[-0.0887,43.1002],[-0.0873,43.1005],[-0.0855,43.1004],[-0.083,43.1001],[-0.0814,43.0994],[-0.0804,43.0988],[-0.0782,43.0982],[-0.0768,43.0984]]]},"properties":{"id_ffco":"2004-D65-11","nom":"Bois de Lourdes 3","_dept":"65","numero":"2004-D65-11","commune":"Lourdes","echelle":"1/15000","surface":"3.12 km²","format":"A4","annee":"2004","cartographes":"Benoit BLIEN","proprietaire":"Lycee professionnel de LOURDES","niveau":"Régional","specialite":"CO à pied","contacts":"CDCO 65, http://www.o65.fr/","latitude":"43.0975494726","longitude":"-0.10427053558","date_saisie":"03/03/2015","date_depot":"01/01/2004","valide":"Oui","ppo":"Non","type_carte":"Nouvelle carte","fond":"Ortho","obsolete":false}},{"type":"Feature","geometry":{"type":"Polygon","coordinates":[[[-0.0944,43.0995],[-0.0945,43.0936],[-0.096,43.0936],[-0.0975,43.0941],[-0.0989,43.0943],[-0.0995,43.0942],[-0.1007,43.094],[-0.1003,43.0932],[-0.1002,43.0923],[-0.0994,43.0919],[-0.0985,43.0917],[-0.0981,43.091],[-0.0978,43.0902],[-0.0983,43.0893],[-0.0987,43.0893],[-0.0996,43.0894],[-0.1006,43.0894],[-0.1019,43.0893],[-0.1024,43.0893],[-0.1048,43.0893],[-0.1077,43.0893],[-0.1113,43.089],[-0.1113,43.0911],[-0.1112,43.0943],[-0.1133,43.0947],[-0.1145,43.095],[-0.1153,43.0948],[-0.116,43.095],[-0.1168,43.0952],[-0.1175,43.0954],[-0.1184,43.0953],[-0.119,43.095],[-0.1196,43.0953],[-0.1201,43.0959],[-0.1208,43.0958],[-0.1215,43.0955],[-0.1227,43.0958],[-0.124,43.096],[-0.1249,43.0963],[-0.1259,43.0968],[-0.127,43.0971],[-0.128,43.0973],[-0.1285,43.0988],[-0.127,43.0996],[-0.1263,43.1003],[-0.1256,43.1011],[-0.1248,43.1014],[-0.1235,43.1013],[-0.122,43.1015],[-0.1199,43.1024],[-0.1179,43.103],[-0.1153,43.1033],[-0.1133,43.1033],[-0.1105,43.1028],[-0.109,43.1026],[-0.1075,43.1024],[-0.1058,43.1021],[-0.104,43.102],[-0.1024,43.1015],[-0.1003,43.1009],[-0.0983,43.1002],[-0.0957,43.0995],[-0.0944,43.0995]]]},"properties":{"id_ffco":"2004-D65-10","nom":"Bois de Lourdes 2","_dept":"65","numero":"2004-D65-10","commune":"Lourdes","echelle":"1/10000","surface":"2.64 km²","format":"A4","annee":"2004","cartographes":"Benoit BLIEN","proprietaire":"Lycée professiopnnel de LOURDES","niveau":"Interrégional","specialite":"CO à pied","contacts":"CDCO 65, http://www.o65.fr/","latitude":"43.0969571789","longitude":"-0.109430060791","date_saisie":"03/03/2015","date_depot":"01/01/2004","valide":"Oui","ppo":"Non","type_carte":"Nouvelle carte","fond":"Ortho","obsolete":false}},{"type":"Feature","geometry":{"type":"Polygon","coordinates":[[[-0.0767,43.0985],[-0.0771,43.0966],[-0.0771,43.0945],[-0.0804,43.0952],[-0.0838,43.0954],[-0.0871,43.0953],[-0.0884,43.095],[-0.0891,43.0942],[-0.0906,43.0939],[-0.092,43.0939],[-0.0948,43.0937],[-0.0974,43.0941],[-0.099,43.0943],[-0.0994,43.0944],[-0.0994,43.0962],[-0.0995,43.0988],[-0.0992,43.1007],[-0.0971,43.1],[-0.0942,43.0995],[-0.0917,43.0998],[-0.0901,43.1001],[-0.0882,43.1005],[-0.0853,43.1005],[-0.0825,43.1],[-0.0811,43.0991],[-0.0795,43.0986],[-0.078,43.0984],[-0.0767,43.0985]]]},"properties":{"id_ffco":"2004-D65-09","nom":"Bois de Lourdes 1","_dept":"65","numero":"2004-D65-09","commune":"Lourdes","echelle":"1/7500","surface":"1.06 km²","format":"A4","annee":"2004","cartographes":"Benoit BLIEN","proprietaire":"Lycée professionnel de LOURDES","niveau":"Régional","specialite":"CO à pied","contacts":"CDCO 65, http://www.o65.fr/","latitude":"43.0972070675","longitude":"-0.0892394943356","date_saisie":"03/03/2015","date_depot":"01/01/2004","valide":"Oui","ppo":"Non","type_carte":"Nouvelle carte","fond":"Ortho","obsolete":false}},{"type":"Feature","geometry":{"type":"Polygon","coordinates":[[[-0.0101,42.7349],[-0.0104,42.735],[-0.0131,42.7348],[-0.0129,42.7341],[-0.0142,42.7339],[-0.0162,42.7348],[-0.0173,42.7349],[-0.0187,42.7347],[-0.0206,42.7348],[-0.0222,42.7353],[-0.0244,42.7371],[-0.0257,42.7387],[-0.0268,42.7399],[-0.0271,42.741],[-0.0274,42.742],[-0.0277,42.7426],[-0.0291,42.7428],[-0.0299,42.7428],[-0.0307,42.7431],[-0.0325,42.7433],[-0.0328,42.7435],[-0.0352,42.7435],[-0.036,42.7443],[-0.0342,42.7463],[-0.0332,42.7459],[-0.0318,42.746],[-0.0306,42.746],[-0.0295,42.7458],[-0.0288,42.7457],[-0.0285,42.7456],[-0.0282,42.7454],[-0.0279,42.7454],[-0.0267,42.7451],[-0.0252,42.7447],[-0.0242,42.7444],[-0.0229,42.7438],[-0.0217,42.7434],[-0.0215,42.7431],[-0.0205,42.7428],[-0.0199,42.7429],[-0.019,42.7427],[-0.0178,42.7425],[-0.0175,42.7423],[-0.0179,42.742],[-0.0189,42.7419],[-0.0193,42.7418],[-0.0182,42.7415],[-0.0171,42.7415],[-0.0168,42.7415],[-0.0155,42.7416],[-0.0144,42.741],[-0.0129,42.7407],[-0.0108,42.7403],[-0.01,42.7398],[-0.0103,42.7392],[-0.0108,42.7384],[-0.0111,42.7379],[-0.0106,42.7362],[-0.0097,42.7357],[-0.0097,42.7353],[-0.0101,42.7349]]]},"properties":{"id_ffco":"2000-D65-08","nom":"Gavarnie La Grange de Holle","_dept":"65","numero":"2000-D65-08","commune":"Gavarnie","echelle":"1/15000","surface":"1.27 km²","format":"A4","annee":"2000","cartographes":"S. RUFFIO","proprietaire":"CHALET REFUGE LA GRANGE DE HOLLE","niveau":"Régional","specialite":"CO à pied","contacts":"CDCO 65, http://www.o65.fr/","latitude":"42.739899429","longitude":"-0.0209838090349","date_saisie":"02/03/2015","date_depot":"01/01/2000","valide":"Oui","ppo":"Non","type_carte":"Nouvelle carte","fond":"Cadastre","obsolete":false}},{"type":"Feature","geometry":{"type":"Polygon","coordinates":[[[-0.0564,43.0966],[-0.0576,43.096],[-0.0576,43.0964],[-0.058,43.0963],[-0.0588,43.0959],[-0.0591,43.0958],[-0.0596,43.0959],[-0.06,43.0957],[-0.0601,43.0953],[-0.0606,43.0953],[-0.0613,43.0953],[-0.0626,43.0943],[-0.0633,43.0937],[-0.0637,43.0931],[-0.0648,43.0929],[-0.0648,43.0906],[-0.0638,43.0884],[-0.0608,43.0871],[-0.0595,43.0865],[-0.0583,43.0862],[-0.0578,43.0866],[-0.0578,43.0869],[-0.0589,43.0882],[-0.0597,43.0908],[-0.0594,43.0914],[-0.0587,43.0918],[-0.0582,43.0921],[-0.0583,43.0922],[-0.0587,43.0922],[-0.0587,43.0924],[-0.0581,43.0929],[-0.0579,43.0932],[-0.0579,43.0936],[-0.0579,43.0941],[-0.0575,43.0952],[-0.057,43.0957],[-0.0563,43.0962],[-0.0557,43.0965],[-0.0558,43.0967],[-0.0564,43.0966]]]},"properties":{"id_ffco":"2025-D65-074","nom":"Cité St Pierre et le Village des Jeunes","_dept":"65","numero":"2025-D65-074","commune":"Lourdes","echelle":"1/4000","surface":"0.41 km²","format":"A4","annee":"2025","cartographes":"Patrick Castello","proprietaire":"65 - Hautes-Pyrénées","niveau":"Départemental","specialite":"CO à pied","latitude":"43.0914698403","longitude":"-0.0609734556521","date_saisie":"04/01/2026","valide":"Non","ppo":"Non","type_carte":"Nouvelle carte","fond":"Laser","obsolete":false}},{"type":"Feature","geometry":{"type":"Polygon","coordinates":[[[-0.0615,43.0924],[-0.0622,43.0926],[-0.0618,43.0943],[-0.0611,43.0954],[-0.0599,43.0952],[-0.0585,43.0959],[-0.058,43.0962],[-0.0577,43.0963],[-0.0576,43.0958],[-0.0564,43.0963],[-0.0562,43.0967],[-0.0555,43.0963],[-0.0567,43.0953],[-0.0578,43.0937],[-0.0579,43.0933],[-0.0579,43.093],[-0.0581,43.093],[-0.0584,43.0928],[-0.0589,43.0924],[-0.0589,43.0923],[-0.0589,43.0921],[-0.0587,43.0921],[-0.0585,43.0922],[-0.0583,43.0923],[-0.0582,43.0922],[-0.0583,43.092],[-0.0588,43.0918],[-0.0592,43.0915],[-0.0595,43.0914],[-0.0596,43.0912],[-0.0597,43.0909],[-0.0598,43.0907],[-0.0599,43.0907],[-0.0602,43.0907],[-0.0615,43.0924]]]},"properties":{"id_ffco":"2025-D65-073","nom":"Village des Jeunes","_dept":"65","numero":"2025-D65-073","commune":"Lourdes","echelle":"1/3000","surface":"0.16 km²","format":"A4","annee":"2025","cartographes":"Patrick Castello","proprietaire":"65 - Hautes-Pyrénées","niveau":"Initiation, Scolaire","specialite":"CO à pied","latitude":"43.0938025921","longitude":"-0.05942318069","date_saisie":"04/01/2026","valide":"Non","ppo":"Non","type_carte":"Nouvelle carte","fond":"Laser","obsolete":false}},{"type":"Feature","geometry":{"type":"Polygon","coordinates":[[[-0.058,43.0871],[-0.0588,43.088],[-0.0592,43.0894],[-0.0597,43.0908],[-0.0606,43.091],[-0.0616,43.0924],[-0.0621,43.0926],[-0.0618,43.0937],[-0.0617,43.0943],[-0.0611,43.0952],[-0.0612,43.0955],[-0.0624,43.0946],[-0.0632,43.0937],[-0.0638,43.0928],[-0.065,43.0929],[-0.0665,43.0928],[-0.0676,43.0924],[-0.0678,43.0918],[-0.0675,43.0909],[-0.0662,43.0894],[-0.0646,43.0886],[-0.0638,43.0884],[-0.0625,43.0878],[-0.0609,43.0871],[-0.0592,43.0865],[-0.0585,43.0862],[-0.058,43.0865],[-0.058,43.0871]]]},"properties":{"id_ffco":"2025-D65-072","nom":"Cité St Pierre","_dept":"65","numero":"2025-D65-072","commune":"Lourdes","echelle":"1/4000","surface":"0.35 km²","format":"A4","annee":"2025","cartographes":"Patrick Castello","proprietaire":"65 - Hautes-Pyrénées","niveau":"Départemental","specialite":"CO à pied","latitude":"43.0903459434","longitude":"-0.0628540877656","date_saisie":"04/01/2026","valide":"Non","ppo":"Non","type_carte":"Nouvelle carte","fond":"Laser","obsolete":false}},{"type":"Feature","geometry":{"type":"Polygon","coordinates":[[[0.3577,42.906],[0.3576,42.9067],[0.3577,42.9071],[0.3589,42.9081],[0.3593,42.9082],[0.3612,42.9078],[0.3625,42.9071],[0.3629,42.906],[0.3634,42.905],[0.3635,42.9043],[0.363,42.904],[0.3622,42.9036],[0.3618,42.9031],[0.3616,42.9024],[0.3615,42.9022],[0.3607,42.901],[0.3607,42.9007],[0.36,42.8997],[0.3594,42.8997],[0.3584,42.9],[0.3584,42.9011],[0.3581,42.9021],[0.3567,42.9025],[0.3557,42.9028],[0.3563,42.9033],[0.3567,42.9038],[0.3571,42.9043],[0.3575,42.9048],[0.3574,42.9052],[0.3574,42.9055],[0.3576,42.9056],[0.3577,42.906]]]},"properties":{"id_ffco":"2025-D65-071","nom":"Arreau Ville","_dept":"65","numero":"2025-D65-071","commune":"Arreau","echelle":"1/4000","surface":"0.33 km²","format":"A4","annee":"2025","cartographes":"Patrick Castello","proprietaire":"65 - Hautes-Pyrénées","niveau":"Départemental","specialite":"CO à pied","latitude":"42.904295019","longitude":"0.359842765026","date_saisie":"04/01/2026","valide":"Non","ppo":"Non","type_carte":"Nouvelle carte","fond":"Laser","obsolete":false}},{"type":"Feature","geometry":{"type":"Polygon","coordinates":[[[0.3653,42.9018],[0.3661,42.9018],[0.3665,42.9017],[0.3677,42.9016],[0.3687,42.9016],[0.3696,42.9017],[0.3707,42.9016],[0.3716,42.9014],[0.3721,42.9014],[0.3723,42.9009],[0.3715,42.9004],[0.372,42.9],[0.3724,42.8996],[0.3727,42.8991],[0.3725,42.8987],[0.3719,42.8981],[0.3711,42.8979],[0.3709,42.8979],[0.3705,42.898],[0.3703,42.898],[0.3701,42.8979],[0.3692,42.8983],[0.3683,42.8987],[0.3677,42.8992],[0.3669,42.8995],[0.3662,42.8999],[0.3664,42.9002],[0.3668,42.9007],[0.366,42.9011],[0.3655,42.9015],[0.3653,42.9018]]]},"properties":{"id_ffco":"2024-D65-070","nom":"Oxygers","_dept":"65","numero":"2024-D65-070","commune":"Arreau","echelle":"1/2500","surface":"0.17 km²","format":"A4","annee":"2024","cartographes":"Patrick Castello","proprietaire":"65 - Hautes-Pyrénées","niveau":"Initiation, Scolaire","specialite":"CO à pied","latitude":"42.9000272484","longitude":"0.36947014139","date_saisie":"04/01/2026","valide":"Non","ppo":"Non","type_carte":"Nouvelle carte","fond":"Ortho","obsolete":false}},{"type":"Feature","geometry":{"type":"Polygon","coordinates":[[[0.144,43.066],[0.1442,43.0671],[0.1387,43.0706],[0.137,43.072],[0.1353,43.0734],[0.1332,43.074],[0.1303,43.0735],[0.1279,43.0726],[0.128,43.0695],[0.1299,43.0688],[0.1307,43.0679],[0.1311,43.0667],[0.1308,43.0655],[0.1301,43.0645],[0.1293,43.0644],[0.1294,43.062],[0.1314,43.0608],[0.1304,43.06],[0.1292,43.0591],[0.1299,43.0579],[0.1327,43.0569],[0.1347,43.0564],[0.136,43.0563],[0.1375,43.0569],[0.1394,43.0575],[0.1411,43.058],[0.1418,43.0588],[0.142,43.0592],[0.1414,43.0603],[0.1405,43.0612],[0.1411,43.0618],[0.1435,43.062],[0.1438,43.0628],[0.1443,43.0637],[0.144,43.066]]]},"properties":{"id_ffco":"1999-D65-07","nom":"LE BEDAT 2","_dept":"65","numero":"1999-D65-07","commune":"BAGNERES DE BIGORRE","echelle":"1/10000","surface":"1.76 km²","format":"A4","annee":"1999","cartographes":"B. MORTLLIER","proprietaire":"65 - Hautes-Pyrénées","niveau":"Interrégional","specialite":"CO à pied","latitude":"43.0649976788","longitude":"0.135726922061","date_saisie":"23/11/2001","date_depot":"06/12/2001","valide":"Oui","ppo":"Non","type_carte":"Reprise","base":"1994-D65-05 BEDAT","fond":"Ortho","obsolete":false}},{"type":"Feature","geometry":{"type":"Polygon","coordinates":[[[-0.016,43.2277],[-0.0164,43.2254],[-0.0174,43.223],[-0.0191,43.2221],[-0.0189,43.2214],[-0.0189,43.2206],[-0.02,43.2195],[-0.0202,43.2186],[-0.0204,43.2177],[-0.0232,43.2183],[-0.0273,43.2197],[-0.031,43.22],[-0.035,43.2205],[-0.0404,43.2216],[-0.0443,43.2229],[-0.044,43.2266],[-0.0436,43.2303],[-0.0426,43.2325],[-0.0372,43.2331],[-0.0326,43.2335],[-0.0283,43.2339],[-0.0243,43.2335],[-0.0211,43.2322],[-0.0183,43.2303],[-0.016,43.2277]]]},"properties":{"id_ffco":"2024-D65-069","nom":"Bois de Bergos","_dept":"65","numero":"2024-D65-069","commune":"Ibos","echelle":"1/10000","surface":"3.05 km²","format":"A4","annee":"2024","cartographes":"Patrick Castello","proprietaire":"65 - Hautes-Pyrénées","niveau":"Régional","specialite":"CO à pied","latitude":"43.2265151376","longitude":"-0.0301060390144","date_saisie":"04/01/2026","valide":"Non","ppo":"Non","type_carte":"Nouvelle carte","fond":"Ortho","obsolete":false}},{"type":"Feature","geometry":{"type":"Polygon","coordinates":[[[0.0494,43.3829],[0.0484,43.3829],[0.0476,43.3827],[0.0457,43.3823],[0.0459,43.3809],[0.0455,43.3809],[0.0451,43.3798],[0.0442,43.3798],[0.0442,43.379],[0.0443,43.3778],[0.0443,43.3771],[0.0439,43.3769],[0.0439,43.3767],[0.0435,43.3766],[0.0436,43.3761],[0.0438,43.3758],[0.0455,43.3759],[0.0456,43.3753],[0.0458,43.3752],[0.0483,43.3754],[0.0489,43.3756],[0.0491,43.3769],[0.0495,43.3777],[0.0503,43.3786],[0.0505,43.3794],[0.0502,43.3796],[0.0494,43.3796],[0.0489,43.3799],[0.0487,43.3805],[0.0486,43.3812],[0.0486,43.3818],[0.0489,43.3824],[0.0493,43.3826],[0.0494,43.3829]]]},"properties":{"id_ffco":"2024-D65-068","nom":"Lycée Agricole et l'Hippodrome","_dept":"65","numero":"2024-D65-068","commune":"Vic-en-Bigorre","echelle":"1/4000","surface":"0.29 km²","format":"A4","annee":"2024","cartographes":"Patrick Castello","proprietaire":"65 - Hautes-Pyrénées","niveau":"Initiation, Scolaire","specialite":"CO à pied","latitude":"43.3786474838","longitude":"0.0469948520355","date_saisie":"04/01/2026","valide":"Non","ppo":"Non","type_carte":"Nouvelle carte","fond":"Ortho","obsolete":false}},{"type":"Feature","geometry":{"type":"Polygon","coordinates":[[[0.0458,43.3821],[0.046,43.3823],[0.0462,43.3825],[0.0468,43.3827],[0.0476,43.3829],[0.0477,43.3828],[0.0479,43.3828],[0.0479,43.3827],[0.0484,43.3828],[0.0484,43.3829],[0.0487,43.3829],[0.0492,43.3828],[0.0493,43.3827],[0.049,43.3824],[0.0488,43.3821],[0.0486,43.3818],[0.0486,43.3816],[0.0486,43.3813],[0.0487,43.3811],[0.0487,43.3807],[0.0487,43.3805],[0.0457,43.3806],[0.0458,43.3809],[0.0459,43.3808],[0.0459,43.3813],[0.0458,43.3814],[0.0458,43.3814],[0.0458,43.3821]]]},"properties":{"id_ffco":"2024-D65-067","nom":"Lycée Agricole Jean Monnet","_dept":"65","numero":"2024-D65-067","commune":"Vic-en-Bigorre","echelle":"1/1500","surface":"0.06 km²","format":"A4","annee":"2024","cartographes":"Patrick Castello","proprietaire":"65 - Hautes-Pyrénées","niveau":"Initiation, Scolaire","specialite":"CO à pied","latitude":"43.3816719653","longitude":"0.0473706412785","date_saisie":"04/01/2026","valide":"Non","ppo":"Non","type_carte":"Nouvelle carte","fond":"Ortho","obsolete":false}},{"type":"Feature","geometry":{"type":"Polygon","coordinates":[[[0.0501,43.3795],[0.0495,43.3793],[0.0486,43.3799],[0.0484,43.3807],[0.0483,43.3814],[0.0484,43.382],[0.049,43.3828],[0.0497,43.3833],[0.0498,43.3835],[0.0504,43.3833],[0.0506,43.3831],[0.05,43.382],[0.0498,43.3815],[0.0497,43.3814],[0.0494,43.3802],[0.0498,43.3799],[0.05,43.3799],[0.0502,43.3797],[0.0501,43.3795]]]},"properties":{"id_ffco":"2024-D65-066","nom":"Parc Naturel de l'Echez","_dept":"65","numero":"2024-D65-066","commune":"Vic-en-Bigorre","echelle":"1/2000","surface":"0.04 km²","format":"A4","annee":"2024","cartographes":"Patrick Castello","proprietaire":"65 - Hautes-Pyrénées","niveau":"Initiation, Scolaire","specialite":"CO à pied","latitude":"43.3814696407","longitude":"0.0493201159025","date_saisie":"04/01/2026","valide":"Non","ppo":"Non","type_carte":"Nouvelle carte","fond":"Ortho","obsolete":false}},{"type":"Feature","geometry":{"type":"Polygon","coordinates":[[[0.0441,43.382],[0.048,43.3834],[0.0482,43.3831],[0.0468,43.3826],[0.0446,43.3819],[0.0441,43.382]]]},"properties":{"id_ffco":"2024-D65-065","nom":"Les Acacias","_dept":"65","numero":"2024-D65-065","commune":"Vic-en-Bigorre","echelle":"1/1200","surface":"0.01 km²","format":"A4","annee":"2024","cartographes":"Patrick Castello","proprietaire":"65 - Hautes-Pyrénées","niveau":"Initiation, Scolaire","specialite":"CO à pied","latitude":"43.3826438946","longitude":"0.0462881267604","date_saisie":"04/01/2026","valide":"Non","ppo":"Non","type_carte":"Nouvelle carte","fond":"Ortho","obsolete":false}},{"type":"Feature","geometry":{"type":"Polygon","coordinates":[[[0.0546,43.2222],[0.0554,43.224],[0.0554,43.2269],[0.0545,43.228],[0.0515,43.228],[0.0494,43.228],[0.0491,43.2282],[0.0498,43.2289],[0.0499,43.2299],[0.0498,43.2306],[0.0488,43.2309],[0.0478,43.2306],[0.047,43.2306],[0.0464,43.2305],[0.046,43.2302],[0.046,43.2296],[0.046,43.2291],[0.0456,43.2279],[0.0456,43.2276],[0.0457,43.2274],[0.0458,43.227],[0.0462,43.2265],[0.0464,43.226],[0.0468,43.2257],[0.0476,43.2255],[0.0482,43.2253],[0.0485,43.2249],[0.0484,43.2241],[0.0484,43.2235],[0.047,43.2234],[0.0465,43.2235],[0.0461,43.2233],[0.0458,43.223],[0.045,43.2229],[0.044,43.2227],[0.0431,43.2226],[0.0426,43.2227],[0.0422,43.2225],[0.0422,43.2221],[0.0427,43.2217],[0.043,43.2211],[0.0436,43.2194],[0.0439,43.2186],[0.0451,43.2189],[0.0456,43.2191],[0.0464,43.219],[0.047,43.2191],[0.0476,43.2194],[0.0482,43.2197],[0.0493,43.2199],[0.0499,43.2203],[0.0503,43.2212],[0.0506,43.221],[0.0507,43.2213],[0.0506,43.2221],[0.0524,43.2221],[0.0546,43.2222]]]},"properties":{"id_ffco":"2023-D65-064","nom":"Centre Universitaire de Tarbes","_dept":"65","numero":"2023-D65-064","commune":"Tarbes","echelle":"1/4000","surface":"0.73 km²","format":"A3","annee":"2023","cartographes":"Patrick Castello","proprietaire":"65 - Hautes-Pyrénées","niveau":"Départemental","specialite":"CO à pied","latitude":"43.2244866257","longitude":"0.0492474834323","date_saisie":"04/01/2026","valide":"Non","ppo":"Non","type_carte":"Nouvelle carte","fond":"Ortho","obsolete":false}},{"type":"Feature","geometry":{"type":"Polygon","coordinates":[[[0.5026,43.2049],[0.5036,43.2065],[0.502,43.207],[0.5013,43.2071],[0.4992,43.2068],[0.4975,43.2056],[0.4968,43.2051],[0.4985,43.204],[0.5003,43.2037],[0.5015,43.2039],[0.5026,43.2043],[0.5024,43.2046],[0.5026,43.2049]]]},"properties":{"id_ffco":"2023-D65-063","nom":"Notre Dame de Garaison","_dept":"65","numero":"2023-D65-063","commune":"Monléon-Magnoac","echelle":"1/2000","surface":"0.14 km²","format":"A4","annee":"2023","cartographes":"Patrick Castello","proprietaire":"65 - Hautes-Pyrénées","niveau":"Initiation, Scolaire","specialite":"CO à pied","latitude":"43.2054055867","longitude":"0.500390788896","date_saisie":"04/01/2026","valide":"Non","ppo":"Non","type_carte":"Nouvelle carte","fond":"Ortho","obsolete":false}},{"type":"Feature","geometry":{"type":"Polygon","coordinates":[[[0.0754,43.2236],[0.076,43.2216],[0.0775,43.2219],[0.0776,43.222],[0.0774,43.2231],[0.0773,43.2238],[0.0761,43.2236],[0.0754,43.2236]]]},"properties":{"id_ffco":"2023-D65-062","nom":"Parc Bel Air","_dept":"65","numero":"2023-D65-062","commune":"Tarbes","echelle":"1/1500","surface":"0.03 km²","format":"A4","annee":"2023","cartographes":"Patrick Castello","proprietaire":"65 - Hautes-Pyrénées","niveau":"Initiation, Scolaire","specialite":"CO à pied","latitude":"43.2227265948","longitude":"0.0765647133093","date_saisie":"04/01/2026","valide":"Non","ppo":"Non","type_carte":"Nouvelle carte","fond":"Ortho","obsolete":false}},{"type":"Feature","geometry":{"type":"Polygon","coordinates":[[[0.1046,43.2352],[0.1048,43.2353],[0.1055,43.2354],[0.1065,43.2356],[0.1066,43.2339],[0.1049,43.2336],[0.1047,43.2339],[0.1047,43.2341],[0.1047,43.2342],[0.1046,43.2346],[0.1044,43.2351],[0.1046,43.2352]]]},"properties":{"id_ffco":"2023-D65-061","nom":"Collège Paul Valéry","_dept":"65","numero":"2023-D65-061","commune":"Séméac","echelle":"1/1500","surface":"0.03 km²","format":"A4","annee":"2023","cartographes":"Patrick Castello","proprietaire":"65 - Hautes-Pyrénées","niveau":"Initiation, Scolaire","specialite":"CO à pied","latitude":"43.2345805254","longitude":"0.105589017845","date_saisie":"04/01/2026","valide":"Non","ppo":"Non","type_carte":"Nouvelle carte","fond":"Ortho","obsolete":false}},{"type":"Feature","geometry":{"type":"Polygon","coordinates":[[[0.0464,43.3866],[0.0479,43.3872],[0.0485,43.3863],[0.0488,43.3861],[0.0489,43.3859],[0.049,43.3852],[0.0488,43.3852],[0.0488,43.385],[0.0485,43.385],[0.0482,43.3851],[0.0482,43.3851],[0.0481,43.3852],[0.048,43.3852],[0.048,43.3852],[0.0479,43.3852],[0.0477,43.3851],[0.047,43.3853],[0.0469,43.386],[0.0464,43.3866]]]},"properties":{"id_ffco":"2023-D65-060","nom":"Stade Menoni","_dept":"65","numero":"2023-D65-060","commune":"Vic-en-Bigorre","echelle":"1/1500","surface":"0.03 km²","format":"A4","annee":"2023","cartographes":"Patrick Castello","proprietaire":"65 - Hautes-Pyrénées","niveau":"Initiation, Scolaire","specialite":"CO à pied","latitude":"43.3860147384","longitude":"0.0477970691309","date_saisie":"04/01/2026","valide":"Non","ppo":"Non","type_carte":"Nouvelle carte","fond":"Ortho","obsolete":false}},{"type":"Feature","geometry":{"type":"Polygon","coordinates":[[[0.3896,43.1221],[0.3898,43.1223],[0.3901,43.1223],[0.3901,43.1229],[0.3894,43.1234],[0.3886,43.124],[0.3875,43.1246],[0.3868,43.1251],[0.3868,43.1259],[0.3873,43.1265],[0.3877,43.1273],[0.3878,43.1277],[0.388,43.1283],[0.3886,43.1288],[0.3889,43.1292],[0.3882,43.1294],[0.388,43.1298],[0.3878,43.1303],[0.3887,43.1326],[0.3913,43.1327],[0.3911,43.135],[0.3888,43.135],[0.3892,43.1356],[0.3911,43.1371],[0.3925,43.1384],[0.3936,43.1388],[0.3945,43.1388],[0.3965,43.139],[0.3994,43.1386],[0.4004,43.1379],[0.4004,43.1371],[0.4024,43.1366],[0.4035,43.136],[0.4056,43.1346],[0.4044,43.125],[0.403,43.1236],[0.4,43.1233],[0.3983,43.1235],[0.3943,43.1231],[0.3917,43.1224],[0.391,43.1219],[0.3896,43.1221]]]},"properties":{"id_ffco":"1996-D65-06","nom":"LES AGALES","_dept":"65","numero":"1996-D65-06","commune":"LANNEMEZAN","echelle":"1/10000","surface":"2.12 km²","format":"A4","annee":"1996","cartographes":"C. ESCUDIE","proprietaire":"college gaston febus  lycee michelet","niveau":"Régional","specialite":"CO à pied","latitude":"43.1303195189","longitude":"0.396498459324","date_saisie":"16/03/2015","date_depot":"02/11/2016","valide":"Oui","ppo":"Non","type_carte":"Nouvelle carte","fond":"Ortho","obsolete":false}},{"type":"Feature","geometry":{"type":"Polygon","coordinates":[[[0.0738,43.2396],[0.0769,43.2396],[0.0783,43.2388],[0.078,43.2364],[0.0775,43.2363],[0.0773,43.2358],[0.0756,43.2358],[0.0755,43.2363],[0.0742,43.2362],[0.0739,43.2379],[0.0738,43.2396]]]},"properties":{"id_ffco":"2023-D65-059","nom":"Jardin Massey","_dept":"65","numero":"2023-D65-059","commune":"Tarbes","echelle":"1/2000","surface":"0.13 km²","format":"A4","annee":"2023","cartographes":"Patrick Castello","proprietaire":"65 - Hautes-Pyrénées","niveau":"Initiation, Scolaire","specialite":"CO à pied","latitude":"43.2378309371","longitude":"0.0760244442995","date_saisie":"04/01/2026","valide":"Non","ppo":"Non","type_carte":"Reprise","base":"1989-D65-02 JARDIN MASSEY","fond":"Ortho","obsolete":false}},{"type":"Feature","geometry":{"type":"Polygon","coordinates":[[[0.0753,43.2282],[0.0761,43.2285],[0.0778,43.2286],[0.079,43.229],[0.0799,43.2291],[0.0802,43.2275],[0.0806,43.226],[0.0821,43.2254],[0.0827,43.224],[0.0823,43.2235],[0.081,43.2226],[0.0803,43.2225],[0.0792,43.223],[0.0786,43.2241],[0.0778,43.2253],[0.0766,43.226],[0.0759,43.2269],[0.0753,43.2282]]]},"properties":{"id_ffco":"2023-D65-058","nom":"Tarbes Bel-Air","_dept":"65","numero":"2023-D65-058","commune":"Tarbes","echelle":"1/3000","surface":"0.22 km²","format":"A4","annee":"2023","cartographes":"Patrick Castello","proprietaire":"65 - Hautes-Pyrénées","niveau":"Départemental","specialite":"CO à pied","latitude":"43.2259183724","longitude":"0.0791341923132","date_saisie":"04/01/2026","valide":"Non","ppo":"Non","type_carte":"Nouvelle carte","fond":"Ortho","obsolete":false}},{"type":"Feature","geometry":{"type":"Polygon","coordinates":[[[0.486,43.0699],[0.4872,43.0694],[0.4884,43.0694],[0.489,43.0695],[0.4898,43.0682],[0.4888,43.0679],[0.4882,43.0673],[0.4876,43.0667],[0.4865,43.0665],[0.4858,43.0665],[0.4861,43.067],[0.486,43.068],[0.4859,43.069],[0.486,43.0699]]]},"properties":{"id_ffco":"2021-D65-057","nom":"Les Ôcybelles","_dept":"65","numero":"2021-D65-057","commune":"Saint Laurent de Neste","echelle":"1/2000","surface":"0.07 km²","format":"A4","annee":"2021","cartographes":"Patrick Castello","proprietaire":"65 - Hautes-Pyrénées","niveau":"Initiation, Scolaire","specialite":"CO à pied","latitude":"43.0682449523","longitude":"0.487437027078","date_saisie":"04/01/2026","valide":"Non","ppo":"Non","type_carte":"Nouvelle carte","fond":"Ortho","obsolete":false}},{"type":"Feature","geometry":{"type":"Polygon","coordinates":[[[-0.2119,42.9549],[-0.2115,42.9547],[-0.211,42.9546],[-0.2107,42.9549],[-0.2104,42.9553],[-0.2103,42.9558],[-0.2098,42.9562],[-0.2092,42.9563],[-0.2087,42.9564],[-0.2086,42.9566],[-0.2085,42.957],[-0.2089,42.9573],[-0.2093,42.9575],[-0.2097,42.9577],[-0.2101,42.9578],[-0.2105,42.9575],[-0.2111,42.9572],[-0.2117,42.9569],[-0.2119,42.9568],[-0.2116,42.9561],[-0.2119,42.9559],[-0.2121,42.9554],[-0.2121,42.9551],[-0.2119,42.9549]]]},"properties":{"id_ffco":"2021-D65-056","nom":"Arrens-Marsous Parc des Loisirs","_dept":"65","numero":"2021-D65-056","commune":"Arrens-Marsous","echelle":"1/1500","surface":"0.05 km²","format":"A4","annee":"2021","cartographes":"Patrick Castello","proprietaire":"65 - Hautes-Pyrénées","niveau":"Initiation, Scolaire","specialite":"CO à pied","latitude":"42.9563270434","longitude":"-0.210520575496","date_saisie":"04/01/2026","valide":"Non","ppo":"Non","type_carte":"Nouvelle carte","fond":"Ortho","obsolete":false}},{"type":"Feature","geometry":{"type":"Polygon","coordinates":[[[0.144,43.0672],[0.1438,43.0669],[0.1428,43.0668],[0.1422,43.0668],[0.1417,43.0672],[0.1408,43.0671],[0.1404,43.0675],[0.1399,43.0682],[0.1386,43.0685],[0.1371,43.0687],[0.136,43.0685],[0.1357,43.0691],[0.1362,43.0698],[0.1369,43.0701],[0.1369,43.0707],[0.1362,43.0717],[0.1354,43.0726],[0.1346,43.0735],[0.133,43.0738],[0.1324,43.074],[0.1309,43.0738],[0.129,43.0728],[0.1283,43.0722],[0.129,43.0711],[0.1301,43.07],[0.1303,43.0692],[0.1304,43.0685],[0.1307,43.0674],[0.131,43.0666],[0.1312,43.0662],[0.1311,43.0654],[0.1299,43.064],[0.1293,43.0637],[0.1275,43.0639],[0.1262,43.0637],[0.1274,43.0618],[0.1293,43.0609],[0.1304,43.0605],[0.1307,43.0603],[0.1294,43.0595],[0.1293,43.0583],[0.1315,43.0571],[0.134,43.0564],[0.1357,43.056],[0.1371,43.0567],[0.139,43.0572],[0.1407,43.0576],[0.1415,43.0582],[0.1419,43.0587],[0.1417,43.0597],[0.1411,43.0605],[0.1402,43.0612],[0.1401,43.0616],[0.1416,43.0616],[0.1436,43.0619],[0.1445,43.0624],[0.1451,43.0633],[0.1443,43.0645],[0.1441,43.0658],[0.144,43.0672]]]},"properties":{"id_ffco":"1994-D65-05","nom":"BEDAT","_dept":"65","numero":"1994-D65-05","commune":"BAGNERES DE BIGORRE","echelle":"1/10000","surface":"1.67 km²","format":"A4","annee":"1994","cartographes":"B. MORTLLIER, C. PLUMERE","proprietaire":"MP - Midi-Pyrénées","niveau":"Interrégional","specialite":"CO à pied","latitude":"43.064245581","longitude":"0.135426614472","valide":"Oui","ppo":"Non","type_carte":"Nouvelle carte","fond":"Ortho","obsolete":false}},{"type":"Feature","geometry":{"type":"Polygon","coordinates":[[[-0.0126,43.2437],[-0.0123,43.2475],[-0.0115,43.2518],[-0.0126,43.2546],[-0.0137,43.2579],[-0.0138,43.2588],[-0.0125,43.26],[-0.0124,43.2605],[-0.0122,43.2619],[-0.0117,43.2639],[-0.0091,43.2668],[-0.0078,43.2687],[-0.0069,43.2717],[-0.0058,43.2729],[-0.0039,43.2745],[-0.004,43.2752],[-0.0042,43.2774],[-0.0016,43.2792],[-0.0005,43.2807],[0.0028,43.2806],[0.0036,43.2819],[0.0048,43.282],[0.0073,43.2814],[0.01,43.2804],[0.0127,43.2796],[0.0222,43.2748],[0.0243,43.2731],[0.0219,43.2698],[0.0153,43.2641],[0.0145,43.2622],[0.0138,43.2616],[0.0115,43.2624],[0.0093,43.2603],[0.0079,43.2593],[0.007,43.2576],[0.0067,43.2559],[0.005,43.254],[0.0031,43.2521],[0.0017,43.2517],[0.0004,43.2498],[-0.0005,43.2469],[-0.0009,43.244],[-0.0011,43.242],[-0.0126,43.2434],[-0.0126,43.2437]]]},"properties":{"id_ffco":"1984-D65-04","nom":"BROUHENA 2","_dept":"65","numero":"1984-D65-04","commune":"IBOS.   BORDERES","echelle":"1/15000","surface":"7.11 km²","format":"A4","annee":"1984","cartographes":"BAX, PISTICCINI","proprietaire":"65 - Hautes-Pyrénées","niveau":"Interrégional","specialite":"CO à pied","latitude":"43.264047234","longitude":"0.00212382781713","valide":"Oui","ppo":"Non","type_carte":"Nouvelle carte","fond":"Ortho","obsolete":false}},{"type":"Feature","geometry":null,"properties":{"id_ffco":"1991-D65-03","nom":"COMMANDEUR","_dept":"65","numero":"1991-D65-03","commune":"TARBES","echelle":"1/10000","surface":"1.5 km²","format":"A4","annee":"1991","proprietaire":"6502","niveau":"Interrégional","specialite":"CO à pied","latitude":"43.2328643","longitude":"0.0741208","valide":"Non","ppo":"Non","type_carte":"Nouvelle carte","fond":"Ortho","obsolete":false}},{"type":"Feature","geometry":{"type":"Polygon","coordinates":[[[0.0738,43.2396],[0.0771,43.2397],[0.0785,43.2389],[0.0783,43.2364],[0.074,43.2361],[0.0738,43.2396]]]},"properties":{"id_ffco":"1989-D65-02","nom":"JARDIN MASSEY","_dept":"65","numero":"1989-D65-02","commune":"TARBES","echelle":"1/3000","surface":"0.14 km²","format":"A4","annee":"1989","cartographes":"B BASO, BONDINI","proprietaire":"6502","niveau":"Départemental","specialite":"CO à pied","latitude":"43.2379354225","longitude":"0.0760580767659","valide":"Oui","ppo":"Non","type_carte":"Nouvelle carte","fond":"Cadastre","obsolete":false}},{"type":"Feature","geometry":{"type":"Polygon","coordinates":[[[-0.0008,43.2421],[-0.0123,43.2433],[-0.0119,43.2454],[-0.0118,43.247],[-0.0118,43.2481],[-0.0115,43.2493],[-0.0112,43.2503],[-0.0109,43.2513],[-0.012,43.2517],[-0.0117,43.2559],[-0.0121,43.2563],[-0.0133,43.2575],[-0.0138,43.2583],[-0.0138,43.2588],[-0.0132,43.2593],[-0.0123,43.2601],[-0.0121,43.2605],[-0.0121,43.2612],[-0.0117,43.263],[-0.0113,43.2641],[-0.01,43.2658],[-0.0078,43.2681],[-0.0067,43.2718],[-0.0037,43.2747],[-0.0038,43.2752],[-0.0035,43.2757],[-0.002,43.276],[-0.0025,43.2776],[-0.0007,43.2804],[-0.0,43.2822],[0.0045,43.282],[0.0083,43.2812],[0.0114,43.2799],[0.0136,43.2791],[0.0201,43.277],[0.0224,43.2762],[0.0245,43.2745],[0.0259,43.273],[0.0255,43.2702],[0.0236,43.267],[0.0154,43.2612],[0.0116,43.2627],[0.0069,43.2582],[0.0065,43.2575],[0.0037,43.2584],[0.0012,43.2534],[0.0018,43.2522],[0.0012,43.2513],[-0.0006,43.2485],[-0.001,43.2465],[-0.0011,43.2434],[-0.0008,43.2421]]]},"properties":{"id_ffco":"1984-D65-01","nom":"BOIS BROUHENA","_dept":"65","numero":"1984-D65-01","commune":"TARBES","echelle":"1/15000","surface":"7.26 km²","format":"A4","annee":"1984","proprietaire":"3101","niveau":"Interrégional","specialite":"CO à pied","latitude":"43.264790447","longitude":"0.00347907186507","valide":"Oui","ppo":"Non","type_carte":"Nouvelle carte","fond":"Ortho","obsolete":false}},{"type":"Feature","geometry":{"type":"Polygon","coordinates":[[[-0.0036,42.7226],[-0.0032,42.7234],[-0.003,42.7247],[-0.003,42.7262],[-0.0032,42.7277],[-0.0035,42.7276],[-0.0044,42.7276],[-0.0076,42.7276],[-0.0108,42.7276],[-0.013,42.7231],[-0.0171,42.7148],[-0.015,42.7109],[-0.014,42.7078],[-0.0132,42.7059],[-0.0111,42.7047],[-0.01,42.7044],[-0.0091,42.7033],[-0.0087,42.7029],[-0.0062,42.703],[-0.0053,42.7109],[-0.0039,42.7174],[-0.0036,42.7226]]]},"properties":{"id_ffco":"1989-D65-00","nom":"PRADE","_dept":"65","numero":"1989-D65-00","commune":"GAVARNIE","echelle":"1/7500","surface":"2.11 km²","format":"A4","annee":"1989","cartographes":"J.P. LABROUSSE, B. LAGOIDET","proprietaire":"65 - Hautes-Pyrénées","niveau":"Interrégional","specialite":"CO à pied","latitude":"42.716051507","longitude":"-0.0093561454513","valide":"Oui","ppo":"Non","type_carte":"Nouvelle carte","fond":"Ortho","obsolete":false}}]}