{"type":"FeatureCollection","features":[{"type":"Feature","geometry":null,"properties":{"id_ffco":"3456","nom":"SAINT ESTEPHE - L'ETANG","_dept":"66","numero":"2000-D66-68","commune":"SAINT ESTEVE","echelle":"1/2000","surface":"0.29 km²","annee":"2000","proprietaire":"66 - Pyrénées-Orientales","specialite":"CO à pied","latitude":"42.7093365","longitude":"2.845052","date_saisie":"19/02/2002","date_depot":"11/03/2002","valide":"Non","ppo":"Non","obsolete":true}},{"type":"Feature","geometry":null,"properties":{"id_ffco":"3457","nom":"SENTIER SPORTIF","_dept":"66","numero":"2000-D66-67","commune":"SAINT ESTEVE","echelle":"1/2000","surface":"0.08 km²","annee":"2000","proprietaire":"66 - Pyrénées-Orientales","specialite":"CO à pied","latitude":"42.7093365","longitude":"2.845052","date_saisie":"19/02/2002","date_depot":"11/03/2002","valide":"Non","ppo":"Non","obsolete":true}},{"type":"Feature","geometry":null,"properties":{"id_ffco":"3461","nom":"PLAN DU DESSUS","_dept":"66","numero":"2000-D66-66","commune":"SAINT ESTEVE","echelle":"1/2500","surface":"0.29 km²","annee":"2000","proprietaire":"66 - Pyrénées-Orientales","specialite":"CO à pied","latitude":"42.7093365","longitude":"2.845052","date_saisie":"19/02/2002","date_depot":"11/03/2002","valide":"Non","ppo":"Non","obsolete":true}},{"type":"Feature","geometry":null,"properties":{"id_ffco":"3460","nom":"OUEST","_dept":"66","numero":"2000-D66-65","commune":"SAINT ESTEVE","echelle":"1/2500","surface":"0.3 km²","annee":"2000","proprietaire":"66 - Pyrénées-Orientales","specialite":"CO à pied","latitude":"42.7093365","longitude":"2.845052","date_saisie":"19/02/2002","date_depot":"11/03/2002","valide":"Non","ppo":"Non","obsolete":true}},{"type":"Feature","geometry":null,"properties":{"id_ffco":"3459","nom":"SUD-OUEST","_dept":"66","numero":"2000-D66-64","commune":"SAINT ESTEVE","echelle":"1/2500","surface":"0.31 km²","annee":"2000","proprietaire":"66 - Pyrénées-Orientales","specialite":"CO à pied","latitude":"42.7093365","longitude":"2.845052","date_saisie":"19/02/2002","date_depot":"11/03/2002","valide":"Non","ppo":"Non","obsolete":true}},{"type":"Feature","geometry":null,"properties":{"id_ffco":"3458","nom":"PLAN DU DESSUS","_dept":"66","numero":"2000-D66-63","commune":"SAINT ESTEVE","echelle":"1/5000","surface":"0.3 km²","annee":"2000","proprietaire":"66 - Pyrénées-Orientales","specialite":"CO à pied","latitude":"42.7093365","longitude":"2.845052","date_saisie":"19/02/2002","date_depot":"11/03/2002","valide":"Non","ppo":"Non","obsolete":true}},{"type":"Feature","geometry":{"type":"Polygon","coordinates":[[[2.8076,42.7505],[2.8079,42.7491],[2.8087,42.7488],[2.812,42.7475],[2.8143,42.748],[2.818,42.7505],[2.8182,42.7525],[2.8153,42.7549],[2.8082,42.754],[2.8086,42.7517],[2.8076,42.7505]]]},"properties":{"id_ffco":"12225","nom":"Baixas village","_dept":"66","numero":"2020-D66-129","commune":"Baixas","echelle":"1/4000","surface":"0.52 km²","format":"A4","annee":"2020","cartographes":"Fabien Tourneur","proprietaire":"6604 - CLUB D'ORIENTATION TOUT ESPOIR 66","niveau":"Régional","specialite":"Sprint (ISSOM)","latitude":"42.7512963353","longitude":"2.81281841558","date_saisie":"26/10/2020","valide":"Non","ppo":"Non","type_carte":"Nouvelle carte","fond":"Ortho","obsolete":true}},{"type":"Feature","geometry":{"type":"Polygon","coordinates":[[[2.9742,42.5965],[2.9755,42.5962],[2.9781,42.5927],[2.9747,42.5924],[2.9726,42.5949],[2.9737,42.5955],[2.9742,42.5965]]]},"properties":{"id_ffco":"12223","nom":"Stade Maurice Erre","_dept":"66","numero":"2020-D66-127","commune":"Elne","echelle":"1/2500","surface":"0.11 km²","format":"A4","annee":"2020","cartographes":"Fabien Tourneur","proprietaire":"66 - Pyrénées-Orientales","niveau":"O+","specialite":"CO à pied","latitude":"42.5942113859","longitude":"2.97521727318","date_saisie":"26/10/2020","valide":"Non","ppo":"Non","type_carte":"Nouvelle carte","fond":"Ortho","obsolete":true}},{"type":"Feature","geometry":{"type":"Polygon","coordinates":[[[2.5609,42.6961],[2.5638,42.6948],[2.5662,42.6947],[2.5671,42.6924],[2.5697,42.6911],[2.5682,42.6861],[2.5679,42.6849],[2.5722,42.6851],[2.573,42.6864],[2.5753,42.6846],[2.5786,42.6835],[2.5766,42.6823],[2.5759,42.6825],[2.5744,42.6816],[2.5755,42.6795],[2.5774,42.6786],[2.5787,42.6778],[2.5793,42.6741],[2.5789,42.6727],[2.5769,42.673],[2.5746,42.6727],[2.5726,42.6728],[2.572,42.6748],[2.5672,42.6753],[2.5646,42.6772],[2.5628,42.6773],[2.5597,42.6769],[2.5582,42.6781],[2.5566,42.6784],[2.5554,42.6798],[2.5535,42.681],[2.5525,42.6834],[2.5526,42.6849],[2.5498,42.6852],[2.5499,42.6865],[2.5466,42.6894],[2.5466,42.6917],[2.5469,42.6934],[2.5494,42.6933],[2.5524,42.6938],[2.5537,42.6945],[2.5579,42.6954],[2.5598,42.6955],[2.5609,42.6961]]]},"properties":{"id_ffco":"8690","nom":"Montalba le Château","_dept":"66","numero":"2010-D66-085","commune":"Montalba le Château","echelle":"1/10000","surface":"3.77 km²","format":"A3","annee":"2010","cartographes":"Ray Hulse","proprietaire":"6604 - CLUB D'ORIENTATION TOUT ESPOIR 66","niveau":"Régional","specialite":"CO à pied","latitude":"42.6847974866","longitude":"2.5629048873","date_saisie":"14/10/2015","valide":"Non","ppo":"Non","type_carte":"Nouvelle carte","fond":"Ortho","obsolete":true}},{"type":"Feature","geometry":{"type":"Polygon","coordinates":[[[2.8143,42.7496],[2.8106,42.7485],[2.8082,42.7489],[2.8069,42.749],[2.8066,42.7496],[2.8046,42.7492],[2.804,42.748],[2.8018,42.7486],[2.7969,42.7484],[2.796,42.7482],[2.7927,42.7487],[2.7892,42.7503],[2.7836,42.7497],[2.7829,42.7492],[2.781,42.7491],[2.7803,42.7495],[2.78,42.7501],[2.7801,42.7612],[2.7809,42.7612],[2.7822,42.7609],[2.7831,42.761],[2.784,42.7605],[2.7849,42.7605],[2.7868,42.7599],[2.7873,42.7649],[2.7888,42.7648],[2.7899,42.7645],[2.7912,42.7644],[2.7926,42.7641],[2.7937,42.7636],[2.7949,42.7641],[2.7958,42.7639],[2.7995,42.7647],[2.8004,42.7651],[2.8006,42.7654],[2.8037,42.7656],[2.8054,42.7659],[2.8078,42.7655],[2.8115,42.7644],[2.8134,42.7635],[2.8159,42.7632],[2.8149,42.7517],[2.8142,42.7513],[2.8143,42.7496]]]},"properties":{"id_ffco":"2982","nom":"Sainte Catherine","_dept":"66","numero":"19976-D66-043","commune":"Baixas","echelle":"1/10000","surface":"4.74 km²","format":"A4","annee":"19976","cartographes":"JM Roumanie,Y Tetard,R Martinez,S Enard","proprietaire":"66 - Pyrénées-Orientales","niveau":"Départemental","specialite":"CO à pied","latitude":"42.7566114356","longitude":"2.79859415357","valide":"Non","ppo":"Non","type_carte":"Nouvelle carte","fond":"Ortho","obsolete":true}},{"type":"Feature","geometry":null,"properties":{"id_ffco":"1386","nom":"TET","_dept":"66","numero":"1984-D66-04","commune":"FONT ROMEU","echelle":"1/15000","surface":"18.0 km²","annee":"1984","proprietaire":"SSE","niveau":"Interrégional","specialite":"CO à pied","latitude":"42.50431","longitude":"2.0392531","valide":"Non","ppo":"Non","obsolete":true}},{"type":"Feature","geometry":{"type":"Polygon","coordinates":[[[2.7468,42.8175],[2.7504,42.8163],[2.7474,42.8133],[2.7451,42.8113],[2.7447,42.8096],[2.7452,42.8082],[2.7441,42.8075],[2.7421,42.8075],[2.7401,42.8079],[2.737,42.8065],[2.7334,42.8034],[2.73,42.8019],[2.7279,42.8017],[2.7195,42.8008],[2.718,42.8026],[2.7157,42.8045],[2.7168,42.8063],[2.718,42.8074],[2.7155,42.8103],[2.7159,42.8116],[2.7165,42.8123],[2.7156,42.8132],[2.7144,42.8137],[2.7142,42.815],[2.7133,42.8161],[2.7134,42.8188],[2.7129,42.8206],[2.7134,42.8217],[2.713,42.8231],[2.7156,42.8251],[2.7177,42.8254],[2.7203,42.827],[2.7217,42.8281],[2.7248,42.8299],[2.729,42.8317],[2.7304,42.8314],[2.7339,42.8326],[2.7367,42.8342],[2.7408,42.837],[2.7425,42.8379],[2.7441,42.8391],[2.7501,42.8391],[2.7509,42.8386],[2.7507,42.8306],[2.7497,42.829],[2.7463,42.8262],[2.7452,42.8243],[2.7447,42.8233],[2.7436,42.8226],[2.7428,42.8208],[2.7421,42.8202],[2.7425,42.8195],[2.7418,42.8184],[2.7416,42.8173],[2.7432,42.8162],[2.7468,42.8175]]]},"properties":{"id_ffco":"1396","nom":"Tautavel","_dept":"66","numero":"1991-D66-024","commune":"Tautavel","echelle":"1/15000","surface":"8.25 km²","format":"A4","annee":"1991","cartographes":"Jean-Michel Roumanie","proprietaire":"66 - Pyrénées-Orientales","niveau":"Interrégional","specialite":"CO à pied","latitude":"42.8191310908","longitude":"2.73188182293","valide":"Oui","ppo":"Non","type_carte":"Nouvelle carte","fond":"Ortho","obsolete":true}},{"type":"Feature","geometry":{"type":"Polygon","coordinates":[[[2.9046,42.6785],[2.9029,42.6785],[2.9029,42.678],[2.9016,42.6777],[2.9005,42.6778],[2.9001,42.6778],[2.8998,42.6773],[2.9001,42.6771],[2.8986,42.6773],[2.898,42.6779],[2.8976,42.6777],[2.8958,42.6765],[2.8965,42.6759],[2.8971,42.6754],[2.898,42.675],[2.8988,42.6744],[2.8998,42.674],[2.901,42.6733],[2.9017,42.6738],[2.9018,42.674],[2.9028,42.6741],[2.903,42.674],[2.904,42.6744],[2.9047,42.6752],[2.9048,42.6776],[2.9046,42.6785]]]},"properties":{"id_ffco":"2434","nom":"Parc des Sports du Moulin à Vent","_dept":"66","numero":"1991-D66-018","commune":"Perpignan","echelle":"1/5000","surface":"0.26 km²","format":"A5","annee":"1991","cartographes":"Philippe Bousser,JM Roumanie","proprietaire":"66 - Pyrénées-Orientales","niveau":"Initiation, Scolaire","specialite":"CO à pied","latitude":"42.6760574853","longitude":"2.90102809292","valide":"Oui","ppo":"Non","type_carte":"Nouvelle carte","fond":"Cadastre","obsolete":true}},{"type":"Feature","geometry":null,"properties":{"id_ffco":"790","nom":"QUILLANNE 2 version non identifiée","_dept":"66","numero":"1978-D66-000907","commune":"FONT ROMEU","echelle":"1/15000","surface":"7.6 km²","annee":"1978","proprietaire":"SSE","specialite":"CO à pied","latitude":"42.50431","longitude":"2.0392531","valide":"Non","ppo":"Non","obsolete":true}},{"type":"Feature","geometry":{"type":"Polygon","coordinates":[[[2.1138,42.5497],[2.1081,42.5478],[2.1047,42.5456],[2.1007,42.5438],[2.0987,42.5441],[2.0962,42.5434],[2.0923,42.5445],[2.0908,42.5454],[2.089,42.5468],[2.0874,42.5479],[2.0866,42.5468],[2.0864,42.5411],[2.0866,42.5301],[2.0888,42.5298],[2.0912,42.5285],[2.0927,42.5272],[2.0938,42.5253],[2.0948,42.5231],[2.0959,42.521],[2.0982,42.5188],[2.0996,42.5176],[2.1025,42.5172],[2.1037,42.5163],[2.105,42.516],[2.1059,42.5157],[2.1066,42.5153],[2.1096,42.5153],[2.1123,42.5155],[2.1138,42.516],[2.1127,42.5179],[2.1112,42.5194],[2.1098,42.521],[2.1087,42.5224],[2.1077,42.5239],[2.1078,42.5256],[2.1071,42.5262],[2.1085,42.527],[2.1112,42.5266],[2.112,42.5261],[2.1134,42.5267],[2.1148,42.5288],[2.1216,42.5291],[2.1239,42.5305],[2.124,42.5351],[2.1194,42.5412],[2.1138,42.5497]]]},"properties":{"id_ffco":"1387","nom":"La Quillanne - La Llagonne","_dept":"66","numero":"1984-D66-000906","commune":"Mont Louis","echelle":"1/15000","surface":"7.2 km²","format":"+","annee":"1984","cartographes":"Jean-Michel Roumanie,Philippe Bousser","proprietaire":"66 - Pyrénées-Orientales","niveau":"Interrégional","specialite":"CO à pied","latitude":"42.5337409957","longitude":"2.10420740836","valide":"Oui","ppo":"Non","type_carte":"Reprise","base":"1983-D66-006 La Quillanne","fond":"Ortho","obsolete":true}},{"type":"Feature","geometry":{"type":"Polygon","coordinates":[[[2.104,42.5132],[2.1025,42.514],[2.1021,42.5152],[2.1007,42.5153],[2.1001,42.5153],[2.0999,42.5175],[2.0971,42.5199],[2.0951,42.5227],[2.0944,42.5239],[2.0928,42.5272],[2.0892,42.5297],[2.0863,42.5303],[2.085,42.5309],[2.0841,42.531],[2.0829,42.5316],[2.0804,42.5322],[2.0779,42.5327],[2.0754,42.5315],[2.0753,42.5307],[2.0761,42.53],[2.0749,42.53],[2.0743,42.5289],[2.0745,42.5274],[2.0745,42.5264],[2.0752,42.5251],[2.0774,42.5246],[2.0774,42.5238],[2.0779,42.5232],[2.0772,42.5232],[2.0768,42.5224],[2.0787,42.5204],[2.0805,42.5186],[2.0795,42.5175],[2.0774,42.517],[2.0762,42.5153],[2.0792,42.5136],[2.0831,42.5119],[2.0855,42.5112],[2.0876,42.5113],[2.0911,42.5112],[2.0945,42.511],[2.0972,42.5113],[2.099,42.512],[2.1007,42.5122],[2.102,42.5129],[2.104,42.5132]]]},"properties":{"id_ffco":"2425","nom":"Pla de Barrès","_dept":"66","numero":"1981-D66-000","commune":"Font Romeu","echelle":"1/10000","surface":"3.45 km²","format":"+","annee":"1981","cartographes":"Richard Losiowski","proprietaire":"66 - Pyrénées-Orientales","niveau":"Interrégional","specialite":"CO à pied","latitude":"42.520681681","longitude":"2.08701377944","valide":"Oui","ppo":"Non","type_carte":"Nouvelle carte","fond":"Ortho","obsolete":true}}]}