{"type":"FeatureCollection","features":[{"type":"Feature","geometry":{"type":"Polygon","coordinates":[[[7.7506,48.5444],[7.7485,48.5447],[7.7488,48.5442],[7.7471,48.5434],[7.7447,48.5423],[7.7441,48.5424],[7.743,48.542],[7.7413,48.5423],[7.7407,48.5418],[7.7436,48.5406],[7.7449,48.5397],[7.7457,48.5411],[7.7476,48.5422],[7.7483,48.5423],[7.7489,48.5426],[7.7487,48.543],[7.7502,48.544],[7.7506,48.5444]]]},"properties":{"id_ffco":"5451","nom":"Baggersee","_dept":"67","numero":"2005-D67-99","commune":"ILLKIRCH GRAFFENSTADEN","echelle":"1/2000","surface":"0.11 km²","format":"A4","annee":"2005","cartographes":"HALLOUARD","proprietaire":"6707 - ASS. DES SPORTS D'ORIENTATION DU PAYS D'ERSTEIN","niveau":"Initiation, Scolaire","specialite":"CO à pied","latitude":"48.5421567716","longitude":"7.74567033944","date_saisie":"02/08/2012","valide":"Non","ppo":"Non","obsolete":true}},{"type":"Feature","geometry":null,"properties":{"id_ffco":"1562","nom":"GROS CHENE","_dept":"67","numero":"1986-D67-99","commune":"HAGUENAU","echelle":"1/5000","surface":"1.3 km²","format":"A5","annee":"1986","cartographes":"D PAGET,F PRIGENT","proprietaire":"6707 - ASS. DES SPORTS D'ORIENTATION DU PAYS D'ERSTEIN","niveau":"Départemental","specialite":"CO à pied","latitude":"48.8405247054","longitude":"7.93532693388","valide":"Non","ppo":"Non","obsolete":true}},{"type":"Feature","geometry":{"type":"Polygon","coordinates":[[[7.709,48.8584],[7.7069,48.8595],[7.7047,48.8611],[7.7028,48.8623],[7.707,48.8646],[7.7077,48.8651],[7.7147,48.8669],[7.7192,48.8682],[7.719,48.8691],[7.7201,48.869],[7.7211,48.8693],[7.7226,48.8685],[7.7233,48.8699],[7.7247,48.8698],[7.7254,48.8703],[7.7263,48.8701],[7.7267,48.8691],[7.7282,48.8688],[7.73,48.8686],[7.7322,48.8684],[7.7334,48.8679],[7.7341,48.8684],[7.7348,48.8684],[7.7357,48.8682],[7.7363,48.8681],[7.7373,48.8684],[7.7382,48.8687],[7.7392,48.8687],[7.7419,48.8684],[7.7425,48.8688],[7.7432,48.8688],[7.7444,48.8688],[7.7445,48.8677],[7.7435,48.8652],[7.7417,48.8605],[7.7412,48.8578],[7.7405,48.8531],[7.7364,48.8525],[7.7271,48.8521],[7.7224,48.8508],[7.7183,48.8526],[7.7152,48.8541],[7.709,48.8584]]]},"properties":{"id_ffco":"528","nom":"LE SONNENPLAN","_dept":"67","numero":"1982-D67-9","commune":"MERTZWILLER","echelle":"1/10000","surface":"4.3 km²","format":"A4","annee":"1982","cartographes":"PELLEGRY,DINVAUX,MULA","proprietaire":"6707 - ASS. DES SPORTS D'ORIENTATION DU PAYS D'ERSTEIN","niveau":"Régional","specialite":"CO à pied","contacts":"Club ASOPE, 5 rue des Prunus, 67150, HINDISHEIM","latitude":"48.8608020705","longitude":"7.72578137461","valide":"Non","ppo":"Non","type_carte":"Nouvelle carte","fond":"IGN","ref_ign":"Haguenau 5-6","obsolete":true}},{"type":"Feature","geometry":{"type":"Polygon","coordinates":[[[7.7442,48.5463],[7.7414,48.5418],[7.7448,48.5399],[7.7456,48.5394],[7.7505,48.5413],[7.7501,48.5438],[7.7505,48.5444],[7.7445,48.5462],[7.7442,48.5463]]]},"properties":{"id_ffco":"5458","nom":"Etang du  Baggersee","_dept":"67","numero":"1984-D67-84","commune":"ILLKIRCH GRAFFENSTADEN","echelle":"1/3500","surface":"0.33 km²","format":"A4","annee":"1984","cartographes":"PAPON,MORTELLIER","proprietaire":"6707 - ASS. DES SPORTS D'ORIENTATION DU PAYS D'ERSTEIN","niveau":"Initiation, Scolaire","specialite":"CO à pied","latitude":"48.5427961827","longitude":"7.7461170629","date_saisie":"03/08/2012","valide":"Non","ppo":"Non","obsolete":true}},{"type":"Feature","geometry":{"type":"Polygon","coordinates":[[[7.5347,48.5489],[7.5365,48.5494],[7.5352,48.5507],[7.5343,48.5504],[7.5341,48.5502],[7.534,48.5498],[7.5346,48.5489],[7.5346,48.5489],[7.5347,48.5489]]]},"properties":{"id_ffco":"5457","nom":"Ecole F.J'Espère DACHSTEIN","_dept":"67","numero":"2003-D67-80","commune":"DACHSTEIN","echelle":"1/1500","surface":"0.02 km²","format":"A5","annee":"2003","cartographes":"C. VOGT","proprietaire":"67 - Bas-Rhin","niveau":"Initiation, Scolaire","specialite":"CO à pied","latitude":"48.5497586681","longitude":"7.53507946742","date_saisie":"03/08/2012","valide":"Non","ppo":"Non","obsolete":true}},{"type":"Feature","geometry":{"type":"Polygon","coordinates":[[[7.4748,48.5009],[7.4736,48.5005],[7.473,48.5019],[7.4722,48.502],[7.4718,48.5033],[7.4693,48.5035],[7.4684,48.5035],[7.4684,48.5041],[7.4687,48.5051],[7.4694,48.5061],[7.4703,48.5072],[7.4701,48.5079],[7.4702,48.5082],[7.4709,48.509],[7.4709,48.5097],[7.4712,48.5105],[7.4717,48.5114],[7.472,48.5115],[7.4738,48.5114],[7.4739,48.512],[7.4778,48.512],[7.4786,48.5117],[7.4795,48.5115],[7.4801,48.5111],[7.48,48.5094],[7.4805,48.5093],[7.4807,48.5079],[7.4822,48.5024],[7.4807,48.5018],[7.4769,48.5011],[7.4748,48.5009]]]},"properties":{"id_ffco":"3549","nom":"KANTZERWEG","_dept":"67","numero":"2002-D67-73","commune":"Rosheim","echelle":"1/5000","surface":"0.91 km²","format":"A4","annee":"2002","cartographes":"A HALLOUARD","proprietaire":"6707 - ASS. DES SPORTS D'ORIENTATION DU PAYS D'ERSTEIN","niveau":"Initiation, Scolaire","specialite":"CO à pied","contacts":"Collège Herrade de Landsberg, 67560 ROSHEIM","latitude":"48.5063026926","longitude":"7.47564755793","date_saisie":"25/07/2002","date_depot":"26/07/2002","valide":"Oui","ppo":"Non","type_carte":"Nouvelle carte","fond":"IGN","obsolete":true}},{"type":"Feature","geometry":{"type":"Polygon","coordinates":[[[7.7135,48.7041],[7.7205,48.7052],[7.73,48.7052],[7.73,48.7043],[7.7354,48.7045],[7.7356,48.7038],[7.7439,48.7034],[7.7441,48.6996],[7.745,48.6994],[7.7459,48.6975],[7.7499,48.6974],[7.7505,48.6998],[7.7548,48.7085],[7.7578,48.7084],[7.7584,48.6995],[7.7581,48.6975],[7.7278,48.6894],[7.7246,48.6945],[7.7223,48.697],[7.7198,48.6991],[7.716,48.7016],[7.7131,48.7038],[7.7135,48.7041]]]},"properties":{"id_ffco":"1566","nom":"HERRENWALD","_dept":"67","numero":"1986-D67-7","commune":"STRASBOURG","echelle":"1/15000","surface":"3.26 km²","format":"A4","annee":"1986","cartographes":"J BOOS,LEROY","proprietaire":"6701 - CLUB ORIENTATION STRASBOURG EUROPE","niveau":"Départemental","specialite":"CO à pied","latitude":"48.6990608393","longitude":"7.73623630792","valide":"Non","ppo":"Non","obsolete":true}},{"type":"Feature","geometry":{"type":"Polygon","coordinates":[[[7.4863,48.4829],[7.4854,48.4837],[7.4843,48.4852],[7.4843,48.4865],[7.4843,48.4873],[7.4826,48.4881],[7.4794,48.4888],[7.4761,48.4891],[7.473,48.489],[7.4699,48.4884],[7.4678,48.4875],[7.4654,48.4861],[7.4639,48.4852],[7.4596,48.4838],[7.4587,48.4825],[7.458,48.4814],[7.46,48.4807],[7.4616,48.4798],[7.4633,48.4794],[7.4655,48.4787],[7.4669,48.4781],[7.4683,48.4777],[7.4713,48.4767],[7.4742,48.4756],[7.4762,48.4746],[7.4808,48.4742],[7.483,48.4739],[7.4842,48.4739],[7.4876,48.4742],[7.4892,48.4743],[7.491,48.4753],[7.4905,48.4768],[7.4898,48.4784],[7.4893,48.4795],[7.489,48.4806],[7.4886,48.4806],[7.4875,48.4812],[7.487,48.4822],[7.4863,48.4829]]]},"properties":{"id_ffco":"3990","nom":"Bischenberg Eichwalded","_dept":"67","numero":"2001-D67-67","commune":"Bischenberg","echelle":"1/10000","surface":"2.61 km²","format":"A4","annee":"2001","cartographes":"P. TARDY","proprietaire":"6707 - ASS. DES SPORTS D'ORIENTATION DU PAYS D'ERSTEIN","niveau":"Régional","specialite":"CO à pied","latitude":"48.4814280432","longitude":"7.47592095417","date_saisie":"01/09/2005","date_depot":"20/09/2005","valide":"Oui","ppo":"Non","type_carte":"Nouvelle carte","fond":"IGN","obsolete":true}},{"type":"Feature","geometry":{"type":"Polygon","coordinates":[[[7.405,48.2612],[7.4048,48.261],[7.4042,48.2608],[7.4039,48.2603],[7.4021,48.2594],[7.4009,48.2589],[7.4038,48.2584],[7.4036,48.2575],[7.4031,48.2564],[7.4022,48.2553],[7.4052,48.255],[7.4064,48.2551],[7.4099,48.255],[7.4108,48.2552],[7.4131,48.2553],[7.4137,48.2568],[7.4146,48.2584],[7.4145,48.2602],[7.4126,48.2604],[7.4127,48.2607],[7.405,48.2612]]]},"properties":{"id_ffco":"5460","nom":"LE HATTENBERG","_dept":"67","numero":"2000-D67-64","commune":"CHATENOIS","echelle":"1/5000","surface":"0.52 km²","format":"A4","annee":"2000","cartographes":"Papon V","proprietaire":"6707 - ASS. DES SPORTS D'ORIENTATION DU PAYS D'ERSTEIN","niveau":"Initiation, Scolaire","specialite":"CO à pied","contacts":"Club ASOPE, 5 rue des Prunus, 67150, HINDISHEIM","latitude":"48.2580218563","longitude":"7.40840190092","date_saisie":"03/08/2012","valide":"Non","ppo":"Non","type_carte":"Nouvelle carte","fond":"IGN","obsolete":true}},{"type":"Feature","geometry":{"type":"Polygon","coordinates":[[[7.2304,48.4824],[7.2319,48.4825],[7.232,48.4819],[7.2322,48.4811],[7.2316,48.4806],[7.2318,48.4799],[7.2328,48.4785],[7.2329,48.4782],[7.2346,48.4787],[7.2358,48.4787],[7.2378,48.4787],[7.2387,48.4782],[7.2402,48.4786],[7.2398,48.48],[7.2393,48.4808],[7.2407,48.4825],[7.2423,48.4819],[7.2435,48.4829],[7.2434,48.4841],[7.2437,48.485],[7.2444,48.4862],[7.245,48.4871],[7.2446,48.4871],[7.2428,48.4859],[7.2395,48.4848],[7.2349,48.4846],[7.2335,48.4844],[7.2309,48.483],[7.2304,48.4824]]]},"properties":{"id_ffco":"3293","nom":"LES HAUTS DE BAREMBACH","_dept":"67","numero":"2000-D67-62","commune":"BAREMBACH","echelle":"1/5000","surface":"0.5 km²","format":"A4","annee":"2000","cartographes":"B MORTELLIER,P. TARDY","proprietaire":"6707 - ASS. DES SPORTS D'ORIENTATION DU PAYS D'ERSTEIN","niveau":"Initiation, Scolaire","specialite":"CO à pied","latitude":"48.4821386476","longitude":"7.23726004856","valide":"Oui","ppo":"Non","type_carte":"Nouvelle carte","fond":"IGN","obsolete":true}},{"type":"Feature","geometry":{"type":"Polygon","coordinates":[[[7.5413,48.5045],[7.5411,48.5081],[7.539,48.5085],[7.5324,48.5094],[7.5322,48.5071],[7.533,48.5064],[7.5338,48.5061],[7.5342,48.5046],[7.5325,48.5041],[7.5322,48.503],[7.5323,48.5021],[7.532,48.5017],[7.5312,48.5013],[7.5314,48.5006],[7.5314,48.4988],[7.5358,48.4992],[7.5415,48.4992],[7.5482,48.4993],[7.5555,48.4979],[7.5589,48.497],[7.5604,48.4972],[7.5608,48.4975],[7.5638,48.5],[7.5639,48.5007],[7.5626,48.5011],[7.5595,48.5024],[7.5576,48.5042],[7.5559,48.5041],[7.5538,48.5037],[7.553,48.5055],[7.55,48.5052],[7.5439,48.5048],[7.5423,48.5046],[7.5411,48.5046],[7.5413,48.5045]]]},"properties":{"id_ffco":"3053","nom":"GRIESHEIM - INNENLOCH","_dept":"67","numero":"1998-D67-60","commune":"GRIESHEIM","echelle":"1/10000","surface":"1.72 km²","format":"A4","annee":"1998","cartographes":"P. TARDY","proprietaire":"6707 - ASS. DES SPORTS D'ORIENTATION DU PAYS D'ERSTEIN","niveau":"Initiation, Scolaire","specialite":"CO à pied","latitude":"48.5023552622","longitude":"7.54562980595","valide":"Oui","ppo":"Non","type_carte":"Nouvelle carte","fond":"IGN","obsolete":true}},{"type":"Feature","geometry":{"type":"Polygon","coordinates":[[[7.8396,48.803],[7.847,48.8038],[7.8386,48.8169],[7.8297,48.8159],[7.8396,48.803]]]},"properties":{"id_ffco":"871","nom":"LA BURGBANN","_dept":"67","numero":"1980-D67-6","commune":"HAGUENAU","echelle":"1/15000","surface":"0.93 km²","format":"A4","annee":"1980","cartographes":"PELLEGRY","proprietaire":"6707 - ASS. DES SPORTS D'ORIENTATION DU PAYS D'ERSTEIN","niveau":"Interrégional","specialite":"CO à pied","latitude":"48.8100858863","longitude":"7.83859386736","valide":"Non","ppo":"Non","type_carte":"Nouvelle carte","fond":"IGN","ref_ign":"Haguenau 7-8","obsolete":true}},{"type":"Feature","geometry":{"type":"Polygon","coordinates":[[[7.4349,48.5045],[7.4227,48.5034],[7.4174,48.5056],[7.4113,48.5043],[7.3935,48.4981],[7.3914,48.5006],[7.3923,48.5159],[7.3865,48.524],[7.389,48.5268],[7.4096,48.5294],[7.417,48.5286],[7.4162,48.5175],[7.4194,48.5168],[7.4247,48.5179],[7.4349,48.5045]]]},"properties":{"id_ffco":"3052","nom":"WANGENHART - BANNHOLZ","_dept":"67","numero":"1999-D67-59","commune":"ROSENWILLER","echelle":"1/15000","surface":"7.14 km²","format":"A4","annee":"1999","cartographes":"P. TARDY,B MORTELLIER,C. VOGT","proprietaire":"6707 - ASS. DES SPORTS D'ORIENTATION DU PAYS D'ERSTEIN","niveau":"National, International","specialite":"CO à pied","latitude":"48.5143090804","longitude":"7.40737051006","valide":"Oui","ppo":"Non","type_carte":"Nouvelle carte","fond":"IGN","obsolete":true}},{"type":"Feature","geometry":{"type":"Polygon","coordinates":[[[7.6972,48.4218],[7.6935,48.4209],[7.6851,48.4189],[7.6828,48.4181],[7.6826,48.4191],[7.6832,48.4206],[7.6836,48.4215],[7.6841,48.4226],[7.6835,48.4232],[7.6822,48.4231],[7.6824,48.4243],[7.6825,48.4251],[7.6825,48.4259],[7.6823,48.4267],[7.6826,48.4276],[7.6805,48.4282],[7.6794,48.4285],[7.6796,48.4294],[7.6764,48.4307],[7.677,48.4316],[7.6769,48.4328],[7.6761,48.4338],[7.6766,48.4341],[7.6759,48.4352],[7.6759,48.4359],[7.6764,48.4371],[7.6767,48.4376],[7.6774,48.4397],[7.6777,48.4406],[7.677,48.441],[7.6782,48.4416],[7.6794,48.4408],[7.6804,48.4398],[7.6814,48.4394],[7.6827,48.4391],[7.6842,48.4389],[7.6859,48.4388],[7.6883,48.4386],[7.69,48.4384],[7.6913,48.4384],[7.6924,48.4393],[7.6926,48.4406],[7.6947,48.4394],[7.6962,48.4393],[7.6968,48.4399],[7.6991,48.439],[7.6998,48.4389],[7.6986,48.4373],[7.7029,48.4364],[7.7021,48.4333],[7.701,48.4303],[7.6985,48.4241],[7.6978,48.4223],[7.6972,48.4218]]]},"properties":{"id_ffco":"3100","nom":"NIEDERWALD","_dept":"67","numero":"1998-D67-58","commune":"ERSTEIN","echelle":"1/10000","surface":"3.27 km²","format":"A4","annee":"1998","cartographes":"B MORTELLIER,P. TARDY","proprietaire":"6707 - ASS. DES SPORTS D'ORIENTATION DU PAYS D'ERSTEIN","niveau":"Interrégional","specialite":"CO à pied","contacts":"Club ASOPE, 5 rue des Prunus, 67150, HINDISHEIM","latitude":"48.430766723","longitude":"7.68935372945","valide":"Oui","ppo":"Non","type_carte":"Nouvelle carte","fond":"IGN","obsolete":true}},{"type":"Feature","geometry":{"type":"Polygon","coordinates":[[[7.6799,48.4294],[7.6795,48.4287],[7.6825,48.4274],[7.6821,48.4267],[7.6823,48.4259],[7.6825,48.4251],[7.6824,48.4242],[7.6822,48.4231],[7.6833,48.423],[7.684,48.4227],[7.6834,48.4219],[7.683,48.4206],[7.6826,48.4194],[7.6824,48.4186],[7.6827,48.4182],[7.6853,48.4189],[7.6892,48.4199],[7.6924,48.4206],[7.6971,48.4217],[7.6978,48.4226],[7.6982,48.4242],[7.6988,48.4253],[7.6976,48.4256],[7.6962,48.4262],[7.6954,48.4264],[7.6929,48.4262],[7.6893,48.4256],[7.6886,48.4256],[7.6847,48.4272],[7.6799,48.4294]]]},"properties":{"id_ffco":"3099","nom":"KRITTWALD 2 -ERSTEIN","_dept":"67","numero":"1998-D67-57","commune":"ERSTEIN","echelle":"1/10000","surface":"0.8 km²","format":"A5","annee":"1998","cartographes":"B MORTELLIER","proprietaire":"6707 - ASS. DES SPORTS D'ORIENTATION DU PAYS D'ERSTEIN","niveau":"Interrégional","specialite":"CO à pied","latitude":"48.4233497633","longitude":"7.68913077927","valide":"Oui","ppo":"Non","type_carte":"Reprise","base":"1986-D67-42 KRITTWALD - ERSTEIN","fond":"IGN","obsolete":true}},{"type":"Feature","geometry":{"type":"Polygon","coordinates":[[[7.7166,48.953],[7.7297,48.9563],[7.7355,48.9595],[7.7232,48.9702],[7.7285,48.9734],[7.724,48.9763],[7.7275,48.9796],[7.7235,48.9828],[7.7227,48.9856],[7.7,48.9717],[7.7089,48.9643],[7.7141,48.9593],[7.7168,48.9532],[7.7166,48.953]]]},"properties":{"id_ffco":"5454","nom":"LANGENSOULTZBACH MATTERMANNSBRONN","_dept":"67","numero":"1998-D67-56","commune":"LANGENSOULTZBACH","echelle":"1/15000","surface":"4.39 km²","format":"A4","annee":"1998","cartographes":"P SANTAMARIA","proprietaire":"6707 - ASS. DES SPORTS D'ORIENTATION DU PAYS D'ERSTEIN","niveau":"National, International","specialite":"CO à pied","latitude":"48.9683290536","longitude":"7.71829546412","date_saisie":"03/08/2012","valide":"Non","ppo":"Non","type_carte":"Nouvelle carte","fond":"IGN","obsolete":true}},{"type":"Feature","geometry":{"type":"Polygon","coordinates":[[[7.6992,48.9636],[7.6927,48.9704],[7.6875,48.9732],[7.6747,48.9716],[7.6685,48.9669],[7.6609,48.9593],[7.6671,48.9537],[7.6735,48.949],[7.6774,48.947],[7.6831,48.9476],[7.6925,48.9543],[7.6992,48.9636]]]},"properties":{"id_ffco":"5459","nom":"RAUSCHENWASSER","_dept":"67","numero":"1998-D67-55","commune":"REICHSHOFFEN","echelle":"1/15000","surface":"5.17 km²","format":"A4","annee":"1998","cartographes":"P SANTAMARIA","proprietaire":"6707 - ASS. DES SPORTS D'ORIENTATION DU PAYS D'ERSTEIN","niveau":"National, International","specialite":"CO à pied","latitude":"48.9606025899","longitude":"7.68059635659","date_saisie":"03/08/2012","valide":"Non","ppo":"Non","type_carte":"Nouvelle carte","fond":"IGN","obsolete":true}},{"type":"Feature","geometry":{"type":"Polygon","coordinates":[[[7.7687,48.8076],[7.7684,48.8093],[7.7576,48.812],[7.7555,48.8139],[7.7428,48.8168],[7.7387,48.8121],[7.744,48.8047],[7.7538,48.8094],[7.7596,48.8063],[7.7689,48.8081],[7.7687,48.8076]]]},"properties":{"id_ffco":"5246","nom":"LE LERCHENBERG","_dept":"67","numero":"1998-D67-54","commune":"Haguenau","echelle":"1/15000","surface":"1.43 km²","format":"A4","annee":"1998","cartographes":"T. MAITRE,L. PIERRON","proprietaire":"6707 - ASS. DES SPORTS D'ORIENTATION DU PAYS D'ERSTEIN","niveau":"Interrégional","specialite":"CO à pied","latitude":"48.8106950587","longitude":"7.75094075776","date_saisie":"07/01/2012","valide":"Non","ppo":"Non","type_carte":"Nouvelle carte","fond":"IGN","obsolete":true}},{"type":"Feature","geometry":{"type":"Polygon","coordinates":[[[7.4585,48.5289],[7.4556,48.5298],[7.4539,48.5308],[7.4522,48.5326],[7.4512,48.5331],[7.4491,48.5327],[7.4466,48.5322],[7.4449,48.5323],[7.4423,48.533],[7.4379,48.5339],[7.4354,48.5337],[7.4327,48.5333],[7.4297,48.5331],[7.4292,48.5312],[7.4288,48.5298],[7.4292,48.5291],[7.4288,48.5279],[7.4285,48.5268],[7.4287,48.5246],[7.428,48.5234],[7.4275,48.5221],[7.426,48.5196],[7.4246,48.5166],[7.4248,48.5151],[7.4252,48.5137],[7.4257,48.5127],[7.4258,48.5121],[7.4253,48.5108],[7.4255,48.5097],[7.426,48.51],[7.427,48.511],[7.4285,48.5116],[7.4294,48.5123],[7.4306,48.5127],[7.4317,48.5128],[7.4333,48.5129],[7.4345,48.5128],[7.436,48.5127],[7.4376,48.5126],[7.4397,48.5127],[7.4419,48.513],[7.4443,48.5135],[7.446,48.5143],[7.4476,48.5154],[7.4488,48.5168],[7.4502,48.5179],[7.4518,48.5191],[7.4525,48.5196],[7.452,48.52],[7.453,48.5207],[7.4533,48.5214],[7.4555,48.5225],[7.4588,48.5245],[7.4612,48.5241],[7.462,48.5241],[7.4643,48.5242],[7.4663,48.5239],[7.4649,48.5256],[7.4636,48.5271],[7.4617,48.5281],[7.4601,48.5285],[7.4585,48.5289]]]},"properties":{"id_ffco":"3028","nom":"DREI SPITZE","_dept":"67","numero":"1998-D67-53","commune":"MUTZIG","echelle":"1/15000","surface":"4.58 km²","format":"A4","annee":"1998","cartographes":"B MORTELLIER,T. TOUZE,P. TARDY","proprietaire":"6707 - ASS. DES SPORTS D'ORIENTATION DU PAYS D'ERSTEIN","niveau":"Interrégional","specialite":"CO à pied","latitude":"48.523289798","longitude":"7.44123424414","valide":"Oui","ppo":"Non","type_carte":"Nouvelle carte","fond":"IGN","obsolete":true}},{"type":"Feature","geometry":{"type":"Polygon","coordinates":[[[7.7625,48.7974],[7.7532,48.7895],[7.7707,48.7897],[7.777,48.7876],[7.7823,48.7854],[7.7853,48.7878],[7.7794,48.7887],[7.775,48.7918],[7.7699,48.794],[7.7628,48.7973],[7.7625,48.7974]]]},"properties":{"id_ffco":"5245","nom":"Château Walk","_dept":"67","numero":"1997-D67-51","commune":"Haguenau","echelle":"1/15000","surface":"1.02 km²","format":"A4","annee":"1997","cartographes":"P SANTAMARIA,A HALLOUARD","proprietaire":"6707 - ASS. DES SPORTS D'ORIENTATION DU PAYS D'ERSTEIN","niveau":"Interrégional","specialite":"CO à pied","latitude":"48.7914260355","longitude":"7.76753995451","date_saisie":"07/01/2012","valide":"Non","ppo":"Non","type_carte":"Nouvelle carte","fond":"IGN","obsolete":true}},{"type":"Feature","geometry":{"type":"Polygon","coordinates":[[[7.8082,48.7857],[7.8166,48.7798],[7.8192,48.7782],[7.8175,48.7749],[7.8029,48.7739],[7.7839,48.7696],[7.7784,48.7835],[7.7861,48.787],[7.7859,48.7895],[7.7787,48.7956],[7.783,48.7977],[7.7981,48.7913],[7.8012,48.7897],[7.812,48.7834],[7.8082,48.7857]]]},"properties":{"id_ffco":"5244","nom":"Weinumshof","_dept":"67","numero":"1997-D67-50","commune":"Haguenau","echelle":"1/15000","surface":"4.98 km²","format":"A4","annee":"1997","cartographes":"P SANTAMARIA","proprietaire":"6707 - ASS. DES SPORTS D'ORIENTATION DU PAYS D'ERSTEIN","niveau":"Régional","specialite":"CO à pied","latitude":"48.7819475547","longitude":"7.79547661131","date_saisie":"07/01/2012","valide":"Non","ppo":"Non","type_carte":"Nouvelle carte","fond":"IGN","obsolete":true}},{"type":"Feature","geometry":null,"properties":{"id_ffco":"1565","nom":"FORET ESCHAU-HIPSHEIM","_dept":"67","numero":"1986-D67-5","commune":"ESCHAU","echelle":"1/10000","surface":"1.2 km²","format":"A4","annee":"1986","cartographes":"F LEROY","proprietaire":"6707 - ASS. DES SPORTS D'ORIENTATION DU PAYS D'ERSTEIN","niveau":"Départemental","specialite":"CO à pied","latitude":"48.4689562834","longitude":"7.68876950244","valide":"Non","ppo":"Non","obsolete":true}},{"type":"Feature","geometry":{"type":"Polygon","coordinates":[[[7.5063,48.6356],[7.5041,48.6358],[7.501,48.6358],[7.4992,48.6359],[7.4959,48.6358],[7.4899,48.636],[7.4896,48.6373],[7.4939,48.638],[7.4932,48.6387],[7.4927,48.6395],[7.4913,48.6411],[7.4884,48.6429],[7.4878,48.6443],[7.4876,48.6457],[7.4882,48.6465],[7.491,48.6472],[7.493,48.6477],[7.4946,48.6471],[7.4988,48.6477],[7.4997,48.6478],[7.5006,48.6468],[7.5017,48.6472],[7.5027,48.6464],[7.5044,48.6453],[7.5057,48.6456],[7.5083,48.6467],[7.5103,48.6457],[7.5103,48.6449],[7.5109,48.6445],[7.5139,48.6454],[7.5142,48.6443],[7.5142,48.6431],[7.513,48.6422],[7.5115,48.6398],[7.5116,48.6383],[7.5115,48.6379],[7.5107,48.6374],[7.5096,48.6368],[7.5087,48.6363],[7.5073,48.6359],[7.5063,48.6356]]]},"properties":{"id_ffco":"3026","nom":"NORDHEIM","_dept":"67","numero":"1998-D67-49","commune":"ERSTEIN","echelle":"1/10000","surface":"1.95 km²","format":"A5","annee":"1998","cartographes":"B MORTELLIER","proprietaire":"6707 - ASS. DES SPORTS D'ORIENTATION DU PAYS D'ERSTEIN","niveau":"Initiation, Scolaire","specialite":"CO à pied","contacts":"Club ASOPE, 5 rue des Prunus, 67150, HINDISHEIM","latitude":"48.6416486695","longitude":"7.50063266911","valide":"Oui","ppo":"Non","type_carte":"Nouvelle carte","fond":"IGN","obsolete":true}},{"type":"Feature","geometry":{"type":"Polygon","coordinates":[[[7.4127,48.6104],[7.4143,48.611],[7.416,48.6119],[7.417,48.6132],[7.4182,48.6151],[7.4199,48.6157],[7.4231,48.6165],[7.4245,48.6169],[7.4245,48.6214],[7.423,48.6219],[7.4209,48.6227],[7.4184,48.6241],[7.4161,48.6253],[7.4129,48.6266],[7.4123,48.6257],[7.4118,48.6253],[7.4111,48.625],[7.4096,48.6237],[7.408,48.6224],[7.4072,48.6217],[7.4059,48.6216],[7.4053,48.6212],[7.4045,48.62],[7.4044,48.6191],[7.4041,48.6182],[7.4033,48.6171],[7.3976,48.6173],[7.3976,48.6156],[7.3972,48.6146],[7.3967,48.6138],[7.3967,48.6127],[7.3972,48.6114],[7.3947,48.6113],[7.3937,48.6104],[7.3929,48.6101],[7.391,48.6105],[7.3898,48.6103],[7.3891,48.6098],[7.3869,48.6096],[7.3852,48.6092],[7.384,48.6085],[7.3828,48.6076],[7.3806,48.6069],[7.3809,48.6059],[7.3815,48.6042],[7.3823,48.6026],[7.383,48.6014],[7.3831,48.6002],[7.3827,48.5991],[7.3821,48.5986],[7.3815,48.5978],[7.3813,48.5971],[7.3787,48.5946],[7.3777,48.5951],[7.3761,48.5957],[7.3749,48.5945],[7.3737,48.5934],[7.3726,48.5923],[7.3714,48.5914],[7.3707,48.5913],[7.3724,48.5897],[7.3707,48.5887],[7.3701,48.5877],[7.3694,48.5862],[7.3695,48.5835],[7.3705,48.5832],[7.3707,48.5829],[7.3708,48.5827],[7.3722,48.5823],[7.3746,48.5822],[7.3749,48.5817],[7.3759,48.5807],[7.3768,48.5803],[7.3771,48.58],[7.3794,48.5791],[7.3812,48.5787],[7.3818,48.5785],[7.3822,48.5788],[7.3837,48.5795],[7.3849,48.5805],[7.3856,48.5808],[7.388,48.5812],[7.3912,48.5816],[7.3941,48.5817],[7.3967,48.5816],[7.3997,48.5814],[7.4039,48.5812],[7.4048,48.5815],[7.404,48.5825],[7.4053,48.5835],[7.4066,48.5838],[7.4075,48.5843],[7.4085,48.5855],[7.4064,48.5862],[7.4056,48.5869],[7.4049,48.5879],[7.4049,48.589],[7.4061,48.5909],[7.4073,48.5921],[7.4079,48.5939],[7.4078,48.5951],[7.4079,48.5958],[7.4075,48.5963],[7.407,48.5966],[7.4083,48.5968],[7.411,48.5969],[7.4104,48.5993],[7.4103,48.6009],[7.41,48.602],[7.4097,48.6027],[7.4093,48.6035],[7.4089,48.605],[7.4089,48.6062],[7.4091,48.6069],[7.4094,48.6074],[7.41,48.6083],[7.4108,48.6083],[7.411,48.61],[7.4118,48.6103],[7.4127,48.6104]]]},"properties":{"id_ffco":"2947","nom":"LE GEISWEG","_dept":"67","numero":"1997-D67-48","commune":"WESTHOFFEN","echelle":"1/15000","surface":"9.73 km²","format":"A3","annee":"1997","cartographes":"C. VOGT,C. PLUMERE","proprietaire":"6701 - CLUB ORIENTATION STRASBOURG EUROPE","niveau":"National, International","specialite":"CO à pied","latitude":"48.5998230095","longitude":"7.3963205068","valide":"Oui","ppo":"Non","type_carte":"Reprise","base":"1979-D67-39 WESTHOFFEN SUD","fond":"IGN","obsolete":true}},{"type":"Feature","geometry":{"type":"Polygon","coordinates":[[[7.4915,48.5196],[7.493,48.5243],[7.4912,48.5243],[7.4877,48.5243],[7.4863,48.5246],[7.4853,48.5248],[7.4821,48.5247],[7.4787,48.5249],[7.4777,48.525],[7.4753,48.5254],[7.4726,48.526],[7.4696,48.5263],[7.4665,48.5266],[7.4641,48.5277],[7.4631,48.527],[7.4617,48.5277],[7.461,48.5279],[7.4604,48.5278],[7.4598,48.5276],[7.4594,48.5274],[7.4588,48.5274],[7.4574,48.5268],[7.4538,48.527],[7.4529,48.5269],[7.4521,48.5264],[7.4507,48.5256],[7.4496,48.5253],[7.448,48.5249],[7.4461,48.524],[7.4451,48.5233],[7.4445,48.5225],[7.444,48.5217],[7.443,48.521],[7.4425,48.5207],[7.4432,48.5201],[7.4446,48.5188],[7.4461,48.5183],[7.448,48.5185],[7.4501,48.519],[7.4508,48.5185],[7.4514,48.5166],[7.4504,48.5153],[7.4487,48.5137],[7.4467,48.5122],[7.4449,48.5117],[7.4436,48.5113],[7.4448,48.511],[7.4461,48.5108],[7.4466,48.5105],[7.4471,48.5097],[7.4468,48.5087],[7.4486,48.5079],[7.4502,48.5075],[7.4518,48.507],[7.4547,48.5068],[7.4563,48.507],[7.4582,48.5071],[7.4593,48.5073],[7.4617,48.5077],[7.4632,48.5079],[7.4653,48.508],[7.4674,48.5081],[7.4701,48.5079],[7.4703,48.508],[7.4722,48.5083],[7.4724,48.5079],[7.4757,48.5085],[7.4773,48.509],[7.4794,48.5093],[7.4852,48.5095],[7.4872,48.5097],[7.4906,48.51],[7.4907,48.5122],[7.4911,48.5156],[7.4914,48.5179],[7.4915,48.5196]]]},"properties":{"id_ffco":"3031","nom":"LES VIGNOBLES DE DORLISHEIM","_dept":"67","numero":"1998-D67-47","commune":"DORLISHEIM","echelle":"1/15000","surface":"6.42 km²","format":"A4","annee":"1998","cartographes":"B MORTELLIER,P SANTAMARIA,J. SCHMIDT,T. TOUZE","proprietaire":"6707 - ASS. DES SPORTS D'ORIENTATION DU PAYS D'ERSTEIN","niveau":"Interrégional","specialite":"CO à pied","latitude":"48.5172206034","longitude":"7.46794683917","valide":"Non","ppo":"Non","type_carte":"Nouvelle carte","fond":"IGN","obsolete":true}},{"type":"Feature","geometry":null,"properties":{"id_ffco":"2993","nom":"WILDERSBACH","_dept":"67","numero":"1997-D67-45","commune":"WILDERSBACH","echelle":"1/10000","surface":"3.0 km²","format":"A4","annee":"1997","cartographes":"B MORTELLIER","proprietaire":"6707 - ASS. DES SPORTS D'ORIENTATION DU PAYS D'ERSTEIN","niveau":"Départemental","specialite":"CO à pied","latitude":"48.4376989","longitude":"7.2235566","valide":"Non","ppo":"Non","obsolete":true}},{"type":"Feature","geometry":null,"properties":{"id_ffco":"1580","nom":"LA COLLINE","_dept":"67","numero":"1986-D67-45","commune":"MUTZIG","echelle":"1/10000","surface":"2.0 km²","format":"A4","annee":"1986","cartographes":"J SCHMITT,B MORTELLIER","proprietaire":"6707 - ASS. DES SPORTS D'ORIENTATION DU PAYS D'ERSTEIN","niveau":"Régional","specialite":"CO à pied","latitude":"48.5447892429","longitude":"7.44655301504","valide":"Non","ppo":"Non","obsolete":true}},{"type":"Feature","geometry":{"type":"Polygon","coordinates":[[[7.2687,48.4082],[7.2628,48.4082],[7.2606,48.4074],[7.2596,48.407],[7.257,48.4073],[7.2529,48.4079],[7.2498,48.4096],[7.2496,48.4078],[7.249,48.4062],[7.2477,48.4046],[7.2408,48.4015],[7.2418,48.4002],[7.2434,48.3988],[7.2444,48.3968],[7.2463,48.396],[7.2485,48.3961],[7.2499,48.3926],[7.2539,48.3906],[7.2548,48.3903],[7.2544,48.3893],[7.2542,48.3872],[7.258,48.3831],[7.2598,48.3838],[7.2617,48.3856],[7.2637,48.3864],[7.2687,48.3853],[7.2705,48.3854],[7.2723,48.3848],[7.2746,48.3839],[7.2779,48.384],[7.28,48.3841],[7.2802,48.3861],[7.2795,48.3867],[7.2789,48.3873],[7.279,48.3881],[7.2776,48.3891],[7.2772,48.3895],[7.2821,48.3913],[7.2819,48.3974],[7.2791,48.3976],[7.2773,48.3989],[7.2792,48.4009],[7.2794,48.4029],[7.2776,48.4042],[7.2765,48.4054],[7.2764,48.407],[7.2731,48.4082],[7.2702,48.4081],[7.2687,48.4082]]]},"properties":{"id_ffco":"887","nom":"LE CHAMP DU FEU","_dept":"67","numero":"1994-D67-44","commune":"BELMONT","echelle":"1/15000","surface":"5.86 km²","format":"A4","annee":"1994","cartographes":"D SEPANS,C. VOGT","proprietaire":"6701 - CLUB ORIENTATION STRASBOURG EUROPE","niveau":"Régional","specialite":"CO à pied","latitude":"48.396857831","longitude":"7.2637808725","valide":"Oui","ppo":"Non","type_carte":"Reprise","base":"1974-D67-003 BELMONT","fond":"IGN","obsolete":true}},{"type":"Feature","geometry":{"type":"Polygon","coordinates":[[[7.8708,48.7958],[7.8708,48.7973],[7.8702,48.7984],[7.8705,48.7999],[7.8703,48.801],[7.8708,48.8028],[7.8717,48.8028],[7.8749,48.8022],[7.8775,48.8017],[7.8798,48.8009],[7.8822,48.8004],[7.8837,48.8003],[7.886,48.8006],[7.8888,48.8008],[7.8916,48.801],[7.8941,48.8006],[7.896,48.8003],[7.8973,48.8005],[7.8964,48.8021],[7.8957,48.8037],[7.8959,48.8044],[7.895,48.8059],[7.8917,48.8118],[7.888,48.8182],[7.888,48.8194],[7.8886,48.822],[7.8878,48.8219],[7.8868,48.8221],[7.885,48.822],[7.8838,48.822],[7.8829,48.8222],[7.8811,48.8225],[7.8806,48.8226],[7.879,48.8224],[7.878,48.822],[7.8772,48.8216],[7.8754,48.8214],[7.8745,48.8214],[7.8719,48.8226],[7.8704,48.823],[7.8699,48.823],[7.8685,48.8222],[7.8673,48.8214],[7.8665,48.8213],[7.8653,48.8213],[7.8643,48.8218],[7.8628,48.8223],[7.8618,48.8222],[7.8583,48.8213],[7.8544,48.8209],[7.8486,48.8197],[7.8355,48.8172],[7.8354,48.8165],[7.8318,48.8161],[7.828,48.8157],[7.8298,48.8143],[7.831,48.8123],[7.8337,48.8095],[7.8348,48.8078],[7.8358,48.8065],[7.837,48.8043],[7.8394,48.801],[7.8408,48.7995],[7.8419,48.7983],[7.8441,48.7973],[7.8451,48.7964],[7.8452,48.7954],[7.8498,48.7938],[7.8528,48.7935],[7.8592,48.7943],[7.8688,48.7955],[7.8708,48.7958]]]},"properties":{"id_ffco":"886","nom":"LES BOIS DU CAMP","_dept":"67","numero":"1979-D67-43","commune":"OBERHOFFEN","echelle":"1/15000","surface":"10.82 km²","format":"A3","annee":"1979","cartographes":"D AVILES,A. MULLA,A. LIOVE,E. FEVRIER","proprietaire":"6707 - ASS. DES SPORTS D'ORIENTATION DU PAYS D'ERSTEIN","niveau":"Interrégional","specialite":"CO à pied","contacts":"Club ASOPE, 5 rue des Prunus, 67150, HINDISHEIM","latitude":"48.8091061738","longitude":"7.86320432723","valide":"Non","ppo":"Non","type_carte":"Nouvelle carte","fond":"IGN","obsolete":true}},{"type":"Feature","geometry":null,"properties":{"id_ffco":"1578","nom":"COURLIS","_dept":"67","numero":"1985-D67-41","commune":"DUTTLENHEIM","echelle":"1/5000","surface":"0.5 km²","format":"A5","annee":"1985","cartographes":"P FARGEAS","proprietaire":"6707 - ASS. DES SPORTS D'ORIENTATION DU PAYS D'ERSTEIN","niveau":"Initiation, Scolaire","specialite":"CO à pied","latitude":"48.5322232856","longitude":"7.55459622637","valide":"Non","ppo":"Non","obsolete":true}},{"type":"Feature","geometry":{"type":"Polygon","coordinates":[[[7.3503,48.5249],[7.3497,48.5278],[7.3493,48.5302],[7.349,48.5317],[7.3493,48.5338],[7.35,48.5355],[7.352,48.5382],[7.352,48.5396],[7.3509,48.541],[7.3497,48.5422],[7.3485,48.5434],[7.3491,48.5449],[7.3501,48.5465],[7.3513,48.5481],[7.3521,48.5479],[7.3528,48.5493],[7.3515,48.5506],[7.3516,48.5523],[7.3515,48.555],[7.3507,48.5583],[7.3495,48.5605],[7.3523,48.5607],[7.3542,48.5615],[7.3562,48.5628],[7.36,48.5649],[7.3679,48.5662],[7.3712,48.5665],[7.375,48.5677],[7.3776,48.5669],[7.3791,48.5667],[7.3812,48.566],[7.3823,48.5656],[7.383,48.5658],[7.3841,48.5655],[7.3851,48.565],[7.3854,48.5644],[7.3862,48.5644],[7.3874,48.5618],[7.3885,48.5605],[7.3891,48.558],[7.3857,48.5576],[7.3861,48.5524],[7.3853,48.5524],[7.3869,48.5473],[7.3829,48.5462],[7.381,48.5454],[7.3818,48.5433],[7.3812,48.5428],[7.3794,48.5422],[7.379,48.5418],[7.3787,48.541],[7.3815,48.5399],[7.3814,48.5362],[7.3815,48.5354],[7.3798,48.535],[7.3761,48.534],[7.3738,48.5332],[7.3723,48.5335],[7.3704,48.5335],[7.3698,48.5331],[7.3683,48.533],[7.3668,48.532],[7.3657,48.531],[7.3633,48.5298],[7.3604,48.5289],[7.3587,48.5284],[7.3577,48.5272],[7.3576,48.5257],[7.3576,48.5246],[7.3503,48.5249]]]},"properties":{"id_ffco":"531","nom":"LA TRINITE","_dept":"67","numero":"1993-D67-40","commune":"NIEDERHASLACH","echelle":"1/15000","surface":"9.57 km²","format":"A4","annee":"1993","cartographes":"J SCHMITT,C. PLUMERE,B MORTELLIER","proprietaire":"6701 - CLUB ORIENTATION STRASBOURG EUROPE","niveau":"Interrégional","specialite":"CO à pied","contacts":"Club COSE, 67cose@gmail.com","latitude":"48.5482336475","longitude":"7.36701516109","valide":"Non","ppo":"Non","type_carte":"Nouvelle carte","fond":"IGN","obsolete":true}},{"type":"Feature","geometry":null,"properties":{"id_ffco":"1564","nom":"FORET ROBERTSAU","_dept":"67","numero":"1986-D67-4","commune":"STRASBOURG","echelle":"1/10000","surface":"2.0 km²","format":"A4","annee":"1986","cartographes":"A AMRANI,H. ANTOINE","proprietaire":"6701 - CLUB ORIENTATION STRASBOURG EUROPE","niveau":"Départemental","specialite":"CO à pied","latitude":"48.5829331","longitude":"7.7437488","valide":"Non","ppo":"Non","obsolete":true}},{"type":"Feature","geometry":{"type":"Polygon","coordinates":[[[7.4139,48.6109],[7.4067,48.6159],[7.4055,48.6154],[7.4037,48.6144],[7.4018,48.613],[7.3991,48.6117],[7.3966,48.6113],[7.3947,48.6112],[7.3935,48.6103],[7.3927,48.6102],[7.3908,48.6104],[7.3894,48.6102],[7.3891,48.6097],[7.3866,48.6097],[7.3852,48.6092],[7.3839,48.6085],[7.383,48.6076],[7.3806,48.607],[7.3822,48.6028],[7.3831,48.6015],[7.3831,48.6004],[7.3829,48.5994],[7.3823,48.5988],[7.3818,48.5982],[7.3815,48.5972],[7.3786,48.5945],[7.381,48.5939],[7.3824,48.5905],[7.3828,48.5903],[7.3842,48.59],[7.3847,48.5895],[7.3847,48.5887],[7.3842,48.5879],[7.3839,48.5871],[7.3844,48.5858],[7.3852,48.5852],[7.3862,48.5843],[7.3876,48.5844],[7.3891,48.5845],[7.3906,48.5846],[7.3919,48.5848],[7.3943,48.5848],[7.395,48.5851],[7.3967,48.5857],[7.3982,48.5867],[7.399,48.5875],[7.4003,48.5885],[7.4015,48.5904],[7.4044,48.5921],[7.4057,48.593],[7.4067,48.5939],[7.4077,48.5945],[7.4081,48.5952],[7.4078,48.5961],[7.4083,48.5968],[7.4102,48.5973],[7.4106,48.5986],[7.4104,48.6012],[7.4097,48.6023],[7.4092,48.6035],[7.4088,48.6059],[7.4081,48.6062],[7.407,48.6068],[7.4067,48.6082],[7.4066,48.6091],[7.4094,48.6099],[7.4119,48.6103],[7.4129,48.6104],[7.414,48.611],[7.4139,48.6109]]]},"properties":{"id_ffco":"885","nom":"WESTHOFFEN SUD","_dept":"67","numero":"1979-D67-39","commune":"WESTHOFFEN","echelle":"1/25000","surface":"5.35 km²","format":"A4","annee":"1979","cartographes":"F Mareigner,C RAMOS,D TOURAIS,C VAUTRIN","proprietaire":"6701 - CLUB ORIENTATION STRASBOURG EUROPE","niveau":"Interrégional","specialite":"CO à pied","latitude":"48.5997093699","longitude":"7.39552462763","valide":"Oui","ppo":"Non","type_carte":"Nouvelle carte","fond":"IGN","obsolete":true}},{"type":"Feature","geometry":{"type":"Polygon","coordinates":[[[7.3052,48.866],[7.3052,48.8459],[7.3181,48.8459],[7.3182,48.8467],[7.3218,48.8499],[7.3295,48.85],[7.3296,48.866],[7.3052,48.866]]]},"properties":{"id_ffco":"8157","nom":"LE CHATEAU","_dept":"67","numero":"1992-D67-38","commune":"LA PETITE-PIERRE","echelle":"1/10000","surface":"3.67 km²","format":"23,5*17,2 cm","annee":"1992","cartographes":"BUIATTI,C. PLUMERE","proprietaire":"67 - Bas-Rhin","niveau":"Régional","specialite":"CO à pied","latitude":"48.8567051817","longitude":"7.31676553751","date_saisie":"17/02/2015","valide":"Non","ppo":"Non","type_carte":"Nouvelle carte","fond":"IGN","obsolete":true}},{"type":"Feature","geometry":null,"properties":{"id_ffco":"1577","nom":"EBENBERG","_dept":"67","numero":"1986-D67-37","commune":"LANDAU (RFA)","echelle":"1/10000","surface":"2.0 km²","annee":"1986","cartographes":"A HALLOUARD,J GALLEN,VISIEDO","proprietaire":"6707 - ASS. DES SPORTS D'ORIENTATION DU PAYS D'ERSTEIN","niveau":"National, International","specialite":"CO à pied","latitude":"48.6343172","longitude":"7.5252938","valide":"Non","ppo":"Non","obsolete":true}},{"type":"Feature","geometry":null,"properties":{"id_ffco":"884","nom":"BUCHELBERG","_dept":"67","numero":"1979-D67-36","commune":"LAUTERBOURG","echelle":"1/15000","surface":"9.0 km²","format":"A4","annee":"1979","proprietaire":"6707 - ASS. DES SPORTS D'ORIENTATION DU PAYS D'ERSTEIN","niveau":"Interrégional","specialite":"CO à pied","latitude":"48.9746195","longitude":"8.1772302","valide":"Non","ppo":"Non","obsolete":true}},{"type":"Feature","geometry":{"type":"Polygon","coordinates":[[[7.3202,48.8597],[7.3185,48.857],[7.314,48.8509],[7.3123,48.8468],[7.3174,48.8439],[7.3116,48.8385],[7.3121,48.8339],[7.3051,48.828],[7.2817,48.8246],[7.2793,48.8323],[7.2802,48.837],[7.2778,48.8437],[7.2745,48.8475],[7.2704,48.8497],[7.2756,48.8679],[7.2905,48.8651],[7.3059,48.8647],[7.3138,48.865],[7.32,48.8625],[7.3202,48.8597]]]},"properties":{"id_ffco":"530","nom":"WEYERKOPF forêt de la peite pierre sud","_dept":"67","numero":"1991-D67-34","commune":"SAVERNE","echelle":"1/15000","surface":"12.14 km²","format":"A3","annee":"1991","cartographes":"HAJ,KRSAK,SUMBERA,révision 1999 SANTAMARIA","proprietaire":"6707 - ASS. DES SPORTS D'ORIENTATION DU PAYS D'ERSTEIN","niveau":"National, International","specialite":"CO à pied","latitude":"48.8478336918","longitude":"7.29470786646","valide":"Non","ppo":"Non","obsolete":true}},{"type":"Feature","geometry":null,"properties":{"id_ffco":"1576","nom":"GRITTWALD","_dept":"67","numero":"1986-D67-34","commune":"VENDENHEIM","echelle":"1/7500","surface":"1.5 km²","format":"A4","annee":"1986","cartographes":"LEROY","proprietaire":"6707 - ASS. DES SPORTS D'ORIENTATION DU PAYS D'ERSTEIN","niveau":"Régional","specialite":"CO à pied","latitude":"48.669523","longitude":"7.7073694","valide":"Non","ppo":"Non","obsolete":true}},{"type":"Feature","geometry":null,"properties":{"id_ffco":"1575","nom":"Champ Feu","_dept":"67","numero":"1986-D67-33","commune":"BELMONT","echelle":"1/10000","surface":"3.0 km²","format":"A4","annee":"1986","cartographes":"P BUIATTI,stage CO","proprietaire":"6701 - CLUB ORIENTATION STRASBOURG EUROPE","niveau":"Départemental","specialite":"CO à pied","latitude":"48.4095074","longitude":"7.2351741","valide":"Non","ppo":"Non","obsolete":true}},{"type":"Feature","geometry":{"type":"Polygon","coordinates":[[[7.856,48.7943],[7.8725,48.7962],[7.8713,48.8026],[7.8825,48.8002],[7.8917,48.8006],[7.889,48.8225],[7.8516,48.8233],[7.8394,48.8233],[7.8475,48.809],[7.8553,48.8011],[7.856,48.7943]]]},"properties":{"id_ffco":"882","nom":"MARAIS","_dept":"67","numero":"1979-D67-32","commune":"OBERHOFFEN","echelle":"1/15000","surface":"8.7 km²","format":"A4","annee":"1979","cartographes":"D AVILES,D PAGET,E. DEMANGE","proprietaire":"6707 - ASS. DES SPORTS D'ORIENTATION DU PAYS D'ERSTEIN","niveau":"Interrégional","specialite":"CO à pied","latitude":"48.8112228015","longitude":"7.86762143936","valide":"Non","ppo":"Non","obsolete":true}},{"type":"Feature","geometry":null,"properties":{"id_ffco":"1574","nom":"BOIS WASSELONNE","_dept":"67","numero":"1986-D67-31","commune":"WASSELONNE","echelle":"1/10000","surface":"1.2 km²","format":"A5","annee":"1986","cartographes":"P BUIATTI,P BEZIRJOGLOU","proprietaire":"6707 - ASS. DES SPORTS D'ORIENTATION DU PAYS D'ERSTEIN","niveau":"Départemental","specialite":"CO à pied","latitude":"48.6366934","longitude":"7.4486005","valide":"Non","ppo":"Non","obsolete":true}},{"type":"Feature","geometry":null,"properties":{"id_ffco":"870","nom":"FORET DE ROSHEIM","_dept":"67","numero":"1979-D67-3","commune":"MOLSHEIM","echelle":"1/15000","surface":"10.5 km²","format":"A4","annee":"1979","cartographes":"A VISIEDO,A HALLOUARD,J BOOS","proprietaire":"6707 - ASS. DES SPORTS D'ORIENTATION DU PAYS D'ERSTEIN","niveau":"Interrégional","specialite":"CO à pied","latitude":"48.4965152189","longitude":"7.42743562227","valide":"Non","ppo":"Non","obsolete":true}},{"type":"Feature","geometry":{"type":"Polygon","coordinates":[[[7.4841,48.4876],[7.4843,48.4883],[7.4814,48.4904],[7.4792,48.4925],[7.4778,48.4939],[7.4775,48.4959],[7.4764,48.4962],[7.4741,48.4958],[7.4715,48.494],[7.4704,48.4933],[7.4722,48.4912],[7.4728,48.4906],[7.4737,48.4892],[7.4721,48.489],[7.4691,48.4882],[7.4668,48.4869],[7.4657,48.4864],[7.463,48.4851],[7.4634,48.4776],[7.4651,48.4782],[7.4668,48.4786],[7.4683,48.4788],[7.4707,48.4785],[7.4721,48.4783],[7.4737,48.4778],[7.4759,48.4771],[7.4772,48.4774],[7.4788,48.4782],[7.4798,48.4782],[7.4811,48.4781],[7.4824,48.4782],[7.4838,48.4787],[7.4846,48.4789],[7.4844,48.4795],[7.4842,48.4844],[7.4848,48.4849],[7.485,48.4862],[7.4848,48.4871],[7.4841,48.4876]]]},"properties":{"id_ffco":"1572","nom":"LE BISCHENBERG","_dept":"67","numero":"1989-D67-29","commune":"BISCHOFFSHEIM","echelle":"1/10000","surface":"2.19 km²","format":"A4","annee":"1989","cartographes":"P BUIATTI","proprietaire":"6701 - CLUB ORIENTATION STRASBOURG EUROPE","niveau":"Départemental","specialite":"CO à pied","contacts":"Club COSE, 67cose@gmail.com","latitude":"48.4849514352","longitude":"7.47471829877","valide":"Non","ppo":"Non","type_carte":"Nouvelle carte","fond":"IGN","obsolete":true}},{"type":"Feature","geometry":{"type":"Polygon","coordinates":[[[7.3209,48.552],[7.3176,48.5541],[7.315,48.5551],[7.3134,48.5562],[7.312,48.5575],[7.31,48.5589],[7.3088,48.5594],[7.3082,48.5609],[7.3068,48.5627],[7.305,48.5635],[7.3041,48.5645],[7.3029,48.5652],[7.3016,48.5651],[7.2999,48.565],[7.2991,48.5653],[7.2974,48.5658],[7.296,48.566],[7.2934,48.566],[7.2901,48.567],[7.2882,48.5678],[7.2871,48.5685],[7.286,48.5691],[7.2849,48.5693],[7.284,48.5693],[7.2828,48.5699],[7.2807,48.5704],[7.2788,48.5703],[7.2778,48.5701],[7.2753,48.5701],[7.2729,48.5702],[7.2717,48.5699],[7.2695,48.5693],[7.2682,48.569],[7.2662,48.5681],[7.2648,48.5674],[7.2645,48.5671],[7.2639,48.5668],[7.2622,48.5655],[7.2611,48.5645],[7.2604,48.5631],[7.26,48.5626],[7.2595,48.5624],[7.2596,48.5577],[7.2607,48.5577],[7.2619,48.5574],[7.2622,48.5551],[7.2643,48.5553],[7.2664,48.5554],[7.2678,48.5539],[7.2687,48.5519],[7.2686,48.5508],[7.2683,48.55],[7.2722,48.5487],[7.2739,48.5476],[7.2724,48.5465],[7.2722,48.5447],[7.2743,48.5443],[7.2755,48.5447],[7.2767,48.5448],[7.2798,48.545],[7.2828,48.5452],[7.2829,48.5461],[7.2825,48.5473],[7.2835,48.547],[7.2846,48.5474],[7.2862,48.5472],[7.286,48.5487],[7.2883,48.5482],[7.2895,48.5471],[7.2913,48.5463],[7.2932,48.5456],[7.2962,48.5452],[7.2967,48.5446],[7.2975,48.5448],[7.3,48.5455],[7.3025,48.5452],[7.3057,48.5455],[7.3103,48.5457],[7.3104,48.5446],[7.3113,48.5447],[7.3129,48.5457],[7.3142,48.5462],[7.3153,48.5465],[7.3169,48.5462],[7.3175,48.5458],[7.3184,48.5461],[7.3199,48.5463],[7.3214,48.5483],[7.3231,48.5513],[7.3209,48.552]]]},"properties":{"id_ffco":"529","nom":"LES MONTS SAUVAGES","_dept":"67","numero":"1999-D67-27","commune":"OBERHASLACH","echelle":"1/15000","surface":"8.84 km²","format":"A4","annee":"1999","cartographes":"P BUIATTI,J BOOS","proprietaire":"6701 - CLUB ORIENTATION STRASBOURG EUROPE","niveau":"Interrégional","specialite":"CO à pied","latitude":"48.5565584535","longitude":"7.28858529688","valide":"Oui","ppo":"Non","type_carte":"Nouvelle carte","fond":"IGN","ref_ign":"3716 O","obsolete":true}},{"type":"Feature","geometry":null,"properties":{"id_ffco":"880","nom":"CHAMP DU FEU","_dept":"67","numero":"1979-D67-26","commune":"LE HOHWALD","echelle":"1/20000","surface":"60.0 km²","annee":"1979","proprietaire":"6701 - CLUB ORIENTATION STRASBOURG EUROPE","niveau":"Interrégional","specialite":"CO à pied","latitude":"48.403557","longitude":"7.3301232","valide":"Non","ppo":"Non","obsolete":true}},{"type":"Feature","geometry":{"type":"Polygon","coordinates":[[[7.7571,48.5393],[7.7558,48.5395],[7.7534,48.5393],[7.7505,48.5388],[7.7481,48.5379],[7.7465,48.5373],[7.7457,48.5362],[7.745,48.5345],[7.744,48.5333],[7.7417,48.5318],[7.7413,48.531],[7.7413,48.5301],[7.7422,48.5295],[7.7437,48.5284],[7.7436,48.5272],[7.744,48.5259],[7.7446,48.5235],[7.7445,48.5222],[7.7429,48.518],[7.742,48.5161],[7.7409,48.5137],[7.7407,48.51],[7.7397,48.5084],[7.7385,48.5081],[7.7394,48.5068],[7.7407,48.5061],[7.7431,48.5055],[7.7443,48.5051],[7.7456,48.505],[7.7478,48.505],[7.75,48.5042],[7.7529,48.5032],[7.755,48.5028],[7.7582,48.5022],[7.7595,48.502],[7.7601,48.5023],[7.7613,48.5024],[7.7627,48.5019],[7.7648,48.5017],[7.7665,48.5016],[7.7674,48.502],[7.7681,48.5033],[7.768,48.5042],[7.7698,48.5065],[7.772,48.51],[7.773,48.5117],[7.7748,48.5157],[7.7744,48.5161],[7.775,48.5177],[7.7749,48.5183],[7.7762,48.5209],[7.7768,48.5228],[7.7768,48.5232],[7.7769,48.524],[7.7769,48.5252],[7.7762,48.5274],[7.7756,48.5289],[7.7741,48.5301],[7.7671,48.5227],[7.766,48.5228],[7.7647,48.523],[7.7622,48.524],[7.7611,48.5249],[7.7587,48.525],[7.758,48.5249],[7.7569,48.5263],[7.7566,48.527],[7.7569,48.5281],[7.7571,48.5291],[7.7583,48.5292],[7.7598,48.5292],[7.7604,48.5309],[7.7615,48.5319],[7.7612,48.5328],[7.7595,48.5332],[7.7582,48.5338],[7.7577,48.5341],[7.758,48.5348],[7.758,48.5355],[7.7571,48.536],[7.7565,48.5374],[7.7564,48.5383],[7.7573,48.5391],[7.7571,48.5393]]]},"properties":{"id_ffco":"879","nom":"BOIS ILLKIRCH","_dept":"67","numero":"1988-D67-25","commune":"ILLKIRCH","echelle":"1/15000","surface":"7.29 km²","format":"A4","annee":"1988","cartographes":"C. PLUMERE,V. BORNARD,B. HABERKORN","proprietaire":"6701 - CLUB ORIENTATION STRASBOURG EUROPE","niveau":"Régional","specialite":"CO à pied","contacts":"Club COSE, 67cose@gmail.com","latitude":"48.5183605702","longitude":"7.75685695235","valide":"Non","ppo":"Non","type_carte":"Nouvelle carte","fond":"IGN","obsolete":true}},{"type":"Feature","geometry":null,"properties":{"id_ffco":"1571","nom":"CAMP","_dept":"67","numero":"1986-D67-23","commune":"OBERHOFFEN","echelle":"1/5000","surface":"0.7 km²","annee":"1986","cartographes":"MULA","proprietaire":"6707 - ASS. DES SPORTS D'ORIENTATION DU PAYS D'ERSTEIN","niveau":"Initiation, Scolaire","specialite":"CO à pied","latitude":"48.7826226","longitude":"7.8630321","valide":"Non","ppo":"Non","obsolete":true}},{"type":"Feature","geometry":{"type":"Polygon","coordinates":[[[7.4189,48.5329],[7.405,48.5331],[7.3938,48.5322],[7.3868,48.5308],[7.3828,48.5286],[7.388,48.5206],[7.3873,48.5148],[7.3861,48.5093],[7.3887,48.5017],[7.3919,48.5004],[7.4009,48.5085],[7.411,48.5194],[7.4144,48.5273],[7.4186,48.5294],[7.4189,48.5329]]]},"properties":{"id_ffco":"878","nom":"KANTZER HOEZEL","_dept":"67","numero":"1979-D67-23","commune":"MUTZIG","echelle":"1/15000","surface":"5.39 km²","format":"A4","annee":"1979","cartographes":"P BUIATTI,GUICHARD,BEZIRDJOGLOUU,ANN","proprietaire":"6707 - ASS. DES SPORTS D'ORIENTATION DU PAYS D'ERSTEIN","niveau":"Interrégional","specialite":"CO à pied","latitude":"48.5204590567","longitude":"7.39862085225","valide":"Non","ppo":"Non","obsolete":true}},{"type":"Feature","geometry":{"type":"Polygon","coordinates":[[[7.8105,48.6365],[7.8061,48.6372],[7.8063,48.6342],[7.8051,48.6315],[7.8052,48.6291],[7.8069,48.6262],[7.8111,48.6258],[7.8089,48.6215],[7.8162,48.6194],[7.8235,48.6191],[7.8264,48.6221],[7.8212,48.63],[7.8196,48.6361],[7.8105,48.6365]]]},"properties":{"id_ffco":"1570","nom":"FORET DE LA ROBERTSAU","_dept":"67","numero":"1986-D67-22","commune":"STRASBOURG","echelle":"1/10000","surface":"2.1 km²","format":"A4","annee":"1986","cartographes":"J BOOS,A AMRANI,C. PLUMERE,H. ANTOINE","proprietaire":"6701 - CLUB ORIENTATION STRASBOURG EUROPE","niveau":"Départemental","specialite":"CO à pied","latitude":"48.6279306646","longitude":"7.81512614744","valide":"Non","ppo":"Non","type_carte":"Nouvelle carte","fond":"IGN","ref_ign":"3816 O","obsolete":true}},{"type":"Feature","geometry":{"type":"Polygon","coordinates":[[[7.2676,48.5687],[7.2621,48.5648],[7.2641,48.5634],[7.2672,48.5646],[7.2707,48.5633],[7.272,48.5612],[7.2777,48.5577],[7.2864,48.5586],[7.3006,48.5584],[7.3019,48.565],[7.2914,48.5665],[7.2837,48.5696],[7.2689,48.569],[7.2676,48.5687]]]},"properties":{"id_ffco":"1569","nom":"GUILLAUME II Gensbourg","_dept":"67","numero":"1986-D67-21","commune":"GENSBOURG","echelle":"1/15000","surface":"2.54 km²","format":"A5","annee":"1986","cartographes":"P BUIATTI,M. DUBOC,JP. AVIGNON,H. ANTOINE","proprietaire":"6701 - CLUB ORIENTATION STRASBOURG EUROPE","niveau":"Départemental","specialite":"CO à pied","latitude":"48.563671493","longitude":"7.2832436373","valide":"Non","ppo":"Non","type_carte":"Nouvelle carte","fond":"IGN","ref_ign":"MOLSHEIM 1-2","obsolete":true}},{"type":"Feature","geometry":{"type":"Polygon","coordinates":[[[7.8575,48.9855],[7.8537,48.9854],[7.8499,48.9856],[7.8494,48.9841],[7.8565,48.9815],[7.8609,48.9762],[7.863,48.972],[7.8681,48.974],[7.8642,48.9794],[7.8635,48.981],[7.8594,48.9842],[7.8575,48.9854],[7.8575,48.9855]]]},"properties":{"id_ffco":"1563","nom":"DRACHENBRONN (b)","_dept":"67","numero":"1986-D67-2","commune":"DRACHENBRONN","echelle":"1/16666","surface":"0.68 km²","format":"A5","annee":"1986","cartographes":"H PRAT,P SANTAMARIA","proprietaire":"6707 - ASS. DES SPORTS D'ORIENTATION DU PAYS D'ERSTEIN","niveau":"Régional","specialite":"CO à pied","latitude":"48.9797422596","longitude":"7.85999946663","valide":"Non","ppo":"Non","obsolete":true}},{"type":"Feature","geometry":{"type":"Polygon","coordinates":[[[8.0157,48.8431],[8.0141,48.8439],[8.013,48.8449],[8.0118,48.8453],[8.0102,48.8463],[8.008,48.8475],[8.0081,48.8481],[8.0079,48.8491],[8.0075,48.85],[8.0076,48.8507],[8.0086,48.8519],[8.0089,48.8532],[8.0092,48.8552],[8.0095,48.8558],[8.0091,48.8592],[8.0083,48.861],[8.0057,48.86],[8.0013,48.8586],[7.9978,48.8579],[7.9939,48.8572],[7.9914,48.8557],[7.99,48.8541],[7.9884,48.8522],[7.9878,48.851],[7.9871,48.8497],[7.9862,48.8482],[7.9844,48.8463],[7.982,48.844],[7.9766,48.8406],[7.9744,48.8395],[7.9724,48.8376],[7.9708,48.837],[7.9726,48.836],[7.9779,48.8349],[7.9797,48.8331],[7.9812,48.8327],[7.9834,48.8315],[7.9849,48.8313],[7.9863,48.8318],[7.9882,48.8321],[7.9901,48.8316],[7.9915,48.8319],[7.9926,48.8328],[7.9929,48.8337],[7.9947,48.8341],[7.9997,48.8346],[8.0021,48.8344],[8.0047,48.8342],[8.0058,48.8342],[8.0068,48.8341],[8.0075,48.8345],[8.0091,48.8353],[8.009,48.8359],[8.0081,48.837],[8.0084,48.8384],[8.009,48.8409],[8.0094,48.8419],[8.0112,48.8425],[8.0153,48.8428],[8.0157,48.8431]]]},"properties":{"id_ffco":"877","nom":"SOUFFLENHEIM","_dept":"67","numero":"1979-D67-19","commune":"LEUTENHEIM","echelle":"1/15000","surface":"5.47 km²","format":"A4","annee":"1979","cartographes":"D PAGET,JF. RENAUD,M. CURT L. WILLEMIN,G. SEIGNEZ","proprietaire":"6707 - ASS. DES SPORTS D'ORIENTATION DU PAYS D'ERSTEIN","niveau":"Interrégional","specialite":"CO à pied","latitude":"48.8441934713","longitude":"7.9952181664","valide":"Non","ppo":"Non","type_carte":"Nouvelle carte","fond":"IGN","ref_ign":"SELTZ 5-6","obsolete":true}},{"type":"Feature","geometry":{"type":"Polygon","coordinates":[[[7.3367,48.5581],[7.3345,48.5591],[7.332,48.5606],[7.3319,48.5619],[7.3316,48.5638],[7.3315,48.5664],[7.3328,48.5673],[7.3351,48.5695],[7.3365,48.5697],[7.3404,48.5724],[7.3409,48.5741],[7.3412,48.5764],[7.3397,48.577],[7.3425,48.5803],[7.3451,48.5793],[7.3464,48.5791],[7.3484,48.5791],[7.3509,48.5798],[7.3533,48.5808],[7.3571,48.5818],[7.3589,48.583],[7.3622,48.5835],[7.3642,48.5829],[7.3651,48.5818],[7.366,48.5814],[7.3685,48.5806],[7.3712,48.5807],[7.374,48.5811],[7.3747,48.581],[7.3765,48.5804],[7.3779,48.5796],[7.3797,48.5791],[7.3819,48.5783],[7.3821,48.5771],[7.3802,48.5759],[7.3776,48.5747],[7.3793,48.5737],[7.3809,48.5729],[7.3826,48.5723],[7.3848,48.5719],[7.3858,48.571],[7.3861,48.5708],[7.3863,48.5633],[7.3764,48.5614],[7.3732,48.56],[7.3712,48.5588],[7.3517,48.5582],[7.3461,48.558],[7.3434,48.5586],[7.338,48.5583],[7.3367,48.5581]]]},"properties":{"id_ffco":"876","nom":"HASLACH","_dept":"67","numero":"1979-D67-18","commune":"WASSELONE","echelle":"1/15000","surface":"8.34 km²","format":"A4","annee":"1979","cartographes":"M. DUBOC,C. DENIS","proprietaire":"6701 - CLUB ORIENTATION STRASBOURG EUROPE","niveau":"Interrégional","specialite":"CO à pied","latitude":"48.5692454768","longitude":"7.35921439467","valide":"Oui","ppo":"Non","type_carte":"Nouvelle carte","fond":"IGN","ref_ign":"Molsheim-Schirmeck","obsolete":true}},{"type":"Feature","geometry":{"type":"Polygon","coordinates":[[[7.3793,48.5752],[7.3781,48.5748],[7.3757,48.5744],[7.3747,48.5741],[7.3714,48.5731],[7.3665,48.5712],[7.3649,48.5702],[7.3648,48.5693],[7.3647,48.5687],[7.3627,48.567],[7.3582,48.5637],[7.3534,48.5612],[7.3522,48.5608],[7.3491,48.5606],[7.3509,48.5562],[7.3512,48.5549],[7.3512,48.5502],[7.3512,48.5495],[7.357,48.5462],[7.3576,48.5456],[7.3675,48.5459],[7.3683,48.5456],[7.3689,48.546],[7.3725,48.5461],[7.3734,48.5458],[7.3746,48.5457],[7.3761,48.5479],[7.3778,48.5492],[7.3815,48.5506],[7.3853,48.5516],[7.385,48.5564],[7.3894,48.5574],[7.39,48.5587],[7.3897,48.5593],[7.3889,48.5598],[7.3879,48.5694],[7.3858,48.5721],[7.3844,48.5724],[7.3833,48.5723],[7.3814,48.5727],[7.3808,48.5733],[7.3801,48.5741],[7.3793,48.5752]]]},"properties":{"id_ffco":"875","nom":"ENTENPFUHL","_dept":"67","numero":"1986-D67-16","commune":"STILL","echelle":"1/15000","surface":"6.59 km²","format":"A4","annee":"1986","cartographes":"M. DUBOC,C. DENIS","proprietaire":"6701 - CLUB ORIENTATION STRASBOURG EUROPE","niveau":"Interrégional","specialite":"CO à pied","contacts":"Club COSE, 67cose@gmail.com","latitude":"48.5591004856","longitude":"7.37054807674","date_depot":"17/04/2018","valide":"Oui","ppo":"Non","type_carte":"Nouvelle carte","fond":"IGN","ref_ign":"Molsheim - Schirmeck","obsolete":true}},{"type":"Feature","geometry":null,"properties":{"id_ffco":"1568","nom":"FORET DE BRUMATH","_dept":"67","numero":"1986-D67-15","commune":"BRUMATH","echelle":"1/5000","surface":"0.5 km²","format":"A4","annee":"1986","proprietaire":"6701 - CLUB ORIENTATION STRASBOURG EUROPE","niveau":"Initiation, Scolaire","specialite":"CO à pied","latitude":"48.7275311958","longitude":"7.69882488086","valide":"Non","ppo":"Non","obsolete":true}},{"type":"Feature","geometry":{"type":"Polygon","coordinates":[[[7.8271,48.7518],[7.8292,48.7515],[7.8315,48.7515],[7.8338,48.7521],[7.8373,48.7535],[7.8399,48.7548],[7.8417,48.7562],[7.8435,48.757],[7.8436,48.7583],[7.8443,48.7588],[7.8444,48.76],[7.8424,48.7609],[7.8398,48.7616],[7.8365,48.7631],[7.8349,48.7649],[7.8331,48.7654],[7.8319,48.7659],[7.8298,48.7664],[7.8286,48.7673],[7.8271,48.7691],[7.8266,48.7698],[7.8264,48.7713],[7.8263,48.7723],[7.8251,48.7722],[7.8226,48.7729],[7.8188,48.7745],[7.8167,48.7752],[7.8053,48.7745],[7.8027,48.7744],[7.7947,48.7723],[7.793,48.7707],[7.7852,48.7636],[7.7845,48.763],[7.7857,48.7627],[7.787,48.7636],[7.7886,48.7629],[7.7902,48.7635],[7.7905,48.7634],[7.7916,48.7642],[7.793,48.7633],[7.7948,48.7638],[7.7951,48.7632],[7.7967,48.763],[7.7983,48.7637],[7.7994,48.7637],[7.803,48.7641],[7.8046,48.7643],[7.8077,48.7645],[7.8093,48.7646],[7.8112,48.7643],[7.8138,48.764],[7.815,48.7639],[7.8158,48.7632],[7.8156,48.7619],[7.8171,48.7617],[7.8172,48.7586],[7.8198,48.7583],[7.821,48.7579],[7.8216,48.7572],[7.8226,48.756],[7.8231,48.7552],[7.8246,48.7549],[7.8252,48.7542],[7.8258,48.7524],[7.8271,48.7518]]]},"properties":{"id_ffco":"866","nom":"FORET de GRIES  et WEITBRUCH","_dept":"67","numero":"1985-D67-13","commune":"GRIES","echelle":"1/15000","surface":"5.12 km²","format":"A4","annee":"1985","cartographes":"A. MULLA,SIMONIN,M. SINIBALDI","proprietaire":"6707 - ASS. DES SPORTS D'ORIENTATION DU PAYS D'ERSTEIN","niveau":"Interrégional","specialite":"CO à pied","latitude":"48.7647123609","longitude":"7.81743418126","valide":"Non","ppo":"Non","type_carte":"Nouvelle carte","fond":"IGN","obsolete":true}},{"type":"Feature","geometry":{"type":"Polygon","coordinates":[[[7.8715,48.7959],[7.8713,48.7973],[7.871,48.7987],[7.871,48.8001],[7.872,48.8025],[7.8762,48.8017],[7.8807,48.8004],[7.8819,48.8002],[7.8847,48.8002],[7.8878,48.8005],[7.8911,48.8007],[7.8934,48.8012],[7.8964,48.8017],[7.8964,48.8025],[7.8959,48.804],[7.8932,48.8087],[7.888,48.8179],[7.8882,48.8191],[7.8886,48.8222],[7.8878,48.8219],[7.8863,48.8223],[7.8852,48.8222],[7.8839,48.822],[7.8828,48.8222],[7.8817,48.8226],[7.8803,48.8227],[7.8789,48.8224],[7.8779,48.8222],[7.8759,48.8216],[7.8749,48.8214],[7.873,48.8222],[7.8705,48.8232],[7.8694,48.8229],[7.8683,48.8221],[7.8676,48.8215],[7.8656,48.8214],[7.8635,48.8223],[7.862,48.8224],[7.8608,48.8218],[7.8591,48.8216],[7.8569,48.8214],[7.8524,48.821],[7.8519,48.8193],[7.8508,48.8165],[7.8503,48.8129],[7.851,48.8111],[7.8514,48.8093],[7.8514,48.8077],[7.8521,48.8034],[7.8544,48.8025],[7.8562,48.796],[7.8547,48.796],[7.8556,48.7938],[7.8715,48.7959]]]},"properties":{"id_ffco":"2781","nom":"LE CAMP","_dept":"67","numero":"1983-D67-11","commune":"OBERHOFFEN","echelle":"1/15000","surface":"7.68 km²","format":"+","annee":"1983","cartographes":"MULA,PELLEGRY","proprietaire":"6707 - ASS. DES SPORTS D'ORIENTATION DU PAYS D'ERSTEIN","niveau":"Interrégional","specialite":"CO à pied","latitude":"48.8097425889","longitude":"7.87108803962","valide":"Non","ppo":"Non","type_carte":"Nouvelle carte","fond":"IGN","obsolete":true}},{"type":"Feature","geometry":null,"properties":{"id_ffco":"873","nom":"KRIMMERI","_dept":"67","numero":"1979-D67-10","commune":"ILLKIRCH","echelle":"1/15000","surface":"6.6 km²","format":"A4","annee":"1979","cartographes":"J BOOS","proprietaire":"6701 - CLUB ORIENTATION STRASBOURG EUROPE","niveau":"Interrégional","specialite":"CO à pied","latitude":"48.5293428","longitude":"7.7110788","valide":"Non","ppo":"Non","obsolete":true}},{"type":"Feature","geometry":null,"properties":{"id_ffco":"2779","nom":"THANNENKIRCH","_dept":"67","numero":"1994-D67-1","echelle":"1/20000","surface":"0.0 km²","annee":"1994","proprietaire":"6701 - CLUB ORIENTATION STRASBOURG EUROPE","specialite":"CO à pied","latitude":"48.6343172","longitude":"7.5252938","valide":"Non","ppo":"Non","obsolete":true}},{"type":"Feature","geometry":null,"properties":{"id_ffco":"2780","nom":"FORET DE DAMBACH","_dept":"67","numero":"1994-D67-02","commune":"BITCHE","echelle":"1/16667","surface":"9.0 km²","format":"A3","annee":"1994","cartographes":"LEROY DURIEUX,MARCHESSEAU,ROUSSEAU GARDEY,MARCHAL","proprietaire":"ASOPE","niveau":"National, International","specialite":"CO à pied","latitude":"49.0510332","longitude":"7.4237832","valide":"Non","ppo":"Non","obsolete":true}},{"type":"Feature","geometry":{"type":"Polygon","coordinates":[[[7.7276,48.6894],[7.7345,48.691],[7.7357,48.6874],[7.7589,48.6859],[7.7616,48.6832],[7.7609,48.6805],[7.7613,48.6782],[7.7469,48.6772],[7.7417,48.6775],[7.741,48.6765],[7.7354,48.6765],[7.7278,48.6893],[7.7276,48.6894]]]},"properties":{"id_ffco":"5249","nom":"forêt de Grittwald","_dept":"67","numero":"1977-D67-02","commune":"Brumath","echelle":"1/7500","surface":"2.39 km²","format":"A3","annee":"1977","cartographes":"J BOOS,A HALLOUARD","proprietaire":"6707 - ASS. DES SPORTS D'ORIENTATION DU PAYS D'ERSTEIN","niveau":"Régional","specialite":"CO à pied","latitude":"48.6826550284","longitude":"7.74460727615","date_saisie":"07/01/2012","valide":"Non","ppo":"Non","obsolete":true}},{"type":"Feature","geometry":{"type":"Polygon","coordinates":[[[7.7067,48.64],[7.704,48.6388],[7.7036,48.6404],[7.7033,48.6406],[7.7058,48.6408],[7.7068,48.6402],[7.7067,48.64]]]},"properties":{"id_ffco":"5247","nom":"Bois de Mundolsheim","_dept":"67","numero":"1977-D67-01","commune":"Mundolsheim","echelle":"1/7500","surface":"0.03 km²","format":"A4","annee":"1977","cartographes":"A HALLOUARD","proprietaire":"6707 - ASS. DES SPORTS D'ORIENTATION DU PAYS D'ERSTEIN","niveau":"Départemental","specialite":"CO à pied","latitude":"48.64000345","longitude":"7.70497467972","date_saisie":"07/01/2012","valide":"Non","ppo":"Non","obsolete":true}},{"type":"Feature","geometry":{"type":"Polygon","coordinates":[[[7.7466,48.5371],[7.7524,48.539],[7.7574,48.5392],[7.7564,48.5369],[7.7576,48.5353],[7.7576,48.5341],[7.7598,48.5332],[7.761,48.5325],[7.76,48.5296],[7.7571,48.5292],[7.7564,48.5274],[7.7569,48.5253],[7.7608,48.5246],[7.7634,48.5224],[7.7581,48.5208],[7.7566,48.5186],[7.7603,48.5152],[7.7624,48.5137],[7.7672,48.5162],[7.7672,48.5118],[7.7711,48.5124],[7.7723,48.5118],[7.7682,48.5049],[7.7674,48.5018],[7.7729,48.5002],[7.765,48.4964],[7.7615,48.4967],[7.76,48.4985],[7.7566,48.4992],[7.7521,48.4988],[7.7451,48.5014],[7.7454,48.5033],[7.742,48.505],[7.7354,48.5093],[7.7332,48.511],[7.7344,48.512],[7.7402,48.5107],[7.7421,48.5179],[7.7451,48.5217],[7.7445,48.5257],[7.7439,48.5287],[7.7423,48.5299],[7.7421,48.5317],[7.7454,48.5335],[7.7466,48.5373],[7.7466,48.5371]]]},"properties":{"id_ffco":"5475","nom":"Forêt de Strasbourg","_dept":"67","numero":"1973-D67-001","commune":"Illkirch Graffenstaden","echelle":"1/16667","surface":"6.64 km²","format":"A3","annee":"1973","cartographes":"A HALLOUARD,J GALLEN","proprietaire":"6707 - ASS. DES SPORTS D'ORIENTATION DU PAYS D'ERSTEIN","niveau":"National, International","specialite":"CO à pied","latitude":"48.5151613297","longitude":"7.75373279049","date_saisie":"03/08/2012","valide":"Non","ppo":"Non","obsolete":true}},{"type":"Feature","geometry":null,"properties":{"id_ffco":"5475","nom":"LEMBACH (a)","_dept":"67","numero":"1973-D67-001","commune":"LEMBACH","echelle":"1/20000","surface":"8.2 km²","format":"A4","annee":"1973","cartographes":"A HALLOUARD,JC SYLVESTRE,R PILLOURDAULT","proprietaire":"6707 - ASS. DES SPORTS D'ORIENTATION DU PAYS D'ERSTEIN","niveau":"National, International","specialite":"CO à pied","latitude":"49.0058418","longitude":"7.7897115","valide":"Non","ppo":"Non","obsolete":true}},{"type":"Feature","geometry":{"type":"Polygon","coordinates":[[[7.4326,48.6327],[7.4239,48.6317],[7.4165,48.6333],[7.4115,48.6327],[7.4088,48.6279],[7.4065,48.6226],[7.395,48.617],[7.4055,48.6109],[7.4115,48.6131],[7.4153,48.617],[7.4206,48.6206],[7.4234,48.6233],[7.4254,48.625],[7.4249,48.6291],[7.4325,48.6319],[7.4325,48.6327],[7.4326,48.6327]]]},"properties":{"id_ffco":"5475","nom":"Forêt de Wasselonne","_dept":"67","numero":"1973-D67-001","commune":"Wasselonne","echelle":"1/16667","surface":"2.84 km²","format":"A4","annee":"1973","cartographes":"stage carto 1973,HALLOUARD,gallen,VISIEDO","proprietaire":"6707 - ASS. DES SPORTS D'ORIENTATION DU PAYS D'ERSTEIN","niveau":"Régional","specialite":"CO à pied","latitude":"48.622728608","longitude":"7.41288072553","date_saisie":"04/08/2012","valide":"Non","ppo":"Non","obsolete":true}},{"type":"Feature","geometry":{"type":"Polygon","coordinates":[[[7.789,49.0072],[7.7839,49.0127],[7.7792,49.014],[7.7816,49.0166],[7.778,49.0195],[7.7699,49.0236],[7.7699,49.0266],[7.7629,49.0312],[7.7531,49.032],[7.7463,49.0305],[7.7394,49.0297],[7.7353,49.0233],[7.7421,49.0208],[7.7389,49.0144],[7.7469,49.0115],[7.7516,49.0081],[7.7648,48.9973],[7.7756,48.992],[7.789,49.0072]]]},"properties":{"id_ffco":"868","nom":"LEMBACH","_dept":"67","numero":"1973-D67-000","commune":"LEMBACH","echelle":"1/20000","surface":"9.29 km²","format":"A4","annee":"1973","cartographes":"stage carto 1973,1ère carte moderne alsacienne","proprietaire":"6707 - ASS. DES SPORTS D'ORIENTATION DU PAYS D'ERSTEIN","niveau":"National, International","specialite":"CO à pied","latitude":"49.0141288214","longitude":"7.76283339644","date_saisie":"06/01/2012","valide":"Non","ppo":"Non","obsolete":true}},{"type":"Feature","geometry":null,"properties":{"id_ffco":"5326","nom":"France metro","_dept":"67","numero":"1971-D67-000","commune":"Strasbourg","echelle":"1/250000","surface":"550000.0 km²","format":"+","annee":"1971","cartographes":"CS DONAUESCHINGEN","proprietaire":"6707 - ASS. DES SPORTS D'ORIENTATION DU PAYS D'ERSTEIN","niveau":"National, International","specialite":"CO à pied","latitude":"46.7201553725","longitude":"2.44441253411","date_saisie":"10/02/2012","valide":"Non","ppo":"Non","obsolete":true}},{"type":"Feature","geometry":null,"properties":{"id_ffco":"868","nom":"THANNENKIRCH","_dept":"67","numero":"1973-D67-000","commune":"THANNENKIRCH","echelle":"1/20000","surface":"8.0 km²","format":"A4","annee":"1973","cartographes":"JC SYLVESTRE,R PILLOURDAULT,Terrien JM,E Bousser","proprietaire":"6707 - ASS. DES SPORTS D'ORIENTATION DU PAYS D'ERSTEIN","niveau":"National, International","specialite":"CO à pied","latitude":"48.2285529","longitude":"7.3055805","valide":"Non","ppo":"Non","obsolete":true}}]}