{"type":"FeatureCollection","features":[{"type":"Feature","geometry":{"type":"Polygon","coordinates":[[[7.2798,47.7629],[7.2847,47.7652],[7.2878,47.7659],[7.2884,47.7664],[7.2884,47.7675],[7.289,47.7695],[7.2897,47.7716],[7.2904,47.7756],[7.2901,47.7759],[7.2902,47.7763],[7.2882,47.7773],[7.2867,47.7783],[7.2855,47.7787],[7.2784,47.7802],[7.2751,47.7813],[7.2717,47.7826],[7.2675,47.784],[7.2632,47.7845],[7.2619,47.7848],[7.2612,47.7772],[7.2609,47.7729],[7.2613,47.77],[7.2628,47.7671],[7.2663,47.7635],[7.2696,47.7615],[7.2711,47.7617],[7.2724,47.7619],[7.2743,47.7613],[7.2755,47.7614],[7.2779,47.7618],[7.2798,47.7629]]]},"properties":{"id_ffco":"9951","nom":"Nonnenbruch","_dept":"68","numero":"1996-D68-058","commune":"Lutterbach","echelle":"1/15000","surface":"4.13 km²","format":"A4","annee":"1996","cartographes":"Pierson Jean-Luc","proprietaire":"6803 - CLUB D'ORIENTATION DE MULHOUSE","niveau":"Régional","specialite":"CO à pied","contacts":"Vincent Papon, 16 rue de la Brasserie, 68460, Lutterbach, 06.63.03.92.86, v.papon@free.fr, http://comulhouse.fr/","latitude":"47.7725628229","longitude":"7.27427207577","date_saisie":"02/12/2016","valide":"Non","ppo":"Non","type_carte":"Reprise","base":"1986-D68-030 Nonnenbruch","fond":"IGN","ref_ign":"3720 ET","obsolete":true}},{"type":"Feature","geometry":{"type":"Polygon","coordinates":[[[7.2798,47.763],[7.2883,47.7663],[7.2884,47.7681],[7.289,47.7698],[7.2901,47.7742],[7.2904,47.7756],[7.2901,47.7763],[7.2872,47.7781],[7.2855,47.7786],[7.2825,47.7793],[7.2779,47.7804],[7.2727,47.7823],[7.2675,47.784],[7.2618,47.7839],[7.2616,47.7799],[7.261,47.7733],[7.2613,47.7714],[7.2619,47.7688],[7.2639,47.7658],[7.2663,47.7636],[7.2698,47.7615],[7.2763,47.7616],[7.2798,47.763]]]},"properties":{"id_ffco":"9950","nom":"Nonnenbruch","_dept":"68","numero":"1986-D68-030","commune":"Lutterbach","echelle":"1/15000","surface":"4.08 km²","format":"A4","annee":"1986","cartographes":"O. Lahausse,Ph. Senjean,R. Ulrich","proprietaire":"6803 - CLUB D'ORIENTATION DE MULHOUSE","niveau":"Régional","specialite":"CO à pied","contacts":"Vincent Papon, 16 rue de la Brasserie, 68460, Lutterbach, 06.63.03.92.86, v.papon@free.fr, http://comulhouse.fr/","latitude":"47.7725328909","longitude":"7.27433421153","date_saisie":"02/12/2016","valide":"Non","ppo":"Non","type_carte":"Nouvelle carte","fond":"IGN","ref_ign":"3720 ET","obsolete":true}}]}