{"type":"FeatureCollection","features":[{"type":"Feature","geometry":{"type":"Polygon","coordinates":[[[6.1681,47.6221],[6.1683,47.6226],[6.1693,47.6227],[6.17,47.6248],[6.1675,47.6252],[6.167,47.6249],[6.1663,47.6246],[6.1656,47.6243],[6.165,47.6243],[6.1654,47.6225],[6.1681,47.6221]]]},"properties":{"id_ffco":"2014-D70-99","nom":"Stade René Hologne","_dept":"70","numero":"2014-D70-99","commune":"Vesoul","echelle":"1/900","surface":"0.09 km²","format":"A4","annee":"2014","cartographes":"Jean-Michel Bettinger","proprietaire":"70 - Haute-Saône","niveau":"O+","specialite":"CO à pied","contacts":"CDCO 70","latitude":"47.6236746844","longitude":"6.1674871862","date_saisie":"29/12/2014","date_depot":"30/12/2014","valide":"Oui","ppo":"Non","type_carte":"Nouvelle carte","fond":"Cadastre","obsolete":false}},{"type":"Feature","geometry":{"type":"Polygon","coordinates":[[[5.5513,47.2886],[5.5507,47.289],[5.5517,47.2903],[5.5486,47.2912],[5.5464,47.292],[5.5457,47.2918],[5.5451,47.2909],[5.5439,47.2905],[5.5436,47.289],[5.5449,47.2877],[5.5471,47.2874],[5.5483,47.2876],[5.5498,47.2874],[5.5513,47.2886]]]},"properties":{"id_ffco":"2014-D70-98","nom":"L'ile des forges","_dept":"70","numero":"2014-D70-98","commune":"Pesmes","echelle":"1/5000","surface":"0.22 km²","format":"A4","annee":"2014","cartographes":"Jean-Michel Bettinger","proprietaire":"70 - Haute-Saône","niveau":"O+","specialite":"CO à pied","contacts":"CDCO 70","latitude":"47.289454303","longitude":"5.54745719319","date_saisie":"29/12/2014","date_depot":"30/12/2014","valide":"Oui","ppo":"Non","type_carte":"Nouvelle carte","fond":"Cadastre","obsolete":false}},{"type":"Feature","geometry":{"type":"Polygon","coordinates":[[[5.7687,47.2806],[5.7645,47.2845],[5.7657,47.285],[5.7663,47.2856],[5.7665,47.2865],[5.7681,47.2867],[5.7689,47.2871],[5.769,47.2878],[5.7697,47.2877],[5.771,47.2869],[5.7704,47.2858],[5.7693,47.2848],[5.7686,47.2837],[5.7686,47.2824],[5.7696,47.2812],[5.7706,47.2802],[5.7687,47.2806]]]},"properties":{"id_ffco":"2014-D70-97","nom":"Zone du Paquey","_dept":"70","numero":"2014-D70-97","commune":"Marnay","echelle":"1/4000","surface":"0.17 km²","format":"A4","annee":"2014","cartographes":"Jean-Michel Bettinger","proprietaire":"70 - Haute-Saône","niveau":"O+","specialite":"CO à pied","contacts":"bettinger jean michel, 9,rue du gros chêne, 70000, villers le sec, 0683076886, jeanmichelbettinger@gmail.com","latitude":"47.2844168885","longitude":"5.76798153883","date_saisie":"23/12/2014","date_depot":"23/12/2014","valide":"Oui","ppo":"Non","type_carte":"Nouvelle carte","fond":"IGN","obsolete":false}},{"type":"Feature","geometry":{"type":"Polygon","coordinates":[[[6.1578,47.6193],[6.1581,47.6183],[6.1586,47.6185],[6.1595,47.6184],[6.1598,47.6191],[6.1589,47.6193],[6.1578,47.6193]]]},"properties":{"id_ffco":"2014-D70-96","nom":"Collège Jean Macé de Vesoul","_dept":"70","numero":"2014-D70-96","commune":"Vesoul","echelle":"1/900","surface":"0.01 km²","format":"A4","annee":"2014","cartographes":"Jean-Michel Bettinger","proprietaire":"70 - Haute-Saône","niveau":"O+","specialite":"CO à pied","contacts":"CDCO 70","latitude":"47.6188688715","longitude":"6.15877708442","date_saisie":"29/12/2014","date_depot":"30/12/2014","valide":"Oui","ppo":"Non","type_carte":"Nouvelle carte","fond":"Cadastre","obsolete":false}},{"type":"Feature","geometry":{"type":"Polygon","coordinates":[[[6.1649,47.6241],[6.1632,47.6236],[6.1633,47.6227],[6.1642,47.6227],[6.1654,47.6225],[6.1649,47.6241]]]},"properties":{"id_ffco":"2014-D70-95","nom":"Jardin Anglais","_dept":"70","numero":"2014-D70-95","commune":"Vesoul","echelle":"1/900","surface":"0.02 km²","format":"A4","annee":"2014","cartographes":"Jean-Michel Bettinger","proprietaire":"70 - Haute-Saône","niveau":"O+","specialite":"CO à pied","contacts":"CDCO 70","latitude":"47.6232157052","longitude":"6.16431002098","date_saisie":"29/12/2014","date_depot":"30/12/2014","valide":"Oui","ppo":"Non","type_carte":"Nouvelle carte","fond":"Cadastre","obsolete":false}},{"type":"Feature","geometry":{"type":"Polygon","coordinates":[[[6.5016,47.6856],[6.5026,47.6838],[6.5057,47.6839],[6.5078,47.6847],[6.506,47.6868],[6.5016,47.6856]]]},"properties":{"id_ffco":"2014-D70-94","nom":"Complexe sportif de Lure","_dept":"70","numero":"2014-D70-94","commune":"Lure","echelle":"1/1700","surface":"0.1 km²","format":"A4","annee":"2014","cartographes":"Loic Longchamp","proprietaire":"70 - Haute-Saône","niveau":"O+","specialite":"CO à pied","contacts":"CDCO 70","latitude":"47.685125691","longitude":"6.50465361917","date_saisie":"29/12/2014","date_depot":"30/12/2014","valide":"Oui","ppo":"Non","type_carte":"Nouvelle carte","fond":"Cadastre","obsolete":false}},{"type":"Feature","geometry":{"type":"Polygon","coordinates":[[[6.5083,47.6905],[6.5122,47.6916],[6.5142,47.6886],[6.5153,47.6858],[6.5142,47.6856],[6.5122,47.6862],[6.5083,47.6905]]]},"properties":{"id_ffco":"2014-D70-93","nom":"Bois du Mortard","_dept":"70","numero":"2014-D70-93","commune":"Lure","echelle":"1/2500","surface":"0.17 km²","format":"A4","annee":"2014","cartographes":"Loic Longchamp","proprietaire":"70 - Haute-Saône","niveau":"Initiation, Scolaire","specialite":"CO à pied","contacts":"CDCO 70","latitude":"47.6886563572","longitude":"6.5120688107","date_saisie":"29/12/2014","date_depot":"30/12/2014","valide":"Oui","ppo":"Non","type_carte":"Nouvelle carte","fond":"Cadastre","obsolete":false}},{"type":"Feature","geometry":{"type":"Polygon","coordinates":[[[6.7588,47.5897],[6.7581,47.5942],[6.7634,47.5959],[6.7654,47.5972],[6.7683,47.5968],[6.7723,47.5966],[6.7737,47.5965],[6.7773,47.5971],[6.7779,47.5934],[6.7773,47.5933],[6.773,47.5897],[6.7668,47.5886],[6.7653,47.5908],[6.7649,47.5909],[6.7642,47.5913],[6.7588,47.5897]]]},"properties":{"id_ffco":"2014-D70-92","nom":"Le Mont Vaudois","_dept":"70","numero":"2014-D70-92","commune":"Héricourt","echelle":"1/5000","surface":"0.97 km²","format":"A4","annee":"2014","cartographes":"Alexandre GANZITTI","proprietaire":"9006 - ROYAL AZIMUT MONTBELIARD BELFORT ORIENTATION","niveau":"Initiation, Scolaire","specialite":"CO à pied","latitude":"47.5932479054","longitude":"6.7682425225","date_saisie":"20/10/2014","date_depot":"30/12/2014","valide":"Oui","ppo":"Non","type_carte":"Nouvelle carte","fond":"IGN","ref_ign":"3621 OT","obsolete":false}},{"type":"Feature","geometry":{"type":"Polygon","coordinates":[[[6.7823,47.5834],[6.7768,47.5825],[6.7737,47.5808],[6.7719,47.5791],[6.7707,47.5769],[6.7701,47.5746],[6.7694,47.5725],[6.7695,47.5708],[6.7744,47.5713],[6.776,47.5731],[6.7782,47.5748],[6.7795,47.5756],[6.7803,47.577],[6.7818,47.5794],[6.7834,47.581],[6.7841,47.5818],[6.7823,47.5834]]]},"properties":{"id_ffco":"2014-D70-91","nom":"Bois du Salamon","_dept":"70","numero":"2014-D70-91","commune":"Héricourt","echelle":"1/5000","surface":"0.82 km²","format":"A4","annee":"2014","cartographes":"Alexandre GANZITTI","proprietaire":"Collège St Joseph - HERICOURT - 70","niveau":"Initiation, Scolaire","specialite":"CO à pied","latitude":"47.5774135723","longitude":"6.77597620162","date_saisie":"28/01/2014","date_depot":"30/12/2014","valide":"Oui","ppo":"Non","type_carte":"Nouvelle carte","fond":"IGN","obsolete":false}},{"type":"Feature","geometry":{"type":"Polygon","coordinates":[[[6.751,47.5948],[6.7581,47.589],[6.7634,47.5903],[6.7623,47.5863],[6.7783,47.5895],[6.7771,47.5916],[6.7779,47.5932],[6.7773,47.5942],[6.7761,47.5954],[6.7761,47.5974],[6.7731,47.5997],[6.7705,47.6],[6.7656,47.6002],[6.7607,47.6002],[6.7569,47.6002],[6.7544,47.5998],[6.7521,47.5976],[6.751,47.5948]]]},"properties":{"id_ffco":"2014-D70-90","nom":"Le Mougnot","_dept":"70","numero":"2014-D70-90","commune":"Héricourt","echelle":"1/5000","surface":"2.25 km²","format":"A4","annee":"2014","cartographes":"Alexandre GANZITTI","proprietaire":"Collège St Joseph - HERICOURT - 70","niveau":"Initiation, Scolaire","specialite":"CO à pied","latitude":"47.594205211","longitude":"6.76509292506","date_saisie":"28/01/2014","date_depot":"30/12/2014","valide":"Oui","ppo":"Non","type_carte":"Nouvelle carte","fond":"IGN","obsolete":false}},{"type":"Feature","geometry":{"type":"Polygon","coordinates":[[[6.2709,47.8856],[6.2682,47.8851],[6.2679,47.8853],[6.2658,47.8844],[6.2652,47.884],[6.266,47.8831],[6.2669,47.8831],[6.268,47.8834],[6.2688,47.8833],[6.2699,47.8836],[6.2711,47.8841],[6.2718,47.8848],[6.2722,47.8852],[6.2709,47.8856]]]},"properties":{"id_ffco":"2014-D70-89","nom":"La grotte O' loup","_dept":"70","numero":"2014-D70-89","commune":"St Loup","echelle":"1/2000","surface":"0.09 km²","format":"A4","annee":"2014","cartographes":"Jean-Michel Bettinger","proprietaire":"70 - Haute-Saône","niveau":"O+","specialite":"CO à pied","latitude":"47.884319258","longitude":"6.26860415849","date_saisie":"29/12/2014","date_depot":"30/12/2014","valide":"Oui","ppo":"Non","type_carte":"Nouvelle carte","fond":"Cadastre","obsolete":false}},{"type":"Feature","geometry":{"type":"Polygon","coordinates":[[[6.1762,47.5934],[6.1768,47.5959],[6.1839,47.5975],[6.1879,47.5971],[6.1907,47.5969],[6.1927,47.5968],[6.194,47.5972],[6.1957,47.5975],[6.1966,47.5975],[6.1968,47.5964],[6.197,47.5951],[6.1969,47.5938],[6.1962,47.5922],[6.1952,47.5904],[6.1947,47.5899],[6.1936,47.5894],[6.1924,47.5891],[6.1909,47.5882],[6.187,47.5865],[6.1856,47.5876],[6.1867,47.5893],[6.1851,47.5901],[6.1824,47.5908],[6.1803,47.5896],[6.1778,47.5907],[6.1776,47.5914],[6.1772,47.5922],[6.1772,47.5929],[6.1769,47.5932],[6.1762,47.5934]]]},"properties":{"id_ffco":"2014-D70-88","nom":"Bois du Tilleuil","_dept":"70","numero":"2014-D70-88","commune":"Quincey","echelle":"1/5300","surface":"1.26 km²","format":"A4","annee":"2014","cartographes":"Jean-Michel Bettinger","proprietaire":"70 - Haute-Saône","niveau":"Départemental","specialite":"CO à pied","contacts":"CDCO 70","latitude":"47.5931301201","longitude":"6.18718601365","date_saisie":"29/12/2014","date_depot":"30/12/2014","valide":"Oui","ppo":"Non","type_carte":"Nouvelle carte","fond":"IGN","obsolete":false}},{"type":"Feature","geometry":{"type":"Polygon","coordinates":[[[6.1681,47.6051],[6.1675,47.6035],[6.1673,47.6025],[6.1677,47.6011],[6.168,47.6009],[6.1692,47.6009],[6.1701,47.6005],[6.1709,47.5998],[6.1717,47.5991],[6.1734,47.598],[6.1745,47.598],[6.1753,47.5983],[6.1769,47.5994],[6.1789,47.6009],[6.1801,47.6021],[6.1816,47.603],[6.1797,47.6048],[6.1798,47.6069],[6.1786,47.6087],[6.1771,47.6095],[6.1742,47.6084],[6.1718,47.6098],[6.1696,47.6091],[6.1682,47.6061],[6.1681,47.6051]]]},"properties":{"id_ffco":"2014-D70-87","nom":"Petit bois Navenne","_dept":"70","numero":"2014-D70-87","commune":"Navenne","echelle":"1/5000","surface":"0.94 km²","format":"A4","annee":"2014","cartographes":"Jean-Michel Bettinger","proprietaire":"70 - Haute-Saône","niveau":"Initiation, Scolaire","specialite":"CO à pied","latitude":"47.6040749018","longitude":"6.17400941496","date_saisie":"29/12/2014","date_depot":"30/12/2014","valide":"Oui","ppo":"Non","type_carte":"Nouvelle carte","fond":"IGN","obsolete":false}},{"type":"Feature","geometry":{"type":"Polygon","coordinates":[[[6.1236,47.6599],[6.1205,47.6564],[6.1182,47.6535],[6.1135,47.652],[6.1134,47.6502],[6.1179,47.6484],[6.1248,47.6455],[6.1317,47.6451],[6.1379,47.6438],[6.1403,47.6422],[6.1427,47.6426],[6.1446,47.6455],[6.1452,47.6482],[6.1421,47.6511],[6.1362,47.6549],[6.1325,47.6592],[6.1236,47.6599]]]},"properties":{"id_ffco":"2014-D70-86","nom":"Pusey centre","_dept":"70","numero":"2014-D70-86","commune":"Pusey","echelle":"1/10000","surface":"2.64 km²","format":"A4","annee":"2014","cartographes":"Jean-Michel Bettinger","proprietaire":"70 - Haute-Saône","niveau":"Départemental","specialite":"CO à VTT","contacts":"CDCO 70","latitude":"47.6509853536","longitude":"6.13004436866","date_saisie":"29/12/2014","date_depot":"30/12/2014","valide":"Oui","ppo":"Non","type_carte":"Nouvelle carte","fond":"Cadastre","obsolete":false}},{"type":"Feature","geometry":{"type":"Polygon","coordinates":[[[6.2907,47.6214],[6.2863,47.6168],[6.2877,47.6157],[6.286,47.6145],[6.2852,47.6124],[6.2878,47.6103],[6.289,47.6021],[6.2883,47.5996],[6.2932,47.5984],[6.2985,47.5981],[6.2982,47.6042],[6.3008,47.6089],[6.3032,47.6075],[6.3062,47.6051],[6.3086,47.6036],[6.3127,47.6055],[6.3092,47.6079],[6.3089,47.6102],[6.3134,47.6116],[6.3167,47.6146],[6.3171,47.6172],[6.3128,47.6186],[6.3089,47.6173],[6.3064,47.6192],[6.3054,47.6208],[6.3029,47.6219],[6.297,47.6225],[6.2934,47.6223],[6.2907,47.6214]]]},"properties":{"id_ffco":"2014-D70-85","nom":"Noroy le bourg","_dept":"70","numero":"2014-D70-85","commune":"Noroy le bourg","echelle":"1/10000","surface":"3.8 km²","format":"A4","annee":"2014","cartographes":"Jean-Michel Bettinger","proprietaire":"70 - Haute-Saône","niveau":"Départemental","specialite":"CO à VTT","contacts":"CDCO 70","latitude":"47.6118888338","longitude":"6.29900846958","date_saisie":"29/12/2014","date_depot":"30/12/2014","valide":"Oui","ppo":"Non","type_carte":"Nouvelle carte","fond":"IGN","obsolete":false}},{"type":"Feature","geometry":{"type":"Polygon","coordinates":[[[6.4191,47.5351],[6.4215,47.5362],[6.4259,47.54],[6.4215,47.5468],[6.4155,47.5451],[6.4173,47.5359],[6.4191,47.5351]]]},"properties":{"id_ffco":"2014-D70-84","nom":"Villersexel Les chailles","_dept":"70","numero":"2014-D70-84","commune":"Villersexel","echelle":"1/5000","surface":"0.64 km²","format":"A4","annee":"2014","cartographes":"Jean-Michel Bettinger","proprietaire":"70 - Haute-Saône","niveau":"Initiation, Scolaire","specialite":"CO à pied","contacts":"CDCO 70","latitude":"47.5410913025","longitude":"6.42019745851","date_saisie":"29/12/2014","date_depot":"26/12/2014","valide":"Oui","ppo":"Non","type_carte":"Nouvelle carte","fond":"IGN","obsolete":false}},{"type":"Feature","geometry":{"type":"Polygon","coordinates":[[[6.5635,47.8402],[6.5627,47.8393],[6.5622,47.8394],[6.5617,47.8396],[6.5613,47.8398],[6.5608,47.8398],[6.5608,47.84],[6.5611,47.8404],[6.5613,47.8407],[6.5618,47.8407],[6.5622,47.8407],[6.5626,47.8409],[6.5631,47.8405],[6.5635,47.8402]]]},"properties":{"id_ffco":"2014-D70-83","nom":"Collège de Faucogney","_dept":"70","numero":"2014-D70-83","commune":"Faucogney","echelle":"1/800","surface":"0.02 km²","format":"A4","annee":"2014","cartographes":"Jean-Michel Bettinger","proprietaire":"70 - Haute-Saône","niveau":"Initiation, Scolaire","specialite":"CO à pied","latitude":"47.84010642","longitude":"6.56219260242","date_saisie":"26/12/2014","date_depot":"26/12/2014","valide":"Oui","ppo":"Non","type_carte":"Nouvelle carte","fond":"Cadastre","obsolete":false}},{"type":"Feature","geometry":{"type":"Polygon","coordinates":[[[6.228,47.6065],[6.2294,47.6049],[6.2323,47.6042],[6.2334,47.6033],[6.2359,47.6026],[6.2358,47.601],[6.2369,47.5995],[6.2388,47.5981],[6.2407,47.5977],[6.2449,47.5998],[6.2466,47.6015],[6.2474,47.6025],[6.2493,47.6025],[6.2516,47.6019],[6.253,47.6008],[6.2548,47.6006],[6.2587,47.6008],[6.2624,47.6018],[6.2661,47.6046],[6.2671,47.6082],[6.2656,47.6121],[6.2625,47.615],[6.2586,47.6156],[6.2527,47.6144],[6.2509,47.6113],[6.2478,47.6117],[6.2437,47.6111],[6.2406,47.6118],[6.2361,47.6111],[6.228,47.6065]]]},"properties":{"id_ffco":"2014-D70-82","nom":"Bois de Noroy","_dept":"70","numero":"2014-D70-82","commune":"Colombes-les-vesoul","echelle":"1/10000","surface":"3.4 km²","format":"A4","annee":"2014","cartographes":"Jean-Michel Bettinger","proprietaire":"70 - Haute-Saône","niveau":"Départemental","specialite":"CO à pied","latitude":"47.6068368892","longitude":"6.24952816541","date_saisie":"26/12/2014","date_depot":"26/12/2014","valide":"Oui","ppo":"Non","type_carte":"Nouvelle carte","fond":"IGN","obsolete":false}},{"type":"Feature","geometry":{"type":"Polygon","coordinates":[[[6.2288,47.606],[6.2324,47.604],[6.2346,47.6009],[6.2369,47.598],[6.2331,47.5968],[6.2332,47.5954],[6.2369,47.5951],[6.2418,47.5941],[6.2464,47.5929],[6.2504,47.5928],[6.2543,47.5936],[6.2601,47.5939],[6.2692,47.5945],[6.2741,47.595],[6.2809,47.596],[6.2851,47.5969],[6.292,47.5975],[6.2963,47.6005],[6.3003,47.6055],[6.3025,47.6091],[6.3039,47.6125],[6.3039,47.6152],[6.3008,47.6175],[6.2969,47.6209],[6.2884,47.621],[6.2838,47.6185],[6.2799,47.6173],[6.2719,47.6171],[6.2658,47.6181],[6.2632,47.6188],[6.2488,47.6154],[6.2343,47.6129],[6.2321,47.6121],[6.2296,47.6104],[6.2288,47.606]]]},"properties":{"id_ffco":"2013-D70-81","nom":"Colombe-Noroy","_dept":"70","numero":"2013-D70-81","commune":"Colombes-les-vesoul","echelle":"1/15000","surface":"12.62 km²","format":"A3","annee":"2013","cartographes":"Jean-Michel Bettinger","proprietaire":"70 - Haute-Saône","niveau":"Départemental","specialite":"CO à VTT","latitude":"47.606587465","longitude":"6.26715412558","date_saisie":"26/12/2014","date_depot":"26/12/2014","valide":"Oui","ppo":"Non","type_carte":"Nouvelle carte","fond":"IGN","obsolete":false}},{"type":"Feature","geometry":{"type":"Polygon","coordinates":[[[6.2199,47.5997],[6.216,47.5997],[6.2143,47.5985],[6.2116,47.5985],[6.2093,47.5999],[6.2066,47.6024],[6.2049,47.6052],[6.2028,47.6065],[6.2007,47.6074],[6.1995,47.6054],[6.1997,47.6028],[6.2,47.6005],[6.2002,47.5977],[6.2019,47.5958],[6.2033,47.5938],[6.2049,47.5924],[6.2076,47.5916],[6.2104,47.5907],[6.212,47.5938],[6.2094,47.5953],[6.2095,47.5968],[6.213,47.5966],[6.2168,47.5956],[6.2199,47.5997]]]},"properties":{"id_ffco":"2013-D70-80","nom":"Le Frais Puits","_dept":"70","numero":"2013-D70-80","commune":"Villers le sec","echelle":"1/10000","surface":"1.14 km²","format":"A4","annee":"2013","cartographes":"Jean-Michel Bettinger, Manuel Zenevre","proprietaire":"70 - Haute-Saône","niveau":"Départemental","specialite":"CO à pied","latitude":"47.5985030833","longitude":"6.20671485017","date_saisie":"26/12/2014","date_depot":"26/12/2014","valide":"Oui","ppo":"Non","type_carte":"Nouvelle carte","fond":"IGN","obsolete":false}},{"type":"Feature","geometry":{"type":"Polygon","coordinates":[[[6.1477,47.6167],[6.1524,47.616],[6.156,47.6156],[6.1591,47.6169],[6.1615,47.6173],[6.1623,47.6182],[6.1652,47.6193],[6.1657,47.6222],[6.1674,47.6243],[6.169,47.6248],[6.1693,47.6263],[6.1668,47.6274],[6.1652,47.6254],[6.1636,47.624],[6.1623,47.6237],[6.1617,47.626],[6.1639,47.6269],[6.1629,47.6292],[6.1618,47.6313],[6.1588,47.6322],[6.1543,47.6343],[6.1526,47.6352],[6.1499,47.6334],[6.1463,47.633],[6.1449,47.6303],[6.1437,47.6284],[6.1442,47.6271],[6.1436,47.6255],[6.1449,47.6243],[6.1446,47.6229],[6.1454,47.6206],[6.1477,47.6167]]]},"properties":{"id_ffco":"2007-D70-79","nom":"Vesoul","_dept":"70","numero":"2007-D70-79","commune":"Vesoul","echelle":"1/4000","surface":"2.67 km²","format":"A3","annee":"2007","cartographes":"Sylvain Martinez, Matthieu Barthélemy, Jean-Michel Bettinger","proprietaire":"7004 - VESOUL HAUTE-SAONE ORIENTATION","niveau":"Initiation, Scolaire","specialite":"CO à pied","latitude":"47.6248347387","longitude":"6.15459259223","date_saisie":"26/12/2014","date_depot":"26/12/2014","valide":"Oui","ppo":"Non","type_carte":"Nouvelle carte","fond":"Cadastre","obsolete":false}},{"type":"Feature","geometry":{"type":"Polygon","coordinates":[[[6.5838,47.7545],[6.5855,47.7545],[6.5888,47.7548],[6.5932,47.755],[6.5951,47.7551],[6.6002,47.7564],[6.6016,47.7565],[6.6044,47.7574],[6.6068,47.7587],[6.6077,47.7598],[6.609,47.7618],[6.6085,47.7629],[6.6075,47.7638],[6.6074,47.7653],[6.609,47.7669],[6.6076,47.7671],[6.6052,47.7678],[6.6036,47.7679],[6.6033,47.7687],[6.6024,47.7694],[6.6008,47.7715],[6.5986,47.7737],[6.5986,47.7754],[6.5978,47.7762],[6.596,47.776],[6.5949,47.7751],[6.5938,47.7737],[6.5935,47.7727],[6.5862,47.7687],[6.5853,47.7679],[6.5857,47.7671],[6.5839,47.7641],[6.5855,47.7588],[6.5854,47.7576],[6.5847,47.7561],[6.5838,47.7545]]]},"properties":{"id_ffco":"2011-D70-77","nom":"Melisey sud est","_dept":"70","numero":"2011-D70-77","commune":"Melisey","echelle":"1/10000","surface":"2.92 km²","format":"A4","annee":"2011","cartographes":"Matthieu Barthélemy","proprietaire":"70 - Haute-Saône","niveau":"Interrégional","specialite":"CO à pied","latitude":"47.7637083004","longitude":"6.59565709014","date_depot":"30/12/2014","valide":"Non","ppo":"Non","type_carte":"Nouvelle carte","fond":"IGN","obsolete":false}},{"type":"Feature","geometry":{"type":"Polygon","coordinates":[[[6.5649,47.8413],[6.561,47.8369],[6.5564,47.8311],[6.5552,47.8298],[6.5561,47.8258],[6.5598,47.825],[6.5636,47.8233],[6.5662,47.823],[6.5709,47.8239],[6.5751,47.8241],[6.5804,47.8244],[6.5848,47.8261],[6.589,47.8285],[6.5902,47.8332],[6.5901,47.8376],[6.5891,47.8426],[6.5833,47.8445],[6.5749,47.8447],[6.5678,47.8442],[6.5649,47.8413]]]},"properties":{"id_ffco":"2011-D70-76","nom":"Faucogney","_dept":"70","numero":"2011-D70-76","commune":"Faucogney","echelle":"1/10000","surface":"4.85 km²","format":"A4","annee":"2011","cartographes":"Matthieu Barthélemy, Jean-Luc Chandezon","proprietaire":"70 - Haute-Saône","niveau":"Interrégional","specialite":"CO à pied","latitude":"47.833731707","longitude":"6.57402874209","date_depot":"30/12/2014","valide":"Non","ppo":"Non","type_carte":"Nouvelle carte","fond":"IGN","obsolete":false}},{"type":"Feature","geometry":{"type":"Polygon","coordinates":[[[6.0976,47.4336],[6.0988,47.435],[6.0974,47.4369],[6.0939,47.4374],[6.0907,47.4374],[6.0875,47.4369],[6.0846,47.437],[6.0827,47.4357],[6.0818,47.4338],[6.0823,47.4323],[6.0833,47.4311],[6.0821,47.4297],[6.0831,47.4289],[6.0854,47.4283],[6.087,47.4277],[6.0892,47.4294],[6.0893,47.4311],[6.0926,47.433],[6.0976,47.4336]]]},"properties":{"id_ffco":"2005-D70-61","nom":"La Bourotte","_dept":"70","numero":"2005-D70-61","commune":"Rioz","echelle":"1/10000","surface":"0.8 km²","format":"A4","annee":"2005","cartographes":"Joël Tauzin","proprietaire":"70 - Haute-Saône","niveau":"Régional","specialite":"CO à pied","latitude":"47.4336207802","longitude":"6.08892603342","date_saisie":"26/12/2014","date_depot":"26/12/2014","valide":"Oui","ppo":"Non","type_carte":"Nouvelle carte","fond":"IGN","obsolete":false}},{"type":"Feature","geometry":null,"properties":{"id_ffco":"2007-D70-57","nom":"La Combe Thierry","_dept":"70","numero":"2007-D70-57","commune":"Gy","echelle":"1/15000","surface":"6.75 km²","format":"A4","annee":"2007","cartographes":"M Barthelemy","proprietaire":"70 - Haute-Saône","specialite":"CO à VTT","latitude":"47.4041883","longitude":"5.8094798","date_saisie":"29/12/2007","date_depot":"22/10/2009","valide":"Non","ppo":"Non","obsolete":false}},{"type":"Feature","geometry":null,"properties":{"id_ffco":"2005-D70-56","nom":"La Roche du Diable","_dept":"70","numero":"2005-D70-56","commune":"Vregille","echelle":"1/20000","surface":"28.6 km²","annee":"2005","cartographes":"M Barthelemy","proprietaire":"7004 - VESOUL HAUTE-SAONE ORIENTATION","specialite":"CO à VTT","latitude":"47.3191907","longitude":"5.8913563","date_saisie":"11/08/2005","date_depot":"06/09/2005","valide":"Non","ppo":"Non","obsolete":false}},{"type":"Feature","geometry":null,"properties":{"id_ffco":"2002-D70-55","nom":"LA CROIX DE CASSINI","_dept":"70","numero":"2002-D70-55","commune":"Echenoz La Méline","echelle":"1/20000","surface":"29.0 km²","annee":"2002","proprietaire":"70 - Haute-Saône","specialite":"CO à VTT","latitude":"47.6013415","longitude":"6.1358835","date_saisie":"04/07/2002","date_depot":"04/07/2002","valide":"Non","ppo":"Non","obsolete":false}},{"type":"Feature","geometry":{"type":"Polygon","coordinates":[[[6.2348,47.5832],[6.2275,47.5855],[6.2258,47.5848],[6.2239,47.5839],[6.2224,47.5828],[6.2211,47.5818],[6.2198,47.5795],[6.2205,47.5786],[6.2188,47.5767],[6.2174,47.5753],[6.2188,47.5737],[6.2204,47.5724],[6.2218,47.5714],[6.2227,47.5705],[6.2239,47.5697],[6.2251,47.5692],[6.2264,47.5685],[6.2287,47.5698],[6.229,47.5725],[6.2323,47.5727],[6.2341,47.5726],[6.236,47.5733],[6.237,47.5736],[6.237,47.5772],[6.2367,47.5809],[6.2348,47.5832]]]},"properties":{"id_ffco":"2000-D70-49","nom":"Bellecôte","_dept":"70","numero":"2000-D70-49","commune":"Villers le sec","echelle":"1/10000","surface":"1.79 km²","format":"A4","annee":"2000","cartographes":"Jean-Michel Bettinger, joël Tauzin","niveau":"Régional","specialite":"CO à pied","latitude":"47.5773974674","longitude":"6.22781925902","date_saisie":"26/12/2014","date_depot":"26/12/2014","valide":"Oui","ppo":"Oui (35 postes)","type_carte":"Nouvelle carte","fond":"IGN","obsolete":false}},{"type":"Feature","geometry":null,"properties":{"id_ffco":"1999-D70-48","nom":"LES HAUTS BOIS","_dept":"70","numero":"1999-D70-48","commune":"CRAY","echelle":"1/10000","surface":"2.24 km²","annee":"1999","proprietaire":"Lycée","specialite":"CO à pied","latitude":"47.3622583","longitude":"6.121264","valide":"Non","ppo":"Non","obsolete":false}},{"type":"Feature","geometry":null,"properties":{"id_ffco":"1999-D70-42","nom":"LE WAGON","_dept":"70","numero":"1999-D70-42","commune":"BREUREY LES FAVERNEY","echelle":"1/20000","surface":"9.0 km²","annee":"1999","proprietaire":"70 - Haute-Saône","niveau":"Interrégional","specialite":"CO à pied","latitude":"47.7556415","longitude":"6.1316519","valide":"Non","ppo":"Non","obsolete":false}},{"type":"Feature","geometry":{"type":"Polygon","coordinates":[[[5.7791,47.3994],[5.7742,47.414],[5.7594,47.4149],[5.7576,47.4114],[5.7549,47.4088],[5.7552,47.4075],[5.7573,47.4048],[5.7595,47.4024],[5.762,47.3991],[5.7623,47.3974],[5.7649,47.397],[5.7791,47.3994]]]},"properties":{"id_ffco":"1998-D70-41","nom":"CHOYE","_dept":"70","numero":"1998-D70-41","commune":"CHOYE","echelle":"1/5000","surface":"2.57 km²","format":"A4","annee":"1998","cartographes":"Joël Tauzin","proprietaire":"70 - Haute-Saône","niveau":"Initiation, Scolaire","specialite":"CO à pied","latitude":"47.406191011","longitude":"5.76714472765","date_depot":"30/12/2014","valide":"Oui","ppo":"Non","type_carte":"Nouvelle carte","fond":"IGN","obsolete":false}},{"type":"Feature","geometry":{"type":"Polygon","coordinates":[[[5.9781,47.6661],[5.9788,47.6656],[5.9803,47.6657],[5.9807,47.6648],[5.9816,47.6641],[5.9823,47.6646],[5.9837,47.6645],[5.9851,47.6648],[5.9867,47.6654],[5.9877,47.6663],[5.9884,47.6675],[5.9891,47.6736],[5.9826,47.674],[5.9791,47.6723],[5.9773,47.67],[5.9786,47.669],[5.9776,47.6673],[5.9781,47.6661]]]},"properties":{"id_ffco":"1998-D70-40","nom":"Bois du chanois","_dept":"70","numero":"1998-D70-40","commune":"Scey sur saône","echelle":"1/10000","surface":"0.73 km²","format":"A4","annee":"1998","cartographes":"Gérard Venon","proprietaire":"70 - Haute-Saône","niveau":"Initiation, Scolaire","specialite":"CO à pied","latitude":"47.6693375377","longitude":"5.98345687038","date_saisie":"31/12/2014","date_depot":"30/12/2014","valide":"Non","ppo":"Non","type_carte":"Nouvelle carte","fond":"IGN","obsolete":false}},{"type":"Feature","geometry":{"type":"Polygon","coordinates":[[[6.1502,47.5649],[6.1516,47.5654],[6.1532,47.5669],[6.1537,47.5682],[6.154,47.5689],[6.1548,47.5697],[6.1549,47.5703],[6.1545,47.5715],[6.1537,47.5729],[6.1525,47.574],[6.1509,47.5746],[6.1494,47.575],[6.1475,47.5746],[6.1469,47.5742],[6.1474,47.5735],[6.1467,47.573],[6.1454,47.5721],[6.1452,47.5709],[6.1453,47.5699],[6.1457,47.5688],[6.1461,47.5676],[6.1468,47.5666],[6.1479,47.5658],[6.1492,47.5654],[6.1502,47.5649]]]},"properties":{"id_ffco":"1998-D70-39","nom":"LE BOIS ROND","_dept":"70","numero":"1998-D70-39","commune":"VALLEROIS LORIOZ","echelle":"1/5000","surface":"0.58 km²","format":"A4","annee":"1998","cartographes":"Joël Tauzin","proprietaire":"70 - Haute-Saône","niveau":"Départemental","specialite":"CO à pied","latitude":"47.5700937673","longitude":"6.14989598697","date_depot":"30/12/2014","valide":"Oui","ppo":"Non","type_carte":"Nouvelle carte","fond":"IGN","obsolete":false}},{"type":"Feature","geometry":{"type":"Polygon","coordinates":[[[6.1273,47.632],[6.126,47.6304],[6.1254,47.629],[6.1369,47.6265],[6.1373,47.6268],[6.1361,47.6281],[6.1336,47.6292],[6.1309,47.6327],[6.1286,47.6327],[6.1273,47.632]]]},"properties":{"id_ffco":"1998-D70-38","nom":"LE JARDIN JAPONAIS","_dept":"70","numero":"1998-D70-38","commune":"VAIVRE","echelle":"1/2500","surface":"0.29 km²","format":"A4","annee":"1998","cartographes":"Joël Tauzin, Jean-Michel Bettinger","proprietaire":"70 - Haute-Saône","niveau":"Initiation, Scolaire","specialite":"CO à pied","latitude":"47.6296325021","longitude":"6.13063062514","date_depot":"30/12/2014","valide":"Oui","ppo":"Oui (27 postes)","type_carte":"Nouvelle carte","fond":"Cadastre","obsolete":false}},{"type":"Feature","geometry":{"type":"Polygon","coordinates":[[[6.1374,47.574],[6.1225,47.5784],[6.1187,47.5765],[6.1161,47.5761],[6.1135,47.5734],[6.1108,47.5709],[6.1085,47.5668],[6.1176,47.5629],[6.1219,47.5622],[6.1288,47.5614],[6.1349,47.5604],[6.1385,47.5683],[6.1385,47.572],[6.1374,47.574]]]},"properties":{"id_ffco":"1998-D70-37","nom":"ROSIERES","_dept":"70","numero":"1998-D70-37","commune":"Vallerois Lorioz","echelle":"1/10000","surface":"3.07 km²","format":"A4","annee":"1998","cartographes":"Joël Tauzin","proprietaire":"70 - Haute-Saône","niveau":"Interrégional","specialite":"CO à pied","latitude":"47.5691809966","longitude":"6.12488234115","date_depot":"30/12/2014","valide":"Oui","ppo":"Non","type_carte":"Nouvelle carte","fond":"IGN","obsolete":false}},{"type":"Feature","geometry":{"type":"Polygon","coordinates":[[[6.0975,47.5785],[6.0891,47.5728],[6.0852,47.5673],[6.0866,47.5642],[6.0902,47.5637],[6.1,47.5654],[6.1082,47.572],[6.1116,47.5775],[6.108,47.5816],[6.103,47.5808],[6.0975,47.5785]]]},"properties":{"id_ffco":"2006-D70-36","nom":"La Craye","_dept":"70","numero":"2006-D70-36","commune":"Andelarrot","echelle":"1/10000","surface":"2.23 km²","format":"A4","annee":"2006","cartographes":"Joël Tauzin","proprietaire":"7004 - VESOUL HAUTE-SAONE ORIENTATION","niveau":"Initiation, Scolaire","specialite":"CO à pied","contacts":"CDCO 70 // Vesoul Haute Saône Orientation","latitude":"47.5722573247","longitude":"6.09854066829","date_depot":"30/12/2014","valide":"Oui","ppo":"Non","type_carte":"Reprise","base":"1984-D70-02 BOIS DE LA CRAYE","fond":"IGN","obsolete":false}},{"type":"Feature","geometry":null,"properties":{"id_ffco":"1998-D70-35","nom":"BOIS D'EMERY","_dept":"70","numero":"1998-D70-35","commune":"LUXEUIL","echelle":"1/15000","surface":"11.0 km²","annee":"1998","proprietaire":"7003","niveau":"Interrégional","specialite":"CO à pied","latitude":"47.817844","longitude":"6.380136","valide":"Non","ppo":"Non","obsolete":false}},{"type":"Feature","geometry":null,"properties":{"id_ffco":"1983-D70-34","nom":"SAPINS DU HAUT","_dept":"70","numero":"1983-D70-34","commune":"MELISEY","echelle":"1/15000","surface":"11.0 km²","annee":"1983","proprietaire":"7004 - VESOUL HAUTE-SAONE ORIENTATION","niveau":"Interrégional","specialite":"CO à pied","latitude":"47.7529287","longitude":"6.5770982","valide":"Non","ppo":"Non","obsolete":false}},{"type":"Feature","geometry":null,"properties":{"id_ffco":"1983-D70-33","nom":"ST HILAIRE LES EPOISSES","_dept":"70","numero":"1983-D70-33","commune":"MELISEY","echelle":"1/15000","surface":"7.0 km²","annee":"1983","proprietaire":"7004 - VESOUL HAUTE-SAONE ORIENTATION","niveau":"Interrégional","specialite":"CO à pied","latitude":"47.7529287","longitude":"6.5770982","valide":"Non","ppo":"Non","obsolete":false}},{"type":"Feature","geometry":null,"properties":{"id_ffco":"1983-D70-32","nom":"SEPT CHEVAUX","_dept":"70","numero":"1983-D70-32","commune":"LUXEUIL LES BAINS","echelle":"1/15000","surface":"10.5 km²","annee":"1983","proprietaire":"7034","niveau":"Interrégional","specialite":"CO à pied","latitude":"47.817844","longitude":"6.380136","valide":"Non","ppo":"Non","obsolete":false}},{"type":"Feature","geometry":null,"properties":{"id_ffco":"1983-D70-31","nom":"LA TETE DE CHEVAL","_dept":"70","numero":"1983-D70-31","commune":"RONCHAMP","echelle":"1/15000","surface":"9.83 km²","annee":"1983","proprietaire":"2508 - BALISE 25 BESANCON","niveau":"Interrégional","specialite":"CO à pied","latitude":"46.1756788","longitude":"6.5389621","valide":"Non","ppo":"Non","obsolete":false}},{"type":"Feature","geometry":null,"properties":{"id_ffco":"1983-D70-30","nom":"BANNEY ET EMERY","_dept":"70","numero":"1983-D70-30","commune":"LUXEUIL LES BAINS","echelle":"1/15000","surface":"8.0 km²","annee":"1983","proprietaire":"7004 - VESOUL HAUTE-SAONE ORIENTATION","niveau":"Interrégional","specialite":"CO à pied","latitude":"47.817844","longitude":"6.380136","valide":"Non","ppo":"Non","obsolete":false}},{"type":"Feature","geometry":null,"properties":{"id_ffco":"1990-D70-28","nom":"FONTAINE DE TROUSSE COTILLON","_dept":"70","numero":"1990-D70-28","commune":"GRAY","echelle":"1/10000","surface":"2.0 km²","annee":"1990","proprietaire":"FC - Franche-Comté","specialite":"CO à pied","latitude":"47.4484323","longitude":"5.5887698","valide":"Non","ppo":"Non","obsolete":false}},{"type":"Feature","geometry":null,"properties":{"id_ffco":"1990-D70-27","nom":"FANICAMP","_dept":"70","numero":"1990-D70-27","commune":"VILLE PAROIS","echelle":"1/15000","surface":"3.2 km²","annee":"1990","proprietaire":"7003","specialite":"CO à pied","latitude":"47.450897","longitude":"5.5906688","valide":"Non","ppo":"Non","obsolete":false}},{"type":"Feature","geometry":null,"properties":{"id_ffco":"1983-D70-26","nom":"GRANDE GABIOTTE","_dept":"70","numero":"1983-D70-26","commune":"LUXEUIL les BAINS","echelle":"1/15000","surface":"7.1 km²","annee":"1983","proprietaire":"7004 - VESOUL HAUTE-SAONE ORIENTATION","niveau":"Interrégional","specialite":"CO à pied","latitude":"47.817844","longitude":"6.380136","valide":"Non","ppo":"Non","obsolete":false}},{"type":"Feature","geometry":null,"properties":{"id_ffco":"1989-D70-25","nom":"VALLEROIS-LORIOZ","_dept":"70","numero":"1989-D70-25","commune":"VESOUL","echelle":"1/10000","surface":"2.0 km²","annee":"1989","proprietaire":"7003","specialite":"CO à pied","latitude":"47.6234719","longitude":"6.1559043","valide":"Non","ppo":"Non","obsolete":false}},{"type":"Feature","geometry":null,"properties":{"id_ffco":"1989-D70-24","nom":"BOIS D'ABELCOURT","_dept":"70","numero":"1989-D70-24","commune":"BRIAUCOURT","echelle":"1/15000","surface":"3.2 km²","annee":"1989","proprietaire":"7004 - VESOUL HAUTE-SAONE ORIENTATION","specialite":"CO à pied","latitude":"47.8233352","longitude":"6.2481246","valide":"Non","ppo":"Non","obsolete":false}},{"type":"Feature","geometry":null,"properties":{"id_ffco":"1989-D70-23","nom":"BOIS DES GOUTTES","_dept":"70","numero":"1989-D70-23","commune":"ST LOUP","echelle":"1/10000","surface":"2.2 km²","annee":"1989","proprietaire":"7004 - VESOUL HAUTE-SAONE ORIENTATION","specialite":"CO à pied","latitude":"47.8853297","longitude":"6.2727532","valide":"Non","ppo":"Non","obsolete":false}},{"type":"Feature","geometry":null,"properties":{"id_ffco":"1983-D70-22","nom":"ST HILAIRE","_dept":"70","numero":"1983-D70-22","commune":"LURE","echelle":"1/15000","surface":"13.5 km²","annee":"1983","proprietaire":"FC - Franche-Comté","niveau":"Interrégional","specialite":"CO à pied","latitude":"47.6833916","longitude":"6.496526","valide":"Non","ppo":"Non","obsolete":false}},{"type":"Feature","geometry":null,"properties":{"id_ffco":"1989-D70-20","nom":"FAUCOGNEY LA MER","_dept":"70","numero":"1989-D70-20","commune":"LURE","echelle":"1/15000","surface":"2.1 km²","annee":"1989","proprietaire":"FC - Franche-Comté","specialite":"CO à pied","latitude":"47.6833916","longitude":"6.496526","valide":"Non","ppo":"Non","obsolete":false}},{"type":"Feature","geometry":null,"properties":{"id_ffco":"1989-D70-19","nom":"BEAU REGARD","_dept":"70","numero":"1989-D70-19","commune":"LUXEUIL","echelle":"1/10000","surface":"2.2 km²","annee":"1989","proprietaire":"7004 - VESOUL HAUTE-SAONE ORIENTATION","specialite":"CO à pied","latitude":"47.817844","longitude":"6.380136","valide":"Non","ppo":"Non","obsolete":false}},{"type":"Feature","geometry":null,"properties":{"id_ffco":"1989-D70-18","nom":"BOIS D 'AMONT","_dept":"70","numero":"1989-D70-18","commune":"BREST","echelle":"1/10000","surface":"1.2 km²","annee":"1989","proprietaire":"7004 - VESOUL HAUTE-SAONE ORIENTATION","specialite":"CO à pied","latitude":"47.7959562","longitude":"6.4286408","valide":"Non","ppo":"Non","obsolete":false}},{"type":"Feature","geometry":null,"properties":{"id_ffco":"1989-D70-17","nom":"BOIS ROND","_dept":"70","numero":"1989-D70-17","commune":"BESANCON","echelle":"1/10000","surface":"0.3 km²","annee":"1989","proprietaire":"7003","specialite":"CO à pied","latitude":"47.2412254","longitude":"6.0255656","valide":"Non","ppo":"Non","obsolete":false}},{"type":"Feature","geometry":{"type":"Polygon","coordinates":[[[6.3913,47.8233],[6.3963,47.8264],[6.4002,47.8307],[6.4014,47.8329],[6.4014,47.836],[6.4002,47.8383],[6.3929,47.8436],[6.3916,47.8434],[6.389,47.8459],[6.3846,47.8451],[6.3822,47.8435],[6.38,47.8398],[6.3772,47.8366],[6.3772,47.8329],[6.3881,47.8249],[6.3913,47.8233]]]},"properties":{"id_ffco":"2025-D70-160","nom":"Forêt du Banney","_dept":"70","numero":"2025-D70-160","commune":"Luxeuil-les-bains","echelle":"1/10000","surface":"2.96 km²","format":"A4","annee":"2025","cartographes":"Michel Duboc","proprietaire":"7004 - VESOUL HAUTE-SAONE ORIENTATION","niveau":"Interrégional","specialite":"CO à pied","contacts":"Vesoul Haute Saône Orientation","latitude":"47.834859356","longitude":"6.38947532714","date_saisie":"26/12/2025","date_depot":"25/02/2026","valide":"Oui","ppo":"Non","type_carte":"Reprise","base":"2007-D70-04 Le Banney","fond":"Ortho","obsolete":false}},{"type":"Feature","geometry":null,"properties":{"id_ffco":"1989-D70-16","nom":"BOIS de BOULERE","_dept":"70","numero":"1989-D70-16","commune":"ANDELARRE","echelle":"1/5000","surface":"3.2 km²","annee":"1989","proprietaire":"7003","specialite":"CO à pied","latitude":"47.5904598","longitude":"6.097069","valide":"Non","ppo":"Non","obsolete":false}},{"type":"Feature","geometry":{"type":"Polygon","coordinates":[[[6.1286,47.7137],[6.1278,47.7134],[6.1267,47.7137],[6.123,47.712],[6.1218,47.7127],[6.1182,47.7098],[6.1195,47.7083],[6.118,47.7078],[6.1178,47.706],[6.1199,47.7041],[6.1226,47.7025],[6.1229,47.7013],[6.1271,47.7003],[6.135,47.7025],[6.1429,47.7034],[6.1498,47.7006],[6.1512,47.7041],[6.1457,47.7137],[6.1407,47.7143],[6.1342,47.7111],[6.1286,47.7137]]]},"properties":{"id_ffco":"2025-D70-159","nom":"Bois de la Fontaine aux filles","_dept":"70","numero":"2025-D70-159","commune":"Bougnon","echelle":"1/10000","surface":"2.72 km²","format":"A4","annee":"2025","cartographes":"Bruno Arnoud","proprietaire":"70 - Haute-Saône","niveau":"Régional","specialite":"CO à pied","latitude":"47.7073045332","longitude":"6.13422354242","date_saisie":"21/02/2025","date_depot":"17/07/2025","valide":"Oui","ppo":"Non","type_carte":"Nouvelle carte","fond":"Ortho","obsolete":false}},{"type":"Feature","geometry":{"type":"Polygon","coordinates":[[[6.0743,47.4253],[6.0859,47.4279],[6.0863,47.4308],[6.097,47.4339],[6.0979,47.433],[6.1017,47.4334],[6.1097,47.4474],[6.0856,47.4517],[6.0837,47.4491],[6.078,47.438],[6.0793,47.4361],[6.0848,47.4347],[6.085,47.4323],[6.0759,47.4304],[6.0735,47.4288],[6.074,47.4256],[6.0743,47.4253]]]},"properties":{"id_ffco":"2024-D70-158","nom":"Bois de Rioz","_dept":"70","numero":"2024-D70-158","commune":"Rioz","echelle":"1/10000","surface":"4.01 km²","format":"A4","annee":"2024","cartographes":"Bruno Arnoud","proprietaire":"70 - Haute-Saône","niveau":"Régional","specialite":"CO à pied","latitude":"47.4401301719","longitude":"6.09147204406","date_saisie":"30/03/2024","date_depot":"09/07/2024","valide":"Oui","ppo":"Non","type_carte":"Nouvelle carte","fond":"Ortho","obsolete":false}},{"type":"Feature","geometry":{"type":"Polygon","coordinates":[[[6.0857,47.4306],[6.0849,47.4353],[6.0778,47.4357],[6.0772,47.4387],[6.0785,47.4396],[6.0817,47.4497],[6.0882,47.4536],[6.1004,47.4526],[6.1072,47.452],[6.1059,47.4417],[6.0983,47.4329],[6.093,47.4339],[6.0857,47.4306]]]},"properties":{"id_ffco":"2024-D70-157","nom":"Bois de Rioz VTT","_dept":"70","numero":"2024-D70-157","commune":"Rioz","echelle":"1/10000","surface":"3.97 km²","format":"A4","annee":"2024","cartographes":"Jean-Michel Bettinger, Loic lonchampt","proprietaire":"70 - Haute-Saône","niveau":"Régional","specialite":"CO à VTT","contacts":"CDCO 70","latitude":"47.4432285747","longitude":"6.09256409328","date_saisie":"19/02/2024","date_depot":"27/06/2024","valide":"Oui","ppo":"Non","type_carte":"Nouvelle carte","fond":"Ortho","obsolete":false}},{"type":"Feature","geometry":{"type":"Polygon","coordinates":[[[5.888,47.7065],[5.8845,47.7053],[5.884,47.7044],[5.884,47.7031],[5.8854,47.7014],[5.8868,47.7008],[5.8902,47.6915],[5.8936,47.6921],[5.8939,47.6939],[5.895,47.6943],[5.8949,47.6978],[5.8943,47.698],[5.893,47.7049],[5.8927,47.7068],[5.888,47.7065]]]},"properties":{"id_ffco":"2021-D70-155","nom":"Bois de la chaille","_dept":"70","numero":"2021-D70-155","commune":"Combeaufontaine","echelle":"1/7500","surface":"0.85 km²","format":"A4","annee":"2021","cartographes":"Jean Michel Bettinger","proprietaire":"70 - Haute-Saône","niveau":"Initiation, Scolaire","specialite":"CO à pied","latitude":"47.6999881939","longitude":"5.89025428004","date_saisie":"04/11/2021","date_depot":"18/11/2021","valide":"Oui","ppo":"Non","type_carte":"Nouvelle carte","fond":"Ortho","obsolete":false}},{"type":"Feature","geometry":{"type":"Polygon","coordinates":[[[5.8955,47.7092],[5.8931,47.7089],[5.8921,47.7093],[5.8898,47.7108],[5.8912,47.7129],[5.8928,47.7127],[5.8942,47.7125],[5.8963,47.7126],[5.8973,47.7124],[5.8955,47.7092]]]},"properties":{"id_ffco":"2021-D70-154","nom":"MFR de Combeaufontaine","_dept":"70","numero":"2021-D70-154","commune":"Combeaufontaine","echelle":"1/2500","surface":"0.17 km²","format":"A4","annee":"2021","cartographes":"Jean Michel Bettinger","proprietaire":"70 - Haute-Saône","niveau":"Initiation, Scolaire","specialite":"CO à pied","latitude":"47.7110065056","longitude":"5.89349853009","date_saisie":"04/11/2021","date_depot":"18/11/2021","valide":"Oui","ppo":"Non","type_carte":"Nouvelle carte","fond":"Cadastre","obsolete":false}},{"type":"Feature","geometry":{"type":"Polygon","coordinates":[[[6.2272,47.5222],[6.2217,47.5265],[6.2182,47.5324],[6.212,47.5452],[6.2299,47.5544],[6.2342,47.552],[6.2354,47.5498],[6.2405,47.5491],[6.2431,47.547],[6.2438,47.5428],[6.244,47.5392],[6.2486,47.5337],[6.249,47.5296],[6.2476,47.5253],[6.2375,47.525],[6.2306,47.5255],[6.2272,47.5222]]]},"properties":{"id_ffco":"2021-D70-153","nom":"Le grand bois de Dampierre","_dept":"70","numero":"2021-D70-153","commune":"Dampierre-sur-Linotte","echelle":"1/10000","surface":"6.3 km²","format":"A3","annee":"2021","cartographes":"Jean Michel Bettinger, Manuel Zenevre","proprietaire":"70 - Haute-Saône","niveau":"Régional","specialite":"CO à pied","latitude":"47.5378657931","longitude":"6.23109785901","date_saisie":"04/11/2021","date_depot":"13/06/2023","valide":"Oui","ppo":"Non","type_carte":"Nouvelle carte","fond":"Ortho","obsolete":false}},{"type":"Feature","geometry":{"type":"Polygon","coordinates":[[[6.0904,47.6197],[6.0845,47.6225],[6.0831,47.6224],[6.0793,47.6231],[6.0779,47.6263],[6.0803,47.6292],[6.0856,47.6313],[6.0909,47.632],[6.0954,47.6311],[6.101,47.6284],[6.1017,47.6262],[6.1002,47.6237],[6.0999,47.6205],[6.0975,47.6181],[6.094,47.6178],[6.0904,47.6197]]]},"properties":{"id_ffco":"2021-D70-152","nom":"Camp de césar","_dept":"70","numero":"2021-D70-152","commune":"Chariez","echelle":"1/5000","surface":"1.88 km²","format":"A4","annee":"2021","cartographes":"Jean Michel Bettinger","proprietaire":"70 - Haute-Saône","niveau":"Initiation, Scolaire","specialite":"CO à pied","latitude":"47.6254618934","longitude":"6.0907354723","date_saisie":"04/11/2021","date_depot":"18/11/2021","valide":"Oui","ppo":"Non","type_carte":"Nouvelle carte","fond":"Ortho","obsolete":false}},{"type":"Feature","geometry":{"type":"Polygon","coordinates":[[[6.2745,47.8811],[6.2725,47.8815],[6.2726,47.882],[6.2736,47.8831],[6.2747,47.8831],[6.2752,47.8828],[6.2745,47.8811]]]},"properties":{"id_ffco":"2021-D70-151","nom":"Stade de Saint Loup sur Semouse","_dept":"70","numero":"2021-D70-151","commune":"Saint Loup-sur-Semouse","echelle":"1/1000","surface":"0.03 km²","format":"A4","annee":"2021","cartographes":"Jean Michel Bettinger","proprietaire":"70 - Haute-Saône","niveau":"Initiation, Scolaire","specialite":"CO à pied","contacts":"CDCO 70","latitude":"47.8821245998","longitude":"6.27389477953","date_saisie":"19/03/2021","date_depot":"07/06/2021","valide":"Oui","ppo":"Non","type_carte":"Nouvelle carte","fond":"Ortho","obsolete":false}},{"type":"Feature","geometry":{"type":"Polygon","coordinates":[[[6.5164,47.685],[6.5223,47.6887],[6.5241,47.6916],[6.5278,47.6941],[6.5287,47.6994],[6.5271,47.7017],[6.5301,47.7083],[6.5264,47.7065],[6.5216,47.7059],[6.5193,47.7061],[6.513,47.7],[6.5066,47.697],[6.5106,47.6944],[6.5141,47.6904],[6.5157,47.6855],[6.5164,47.685]]]},"properties":{"id_ffco":"2021-D70-150","nom":"Le Mont Charvot","_dept":"70","numero":"2021-D70-150","commune":"Lure","echelle":"1/7500","surface":"2.21 km²","format":"A4","annee":"2021","cartographes":"Jean Michel Bettinger","proprietaire":"70 - Haute-Saône","niveau":"Régional","specialite":"CO à pied","contacts":"CDCO 70","latitude":"47.6970100065","longitude":"6.51971071731","date_saisie":"19/03/2021","date_depot":"04/06/2021","valide":"Oui","ppo":"Non","type_carte":"Nouvelle carte","base":"1997-D70- Forêt de Vaivre","fond":"Ortho","obsolete":false}},{"type":"Feature","geometry":null,"properties":{"id_ffco":"1983-D70-15","nom":"HAUTS BOIS","_dept":"70","numero":"1983-D70-15","commune":"BESANCON","echelle":"1/15000","surface":"8.6 km²","annee":"1983","proprietaire":"2505","niveau":"Interrégional","specialite":"CO à pied","latitude":"47.2412254","longitude":"6.0255656","valide":"Non","ppo":"Non","obsolete":false}},{"type":"Feature","geometry":{"type":"Polygon","coordinates":[[[6.2481,47.6152],[6.2491,47.6125],[6.2357,47.6111],[6.2342,47.6093],[6.2366,47.6008],[6.2409,47.5982],[6.2483,47.6032],[6.2539,47.6021],[6.2665,47.6056],[6.2689,47.6116],[6.2579,47.617],[6.2481,47.6152]]]},"properties":{"id_ffco":"2023-D70-148","nom":"Bois de Noroy","_dept":"70","numero":"2023-D70-148","commune":"Colombes-les-Vesoul","echelle":"1/10000","surface":"3.14 km²","format":"A4","annee":"2023","cartographes":"Jean-Michel Bettinger","proprietaire":"70 - Haute-Saône","niveau":"Initiation, Scolaire","specialite":"CO à pied","latitude":"47.6081546323","longitude":"6.25103787706","date_saisie":"19/03/2023","date_depot":"13/06/2023","valide":"Oui","ppo":"Non","type_carte":"Nouvelle carte","fond":"IGN","obsolete":false}},{"type":"Feature","geometry":{"type":"Polygon","coordinates":[[[6.2396,47.598],[6.2455,47.601],[6.2482,47.6043],[6.2419,47.6116],[6.2369,47.6114],[6.2346,47.6105],[6.2356,47.6077],[6.2343,47.6051],[6.2385,47.6043],[6.235,47.6019],[6.2396,47.598]]]},"properties":{"id_ffco":"2021-D70-147","nom":"Essernay","_dept":"70","numero":"2021-D70-147","commune":"Colombe-lès-Vesoul","echelle":"1/5000","surface":"1.0 km²","format":"A4","annee":"2021","cartographes":"Jean Michel Bettinger","proprietaire":"70 - Haute-Saône","niveau":"Départemental","specialite":"CO à pied","contacts":"CDCO 70","latitude":"47.6052159411","longitude":"6.24069788792","date_saisie":"19/03/2021","date_depot":"07/06/2021","valide":"Oui","ppo":"Non","type_carte":"Extrait","base":"2014-D70-82 Bois de Noroy","fond":"Ortho","obsolete":false}},{"type":"Feature","geometry":{"type":"Polygon","coordinates":[[[6.1514,47.6708],[6.1508,47.6705],[6.1492,47.6717],[6.1504,47.6722],[6.1493,47.6737],[6.1511,47.6749],[6.1526,47.6737],[6.1513,47.6713],[6.1514,47.6708]]]},"properties":{"id_ffco":"2021-D70-146","nom":"Arboretum Pusy","_dept":"70","numero":"2021-D70-146","commune":"Pusy Epenoux","echelle":"1/2000","surface":"0.07 km²","format":"A4","annee":"2021","cartographes":"Jean Michel Bettinger","proprietaire":"70 - Haute-Saône","niveau":"Initiation, Scolaire","specialite":"CO à pied","contacts":"CDCO 70","latitude":"47.6728400732","longitude":"6.150880103","date_saisie":"19/03/2021","date_depot":"07/06/2021","valide":"Oui","ppo":"Non","type_carte":"Nouvelle carte","fond":"Ortho","obsolete":false}},{"type":"Feature","geometry":{"type":"Polygon","coordinates":[[[6.1496,47.6734],[6.1468,47.6763],[6.1445,47.6754],[6.1422,47.6773],[6.1385,47.6781],[6.1375,47.6778],[6.1364,47.6778],[6.1349,47.6757],[6.1333,47.6732],[6.1333,47.6713],[6.1353,47.6709],[6.1361,47.6716],[6.137,47.6717],[6.1391,47.6724],[6.1401,47.6714],[6.1424,47.6711],[6.1442,47.6722],[6.1463,47.6715],[6.1483,47.672],[6.1496,47.6734]]]},"properties":{"id_ffco":"2021-D70-145","nom":"Le chêne bénit ( Pusy)","_dept":"70","numero":"2021-D70-145","commune":"Pusy Epenoux","echelle":"1/5000","surface":"0.64 km²","format":"A4","annee":"2021","cartographes":"Jean Michel Bettinger","proprietaire":"70 - Haute-Saône","niveau":"Départemental","specialite":"CO à pied","contacts":"CDCO 70","latitude":"47.6741999209","longitude":"6.14075714179","date_saisie":"19/03/2021","date_depot":"04/06/2021","valide":"Oui","ppo":"Non","type_carte":"Nouvelle carte","fond":"IGN","obsolete":false}},{"type":"Feature","geometry":{"type":"Polygon","coordinates":[[[6.3573,47.8354],[6.3614,47.8347],[6.3684,47.8332],[6.3749,47.8311],[6.3767,47.8298],[6.3767,47.8293],[6.3771,47.829],[6.3756,47.828],[6.3745,47.8271],[6.3758,47.8255],[6.3775,47.8245],[6.3765,47.8238],[6.3745,47.8249],[6.3728,47.8242],[6.3682,47.8261],[6.3636,47.8271],[6.3615,47.8289],[6.3603,47.8295],[6.3591,47.8314],[6.3573,47.8354]]]},"properties":{"id_ffco":"2019-D70-144","nom":"Bois de la Fontaine Leclerc","_dept":"70","numero":"2019-D70-144","commune":"Luxeuil","echelle":"1/7500","surface":"0.98 km²","format":"A4","annee":"2019","cartographes":"Bettinger Jean-Michel","proprietaire":"70 - Haute-Saône","niveau":"Initiation, Scolaire","specialite":"CO à pied","contacts":"CDCO 70","latitude":"47.8298020868","longitude":"6.36763677665","date_saisie":"14/05/2020","date_depot":"03/06/2020","valide":"Oui","ppo":"Non","type_carte":"Nouvelle carte","fond":"IGN","obsolete":false}},{"type":"Feature","geometry":{"type":"Polygon","coordinates":[[[6.2826,47.64],[6.2794,47.6368],[6.2756,47.6351],[6.2741,47.6343],[6.2726,47.6327],[6.271,47.6324],[6.2776,47.6282],[6.2885,47.6289],[6.2886,47.6297],[6.2902,47.6313],[6.2901,47.6332],[6.2882,47.635],[6.2862,47.6377],[6.2833,47.6391],[6.2826,47.64]]]},"properties":{"id_ffco":"2019-D70-142","nom":"Vallée sèche Calmoutier","_dept":"70","numero":"2019-D70-142","commune":"Calmoutier","echelle":"1/10000","surface":"1.09 km²","format":"A4","annee":"2019","cartographes":"Mathieu Barthélémy","proprietaire":"7004 - VESOUL HAUTE-SAONE ORIENTATION","niveau":"Régional","specialite":"CO à pied","latitude":"47.6329690295","longitude":"6.28173653984","date_saisie":"04/07/2019","date_depot":"09/07/2019","valide":"Oui","ppo":"Non","type_carte":"Nouvelle carte","fond":"Ortho","obsolete":false}},{"type":"Feature","geometry":{"type":"Polygon","coordinates":[[[6.1674,47.6008],[6.1587,47.6012],[6.1509,47.6002],[6.1481,47.5967],[6.1449,47.5946],[6.1443,47.5915],[6.1453,47.5911],[6.1499,47.5856],[6.1515,47.5857],[6.1539,47.5856],[6.1568,47.589],[6.1587,47.589],[6.1626,47.5922],[6.1675,47.5929],[6.1672,47.597],[6.1674,47.6008]]]},"properties":{"id_ffco":"2019-D70-141","nom":"Vesoul Cita pédestre","_dept":"70","numero":"2019-D70-141","commune":"VESOUL","echelle":"1/10000","surface":"2.01 km²","format":"A4","annee":"2019","cartographes":"Mathieu Barthélémy","proprietaire":"70 - Haute-Saône","niveau":"Départemental","specialite":"CO à pied","latitude":"47.5943467673","longitude":"6.15594974565","date_saisie":"14/06/2019","date_depot":"09/07/2019","valide":"Oui","ppo":"Non","type_carte":"Nouvelle carte","fond":"Ortho","obsolete":false}},{"type":"Feature","geometry":{"type":"Polygon","coordinates":[[[6.1665,47.6085],[6.1445,47.6084],[6.1415,47.6034],[6.1415,47.6003],[6.1388,47.5942],[6.1378,47.5798],[6.1458,47.575],[6.1446,47.5689],[6.1522,47.564],[6.1573,47.5663],[6.1585,47.5684],[6.1662,47.5711],[6.1697,47.5787],[6.1769,47.5838],[6.176,47.5918],[6.17,47.5966],[6.1665,47.6085]]]},"properties":{"id_ffco":"2019-D70-140","nom":"Vesoul Cita VTT","_dept":"70","numero":"2019-D70-140","commune":"VESOUL","echelle":"1/15000","surface":"10.21 km²","format":"A4","annee":"2019","cartographes":"jean michel bettinger","proprietaire":"7004 - VESOUL HAUTE-SAONE ORIENTATION","niveau":"Régional","specialite":"CO à VTT","latitude":"47.5882485105","longitude":"6.15591402282","date_saisie":"14/06/2019","date_depot":"09/07/2019","valide":"Oui","ppo":"Non","type_carte":"Nouvelle carte","fond":"Ortho","obsolete":false}},{"type":"Feature","geometry":{"type":"Polygon","coordinates":[[[6.5882,47.7877],[6.5943,47.7882],[6.5997,47.7902],[6.606,47.7904],[6.6115,47.7942],[6.6124,47.7877],[6.6067,47.7817],[6.6005,47.7734],[6.6046,47.7689],[6.604,47.7642],[6.6046,47.7582],[6.5959,47.7554],[6.5837,47.7545],[6.5847,47.7594],[6.583,47.7646],[6.5806,47.7711],[6.582,47.7778],[6.5859,47.7834],[6.5882,47.7877]]]},"properties":{"id_ffco":"2019-D70-139","nom":"Melisey VTT","_dept":"70","numero":"2019-D70-139","commune":"Melisey","echelle":"1/10000","surface":"6.17 km²","format":"A3","annee":"2019","cartographes":"Barthélmy, Longchamp, Bettinger","proprietaire":"7004 - VESOUL HAUTE-SAONE ORIENTATION","niveau":"Régional","specialite":"CO à VTT","latitude":"47.7733096922","longitude":"6.59483446509","date_saisie":"17/10/2019","date_depot":"04/06/2020","valide":"Oui","ppo":"Non","type_carte":"Nouvelle carte","fond":"Ortho","obsolete":false}},{"type":"Feature","geometry":{"type":"Polygon","coordinates":[[[6.5856,47.7587],[6.584,47.7641],[6.5841,47.7668],[6.5822,47.7712],[6.5849,47.7731],[6.5869,47.7754],[6.59,47.7743],[6.5924,47.7763],[6.5949,47.775],[6.5963,47.7765],[6.5978,47.7766],[6.599,47.775],[6.604,47.7679],[6.6086,47.7668],[6.6072,47.765],[6.6082,47.7626],[6.6079,47.7599],[6.6055,47.7578],[6.6007,47.7562],[6.5952,47.7552],[6.5839,47.7544],[6.5856,47.7587]]]},"properties":{"id_ffco":"2018-D70-138","nom":"Melisey Sud Est","_dept":"70","numero":"2018-D70-138","commune":"Melisey","echelle":"1/10000","surface":"3.42 km²","format":"A4","annee":"2018","cartographes":"Mathieu Barthélémy","proprietaire":"70 - Haute-Saône","niveau":"Régional","specialite":"CO à pied","latitude":"47.7649079772","longitude":"6.59459604758","date_saisie":"24/10/2018","date_depot":"02/11/2018","valide":"Oui","ppo":"Non","type_carte":"Nouvelle carte","fond":"Ortho","obsolete":false}},{"type":"Feature","geometry":{"type":"Polygon","coordinates":[[[6.5033,47.6652],[6.5007,47.6665],[6.498,47.665],[6.4966,47.6658],[6.4958,47.6653],[6.4968,47.6647],[6.4967,47.664],[6.4958,47.664],[6.4951,47.663],[6.4953,47.6609],[6.4949,47.6603],[6.4948,47.6595],[6.4957,47.6592],[6.4996,47.6581],[6.5033,47.6652]]]},"properties":{"id_ffco":"2018-D70-135","nom":"Salines de lure","_dept":"70","numero":"2018-D70-135","commune":"Lure","echelle":"1/4000","surface":"0.37 km²","format":"A4","annee":"2018","cartographes":"Loic Lonchamp, Thibaud Aubertin","proprietaire":"70 - Haute-Saône","niveau":"Initiation, Scolaire","specialite":"CO à pied","contacts":"CDCO 70","latitude":"47.6624096075","longitude":"6.49877401464","date_saisie":"14/05/2020","date_depot":"04/06/2020","valide":"Oui","ppo":"Non","type_carte":"Nouvelle carte","fond":"IGN","obsolete":false}},{"type":"Feature","geometry":{"type":"Polygon","coordinates":[[[5.8044,47.4064],[5.8054,47.4071],[5.8063,47.407],[5.8071,47.4065],[5.8077,47.4068],[5.8086,47.406],[5.8085,47.4056],[5.8082,47.4054],[5.8082,47.405],[5.808,47.4046],[5.8074,47.4043],[5.8048,47.4061],[5.8044,47.4064]]]},"properties":{"id_ffco":"2016-D70-131","nom":"Collège de GY et alentours","_dept":"70","numero":"2016-D70-131","commune":"gy","echelle":"1/1500","surface":"0.05 km²","format":"A4","annee":"2016","cartographes":"jean-michel Bettinger","proprietaire":"70 - Haute-Saône","niveau":"O+","specialite":"CO à pied","contacts":"CDCO 70","latitude":"47.405847195","longitude":"5.80672162182","date_saisie":"19/12/2016","date_depot":"19/12/2016","valide":"Oui","ppo":"Non","type_carte":"Nouvelle carte","fond":"Cadastre","obsolete":false}},{"type":"Feature","geometry":{"type":"Polygon","coordinates":[[[6.1478,47.614],[6.1482,47.6139],[6.1476,47.6126],[6.1472,47.6124],[6.1473,47.6128],[6.1478,47.614]]]},"properties":{"id_ffco":"2016-D70-130","nom":"Ecole de Pont","_dept":"70","numero":"2016-D70-130","commune":"Echenoz la Méline","echelle":"1/500","surface":"0.0 km²","format":"A4","annee":"2016","cartographes":"jean-michel Bettinger","proprietaire":"70 - Haute-Saône","niveau":"O+","specialite":"CO à pied","contacts":"CDCO 70","latitude":"47.613218464","longitude":"6.14765559298","date_saisie":"19/12/2016","date_depot":"19/12/2016","valide":"Oui","ppo":"Non","type_carte":"Nouvelle carte","fond":"Cadastre","obsolete":false}},{"type":"Feature","geometry":null,"properties":{"id_ffco":"1989-D70-13","nom":"CHATELARD","_dept":"70","numero":"1989-D70-13","commune":"CHAMBORNAY","echelle":"1/10000","surface":"1.2 km²","annee":"1989","proprietaire":"2507","specialite":"CO à pied","latitude":"47.3666","longitude":"5.9231694","valide":"Non","ppo":"Non","obsolete":false}},{"type":"Feature","geometry":{"type":"Polygon","coordinates":[[[6.1229,47.7217],[6.1223,47.7212],[6.1232,47.7208],[6.1239,47.7207],[6.1239,47.7208],[6.1239,47.7212],[6.124,47.7213],[6.1229,47.7217]]]},"properties":{"id_ffco":"2016-D70-129","nom":"La balade Pervenchoise","_dept":"70","numero":"2016-D70-129","commune":"Provenchère","echelle":"1/750","surface":"0.01 km²","format":"A4","annee":"2016","cartographes":"Gaetan Poirson","proprietaire":"7004 - VESOUL HAUTE-SAONE ORIENTATION","niveau":"O+","specialite":"CO à pied","latitude":"47.7211579772","longitude":"6.12321996972","date_saisie":"19/12/2016","date_depot":"19/12/2016","valide":"Oui","ppo":"Non","type_carte":"Nouvelle carte","fond":"Cadastre","obsolete":false}},{"type":"Feature","geometry":{"type":"Polygon","coordinates":[[[6.4062,47.8835],[6.4049,47.8831],[6.4052,47.8825],[6.4044,47.8821],[6.4043,47.8814],[6.4056,47.8808],[6.4064,47.8799],[6.4076,47.8803],[6.4066,47.8815],[6.4075,47.8824],[6.4062,47.8835]]]},"properties":{"id_ffco":"2016-D70-128","nom":"Collège de Fougerolles","_dept":"70","numero":"2016-D70-128","commune":"Fougerolles","echelle":"1/1000","surface":"0.05 km²","format":"A4","annee":"2016","cartographes":"jean-michel Bettinger","proprietaire":"70 - Haute-Saône","niveau":"O+","specialite":"CO à pied","latitude":"47.8817890945","longitude":"6.40600983637","date_saisie":"19/12/2016","date_depot":"19/12/2016","valide":"Oui","ppo":"Non","type_carte":"Nouvelle carte","fond":"Cadastre","obsolete":false}},{"type":"Feature","geometry":{"type":"Polygon","coordinates":[[[6.4046,47.8812],[6.4045,47.883],[6.4075,47.8845],[6.4092,47.8834],[6.4117,47.8827],[6.4134,47.882],[6.4144,47.8821],[6.4172,47.8803],[6.418,47.8793],[6.4171,47.8785],[6.4179,47.8766],[6.4163,47.8755],[6.4144,47.8768],[6.4133,47.8778],[6.4115,47.8784],[6.4102,47.8797],[6.4094,47.8805],[6.4064,47.8795],[6.4051,47.8808],[6.4046,47.8812]]]},"properties":{"id_ffco":"2016-D70-127","nom":"L'homme heureux","_dept":"70","numero":"2016-D70-127","commune":"Fougerolles","echelle":"1/5000","surface":"0.45 km²","format":"A4","annee":"2016","cartographes":"jean-michel Bettinger","proprietaire":"70 - Haute-Saône","niveau":"Initiation, Scolaire","specialite":"CO à pied","contacts":"CDCO 70","latitude":"47.8804076622","longitude":"6.41158286443","date_saisie":"19/12/2016","date_depot":"19/12/2016","valide":"Oui","ppo":"Non","type_carte":"Nouvelle carte","fond":"Cadastre","obsolete":false}},{"type":"Feature","geometry":{"type":"Polygon","coordinates":[[[5.9678,47.6658],[5.9681,47.6663],[5.9681,47.6664],[5.9685,47.6665],[5.9688,47.6664],[5.9689,47.6661],[5.9691,47.6659],[5.9699,47.6659],[5.9702,47.6656],[5.9705,47.6654],[5.9708,47.665],[5.9698,47.6648],[5.9699,47.6646],[5.9693,47.6645],[5.969,47.6645],[5.9679,47.6656],[5.9678,47.6658]]]},"properties":{"id_ffco":"2016-D70-126","nom":"Collège Chateau Rance Scey sur saone","_dept":"70","numero":"2016-D70-126","commune":"Scey sur saône","echelle":"1/1500","surface":"0.03 km²","format":"A4","annee":"2016","cartographes":"jean-michel Bettinger","proprietaire":"70 - Haute-Saône","niveau":"Initiation, Scolaire","specialite":"CO à pied","contacts":"CDCO 70","latitude":"47.6654322636","longitude":"5.96918634156","date_saisie":"19/12/2016","date_depot":"19/12/2016","valide":"Oui","ppo":"Non","type_carte":"Nouvelle carte","fond":"Cadastre","obsolete":false}},{"type":"Feature","geometry":{"type":"Polygon","coordinates":[[[6.1648,47.6315],[6.1649,47.6352],[6.1643,47.6351],[6.1628,47.6356],[6.1616,47.6344],[6.1608,47.6352],[6.159,47.6376],[6.1577,47.6364],[6.1572,47.6365],[6.1564,47.6356],[6.1571,47.6348],[6.1579,47.6341],[6.163,47.6317],[6.1635,47.6315],[6.1648,47.6315]]]},"properties":{"id_ffco":"2015-D70-125","nom":"Lycées du Montmarin","_dept":"70","numero":"2015-D70-125","commune":"Vesoul","echelle":"1/3500","surface":"0.21 km²","format":"A4","annee":"2015","cartographes":"Jean-Michel Bettinger","proprietaire":"70 - Haute-Saône","niveau":"O+","specialite":"CO à pied","latitude":"47.6342861042","longitude":"6.16111035896","date_saisie":"24/08/2015","date_depot":"24/08/2015","valide":"Non","ppo":"Non","type_carte":"Nouvelle carte","fond":"IGN","obsolete":false}},{"type":"Feature","geometry":{"type":"Polygon","coordinates":[[[6.5807,47.7528],[6.6045,47.7542],[6.6278,47.7768],[6.6326,47.8093],[6.5729,47.8093],[6.5681,47.7714],[6.5807,47.7528]]]},"properties":{"id_ffco":"2015-D70-124","nom":"Melisey Ouest","_dept":"70","numero":"2015-D70-124","commune":"Melisey","echelle":"1/25000","surface":"24.45 km²","format":"A3","annee":"2015","cartographes":"Jacques Amiot","proprietaire":"7004 - VESOUL HAUTE-SAONE ORIENTATION","niveau":"National, International","specialite":"Raid'O","latitude":"47.7841164135","longitude":"6.59851908015","date_saisie":"24/08/2015","date_depot":"24/08/2015","valide":"Non","ppo":"Non","type_carte":"Nouvelle carte","fond":"IGN","obsolete":false}},{"type":"Feature","geometry":{"type":"Polygon","coordinates":[[[6.5787,47.7529],[6.5623,47.7585],[6.5581,47.7713],[6.5593,47.7942],[6.5743,47.8038],[6.5907,47.8106],[6.6202,47.81],[6.6167,47.8199],[6.6698,47.8189],[6.6677,47.8072],[6.6826,47.8],[6.6793,47.7565],[6.657,47.7523],[6.5787,47.7529]]]},"properties":{"id_ffco":"2015-D70-123","nom":"Melisey Est","_dept":"70","numero":"2015-D70-123","commune":"Melisey","echelle":"1/25000","surface":"58.9 km²","format":"A3","annee":"2015","cartographes":"Jacques Amiot","proprietaire":"7004 - VESOUL HAUTE-SAONE ORIENTATION","niveau":"National, International","specialite":"Raid'O","latitude":"47.783121946","longitude":"6.62278764496","date_saisie":"24/08/2015","date_depot":"24/08/2015","valide":"Non","ppo":"Non","type_carte":"Nouvelle carte","fond":"IGN","obsolete":false}},{"type":"Feature","geometry":{"type":"Polygon","coordinates":[[[6.2806,47.8835],[6.2811,47.885],[6.2771,47.8855],[6.2759,47.8853],[6.277,47.884],[6.2806,47.8835]]]},"properties":{"id_ffco":"2015-D70-122","nom":"Collège André Masson Saint Loup sur Semouse","_dept":"70","numero":"2015-D70-122","commune":"Saint Loup sur semouse","echelle":"1/2000","surface":"0.06 km²","format":"A4","annee":"2015","cartographes":"Jean-Michel Bettinger","proprietaire":"70 - Haute-Saône","niveau":"O+","specialite":"CO à pied","latitude":"47.8845627275","longitude":"6.27865120335","date_saisie":"24/08/2015","date_depot":"24/08/2015","valide":"Non","ppo":"Non","type_carte":"Nouvelle carte","fond":"IGN","obsolete":false}},{"type":"Feature","geometry":{"type":"Polygon","coordinates":[[[6.1337,47.5979],[6.1325,47.5978],[6.132,47.5977],[6.1319,47.5975],[6.132,47.5972],[6.1324,47.5971],[6.1329,47.5971],[6.1337,47.5971],[6.1337,47.5979]]]},"properties":{"id_ffco":"2016-D70-121","nom":"Ecole de Longeville","_dept":"70","numero":"2016-D70-121","commune":"Echenoz la Méline","echelle":"1/500","surface":"0.01 km²","format":"A4","annee":"2016","cartographes":"jean-michel Bettinger","proprietaire":"70 - Haute-Saône","niveau":"O+","specialite":"CO à pied","contacts":"CDCO 70","latitude":"47.5974635117","longitude":"6.13286939462","date_saisie":"19/12/2016","date_depot":"19/12/2016","valide":"Oui","ppo":"Non","type_carte":"Nouvelle carte","fond":"Cadastre","obsolete":false}},{"type":"Feature","geometry":null,"properties":{"id_ffco":"1989-D70-12","nom":"BELLEVAUX","_dept":"70","numero":"1989-D70-12","commune":"CIREY","echelle":"1/15000","surface":"3.3 km²","annee":"1989","proprietaire":"2507","specialite":"CO à pied","latitude":"47.3975257","longitude":"6.1343901","valide":"Non","ppo":"Non","obsolete":false}},{"type":"Feature","geometry":null,"properties":{"id_ffco":"1983-D70-12","nom":"MONT CHARVOT","_dept":"70","numero":"1983-D70-12","commune":"LURE","echelle":"1/15000","surface":"5.4 km²","annee":"1983","proprietaire":"FC - Franche-Comté","niveau":"Interrégional","specialite":"CO à pied","latitude":"47.6833916","longitude":"6.496526","valide":"Non","ppo":"Non","obsolete":false}},{"type":"Feature","geometry":{"type":"Polygon","coordinates":[[[6.6759,47.7068],[6.6771,47.7064],[6.6779,47.707],[6.6814,47.7069],[6.6813,47.708],[6.6784,47.7085],[6.6781,47.7085],[6.6759,47.7068]]]},"properties":{"id_ffco":"2015-D70-119","nom":"Collège de Champagney","_dept":"70","numero":"2015-D70-119","commune":"Champagney","echelle":"1/2000","surface":"0.05 km²","format":"A4","annee":"2015","cartographes":"Jean-Michel Bettinger","proprietaire":"70 - Haute-Saône","niveau":"O+","specialite":"CO à pied","latitude":"47.7074781717","longitude":"6.67880631407","date_saisie":"24/08/2015","date_depot":"24/08/2015","valide":"Non","ppo":"Non","type_carte":"Nouvelle carte","fond":"IGN","obsolete":false}},{"type":"Feature","geometry":{"type":"Polygon","coordinates":[[[6.126,47.6189],[6.1507,47.6133],[6.1483,47.6053],[6.141,47.594],[6.1407,47.5875],[6.1372,47.5893],[6.1375,47.594],[6.1322,47.5966],[6.1334,47.6037],[6.1249,47.607],[6.1139,47.6102],[6.1198,47.6177],[6.126,47.6189]]]},"properties":{"id_ffco":"2015-D70-118","nom":"Noidans-Echenoz","_dept":"70","numero":"2015-D70-118","commune":"Noidans les vesoul","echelle":"1/10000","surface":"4.17 km²","format":"A4","annee":"2015","cartographes":"Jean-Michel Bettinger","proprietaire":"70 - Haute-Saône","niveau":"Départemental","specialite":"CO à VTT","latitude":"47.6077674524","longitude":"6.13464704552","date_saisie":"24/08/2015","date_depot":"24/08/2015","valide":"Non","ppo":"Non","type_carte":"Nouvelle carte","fond":"IGN","obsolete":false}},{"type":"Feature","geometry":{"type":"Polygon","coordinates":[[[6.2416,47.6278],[6.2237,47.6237],[6.2203,47.624],[6.2124,47.6179],[6.2165,47.6126],[6.2188,47.6134],[6.2231,47.6136],[6.226,47.6104],[6.2315,47.6123],[6.2609,47.6189],[6.2551,47.6283],[6.2467,47.6286],[6.2416,47.6278]]]},"properties":{"id_ffco":"2015-D70-117","nom":"La Madone","_dept":"70","numero":"2015-D70-117","commune":"Dampvalley","echelle":"1/10000","surface":"4.35 km²","format":"A4","annee":"2015","cartographes":"Jean-Michel Bettinger","proprietaire":"70 - Haute-Saône","niveau":"Régional","specialite":"CO à pied","latitude":"47.6200980269","longitude":"6.23677800109","date_saisie":"24/08/2015","date_depot":"24/08/2015","valide":"Non","ppo":"Non","type_carte":"Nouvelle carte","fond":"IGN","obsolete":false}},{"type":"Feature","geometry":{"type":"Polygon","coordinates":[[[6.0373,47.6719],[6.0706,47.6658],[6.0782,47.6707],[6.0791,47.6763],[6.065,47.6837],[6.0559,47.6808],[6.0515,47.6812],[6.0502,47.6822],[6.0438,47.6777],[6.0373,47.6719]]]},"properties":{"id_ffco":"2015-D70-116","nom":"Port sur Saône","_dept":"70","numero":"2015-D70-116","commune":"Port sur Saône","echelle":"1/10000","surface":"3.85 km²","format":"A3","annee":"2015","cartographes":"Matthieu Barthélemy","proprietaire":"7004 - VESOUL HAUTE-SAONE ORIENTATION","niveau":"Régional","specialite":"CO à pied","latitude":"47.6745337078","longitude":"6.06052637353","date_saisie":"24/08/2015","date_depot":"24/08/2015","valide":"Non","ppo":"Non","type_carte":"Nouvelle carte","fond":"IGN","obsolete":false}},{"type":"Feature","geometry":{"type":"Polygon","coordinates":[[[6.1339,47.6171],[6.1298,47.618],[6.129,47.6169],[6.1301,47.6165],[6.1309,47.6159],[6.132,47.6154],[6.1333,47.6153],[6.1341,47.6169],[6.1339,47.6171]]]},"properties":{"id_ffco":"2014-D70-114","nom":"Collège R.Cassin et noidans sport","_dept":"70","numero":"2014-D70-114","commune":"Noidans les vesoul","echelle":"1/1500","surface":"0.07 km²","format":"A4","annee":"2014","cartographes":"Jean-Michel Bettinger","proprietaire":"70 - Haute-Saône","niveau":"O+","specialite":"CO à pied","latitude":"47.6166796872","longitude":"6.13172830127","date_saisie":"30/12/2014","date_depot":"30/12/2014","valide":"Oui","ppo":"Non","type_carte":"Nouvelle carte","fond":"Cadastre","obsolete":false}},{"type":"Feature","geometry":{"type":"Polygon","coordinates":[[[6.1236,47.7577],[6.1269,47.7607],[6.1303,47.76],[6.1328,47.7598],[6.1349,47.7586],[6.1352,47.757],[6.1382,47.755],[6.1366,47.7526],[6.1349,47.7519],[6.1333,47.7519],[6.1313,47.7527],[6.1287,47.7544],[6.1276,47.7564],[6.1236,47.7577]]]},"properties":{"id_ffco":"2012-D70-113","nom":"Breurey les Faverney","_dept":"70","numero":"2012-D70-113","commune":"Breurey les faverney","echelle":"1/4000","surface":"0.58 km²","format":"A4","annee":"2012","cartographes":"Gaëtan Poirson","proprietaire":"70 - Haute-Saône","niveau":"Départemental","specialite":"CO à pied","latitude":"47.7563890545","longitude":"6.1314328665","date_saisie":"30/12/2014","date_depot":"30/12/2014","valide":"Oui","ppo":"Non","type_carte":"Nouvelle carte","fond":"Cadastre","obsolete":false}},{"type":"Feature","geometry":{"type":"Polygon","coordinates":[[[6.1541,47.6249],[6.1536,47.6249],[6.1525,47.6248],[6.1525,47.6243],[6.1525,47.6242],[6.1526,47.6238],[6.1526,47.6235],[6.1529,47.6234],[6.1533,47.6234],[6.1533,47.6236],[6.1535,47.6236],[6.1535,47.6238],[6.1539,47.6238],[6.1539,47.624],[6.1537,47.624],[6.1537,47.6241],[6.1541,47.6241],[6.1541,47.6244],[6.1544,47.6247],[6.1546,47.6248],[6.1546,47.625],[6.1541,47.6249]]]},"properties":{"id_ffco":"2010-D70-112","nom":"collège Gérôme vesoul","_dept":"70","numero":"2010-D70-112","commune":"Vesoul","echelle":"1/750","surface":"0.02 km²","format":"A4","annee":"2010","cartographes":"Gaëtan Poirson","proprietaire":"70 - Haute-Saône","niveau":"Initiation, Scolaire","specialite":"CO à pied","contacts":"CDCO 70","latitude":"47.6242942467","longitude":"6.15333899516","date_saisie":"30/12/2014","date_depot":"30/12/2014","valide":"Oui","ppo":"Non","type_carte":"Nouvelle carte","fond":"Cadastre","obsolete":false}},{"type":"Feature","geometry":{"type":"Polygon","coordinates":[[[6.1677,47.6153],[6.1694,47.6116],[6.1749,47.6134],[6.1781,47.6133],[6.1805,47.6127],[6.1802,47.6107],[6.1793,47.6093],[6.1806,47.6082],[6.1828,47.608],[6.1822,47.6063],[6.1829,47.6037],[6.1846,47.6031],[6.1874,47.6034],[6.1885,47.604],[6.1887,47.6058],[6.19,47.6065],[6.1926,47.608],[6.1926,47.6103],[6.188,47.6131],[6.1858,47.6144],[6.1851,47.6164],[6.182,47.6167],[6.1785,47.6175],[6.1754,47.6174],[6.1718,47.6168],[6.1677,47.6153]]]},"properties":{"id_ffco":"2013-D70-111","nom":"Quincey","_dept":"70","numero":"2013-D70-111","commune":"Quincey","echelle":"1/7500","surface":"1.33 km²","format":"A4","annee":"2013","cartographes":"Jean-Michel Bettinger","proprietaire":"70 - Haute-Saône","niveau":"Initiation, Scolaire","specialite":"CO à VTT","latitude":"47.6114159484","longitude":"6.1820124015","date_saisie":"29/12/2014","date_depot":"30/12/2014","valide":"Oui","ppo":"Non","type_carte":"Nouvelle carte","fond":"Cadastre","obsolete":false}},{"type":"Feature","geometry":{"type":"Polygon","coordinates":[[[6.1874,47.6105],[6.188,47.6098],[6.19,47.6113],[6.1892,47.6119],[6.1874,47.6105]]]},"properties":{"id_ffco":"2014-D70-110","nom":"Péri-foot","_dept":"70","numero":"2014-D70-110","commune":"Quincey","echelle":"1/500","surface":"0.02 km²","format":"A4","annee":"2014","cartographes":"Jean-Michel Bettinger","proprietaire":"70 - Haute-Saône","niveau":"O+","specialite":"CO à pied","latitude":"47.6108855907","longitude":"6.18867846384","date_saisie":"29/12/2014","date_depot":"30/12/2014","valide":"Oui","ppo":"Non","type_carte":"Nouvelle carte","fond":"Cadastre","obsolete":false}},{"type":"Feature","geometry":null,"properties":{"id_ffco":"1989-D70-11","nom":"SEPT CHEVAUX","_dept":"70","numero":"1989-D70-11","commune":"LUXEUIL","echelle":"1/15000","surface":"2.5 km²","annee":"1989","proprietaire":"7004 - VESOUL HAUTE-SAONE ORIENTATION","specialite":"CO à pied","latitude":"47.817844","longitude":"6.380136","valide":"Non","ppo":"Non","obsolete":false}},{"type":"Feature","geometry":{"type":"Polygon","coordinates":[[[6.2115,47.599],[6.212,47.601],[6.2135,47.6024],[6.2145,47.6033],[6.2173,47.6045],[6.2189,47.6057],[6.2188,47.607],[6.22,47.6069],[6.2237,47.6059],[6.2245,47.6052],[6.2246,47.6043],[6.2273,47.6034],[6.2289,47.6018],[6.2291,47.6003],[6.2253,47.5997],[6.2257,47.5974],[6.2249,47.597],[6.2249,47.596],[6.2238,47.5958],[6.2213,47.5964],[6.2208,47.5944],[6.2173,47.5948],[6.2138,47.5958],[6.2112,47.5975],[6.2115,47.599]]]},"properties":{"id_ffco":"2008-D70-109","nom":"Villers le sec","_dept":"70","numero":"2008-D70-109","commune":"Villers le sec","echelle":"1/5000","surface":"1.15 km²","format":"A4","annee":"2008","cartographes":"Jean-Michel Bettinger","proprietaire":"70 - Haute-Saône","niveau":"Initiation, Scolaire","specialite":"CO à pied","contacts":"CDCO 70","latitude":"47.600367405","longitude":"6.2197595706","date_saisie":"29/12/2014","date_depot":"30/12/2014","valide":"Oui","ppo":"Non","type_carte":"Nouvelle carte","fond":"IGN","obsolete":false}},{"type":"Feature","geometry":{"type":"Polygon","coordinates":[[[5.7746,47.2981],[5.7682,47.2985],[5.7639,47.2969],[5.7626,47.295],[5.7623,47.2926],[5.7675,47.29],[5.7696,47.2906],[5.7711,47.2893],[5.7704,47.2878],[5.7695,47.2865],[5.7713,47.2855],[5.7726,47.2876],[5.7743,47.2885],[5.7748,47.2901],[5.7746,47.2907],[5.7768,47.2918],[5.7803,47.2925],[5.7844,47.2927],[5.7876,47.2932],[5.7864,47.2974],[5.7839,47.2961],[5.783,47.2946],[5.7819,47.2954],[5.7795,47.2961],[5.7746,47.2981]]]},"properties":{"id_ffco":"2002-D70-108","nom":"Marnay","_dept":"70","numero":"2002-D70-108","commune":"Marnay","echelle":"1/7500","surface":"1.27 km²","format":"A4","annee":"2002","cartographes":"Jean Yves Ballot, Matthieu Barthélemy, Benjamin Dumont","proprietaire":"70 - Haute-Saône","niveau":"Départemental","specialite":"CO à pied","contacts":"CDCO 70","latitude":"47.2937781936","longitude":"5.77309210694","date_saisie":"29/12/2014","date_depot":"30/12/2014","valide":"Oui","ppo":"Non","type_carte":"Nouvelle carte","fond":"Cadastre","obsolete":false}},{"type":"Feature","geometry":{"type":"Polygon","coordinates":[[[6.2864,47.6986],[6.2847,47.699],[6.2844,47.6981],[6.2836,47.6984],[6.2819,47.697],[6.2824,47.6969],[6.2836,47.6966],[6.2845,47.6974],[6.2849,47.6973],[6.2853,47.6979],[6.2859,47.6977],[6.2864,47.6986]]]},"properties":{"id_ffco":"2014-D70-107","nom":"Stade de Saulx","_dept":"70","numero":"2014-D70-107","commune":"Saulx de vesoul","echelle":"1/800","surface":"0.04 km²","format":"A4","annee":"2014","cartographes":"Jean-Michel Bettinger","proprietaire":"70 - Haute-Saône","niveau":"O+","specialite":"CO à pied","latitude":"47.6977491959","longitude":"6.28417329759","date_saisie":"29/12/2014","date_depot":"30/12/2014","valide":"Oui","ppo":"Non","type_carte":"Nouvelle carte","fond":"Cadastre","obsolete":false}},{"type":"Feature","geometry":{"type":"Polygon","coordinates":[[[6.279,47.6959],[6.2788,47.6961],[6.2787,47.6962],[6.2787,47.6963],[6.2784,47.6963],[6.2781,47.6965],[6.2775,47.6961],[6.2777,47.696],[6.2779,47.6961],[6.2781,47.6959],[6.2783,47.6959],[6.2785,47.6958],[6.2786,47.6958],[6.2788,47.6957],[6.279,47.6959]]]},"properties":{"id_ffco":"2014-D70-106","nom":"Ecole de Saulx","_dept":"70","numero":"2014-D70-106","commune":"Saulx de vesoul","echelle":"1/500","surface":"0.0 km²","format":"A4","annee":"2014","cartographes":"Jean-Michel Bettinger","proprietaire":"70 - Haute-Saône","niveau":"O+","specialite":"CO à pied","contacts":"CDCO 70","latitude":"47.6960941858","longitude":"6.27833632189","date_saisie":"29/12/2014","date_depot":"30/12/2014","valide":"Oui","ppo":"Non","type_carte":"Nouvelle carte","fond":"Cadastre","obsolete":false}},{"type":"Feature","geometry":{"type":"Polygon","coordinates":[[[6.0976,47.7661],[6.0977,47.7648],[6.0973,47.7646],[6.0975,47.7642],[6.0982,47.7642],[6.0991,47.7643],[6.0997,47.7644],[6.0999,47.7648],[6.0998,47.7651],[6.0992,47.7651],[6.0992,47.7662],[6.0976,47.7661]]]},"properties":{"id_ffco":"2014-D70-105","nom":"Le stade faverney","_dept":"70","numero":"2014-D70-105","commune":"Faverney","echelle":"1/1500","surface":"0.03 km²","format":"A4","annee":"2014","cartographes":"Jean-Michel Bettinger","proprietaire":"70 - Haute-Saône","niveau":"O+","specialite":"CO à pied","latitude":"47.7651074078","longitude":"6.09852207691","date_saisie":"29/12/2014","date_depot":"30/12/2014","valide":"Oui","ppo":"Non","type_carte":"Nouvelle carte","fond":"Cadastre","obsolete":false}},{"type":"Feature","geometry":{"type":"Polygon","coordinates":[[[6.5693,47.7509],[6.5688,47.7518],[6.5696,47.7524],[6.5704,47.7528],[6.5706,47.7524],[6.5709,47.7524],[6.5714,47.7515],[6.5693,47.7509]]]},"properties":{"id_ffco":"2014-D70-104","nom":"Collège des 1000 étangs","_dept":"70","numero":"2014-D70-104","commune":"Melisey","echelle":"1/2000","surface":"0.02 km²","format":"A4","annee":"2014","cartographes":"Jean-Michel Bettinger","proprietaire":"70 - Haute-Saône","niveau":"O+","specialite":"CO à pied","contacts":"CDCO 70","latitude":"47.7517743502","longitude":"6.57007086085","date_saisie":"29/12/2014","date_depot":"30/12/2014","valide":"Oui","ppo":"Non","type_carte":"Nouvelle carte","fond":"Cadastre","obsolete":false}},{"type":"Feature","geometry":{"type":"Polygon","coordinates":[[[5.9016,47.8277],[5.9016,47.8274],[5.9024,47.8274],[5.9024,47.8269],[5.902,47.8269],[5.9024,47.826],[5.9027,47.8261],[5.9029,47.8258],[5.9037,47.826],[5.9037,47.8263],[5.9039,47.8264],[5.9039,47.8267],[5.9044,47.8268],[5.9044,47.8269],[5.9046,47.827],[5.906,47.8267],[5.9062,47.8272],[5.9051,47.8277],[5.9049,47.8275],[5.9041,47.8277],[5.9036,47.8277],[5.9025,47.8278],[5.9016,47.8277]]]},"properties":{"id_ffco":"2014-D70-103","nom":"Place du champ de foire","_dept":"70","numero":"2014-D70-103","commune":"Jussey","echelle":"1/2500","surface":"0.04 km²","format":"A4","annee":"2014","cartographes":"Jean-Michel Bettinger","proprietaire":"70 - Haute-Saône","niveau":"O+","specialite":"CO à pied","contacts":"CDCO 70","latitude":"47.827008137","longitude":"5.90362729987","date_saisie":"29/12/2014","date_depot":"30/12/2014","valide":"Oui","ppo":"Non","type_carte":"Nouvelle carte","fond":"Cadastre","obsolete":false}},{"type":"Feature","geometry":{"type":"Polygon","coordinates":[[[6.1691,47.6321],[6.171,47.6326],[6.1711,47.6338],[6.1687,47.6337],[6.1689,47.6322],[6.1691,47.6321]]]},"properties":{"id_ffco":"2014-D70-102","nom":"Collège J.Brel","_dept":"70","numero":"2014-D70-102","commune":"Vesoul","echelle":"1/1000","surface":"0.03 km²","format":"A4","annee":"2014","cartographes":"Jean-Michel Bettinger","proprietaire":"70 - Haute-Saône","niveau":"O+","specialite":"CO à pied","latitude":"47.6330640334","longitude":"6.16984731915","date_saisie":"29/12/2014","date_depot":"30/12/2014","valide":"Oui","ppo":"Non","type_carte":"Nouvelle carte","fond":"Cadastre","obsolete":false}},{"type":"Feature","geometry":{"type":"Polygon","coordinates":[[[6.163,47.6227],[6.1629,47.6235],[6.1648,47.6242],[6.166,47.6244],[6.1671,47.6249],[6.1673,47.6253],[6.17,47.6249],[6.169,47.6219],[6.1641,47.6226],[6.163,47.6227]]]},"properties":{"id_ffco":"2014-D70-101","nom":"Jardin anglais et stade rené hologne","_dept":"70","numero":"2014-D70-101","commune":"Vesoul","echelle":"1/1500","surface":"0.12 km²","format":"A4","annee":"2014","cartographes":"Jean-Michel Bettinger","proprietaire":"70 - Haute-Saône","niveau":"O+","specialite":"CO à pied","contacts":"CDCO 70","latitude":"47.6235195808","longitude":"6.16688624194","date_saisie":"29/12/2014","date_depot":"30/12/2014","valide":"Oui","ppo":"Non","type_carte":"Nouvelle carte","fond":"Cadastre","obsolete":false}},{"type":"Feature","geometry":{"type":"Polygon","coordinates":[[[6.2093,47.8148],[6.2103,47.8149],[6.2124,47.815],[6.2137,47.815],[6.2138,47.8146],[6.2127,47.8145],[6.2123,47.8144],[6.2124,47.814],[6.2133,47.814],[6.2141,47.814],[6.2147,47.8139],[6.2149,47.8134],[6.2135,47.8124],[6.2132,47.8126],[6.2129,47.8124],[6.2118,47.8127],[6.2109,47.8132],[6.21,47.8138],[6.2097,47.814],[6.2093,47.8148]]]},"properties":{"id_ffco":"2014-D70-100","nom":"Le stade","_dept":"70","numero":"2014-D70-100","commune":"Conflans sur lanterne","echelle":"1/2000","surface":"0.07 km²","format":"A4","annee":"2014","cartographes":"Jean-Michel Bettinger","proprietaire":"70 - Haute-Saône","niveau":"O+","specialite":"CO à pied","contacts":"CDCO 70","latitude":"47.8138134888","longitude":"6.21215598675","date_saisie":"29/12/2014","date_depot":"30/12/2014","valide":"Oui","ppo":"Non","type_carte":"Nouvelle carte","fond":"Cadastre","obsolete":false}},{"type":"Feature","geometry":null,"properties":{"id_ffco":"1989-D70-10","nom":"GRAND BOIS VELLEVAUX","_dept":"70","numero":"1989-D70-10","commune":"BELLEVAUX","echelle":"1/10000","surface":"1.4 km²","annee":"1989","proprietaire":"7003","specialite":"CO à pied","latitude":"46.2559286","longitude":"6.5295861","valide":"Non","ppo":"Non","obsolete":false}},{"type":"Feature","geometry":null,"properties":{"id_ffco":"1989-D70-09","nom":"BOIS DE LA CRAYE","_dept":"70","numero":"1989-D70-09","commune":"VESOUL","echelle":"1/10000","surface":"1.8 km²","annee":"1989","proprietaire":"7003","specialite":"CO à pied","latitude":"47.6234719","longitude":"6.1559043","valide":"Non","ppo":"Non","obsolete":false}},{"type":"Feature","geometry":null,"properties":{"id_ffco":"1999-D70-09","nom":"BOIS DE LA CRAYE","_dept":"70","numero":"1999-D70-09","commune":"ANDELARROT","echelle":"1/10000","surface":"2.0 km²","annee":"1999","proprietaire":"70 - Haute-Saône","niveau":"Interrégional","specialite":"CO à pied","latitude":"47.5807757","longitude":"6.1037407","valide":"Non","ppo":"Non","obsolete":false}},{"type":"Feature","geometry":null,"properties":{"id_ffco":"1989-D70-08","nom":"VILLERS LES LUXEUIL","_dept":"70","numero":"1989-D70-08","commune":"MAILLERONCOURT","echelle":"1/10000","surface":"0.6 km²","annee":"1989","proprietaire":"7003","specialite":"CO à pied","latitude":"47.726688","longitude":"6.2582731","valide":"Non","ppo":"Non","obsolete":false}},{"type":"Feature","geometry":null,"properties":{"id_ffco":"1999-D70-07","nom":"MELISEY MONT JEU","_dept":"70","numero":"1999-D70-07","commune":"LURE","echelle":"1/15000","surface":"8.6 km²","annee":"1999","proprietaire":"FC - Franche-Comté","niveau":"National, International","specialite":"CO à pied","latitude":"47.6833916","longitude":"6.496526","valide":"Non","ppo":"Non","obsolete":false}},{"type":"Feature","geometry":null,"properties":{"id_ffco":"1989-D70-06","nom":"AUTRICOURT","_dept":"70","numero":"1989-D70-06","commune":"VESOUL","echelle":"1/10000","surface":"1.0 km²","annee":"1989","proprietaire":"7003","specialite":"CO à pied","latitude":"47.6234719","longitude":"6.1559043","valide":"Non","ppo":"Non","obsolete":false}},{"type":"Feature","geometry":null,"properties":{"id_ffco":"1989-D70-05","nom":"CLAIRGOUTTE","_dept":"70","numero":"1989-D70-05","surface":"2.0 km²","annee":"1989","specialite":"CO à pied","latitude":"46.1756788","longitude":"6.5389621","valide":"Non","ppo":"Non","obsolete":false}},{"type":"Feature","geometry":null,"properties":{"id_ffco":"1999-D70-047","nom":"TROUSSE COTILLON","_dept":"70","numero":"1999-D70-047","commune":"CRAY","echelle":"1/10000","surface":"1.36 km²","annee":"1999","proprietaire":"Lycée","specialite":"CO à pied","latitude":"47.3622583","longitude":"6.121264","valide":"Non","ppo":"Non","obsolete":false}},{"type":"Feature","geometry":{"type":"Polygon","coordinates":[[[6.1465,47.6103],[6.1421,47.6044],[6.1405,47.5976],[6.1385,47.5941],[6.1377,47.5836],[6.1383,47.5756],[6.1419,47.5697],[6.1719,47.569],[6.1708,47.5712],[6.1708,47.5767],[6.1762,47.5838],[6.1736,47.5867],[6.1772,47.5908],[6.1769,47.5931],[6.1758,47.5957],[6.1751,47.5986],[6.1697,47.6016],[6.1658,47.6013],[6.1622,47.6043],[6.1465,47.6103]]]},"properties":{"id_ffco":"2010-D70-046","nom":"Plateau de cita","_dept":"70","numero":"2010-D70-046","commune":"Echenoz la méline","echelle":"1/20000","surface":"10.4 km²","format":"A4","annee":"2010","cartographes":"Matthieu Barthélemy","proprietaire":"7004 - VESOUL HAUTE-SAONE ORIENTATION","niveau":"Interrégional","specialite":"CO à VTT","latitude":"47.5876127611","longitude":"6.15602050039","date_depot":"30/12/2014","valide":"Oui","ppo":"Non","type_carte":"Nouvelle carte","fond":"IGN","obsolete":false}},{"type":"Feature","geometry":{"type":"Polygon","coordinates":[[[6.1252,47.5788],[6.133,47.5863],[6.1398,47.588],[6.1427,47.6002],[6.1431,47.6034],[6.1367,47.6054],[6.1282,47.607],[6.1221,47.6052],[6.1196,47.6029],[6.1142,47.6008],[6.1095,47.5953],[6.1083,47.5915],[6.1127,47.5854],[6.118,47.5804],[6.1252,47.5788]]]},"properties":{"id_ffco":"2001-D70-045","nom":"SOLBORDE","_dept":"70","numero":"2001-D70-045","commune":"ECHENOZ LA MELINE","echelle":"1/15000","surface":"5.43 km²","format":"A4","annee":"2001","cartographes":"Joël Tauzin","proprietaire":"7004 - VESOUL HAUTE-SAONE ORIENTATION","niveau":"Départemental","specialite":"CO à pied","latitude":"47.5938404138","longitude":"6.12600041764","date_depot":"30/12/2014","valide":"Oui","ppo":"Non","type_carte":"Nouvelle carte","fond":"IGN","obsolete":false}},{"type":"Feature","geometry":null,"properties":{"id_ffco":"1999-D70-044","nom":"ANDELARROT","_dept":"70","numero":"1999-D70-044","commune":"ANDELARROT","echelle":"1/20000","surface":"7.0 km²","annee":"1999","proprietaire":"7004 - VESOUL HAUTE-SAONE ORIENTATION","niveau":"Interrégional","specialite":"CO à VTT","latitude":"47.5807757","longitude":"6.1037407","valide":"Non","ppo":"Non","obsolete":false}},{"type":"Feature","geometry":{"type":"Polygon","coordinates":[[[6.3926,47.8227],[6.3963,47.8258],[6.4007,47.8307],[6.4002,47.834],[6.3967,47.8365],[6.3909,47.8367],[6.3871,47.8367],[6.385,47.8341],[6.3829,47.8315],[6.3841,47.8278],[6.3855,47.8257],[6.3926,47.8227]]]},"properties":{"id_ffco":"2007-D70-04","nom":"Le Banney","_dept":"70","numero":"2007-D70-04","commune":"LUXEUIL","echelle":"1/10000","surface":"1.46 km²","format":"A4","annee":"2007","cartographes":"Christian Robert","proprietaire":"70 - Haute-Saône","niveau":"Régional","specialite":"CO à pied","latitude":"47.8305654015","longitude":"6.39174709936","date_depot":"31/12/2014","valide":"Oui","ppo":"Non","type_carte":"Reprise","base":"2007-D70-04 Le Banney","fond":"IGN","obsolete":false}},{"type":"Feature","geometry":null,"properties":{"id_ffco":"1983-D70-03","nom":"GRAND BOIS DE MAILLEY","_dept":"70","numero":"1983-D70-03","commune":"VESOUL","echelle":"1/15000","surface":"7.2 km²","annee":"1983","proprietaire":"7003","niveau":"Interrégional","specialite":"CO à pied","latitude":"47.6234719","longitude":"6.1559043","valide":"Non","ppo":"Non","obsolete":false}},{"type":"Feature","geometry":null,"properties":{"id_ffco":"1999-D70-022","nom":"ST HILAIRE","_dept":"70","numero":"1999-D70-022","commune":"LURE","echelle":"1/15000","surface":"13.5 km²","annee":"1999","proprietaire":"FC - Franche-Comté","niveau":"National, International","specialite":"CO à pied","latitude":"47.6833916","longitude":"6.496526","valide":"Non","ppo":"Non","obsolete":false}},{"type":"Feature","geometry":null,"properties":{"id_ffco":"1999-D70-021","nom":"MELISEY (7020)","_dept":"70","numero":"1999-D70-021","commune":"LURE","echelle":"1/15000","surface":"8.6 km²","annee":"1999","proprietaire":"FC - Franche-Comté","niveau":"National, International","specialite":"CO à pied","latitude":"47.6833916","longitude":"6.496526","valide":"Non","ppo":"Non","obsolete":false}},{"type":"Feature","geometry":{"type":"Polygon","coordinates":[[[6.1038,47.5808],[6.1012,47.5803],[6.0976,47.579],[6.0946,47.5764],[6.0918,47.5741],[6.088,47.5727],[6.0858,47.5698],[6.085,47.5672],[6.0861,47.5649],[6.0881,47.5643],[6.0906,47.564],[6.0936,47.5635],[6.0963,47.5637],[6.0995,47.5653],[6.1043,47.5684],[6.1069,47.5714],[6.1089,47.5741],[6.1115,47.5776],[6.1091,47.5782],[6.1084,47.5797],[6.107,47.5811],[6.1038,47.5808]]]},"properties":{"id_ffco":"1984-D70-02","nom":"BOIS DE LA CRAYE","_dept":"70","numero":"1984-D70-02","commune":"Andelarrot","echelle":"1/10000","surface":"2.24 km²","format":"A4","annee":"1984","cartographes":"Joël Tauzin","proprietaire":"70 - Haute-Saône","niveau":"Régional","specialite":"CO à pied","latitude":"47.571920312","longitude":"6.09797219865","date_depot":"30/12/2014","valide":"Oui","ppo":"Non","type_carte":"Nouvelle carte","fond":"IGN","ref_ign":"3321 E","obsolete":false}},{"type":"Feature","geometry":null,"properties":{"id_ffco":"1982-D70-01","nom":"ST HILAIRE","_dept":"70","numero":"1982-D70-01","commune":"LURE","echelle":"1/20000","surface":"4.8 km²","annee":"1982","proprietaire":"FC - Franche-Comté","niveau":"Interrégional","specialite":"CO à pied","latitude":"47.6833916","longitude":"6.496526","valide":"Non","ppo":"Non","obsolete":false}},{"type":"Feature","geometry":null,"properties":{"id_ffco":"1989-D70-00","nom":"BOIS ROND - AUTRICOURT","_dept":"70","numero":"1989-D70-00","commune":"VALLEROIS LORIOZ","echelle":"1/5000","surface":"1.15 km²","annee":"1989","specialite":"CO à pied","latitude":"47.5634101","longitude":"6.1512412","valide":"Non","ppo":"Non","obsolete":false}},{"type":"Feature","geometry":null,"properties":{"id_ffco":"1989-D70-00","nom":"VILLERS LES LUXEUIL","_dept":"70","numero":"1989-D70-00","commune":"VILLERS LES LUXEUIL","echelle":"1/5000","surface":"0.75 km²","annee":"1989","specialite":"CO à pied","latitude":"47.7710676","longitude":"6.2861213","valide":"Non","ppo":"Non","obsolete":false}},{"type":"Feature","geometry":{"type":"Polygon","coordinates":[[[6.0981,47.5796],[6.0985,47.5799],[6.0986,47.5812],[6.0998,47.5812],[6.1011,47.5831],[6.1064,47.583],[6.1117,47.5829],[6.1113,47.578],[6.1109,47.5774],[6.1102,47.5768],[6.1092,47.5753],[6.1081,47.5734],[6.1078,47.5722],[6.1057,47.5703],[6.1045,47.5695],[6.1034,47.5683],[6.1018,47.5667],[6.0985,47.565],[6.097,47.5646],[6.0948,47.563],[6.0941,47.5635],[6.0936,47.5639],[6.0926,47.5642],[6.0913,47.5642],[6.09,47.5641],[6.0889,47.5642],[6.0881,47.5641],[6.0873,47.5639],[6.0866,47.565],[6.0858,47.5656],[6.0851,47.566],[6.0848,47.5665],[6.0853,47.5677],[6.0857,47.569],[6.0857,47.5694],[6.085,47.57],[6.089,47.5727],[6.0919,47.5742],[6.0928,47.5749],[6.0936,47.5758],[6.0943,47.5766],[6.0952,47.5776],[6.0965,47.5784],[6.0981,47.5796]]]},"properties":{"id_ffco":"1997-D70-","nom":"Forêt de Vaivre","_dept":"70","numero":"1997-D70-","commune":"Choye","echelle":"1/10000","surface":"2.51 km²","annee":"1997","contacts":"CDCO 70 // CO Luxeuil // Maison du Pays Gilois, CO Luxeuil, Vesoul VTT, CDCO 70 // OT de Gy","latitude":"47.5731102727","longitude":"6.09883597259","valide":"Non","ppo":"Oui (24 postes)","obsolete":false}}]}