{"type":"FeatureCollection","features":[{"type":"Feature","geometry":{"type":"Polygon","coordinates":[[[4.3688,46.6902],[4.3691,46.6845],[4.3658,46.6839],[4.3648,46.6837],[4.3622,46.6825],[4.3609,46.684],[4.3596,46.6859],[4.36,46.6867],[4.3609,46.6875],[4.3684,46.6902],[4.3688,46.6902]]]},"properties":{"id_ffco":"2023-D71-050","nom":"Parc Saint Louis - Montceau les Mines","_dept":"71","numero":"2023-D71-050","commune":"Montceau les Mines","echelle":"1/5000","surface":"0.39 km²","format":"A4","annee":"2023","cartographes":"Yann VENON","proprietaire":"71 - Saône-et-Loire","niveau":"Régional","specialite":"CO à pied","latitude":"46.6862509926","longitude":"4.36483009729","date_saisie":"03/01/2024","date_depot":"03/01/2024","valide":"Non","ppo":"Oui (30 postes)","type_carte":"Nouvelle carte","base":"2007-D71-025 Parc Saint Louis","fond":"Ortho","obsolete":false}},{"type":"Feature","geometry":{"type":"Polygon","coordinates":[[[4.4726,46.302],[4.4722,46.3024],[4.4723,46.3033],[4.4728,46.3037],[4.4747,46.3039],[4.4797,46.3061],[4.4827,46.3061],[4.4831,46.3052],[4.4825,46.3033],[4.4826,46.3028],[4.483,46.3023],[4.483,46.3009],[4.4821,46.3007],[4.4816,46.3007],[4.4807,46.3009],[4.4799,46.301],[4.479,46.3009],[4.4784,46.3009],[4.4776,46.301],[4.4762,46.3014],[4.4749,46.3019],[4.474,46.3021],[4.4735,46.302],[4.4726,46.302]]]},"properties":{"id_ffco":"2023-D71-049","nom":"Matour - Etang du Paluet","_dept":"71","numero":"2023-D71-049","commune":"Matour","echelle":"1/3000","surface":"0.34 km²","format":"A4","annee":"2023","cartographes":"Pierre MARTINEZ","proprietaire":"71 - Saône-et-Loire","niveau":"Initiation, Scolaire","specialite":"CO à pied","latitude":"46.303254707","longitude":"4.47870146947","date_saisie":"03/01/2024","date_depot":"03/01/2024","valide":"Non","ppo":"Non","type_carte":"Nouvelle carte","fond":"Ortho","obsolete":false}},{"type":"Feature","geometry":{"type":"Polygon","coordinates":[[[4.7528,46.8076],[4.7511,46.7978],[4.7408,46.78],[4.738,46.7796],[4.7318,46.776],[4.7255,46.7716],[4.7198,46.7701],[4.7124,46.7686],[4.6982,46.7713],[4.6982,46.7975],[4.7013,46.8002],[4.7104,46.8066],[4.7145,46.8097],[4.7193,46.8109],[4.7277,46.8109],[4.7289,46.8119],[4.7346,46.8133],[4.737,46.8115],[4.7408,46.8103],[4.7432,46.8083],[4.747,46.8093],[4.7504,46.8085],[4.7528,46.8076]]]},"properties":{"id_ffco":"2019-D71-047","nom":"Les chaumes de Givry","_dept":"71","numero":"2019-D71-047","commune":"GIVRY","echelle":"1/15000","surface":"14.88 km²","format":"A3","annee":"2019","cartographes":"Bruno MOYON, Anne Françoise DENIER, Pascal FIGUIERE","proprietaire":"71 - Saône-et-Loire","niveau":"Interrégional","specialite":"CO à VTT","contacts":"MOYON Bruno, 0617733232","latitude":"46.7914251124","longitude":"4.72292556919","date_saisie":"26/08/2019","date_depot":"08/11/2019","valide":"Oui","ppo":"Non","type_carte":"Nouvelle carte","fond":"IGN","obsolete":false}},{"type":"Feature","geometry":{"type":"Polygon","coordinates":[[[4.7395,46.8549],[4.7396,46.8563],[4.7453,46.8582],[4.7474,46.8591],[4.7483,46.8591],[4.7481,46.8599],[4.7495,46.86],[4.7524,46.8602],[4.7525,46.8564],[4.7527,46.8552],[4.7542,46.8537],[4.7545,46.8524],[4.7545,46.8509],[4.7544,46.8494],[4.7537,46.8477],[4.7535,46.847],[4.7516,46.8466],[4.7504,46.8462],[4.7476,46.845],[4.746,46.8441],[4.7455,46.8439],[4.744,46.8438],[4.7437,46.8437],[4.7417,46.8439],[4.7414,46.8439],[4.7391,46.846],[4.7393,46.8469],[4.7383,46.8484],[4.7382,46.8495],[4.739,46.8521],[4.7395,46.8549]]]},"properties":{"id_ffco":"2018-D71-045","nom":"Les carrières - Fontaines","_dept":"71","numero":"2018-D71-045","commune":"Fontaines","echelle":"1/7500","surface":"1.66 km²","format":"A4","annee":"2018","cartographes":"Yann VENON","proprietaire":"71 - Saône-et-Loire","niveau":"Interrégional","specialite":"CO à pied","contacts":"FIGUIERE Pascal, 0668154588 // MOYON Bruno, 0617733232","latitude":"46.8516010005","longitude":"4.74644238223","date_saisie":"28/08/2018","date_depot":"06/11/2018","valide":"Oui","ppo":"Non","type_carte":"Nouvelle carte","fond":"Ortho","obsolete":false}},{"type":"Feature","geometry":{"type":"Polygon","coordinates":[[[4.7404,46.8595],[4.7404,46.8602],[4.7526,46.8601],[4.7526,46.8558],[4.7543,46.8534],[4.7544,46.8494],[4.7541,46.8485],[4.7534,46.8469],[4.7514,46.8465],[4.7501,46.846],[4.7479,46.845],[4.7466,46.8446],[4.7458,46.8441],[4.7453,46.8438],[4.7444,46.8438],[4.7438,46.8437],[4.7435,46.8435],[4.7413,46.8439],[4.7392,46.8459],[4.7391,46.846],[4.7393,46.8468],[4.7383,46.8483],[4.7382,46.8487],[4.7382,46.8496],[4.7386,46.8505],[4.7392,46.8532],[4.7394,46.855],[4.7396,46.8574],[4.7404,46.8595]]]},"properties":{"id_ffco":"2018-D71-043","nom":"Montagne Saint Hilaire","_dept":"71","numero":"2018-D71-043","commune":"Fontaines","echelle":"1/7500","surface":"1.84 km²","format":"A4","annee":"2018","cartographes":"Bruno MOYON","proprietaire":"71 - Saône-et-Loire","niveau":"Interrégional","specialite":"CO à VTT","contacts":"CDCO 71, 0668154588, pascal.figuiere@wanadoo.fr","latitude":"46.8522544141","longitude":"4.74614282","date_saisie":"21/08/2018","date_depot":"06/11/2018","valide":"Oui","ppo":"Non","type_carte":"Extrait","base":"2004-D71-02102 Vallée des Vaux-Côte chalonnaise","fond":"IGN","ref_ign":"630-5190-U31","obsolete":false}},{"type":"Feature","geometry":{"type":"Polygon","coordinates":[[[4.6987,46.8827],[4.714,46.8814],[4.7227,46.8778],[4.7379,46.8721],[4.7421,46.8706],[4.7404,46.8651],[4.7403,46.8626],[4.7391,46.8542],[4.738,46.8487],[4.7392,46.8466],[4.7372,46.8446],[4.7363,46.8404],[4.7358,46.8384],[4.7391,46.8366],[4.7368,46.8323],[4.7264,46.8333],[4.7212,46.8341],[4.714,46.8372],[4.7068,46.8365],[4.6917,46.8415],[4.6838,46.8459],[4.6846,46.8518],[4.6853,46.8595],[4.6874,46.866],[4.6886,46.871],[4.6987,46.8827]]]},"properties":{"id_ffco":"2018-D71-042","nom":"Cote Chalonnaise Rully - Mercurey","_dept":"71","numero":"2018-D71-042","commune":"Rully, Mercurey","echelle":"1/15000","surface":"18.54 km²","format":"A3","annee":"2018","cartographes":"MOYON Bruno (bénévole)","proprietaire":"71 - Saône-et-Loire","niveau":"Interrégional","specialite":"CO à VTT","contacts":"MOYON Bruno, 0617733232","latitude":"46.8574963689","longitude":"4.71327815188","date_saisie":"28/08/2018","date_depot":"06/11/2018","valide":"Oui","ppo":"Non","type_carte":"Extrait","base":"2004-D71-02102 Vallée des Vaux-Côte chalonnaise","fond":"Cadastre","obsolete":false}},{"type":"Feature","geometry":{"type":"Polygon","coordinates":[[[4.4222,46.8076],[4.4222,46.8084],[4.4243,46.8085],[4.4245,46.807],[4.4244,46.8068],[4.4243,46.8066],[4.4241,46.8066],[4.4238,46.8064],[4.4238,46.8063],[4.4231,46.8062],[4.4221,46.8061],[4.422,46.8064],[4.422,46.807],[4.4219,46.8072],[4.422,46.8075],[4.4222,46.8076]]]},"properties":{"id_ffco":"2015-D71-041","nom":"Le Jardin des terrasses","_dept":"71","numero":"2015-D71-041","commune":"Montceau-les-Mines","echelle":"1/1000","surface":"0.04 km²","format":"A4","annee":"2015","cartographes":"Régis ANTOINE","proprietaire":"7108 - COURSE D'ORIENTATION MONTCEAU MORVAN","niveau":"Initiation, Scolaire","specialite":"CO à pied","latitude":"46.807324199","longitude":"4.42319420064","date_saisie":"17/01/2016","date_depot":"04/10/2016","valide":"Oui","ppo":"Non","type_carte":"Nouvelle carte","fond":"Cadastre","obsolete":false}},{"type":"Feature","geometry":{"type":"Polygon","coordinates":[[[4.4494,46.4399],[4.4488,46.4401],[4.4481,46.4405],[4.4468,46.4412],[4.447,46.4416],[4.447,46.4424],[4.4476,46.4432],[4.4477,46.4435],[4.4476,46.446],[4.4469,46.4476],[4.4466,46.4479],[4.4459,46.4485],[4.4473,46.4492],[4.4479,46.4493],[4.4485,46.4493],[4.4497,46.4498],[4.4501,46.4498],[4.4509,46.4502],[4.4511,46.4512],[4.4529,46.4511],[4.4532,46.4512],[4.4537,46.4511],[4.454,46.451],[4.4544,46.4511],[4.4549,46.4511],[4.4553,46.4511],[4.4556,46.4509],[4.4569,46.451],[4.459,46.451],[4.4605,46.4513],[4.4619,46.4514],[4.4626,46.4519],[4.4629,46.4521],[4.4633,46.4522],[4.464,46.4519],[4.4647,46.4528],[4.4654,46.4523],[4.4657,46.4521],[4.4662,46.4519],[4.4665,46.4521],[4.4669,46.4521],[4.4678,46.4523],[4.4689,46.4522],[4.4696,46.4518],[4.4703,46.4516],[4.4706,46.4513],[4.4707,46.4508],[4.471,46.4504],[4.4717,46.45],[4.4725,46.4502],[4.474,46.4501],[4.4745,46.4502],[4.4753,46.4489],[4.4754,46.4485],[4.4754,46.448],[4.4753,46.4476],[4.4751,46.4471],[4.4744,46.4462],[4.4742,46.4452],[4.4744,46.4435],[4.4735,46.4429],[4.473,46.4428],[4.4729,46.443],[4.4725,46.4438],[4.4723,46.4435],[4.4718,46.443],[4.4711,46.4429],[4.4704,46.4428],[4.4699,46.4426],[4.4693,46.4422],[4.4688,46.4422],[4.4681,46.4424],[4.4676,46.4426],[4.4673,46.4427],[4.467,46.4424],[4.4668,46.4421],[4.4664,46.442],[4.4656,46.4415],[4.4645,46.4412],[4.4636,46.4415],[4.4628,46.4418],[4.462,46.4421],[4.4617,46.4424],[4.4614,46.4425],[4.4614,46.442],[4.4614,46.4406],[4.4611,46.4407],[4.4611,46.4404],[4.4608,46.4403],[4.4597,46.4403],[4.4589,46.4399],[4.4586,46.4396],[4.4583,46.439],[4.4581,46.4388],[4.4578,46.4388],[4.4571,46.4389],[4.4567,46.4388],[4.4564,46.4385],[4.4557,46.4389],[4.4554,46.439],[4.4547,46.439],[4.4535,46.4392],[4.4525,46.4394],[4.4514,46.4397],[4.4504,46.44],[4.4501,46.4399],[4.4498,46.4396],[4.4494,46.4399]]]},"properties":{"id_ffco":"2015-D71-040","nom":"Bois de Morphée","_dept":"71","numero":"2015-D71-040","commune":"Suin","echelle":"1/10000","surface":"2.38 km²","format":"A4","annee":"2015","cartographes":"Régis ANTOINE","proprietaire":"71 - Saône-et-Loire","niveau":"Régional","specialite":"CO à pied","latitude":"46.4459662311","longitude":"4.46021246038","date_saisie":"29/07/2015","date_depot":"22/10/2015","valide":"Oui","ppo":"Non","type_carte":"Nouvelle carte","fond":"IGN","ref_ign":"2927 Ouest","obsolete":false}},{"type":"Feature","geometry":{"type":"Polygon","coordinates":[[[3.9922,46.4774],[3.9924,46.4778],[3.9952,46.4774],[3.9995,46.4767],[3.999,46.4751],[3.9997,46.4748],[3.9988,46.4729],[3.9974,46.4735],[3.9972,46.4732],[3.9959,46.4741],[3.9948,46.4748],[3.994,46.4741],[3.9929,46.4748],[3.9909,46.476],[3.9922,46.4774]]]},"properties":{"id_ffco":"2014-D71-039","nom":"Digoin. Cité scolaire","_dept":"71","numero":"2014-D71-039","commune":"Digoin","echelle":"1/3000","surface":"0.21 km²","format":"A4","annee":"2014","cartographes":"Geneviève CHARME-SAUVIGNET, Fabrice THOMASSIN","proprietaire":"71 - Saône-et-Loire","niveau":"Initiation, Scolaire","specialite":"CO à pied","latitude":"46.4756144089","longitude":"3.99572715098","date_saisie":"12/10/2014","date_depot":"22/10/2015","valide":"Oui","ppo":"Non","type_carte":"Nouvelle carte","fond":"IGN","ref_ign":"2827 Ouest","obsolete":false}},{"type":"Feature","geometry":{"type":"Polygon","coordinates":[[[5.2368,46.7516],[5.2385,46.7512],[5.2386,46.7516],[5.2383,46.7522],[5.2397,46.7525],[5.2399,46.7521],[5.2405,46.7521],[5.2413,46.7522],[5.2423,46.7519],[5.2425,46.7512],[5.2423,46.7512],[5.2421,46.7505],[5.2422,46.7503],[5.2426,46.7501],[5.2424,46.7498],[5.2426,46.7492],[5.2405,46.7491],[5.2395,46.7489],[5.2383,46.7487],[5.2381,46.7489],[5.236,46.7483],[5.2357,46.7496],[5.2362,46.7508],[5.2368,46.7516]]]},"properties":{"id_ffco":"2014-D71-038","nom":"St Germain du Bois","_dept":"71","numero":"2014-D71-038","commune":"St Germain du Bois","echelle":"1/2500","surface":"0.16 km²","format":"A4","annee":"2014","cartographes":"Pascal FIGUIERE","proprietaire":"7109 - GIVRY SPORT ORIENTATION","niveau":"Initiation, Scolaire","specialite":"CO à pied","latitude":"46.7503483086","longitude":"5.23918457245","date_saisie":"12/10/2014","date_depot":"22/10/2015","valide":"Oui","ppo":"Non","type_carte":"Nouvelle carte","fond":"IGN","ref_ign":"3126 Est","obsolete":false}},{"type":"Feature","geometry":{"type":"Polygon","coordinates":[[[4.3178,46.9416],[4.3189,46.9413],[4.3225,46.9412],[4.3244,46.9417],[4.3266,46.9434],[4.3257,46.9443],[4.3263,46.9451],[4.3275,46.9461],[4.3309,46.9476],[4.3315,46.9483],[4.3336,46.9487],[4.3351,46.9484],[4.3361,46.9474],[4.3393,46.9467],[4.3418,46.9471],[4.3415,46.9477],[4.342,46.9481],[4.3439,46.9478],[4.3481,46.9477],[4.3499,46.9482],[4.3535,46.9478],[4.3546,46.9474],[4.3552,46.9469],[4.3551,46.9459],[4.3547,46.9448],[4.354,46.9426],[4.3532,46.9414],[4.3517,46.9398],[4.351,46.9386],[4.3507,46.9371],[4.3509,46.9363],[4.3517,46.9356],[4.3556,46.9335],[4.3575,46.9329],[4.3632,46.9311],[4.3639,46.93],[4.3647,46.9295],[4.3656,46.9293],[4.3662,46.9288],[4.3661,46.9281],[4.3661,46.927],[4.367,46.9256],[4.367,46.9251],[4.366,46.9241],[4.3654,46.9234],[4.3654,46.9228],[4.3659,46.9223],[4.3668,46.9218],[4.3602,46.9145],[4.3572,46.9113],[4.349,46.9233],[4.3378,46.9218],[4.3371,46.9201],[4.3312,46.9193],[4.3298,46.9221],[4.3293,46.9226],[4.3283,46.9231],[4.3269,46.9237],[4.3271,46.9246],[4.3278,46.9254],[4.3282,46.9262],[4.3278,46.9271],[4.3262,46.9271],[4.3254,46.9277],[4.323,46.9284],[4.3205,46.9298],[4.3199,46.9305],[4.3187,46.9309],[4.3177,46.9325],[4.3172,46.933],[4.3169,46.9408],[4.3178,46.9416]]]},"properties":{"id_ffco":"2014-D71-037","nom":"Forêt de Planoise. La Coiffe au Diable","_dept":"71","numero":"2014-D71-037","commune":"Autun","echelle":"1/15000","surface":"8.63 km²","format":"A3","annee":"2014","cartographes":"Michel DUBOC","proprietaire":"71 - Saône-et-Loire","niveau":"Interrégional","specialite":"CO à pied","latitude":"46.9324237113","longitude":"4.34194323238","date_saisie":"12/10/2014","date_depot":"22/10/2015","valide":"Oui","ppo":"Non","type_carte":"Reprise","base":"2002-D71-017 Planoise","fond":"IGN","ref_ign":"2925 Ouest","obsolete":false}},{"type":"Feature","geometry":{"type":"Polygon","coordinates":[[[4.4191,46.8057],[4.4199,46.8056],[4.42,46.8062],[4.4209,46.8062],[4.4217,46.8061],[4.4221,46.8061],[4.4231,46.8062],[4.4245,46.8065],[4.4261,46.8069],[4.4276,46.8069],[4.4271,46.8052],[4.4269,46.8044],[4.4263,46.8046],[4.4263,46.8042],[4.4265,46.8036],[4.4267,46.803],[4.427,46.8029],[4.4275,46.8028],[4.4277,46.8026],[4.428,46.8023],[4.4284,46.8022],[4.429,46.8022],[4.4297,46.802],[4.4296,46.8016],[4.4296,46.8013],[4.4299,46.8007],[4.4278,46.7996],[4.4273,46.7992],[4.4221,46.8004],[4.421,46.8004],[4.4199,46.8014],[4.4172,46.8022],[4.4177,46.8031],[4.4182,46.8034],[4.4186,46.8037],[4.4191,46.8057]]]},"properties":{"id_ffco":"2014-D71-036","nom":"Parc de la Verrerie","_dept":"71","numero":"2014-D71-036","commune":"Le Creusot","echelle":"1/4000","surface":"0.49 km²","format":"A4","annee":"2014","cartographes":"Régis ANTOINE","proprietaire":"7108 - COURSE D'ORIENTATION MONTCEAU MORVAN","niveau":"Régional","specialite":"Sprint (ISSOM)","latitude":"46.8029998184","longitude":"4.42371470336","date_saisie":"22/11/2014","date_depot":"22/10/2015","valide":"Oui","ppo":"Non","type_carte":"Reprise","base":"1988-D71-008 Parc de la Verrerie","fond":"Cadastre","obsolete":false}},{"type":"Feature","geometry":{"type":"Polygon","coordinates":[[[4.757,46.7658],[4.7552,46.7649],[4.7543,46.7648],[4.7529,46.7649],[4.7543,46.7635],[4.7573,46.7636],[4.757,46.7658]]]},"properties":{"id_ffco":"2013-D71-035","nom":"AcroGivry","_dept":"71","numero":"2013-D71-035","commune":"Givry","echelle":"1/1500","surface":"0.05 km²","format":"A4","annee":"2013","cartographes":"Pascal FIGUIERE","proprietaire":"7109 - GIVRY SPORT ORIENTATION","niveau":"Initiation, Scolaire","specialite":"CO à pied","latitude":"46.7643932436","longitude":"4.75556760703","date_saisie":"16/01/2014","date_depot":"04/10/2016","valide":"Oui","ppo":"Non","type_carte":"Nouvelle carte","fond":"IGN","ref_ign":"3026 O","obsolete":false}},{"type":"Feature","geometry":{"type":"Polygon","coordinates":[[[4.4752,46.6283],[4.4761,46.6281],[4.4764,46.627],[4.4777,46.6268],[4.4784,46.6289],[4.4791,46.6289],[4.4789,46.6294],[4.4801,46.6312],[4.4808,46.6317],[4.4813,46.6322],[4.4814,46.633],[4.4781,46.6339],[4.4773,46.6336],[4.4773,46.6329],[4.4775,46.6327],[4.4765,46.6321],[4.4757,46.6301],[4.4752,46.6288],[4.4752,46.6283]]]},"properties":{"id_ffco":"2013-D71-034","nom":"Mont Saint Vincent","_dept":"71","numero":"2013-D71-034","commune":"Mont Saint Vincent","echelle":"1/4000","surface":"0.19 km²","format":"A4","annee":"2013","cartographes":"Régis ANTOINE","proprietaire":"7108 - COURSE D'ORIENTATION MONTCEAU MORVAN","niveau":"Régional","specialite":"CO à pied","latitude":"46.6306568017","longitude":"4.4779780786","date_depot":"22/10/2015","valide":"Oui","ppo":"Non","type_carte":"Nouvelle carte","fond":"IGN","ref_ign":"2926 Ouest","obsolete":false}},{"type":"Feature","geometry":{"type":"Polygon","coordinates":[[[4.658,46.82],[4.6628,46.8218],[4.6634,46.8217],[4.6639,46.8212],[4.6639,46.8207],[4.6646,46.8192],[4.6659,46.8171],[4.6663,46.8168],[4.667,46.8168],[4.6686,46.8169],[4.6697,46.8176],[4.6708,46.8181],[4.6711,46.8181],[4.6718,46.8173],[4.6721,46.8166],[4.6722,46.8161],[4.6718,46.8157],[4.6715,46.8152],[4.6713,46.8146],[4.6713,46.8139],[4.6715,46.8132],[4.6724,46.8128],[4.6733,46.8119],[4.6735,46.8022],[4.6557,46.8021],[4.6597,46.8062],[4.6492,46.8113],[4.6496,46.8127],[4.6499,46.8131],[4.6517,46.8147],[4.6536,46.8161],[4.6549,46.8175],[4.6576,46.82],[4.658,46.82]]]},"properties":{"id_ffco":"2012-D71-033","nom":"La Fontaine de la Bonne Idée","_dept":"71","numero":"2012-D71-033","commune":"St Mard de Vaux","echelle":"1/10000","surface":"2.66 km²","format":"A4","annee":"2012","cartographes":"Michel DUBOC","proprietaire":"71 - Saône-et-Loire","niveau":"Régional","specialite":"CO à pied","latitude":"46.8109494564","longitude":"4.66301201251","date_saisie":"25/12/2013","date_depot":"15/05/2014","valide":"Oui","ppo":"Non","type_carte":"Nouvelle carte","fond":"IGN","ref_ign":"2926 Est","obsolete":false}},{"type":"Feature","geometry":{"type":"Polygon","coordinates":[[[4.8345,46.8447],[4.8378,46.8471],[4.8388,46.8476],[4.8422,46.8486],[4.8416,46.8496],[4.8407,46.8501],[4.8441,46.8531],[4.8381,46.8531],[4.8372,46.8521],[4.838,46.8516],[4.835,46.8493],[4.8363,46.8486],[4.8324,46.8462],[4.8323,46.8453],[4.8332,46.8446],[4.8345,46.8447]]]},"properties":{"id_ffco":"2010-D71-032","nom":"Château de la Loyère","_dept":"71","numero":"2010-D71-032","commune":"La Loyère","echelle":"1/5000","surface":"0.34 km²","format":"A4","annee":"2010","cartographes":"Pascal FIGUIERE","proprietaire":"71 - Saône-et-Loire","niveau":"Départemental","specialite":"CO à pied","latitude":"46.8493072429","longitude":"4.83809313754","date_saisie":"25/12/2013","date_depot":"07/11/2012","valide":"Oui","ppo":"Non","type_carte":"Nouvelle carte","fond":"Cadastre","obsolete":false}},{"type":"Feature","geometry":{"type":"Polygon","coordinates":[[[4.2917,46.6684],[4.292,46.6689],[4.2923,46.6693],[4.2925,46.6696],[4.2927,46.6697],[4.2933,46.6699],[4.2938,46.6701],[4.2954,46.6702],[4.2954,46.6686],[4.2954,46.6683],[4.2954,46.6679],[4.2955,46.6677],[4.2948,46.6672],[4.2943,46.667],[4.2937,46.6669],[4.2932,46.6667],[4.292,46.6672],[4.2918,46.6676],[4.2916,46.6676],[4.2911,46.6677],[4.2917,46.6684]]]},"properties":{"id_ffco":"2010-D71-031","nom":"Parc Massal","_dept":"71","numero":"2010-D71-031","commune":"Sanvignes les Mines","echelle":"1/2000","surface":"0.09 km²","format":"A4","annee":"2010","cartographes":"Régis ANTOINE","proprietaire":"Mairie de Sanvignes les Mines","niveau":"Initiation, Scolaire","specialite":"CO à pied","contacts":"Mairie de Sanvignes les Mines","latitude":"46.6684458217","longitude":"4.29363525502","date_saisie":"25/12/2013","date_depot":"04/10/2016","valide":"Oui","ppo":"Non","type_carte":"Nouvelle carte","fond":"Cadastre","obsolete":false}},{"type":"Feature","geometry":{"type":"Polygon","coordinates":[[[4.6537,46.7724],[4.6543,46.7725],[4.6554,46.7732],[4.6561,46.7738],[4.6567,46.7745],[4.6574,46.7753],[4.6578,46.7756],[4.6583,46.7757],[4.6635,46.7774],[4.6639,46.7777],[4.666,46.7795],[4.6671,46.7805],[4.6676,46.7809],[4.6681,46.7812],[4.6684,46.781],[4.6688,46.7807],[4.6691,46.7805],[4.6694,46.7803],[4.6698,46.7803],[4.6703,46.7803],[4.6706,46.7804],[4.6711,46.7809],[4.6715,46.7811],[4.6724,46.7813],[4.6729,46.7815],[4.6732,46.7817],[4.6736,46.782],[4.6737,46.7822],[4.6736,46.7825],[4.6735,46.7828],[4.6744,46.7846],[4.6747,46.7851],[4.6752,46.7872],[4.6766,46.7881],[4.6762,46.7889],[4.6753,46.7905],[4.6749,46.7907],[4.674,46.7909],[4.6737,46.791],[4.6731,46.7923],[4.6728,46.7925],[4.6722,46.7927],[4.6715,46.7933],[4.6711,46.7937],[4.6708,46.794],[4.6701,46.794],[4.6698,46.7941],[4.6699,46.7947],[4.6701,46.7951],[4.6695,46.7949],[4.6684,46.7943],[4.6678,46.7941],[4.6667,46.7938],[4.6653,46.7936],[4.664,46.7932],[4.6631,46.7931],[4.6622,46.7928],[4.6616,46.7924],[4.6612,46.792],[4.6608,46.7919],[4.659,46.792],[4.6584,46.7921],[4.6581,46.7925],[4.6578,46.7932],[4.6575,46.7937],[4.6571,46.7938],[4.6567,46.7937],[4.6566,46.7933],[4.6567,46.7929],[4.6563,46.7924],[4.6564,46.7918],[4.6563,46.7915],[4.6555,46.7909],[4.6549,46.7904],[4.6538,46.7896],[4.6534,46.7891],[4.6531,46.7885],[4.6522,46.7879],[4.6512,46.7874],[4.6508,46.7873],[4.6502,46.7872],[4.6489,46.7872],[4.6482,46.7875],[4.6476,46.7878],[4.6465,46.7884],[4.6444,46.7892],[4.6441,46.7895],[4.6439,46.7899],[4.6437,46.7901],[4.6435,46.79],[4.6428,46.7891],[4.6427,46.7889],[4.6427,46.7887],[4.6429,46.7884],[4.643,46.788],[4.6427,46.7878],[4.6416,46.7875],[4.6401,46.7873],[4.639,46.7871],[4.6379,46.7871],[4.6368,46.7874],[4.6358,46.7877],[4.6356,46.7879],[4.6353,46.7879],[4.6349,46.7878],[4.6344,46.7877],[4.6339,46.7874],[4.6331,46.7867],[4.6316,46.7855],[4.6312,46.7852],[4.6305,46.7853],[4.6301,46.7852],[4.6295,46.7847],[4.6289,46.7842],[4.6289,46.7834],[4.6286,46.783],[4.6263,46.7811],[4.6257,46.7806],[4.6254,46.7801],[4.6252,46.7793],[4.625,46.7785],[4.6234,46.7763],[4.6233,46.7761],[4.6233,46.7759],[4.6234,46.7751],[4.6231,46.7749],[4.6226,46.7747],[4.6217,46.7745],[4.6208,46.7743],[4.6199,46.7741],[4.619,46.7738],[4.6179,46.7735],[4.6166,46.7728],[4.616,46.7724],[4.6156,46.7721],[4.6166,46.7722],[4.6172,46.7722],[4.6176,46.7721],[4.6183,46.7715],[4.6192,46.7704],[4.6203,46.7699],[4.6207,46.7699],[4.621,46.77],[4.6212,46.7706],[4.6215,46.7707],[4.6216,46.7706],[4.6216,46.7703],[4.6218,46.7701],[4.6222,46.77],[4.6225,46.7698],[4.6229,46.7698],[4.6233,46.7698],[4.6234,46.7696],[4.6236,46.7693],[4.6239,46.7692],[4.6242,46.7692],[4.6247,46.7693],[4.6253,46.7693],[4.6255,46.7692],[4.6256,46.7691],[4.6255,46.7688],[4.6254,46.7685],[4.6255,46.7683],[4.626,46.768],[4.6266,46.7679],[4.6269,46.7677],[4.627,46.7675],[4.6272,46.7673],[4.627,46.7669],[4.6265,46.7665],[4.6262,46.7661],[4.6259,46.7657],[4.6256,46.7655],[4.6253,46.7654],[4.6246,46.765],[4.6245,46.7648],[4.6251,46.7643],[4.6256,46.7641],[4.6262,46.7637],[4.6265,46.7635],[4.6266,46.7631],[4.6268,46.7629],[4.627,46.7627],[4.6272,46.7625],[4.6276,46.7622],[4.628,46.762],[4.6283,46.7619],[4.6286,46.7619],[4.6288,46.762],[4.629,46.7621],[4.6292,46.7622],[4.6314,46.7621],[4.6324,46.7621],[4.6335,46.762],[4.6367,46.7599],[4.6381,46.7594],[4.6399,46.7591],[4.6426,46.7584],[4.6437,46.7577],[4.6447,46.7592],[4.6453,46.7604],[4.6455,46.7613],[4.6453,46.7623],[4.6459,46.7637],[4.6462,46.7645],[4.6472,46.7651],[4.6474,46.7661],[4.6485,46.768],[4.6498,46.7696],[4.6502,46.7699],[4.6522,46.7713],[4.653,46.7721],[4.6537,46.7724]]]},"properties":{"id_ffco":"2010-D71-030","nom":"Bois de Jambles","_dept":"71","numero":"2010-D71-030","commune":"Barizey","echelle":"1/15000","surface":"8.67 km²","format":"A3","annee":"2010","cartographes":"Pascal FIGUIERE, Régis ANTOINE","proprietaire":"71 - Saône-et-Loire","niveau":"Régional","specialite":"CO à pied","latitude":"46.7777863807","longitude":"4.64601929825","date_saisie":"25/12/2013","date_depot":"07/11/2012","valide":"Oui","ppo":"Non","type_carte":"Reprise","base":"2004-D71-020 Bois de Jambles","fond":"IGN","ref_ign":"2926 Est","obsolete":false}},{"type":"Feature","geometry":{"type":"Polygon","coordinates":[[[4.3482,46.6823],[4.35,46.6837],[4.3559,46.6861],[4.359,46.6868],[4.362,46.6825],[4.3607,46.6816],[4.3601,46.6806],[4.3597,46.6788],[4.3591,46.6779],[4.358,46.6767],[4.3578,46.6761],[4.3575,46.6759],[4.3564,46.675],[4.3557,46.6752],[4.3551,46.6753],[4.3541,46.6756],[4.3535,46.6761],[4.3519,46.6763],[4.3519,46.6766],[4.3516,46.6769],[4.3503,46.6769],[4.3468,46.6767],[4.3465,46.6765],[4.3457,46.6766],[4.3457,46.6773],[4.3457,46.6774],[4.3457,46.6775],[4.3457,46.6775],[4.3482,46.6823]]]},"properties":{"id_ffco":"2009-D71-029","nom":"Parc Minier de Montceau","_dept":"71","numero":"2009-D71-029","commune":"Montceau les Mines","echelle":"1/7500","surface":"0.98 km²","format":"A4","annee":"2009","cartographes":"Régis ANTOINE","proprietaire":"7108 - COURSE D'ORIENTATION MONTCEAU MORVAN","niveau":"Départemental","specialite":"CO à pied","contacts":"Office de Tourisme. Montceau","latitude":"46.6807308673","longitude":"4.35424896853","valide":"Non","ppo":"Oui (38 postes)","type_carte":"Reprise","base":"2003-D71-018 Le Parc minier","fond":"IGN","ref_ign":"2926 Ouest","obsolete":false}},{"type":"Feature","geometry":{"type":"Polygon","coordinates":[[[4.4117,46.8404],[4.4105,46.8453],[4.4138,46.8485],[4.4135,46.8493],[4.4152,46.8509],[4.4163,46.8509],[4.4183,46.8505],[4.42,46.85],[4.4218,46.8524],[4.4221,46.8532],[4.4221,46.8541],[4.4224,46.8548],[4.422,46.8552],[4.4272,46.8602],[4.4283,46.8597],[4.4328,46.8562],[4.4329,46.8556],[4.4329,46.8548],[4.4341,46.8529],[4.4352,46.8513],[4.4353,46.851],[4.4352,46.8494],[4.4353,46.8483],[4.4355,46.8474],[4.4356,46.8466],[4.4356,46.8463],[4.4354,46.846],[4.435,46.8456],[4.4328,46.844],[4.4325,46.8437],[4.4318,46.8426],[4.4318,46.8422],[4.4318,46.8414],[4.432,46.8411],[4.4326,46.8406],[4.4326,46.8402],[4.4322,46.8391],[4.432,46.8384],[4.4317,46.838],[4.4319,46.8376],[4.4324,46.8371],[4.4326,46.8367],[4.4315,46.8367],[4.4311,46.837],[4.4308,46.837],[4.43,46.837],[4.4293,46.8369],[4.4269,46.836],[4.4263,46.8355],[4.4237,46.8362],[4.4233,46.8365],[4.4222,46.8361],[4.4219,46.8357],[4.4218,46.8344],[4.4219,46.8338],[4.4216,46.8338],[4.4207,46.8341],[4.4203,46.8345],[4.4194,46.8348],[4.4194,46.8341],[4.4185,46.8341],[4.4184,46.834],[4.4178,46.834],[4.4163,46.8333],[4.416,46.8333],[4.4158,46.8336],[4.4154,46.8338],[4.4147,46.8343],[4.414,46.8339],[4.4129,46.8337],[4.4126,46.8338],[4.4117,46.8342],[4.4115,46.8346],[4.4111,46.8349],[4.4107,46.8351],[4.4093,46.8354],[4.4083,46.8356],[4.4075,46.8356],[4.4073,46.8357],[4.4069,46.836],[4.4117,46.8404]]]},"properties":{"id_ffco":"2008-D71-028","nom":"Forêt de Saint Sernin du Bois","_dept":"71","numero":"2008-D71-028","commune":"Saint Sernin du Bois ; Le Creusot","echelle":"1/10000","surface":"3.67 km²","format":"A4","annee":"2008","cartographes":"Régis ANTOINE","proprietaire":"7108 - COURSE D'ORIENTATION MONTCEAU MORVAN","niveau":"Interrégional","specialite":"CO à pied","latitude":"46.8450618931","longitude":"4.42299346358","date_saisie":"26/04/2015","valide":"Non","ppo":"Non","type_carte":"Nouvelle carte","fond":"IGN","ref_ign":"2925 Ouest","obsolete":false}},{"type":"Feature","geometry":{"type":"Polygon","coordinates":[[[4.1204,46.4498],[4.1206,46.4495],[4.1212,46.4488],[4.123,46.4475],[4.1242,46.4474],[4.1253,46.4477],[4.1259,46.4476],[4.1266,46.4468],[4.1271,46.446],[4.1275,46.4457],[4.1276,46.4454],[4.1276,46.4451],[4.1278,46.4448],[4.1282,46.4447],[4.1286,46.4446],[4.1288,46.4443],[4.1288,46.4435],[4.1286,46.4431],[4.1282,46.4431],[4.1277,46.4432],[4.1203,46.4456],[4.1191,46.4461],[4.1175,46.4471],[4.1176,46.4473],[4.1177,46.4479],[4.1184,46.449],[4.1185,46.4493],[4.119,46.4499],[4.1196,46.4499],[4.1204,46.4498]]]},"properties":{"id_ffco":"2008-D71-027","nom":"Parc du Moulin Liron","_dept":"71","numero":"2008-D71-027","commune":"Paray le Monial","echelle":"1/4000","surface":"0.29 km²","format":"A4","annee":"2008","cartographes":"Régis ANTOINE, Lucien MUNSCH","proprietaire":"7108 - COURSE D'ORIENTATION MONTCEAU MORVAN","niveau":"Initiation, Scolaire","specialite":"CO à pied","latitude":"46.4464404796","longitude":"4.12295045754","date_saisie":"08/07/2015","date_depot":"04/10/2016","valide":"Oui","ppo":"Non","type_carte":"Nouvelle carte","fond":"Cadastre","obsolete":false}},{"type":"Feature","geometry":{"type":"Polygon","coordinates":[[[4.312,46.9554],[4.3133,46.9558],[4.3144,46.9561],[4.3151,46.9564],[4.3165,46.9568],[4.3167,46.9567],[4.3167,46.956],[4.3179,46.9554],[4.3192,46.955],[4.3245,46.953],[4.3235,46.9518],[4.3235,46.9486],[4.3211,46.9481],[4.3179,46.9478],[4.3165,46.9479],[4.3154,46.9476],[4.3145,46.9478],[4.3131,46.9478],[4.3104,46.9478],[4.3091,46.9477],[4.3081,46.9472],[4.3073,46.9471],[4.308,46.9478],[4.3069,46.9482],[4.3082,46.9497],[4.3093,46.9506],[4.31,46.951],[4.3103,46.9513],[4.31,46.9516],[4.309,46.9521],[4.3084,46.9524],[4.3076,46.9519],[4.3075,46.9529],[4.3085,46.9537],[4.3098,46.9546],[4.3109,46.9551],[4.312,46.9554]]]},"properties":{"id_ffco":"2008-D71-02602","nom":"Base de loisirs Marcel Lucotte","_dept":"71","numero":"2008-D71-02602","commune":"Autun","echelle":"1/5000","surface":"0.93 km²","format":"A4","annee":"2008","cartographes":"Régis ANTOINE","proprietaire":"7108 - COURSE D'ORIENTATION MONTCEAU MORVAN","niveau":"Initiation, Scolaire","specialite":"CO à pied","contacts":"Base de Loisirs Marcel Lucotte, 03 85 52 47 09, http://www.autun.com/distraire/base_loisirs.php#7","latitude":"46.9515264393","longitude":"4.31564832556","valide":"Non","ppo":"Oui (27 postes)","type_carte":"Nouvelle carte","fond":"IGN","ref_ign":"2825 Est","obsolete":false}},{"type":"Feature","geometry":{"type":"Polygon","coordinates":[[[4.3589,46.6869],[4.3688,46.6904],[4.3689,46.6893],[4.3689,46.6884],[4.3681,46.6877],[4.3682,46.6869],[4.3673,46.6862],[4.3674,46.6855],[4.3677,46.685],[4.3679,46.6842],[4.3645,46.6837],[4.362,46.6824],[4.3589,46.6869]]]},"properties":{"id_ffco":"2007-D71-025","nom":"Parc Saint Louis","_dept":"71","numero":"2007-D71-025","commune":"Montceau les Mines","echelle":"1/5000","surface":"0.36 km²","format":"A4","annee":"2007","cartographes":"Régis ANTOINE","proprietaire":"7108 - COURSE D'ORIENTATION MONTCEAU MORVAN","niveau":"Départemental","specialite":"CO à pied","contacts":"Course d'Orientation de Montceau, 03 85 57 16 57, antoine.regis@wanadoo.fr","latitude":"46.6863791339","longitude":"4.36431540299","valide":"Non","ppo":"Oui (31 postes)","type_carte":"Reprise","base":"2000-D71-014 Parc Saint Louis","fond":"IGN","ref_ign":"2926 Ouest","obsolete":false}},{"type":"Feature","geometry":{"type":"Polygon","coordinates":[[[4.7356,46.81],[4.7356,46.8085],[4.7381,46.8085],[4.7383,46.8088],[4.7391,46.8094],[4.74,46.81],[4.7391,46.8106],[4.7385,46.8105],[4.7383,46.8106],[4.7373,46.8106],[4.7372,46.8105],[4.7363,46.8105],[4.7356,46.81]]]},"properties":{"id_ffco":"2006-D71-02402","nom":"Ecole de Mellecey","_dept":"71","numero":"2006-D71-02402","commune":"Mellecey","echelle":"1/1500","surface":"0.06 km²","format":"A4","annee":"2006","cartographes":"Pascal FIGUIERE","proprietaire":"7109 - GIVRY SPORT ORIENTATION","niveau":"Initiation, Scolaire","specialite":"CO à pied","latitude":"46.8095757803","longitude":"4.73744827422","date_saisie":"17/01/2016","valide":"Non","ppo":"Non","type_carte":"Nouvelle carte","fond":"Cadastre","obsolete":false}},{"type":"Feature","geometry":{"type":"Polygon","coordinates":[[[4.3856,46.6712],[4.3851,46.6715],[4.3832,46.6758],[4.3836,46.6761],[4.3845,46.6773],[4.3871,46.6773],[4.3877,46.6784],[4.3936,46.6787],[4.3955,46.6783],[4.398,46.6785],[4.3983,46.6794],[4.3989,46.6798],[4.3995,46.68],[4.401,46.6804],[4.4034,46.6811],[4.4038,46.6811],[4.4042,46.6813],[4.4049,46.6817],[4.4053,46.6818],[4.4057,46.6819],[4.4065,46.6818],[4.4082,46.6817],[4.4095,46.6817],[4.4095,46.6819],[4.4093,46.682],[4.4092,46.6822],[4.4081,46.684],[4.4104,46.6834],[4.411,46.6833],[4.4119,46.6833],[4.4128,46.6838],[4.414,46.6838],[4.4182,46.6845],[4.4203,46.6842],[4.4227,46.6847],[4.4231,46.6843],[4.4253,46.6841],[4.4269,46.6839],[4.4281,46.6836],[4.4292,46.6833],[4.4302,46.6829],[4.431,46.6831],[4.4323,46.6824],[4.4334,46.681],[4.4352,46.681],[4.435,46.6804],[4.435,46.6796],[4.4348,46.6793],[4.4342,46.6787],[4.4335,46.6782],[4.4332,46.678],[4.4331,46.6772],[4.4329,46.6764],[4.4329,46.676],[4.4329,46.6756],[4.4327,46.6751],[4.4327,46.6744],[4.4325,46.6738],[4.4322,46.6734],[4.4323,46.6732],[4.4326,46.6731],[4.4323,46.6725],[4.4299,46.6711],[4.4276,46.671],[4.4268,46.67],[4.4243,46.6698],[4.423,46.6709],[4.4231,46.6713],[4.4214,46.6711],[4.4208,46.6718],[4.4192,46.6712],[4.4187,46.6707],[4.4185,46.6704],[4.4185,46.6702],[4.4193,46.6687],[4.4193,46.6684],[4.4195,46.6681],[4.4191,46.668],[4.4189,46.6676],[4.4186,46.6671],[4.4185,46.6663],[4.4178,46.6654],[4.4168,46.6641],[4.4167,46.6637],[4.4166,46.6627],[4.4167,46.6622],[4.4167,46.6619],[4.4165,46.6617],[4.416,46.6614],[4.413,46.6621],[4.4126,46.6623],[4.4117,46.6626],[4.4111,46.6627],[4.4104,46.6628],[4.4097,46.6636],[4.4092,46.6638],[4.4089,46.6641],[4.4067,46.6657],[4.4074,46.6661],[4.408,46.6664],[4.4086,46.6669],[4.4089,46.6673],[4.4092,46.6678],[4.4094,46.6683],[4.4092,46.6684],[4.4089,46.6687],[4.4073,46.6687],[4.4053,46.6686],[4.4012,46.6685],[4.4003,46.6685],[4.397,46.6683],[4.3967,46.6682],[4.3928,46.6681],[4.3924,46.668],[4.3903,46.6668],[4.3881,46.6688],[4.3864,46.6704],[4.3856,46.6712]]]},"properties":{"id_ffco":"2006-D71-02401","nom":"Forêt du Plessis","_dept":"71","numero":"2006-D71-02401","commune":"Montceau-les-Mines","echelle":"1/10000","surface":"5.63 km²","format":"A3","annee":"2006","cartographes":"Regis ANTOINE","proprietaire":"7108 - COURSE D'ORIENTATION MONTCEAU MORVAN","niveau":"Interrégional","specialite":"CO à pied","latitude":"46.6747825991","longitude":"4.4106179252","date_saisie":"16/01/2016","valide":"Non","ppo":"Non","type_carte":"Reprise","base":"2000-D71-015 Forêt du Plessis","fond":"IGN","ref_ign":"2926 Ouest","obsolete":false}},{"type":"Feature","geometry":{"type":"Polygon","coordinates":[[[4.3815,46.8985],[4.3829,46.8989],[4.3845,46.9001],[4.3866,46.8945],[4.3898,46.8903],[4.393,46.8862],[4.3966,46.8815],[4.397,46.8809],[4.397,46.8804],[4.3965,46.8789],[4.3957,46.8762],[4.395,46.874],[4.3946,46.8734],[4.394,46.8728],[4.3933,46.8723],[4.3909,46.8712],[4.376,46.864],[4.3743,46.8644],[4.3719,46.8649],[4.37,46.8647],[4.3687,46.8645],[4.367,46.8645],[4.3657,46.8644],[4.3645,46.8641],[4.3637,46.8642],[4.3636,46.8644],[4.3647,46.865],[4.3657,46.8656],[4.3671,46.8663],[4.3678,46.8668],[4.3681,46.8674],[4.3685,46.8679],[4.3685,46.8682],[4.3682,46.8691],[4.3682,46.8694],[4.3685,46.8713],[4.3687,46.8717],[4.369,46.872],[4.3684,46.8724],[4.3687,46.8737],[4.369,46.8742],[4.3691,46.875],[4.3678,46.8766],[4.3675,46.8774],[4.3667,46.8774],[4.3654,46.8774],[4.3643,46.8775],[4.3639,46.8776],[4.3637,46.8778],[4.3633,46.8783],[4.3634,46.8787],[4.3631,46.8789],[4.3628,46.8789],[4.3622,46.8786],[4.3617,46.8784],[4.3605,46.8782],[4.3599,46.8782],[4.3589,46.8785],[4.3582,46.8787],[4.3578,46.8791],[4.3573,46.8797],[4.3573,46.8801],[4.3574,46.8805],[4.3574,46.8809],[4.357,46.8815],[4.3567,46.8821],[4.3564,46.8827],[4.3564,46.884],[4.3566,46.8844],[4.3572,46.8851],[4.358,46.8863],[4.3581,46.8865],[4.358,46.8879],[4.3581,46.8889],[4.358,46.8905],[4.3579,46.8919],[4.3578,46.8923],[4.3599,46.8938],[4.3617,46.8947],[4.3624,46.8947],[4.3637,46.8969],[4.3655,46.897],[4.3665,46.8964],[4.3711,46.8968],[4.3738,46.8963],[4.3753,46.8964],[4.3754,46.8967],[4.3766,46.8972],[4.3771,46.8973],[4.3784,46.8978],[4.3799,46.8983],[4.3815,46.8985]]]},"properties":{"id_ffco":"2006-D71-023","nom":"L'Etang du Martinet","_dept":"71","numero":"2006-D71-023","commune":"Antully","echelle":"1/10000","surface":"7.89 km²","format":"A3","annee":"2006","cartographes":"Régis ANTOINE , Stéphane KAJACK, Bruno MERCIER","proprietaire":"71 - Saône-et-Loire","niveau":"Interrégional","specialite":"CO à pied","contacts":"CDCO 71, 0668154588, pascal.figuiere@wanadoo.fr","latitude":"46.8822594198","longitude":"4.37673844595","date_saisie":"29/05/2006","date_depot":"10/11/2006","valide":"Oui","ppo":"Non","type_carte":"Nouvelle carte","fond":"IGN","ref_ign":"2925 Ouest","obsolete":false}},{"type":"Feature","geometry":{"type":"Polygon","coordinates":[[[4.7408,46.7816],[4.7418,46.7811],[4.741,46.7802],[4.7405,46.7802],[4.7385,46.7803],[4.7367,46.7809],[4.7366,46.7821],[4.7368,46.7822],[4.739,46.7831],[4.7401,46.7826],[4.7408,46.7816]]]},"properties":{"id_ffco":"2005-D71-02202","nom":"Le Collège-Givry","_dept":"71","numero":"2005-D71-02202","commune":"Givry","echelle":"1/2000","surface":"0.08 km²","format":"A4","annee":"2005","cartographes":"Pascal FIGUIERE","proprietaire":"7109 - GIVRY SPORT ORIENTATION","niveau":"Initiation, Scolaire","specialite":"CO à pied","latitude":"46.7814810482","longitude":"4.73901982499","date_saisie":"17/01/2016","valide":"Non","ppo":"Non","type_carte":"Nouvelle carte","fond":"Cadastre","obsolete":false}},{"type":"Feature","geometry":{"type":"Polygon","coordinates":[[[4.7201,46.7816],[4.7179,46.8071],[4.7205,46.8068],[4.7218,46.8068],[4.722,46.8073],[4.7247,46.8074],[4.7285,46.8079],[4.7289,46.8076],[4.7294,46.8073],[4.7299,46.8072],[4.7309,46.807],[4.7319,46.807],[4.733,46.8074],[4.7338,46.8076],[4.7347,46.8076],[4.7353,46.8076],[4.7359,46.8078],[4.7363,46.8075],[4.7366,46.8074],[4.737,46.8075],[4.7374,46.8075],[4.7377,46.8077],[4.7376,46.8079],[4.7377,46.8081],[4.7379,46.8082],[4.7381,46.8085],[4.7383,46.8088],[4.7385,46.809],[4.7387,46.8091],[4.7396,46.8098],[4.7401,46.8101],[4.7406,46.8102],[4.7412,46.8098],[4.7417,46.8095],[4.742,46.8091],[4.7422,46.8086],[4.7425,46.8084],[4.7431,46.8083],[4.7437,46.8082],[4.7441,46.8082],[4.7447,46.8083],[4.745,46.8084],[4.7455,46.8087],[4.7459,46.8091],[4.7461,46.8093],[4.7463,46.8095],[4.7466,46.8097],[4.7472,46.8097],[4.7477,46.8096],[4.7481,46.8096],[4.7486,46.8094],[4.7487,46.8093],[4.7488,46.8091],[4.7491,46.8086],[4.7493,46.8083],[4.7496,46.8082],[4.7498,46.8081],[4.7501,46.8081],[4.7503,46.8082],[4.7504,46.8083],[4.7508,46.8085],[4.751,46.8086],[4.7516,46.8079],[4.752,46.8075],[4.7523,46.8074],[4.7526,46.8074],[4.7529,46.8074],[4.7524,46.8029],[4.7518,46.7984],[4.7517,46.7981],[4.7512,46.7972],[4.7507,46.7962],[4.7502,46.7958],[4.7498,46.7946],[4.7495,46.7936],[4.7489,46.7928],[4.7479,46.7913],[4.747,46.7895],[4.7459,46.7879],[4.7454,46.787],[4.745,46.7865],[4.7446,46.786],[4.7444,46.7855],[4.7438,46.7844],[4.7433,46.7832],[4.7425,46.7819],[4.7423,46.7817],[4.741,46.7802],[4.7396,46.7807],[4.7395,46.7806],[4.7379,46.7806],[4.7337,46.7818],[4.7253,46.7816],[4.7201,46.7816]]]},"properties":{"id_ffco":"2005-D71-02201","nom":"La Madonne","_dept":"71","numero":"2005-D71-02201","commune":"Givry","echelle":"1/10000","surface":"6.78 km²","format":"A3","annee":"2005","cartographes":"Pascal FIGUIERE","proprietaire":"7109 - GIVRY SPORT ORIENTATION","niveau":"Régional","specialite":"CO à pied","contacts":"CDCO 71, 0668154588, pascal.figuiere@wanadoo.fr","latitude":"46.7957217395","longitude":"4.73453074811","date_saisie":"19/10/2015","valide":"Non","ppo":"Non","type_carte":"Reprise","base":"2003-D71-019 La Madonne","fond":"IGN","ref_ign":"3026 Ouest","obsolete":false}},{"type":"Feature","geometry":null,"properties":{"id_ffco":"2004-D71-02102","nom":"Vallée des Vaux-Côte chalonnaise","_dept":"71","numero":"2004-D71-02102","commune":"Givry","echelle":"1/20000","surface":"None km²","format":"+","annee":"2004","proprietaire":"71 - Saône-et-Loire","niveau":"National, International","specialite":"Raid'O","date_saisie":"17/01/2016","valide":"Non","ppo":"Non","type_carte":"Nouvelle carte","fond":"IGN","obsolete":false}},{"type":"Feature","geometry":null,"properties":{"id_ffco":"2004-D71-02101","nom":"Bois Cressus","_dept":"71","numero":"2004-D71-02101","commune":"Saint-Vallier","echelle":"1/10000","surface":"None km²","format":"A3","annee":"2004","proprietaire":"7108 - COURSE D'ORIENTATION MONTCEAU MORVAN","date_saisie":"17/01/2016","valide":"Non","ppo":"Non","type_carte":"Nouvelle carte","fond":"IGN","obsolete":false}},{"type":"Feature","geometry":{"type":"Polygon","coordinates":[[[4.8672,46.8003],[4.8712,46.8015],[4.8737,46.8001],[4.8761,46.7988],[4.8766,46.7983],[4.8769,46.7979],[4.877,46.7973],[4.8779,46.7922],[4.8762,46.792],[4.8697,46.7891],[4.8687,46.7886],[4.8668,46.7896],[4.8676,46.7906],[4.8677,46.7918],[4.8677,46.7937],[4.8683,46.7948],[4.8685,46.7982],[4.8682,46.799],[4.8677,46.7998],[4.8672,46.8003]]]},"properties":{"id_ffco":"2002-D71-01602","nom":"Les Prés Saint Jean","_dept":"71","numero":"2002-D71-01602","commune":"Chalon sur Saône","echelle":"1/7500","surface":"0.78 km²","format":"A5","annee":"2002","cartographes":"Pascal FIGUIERE","proprietaire":"7109 - GIVRY SPORT ORIENTATION","niveau":"Départemental","specialite":"CO à pied","latitude":"46.7951363327","longitude":"4.87207180196","valide":"Non","ppo":"Non","type_carte":"Reprise","base":"1989-D71-00602 Les Prés St Jean","fond":"IGN","ref_ign":"3025 Est","obsolete":false}},{"type":"Feature","geometry":null,"properties":{"id_ffco":"1983-D71-003","nom":"Théâtre romain","_dept":"71","numero":"1983-D71-003","commune":"Autun ??","echelle":"1/15000","surface":"0.0 km²","annee":"1983","proprietaire":"BO - Bourgogne","specialite":"CO à pied","latitude":"46.5827512","longitude":"4.486671","valide":"Non","ppo":"Non","type_carte":"Nouvelle carte","obsolete":false}}]}