{"type":"FeatureCollection","features":[{"type":"Feature","geometry":{"type":"Polygon","coordinates":[[[4.6699,46.7943],[4.67,46.794],[4.6709,46.794],[4.6722,46.7927],[4.6731,46.7924],[4.6739,46.7909],[4.6749,46.7907],[4.6754,46.7904],[4.6764,46.7881],[4.6755,46.7873],[4.6746,46.7848],[4.6735,46.7828],[4.6737,46.7821],[4.6728,46.7814],[4.6718,46.7811],[4.6704,46.7803],[4.6693,46.7804],[4.6683,46.781],[4.6677,46.781],[4.6634,46.7774],[4.6581,46.7781],[4.657,46.7787],[4.6564,46.7788],[4.6551,46.7783],[4.6542,46.7784],[4.6536,46.7808],[4.6503,46.7803],[4.6498,46.7872],[4.6526,46.7878],[4.6543,46.79],[4.6565,46.7912],[4.657,46.7935],[4.6585,46.7922],[4.6603,46.7919],[4.6637,46.7931],[4.6688,46.7944],[4.6699,46.7943]]]},"properties":{"id_ffco":"11694","nom":"Bois Barrault","_dept":"71","numero":"2019-D71-048","commune":"Barizey","echelle":"1/10000","surface":"2.62 km²","format":"A4","annee":"2019","cartographes":"Yann VENON","proprietaire":"71 - Saône-et-Loire","niveau":"Interrégional","specialite":"CO à pied","contacts":"MOYON Bruno, 0617733232","latitude":"46.7858725136","longitude":"4.66300007476","date_saisie":"02/10/2019","date_depot":"15/11/2019","valide":"Oui","ppo":"Non","type_carte":"Nouvelle carte","fond":"Cadastre","obsolete":true}},{"type":"Feature","geometry":{"type":"Polygon","coordinates":[[[4.6545,46.7784],[4.6564,46.7788],[4.6583,46.7781],[4.6636,46.7774],[4.668,46.7808],[4.67,46.7801],[4.6731,46.7815],[4.6742,46.7843],[4.6752,46.787],[4.6773,46.7891],[4.6752,46.7906],[4.6736,46.7912],[4.6723,46.7926],[4.6704,46.7941],[4.6702,46.795],[4.6647,46.7932],[4.6619,46.7924],[4.6604,46.7917],[4.6588,46.7921],[4.6578,46.7935],[4.6567,46.7933],[4.6562,46.7915],[4.6539,46.7897],[4.6528,46.7877],[4.65,46.7872],[4.6501,46.7825],[4.6504,46.7798],[4.653,46.7801],[4.6545,46.7784]]]},"properties":{"id_ffco":"11624","nom":"Bois Barrault","_dept":"71","numero":"2019-D71-046","commune":"Barizey","echelle":"1/10000","surface":"2.65 km²","format":"A4","annee":"2019","cartographes":"Yann VENON","proprietaire":"71 - Saône-et-Loire","niveau":"Interrégional","specialite":"CO à pied","contacts":"MOYON Bruno, 0617733232","latitude":"46.785842412","longitude":"4.66300521617","date_saisie":"26/08/2019","valide":"Non","ppo":"Non","type_carte":"Reprise","base":"2004-D71-020 Bois de Jambles","fond":"IGN","obsolete":true}},{"type":"Feature","geometry":{"type":"Polygon","coordinates":[[[4.343,46.9225],[4.3491,46.9233],[4.3573,46.9114],[4.3669,46.9218],[4.3661,46.9222],[4.3657,46.9226],[4.3655,46.923],[4.3656,46.9236],[4.366,46.9241],[4.367,46.9251],[4.3671,46.9254],[4.367,46.9259],[4.3662,46.9268],[4.3661,46.9272],[4.3661,46.9275],[4.3662,46.9285],[4.3661,46.9289],[4.3659,46.9291],[4.3656,46.9293],[4.3649,46.9295],[4.3643,46.9297],[4.3639,46.9301],[4.3427,46.9298],[4.343,46.9225]]]},"properties":{"id_ffco":"9196","nom":"Forêt de Planoise-Les Prés moussus","_dept":"71","numero":"2007-D71-02601","commune":"Autun","echelle":"1/10000","surface":"2.28 km²","format":"A4","annee":"2007","cartographes":"Régis ANTOINE","proprietaire":"7108 - COURSE D'ORIENTATION MONTCEAU MORVAN","niveau":"Régional","specialite":"CO à pied","latitude":"46.9235423225","longitude":"4.35589861505","date_saisie":"17/01/2016","valide":"Non","ppo":"Non","type_carte":"Reprise","base":"2002-D71-017 Planoise","fond":"IGN","ref_ign":"2925 Ouest","obsolete":true}},{"type":"Feature","geometry":{"type":"Polygon","coordinates":[[[4.6606,46.7764],[4.658,46.7757],[4.6576,46.7755],[4.6573,46.7753],[4.6566,46.7743],[4.6561,46.7738],[4.6546,46.7727],[4.6542,46.7725],[4.6537,46.7724],[4.653,46.772],[4.6522,46.7713],[4.6502,46.77],[4.6498,46.7696],[4.6491,46.7688],[4.6485,46.768],[4.6478,46.7669],[4.6474,46.766],[4.6473,46.7654],[4.6471,46.7651],[4.6465,46.7648],[4.6461,46.7645],[4.646,46.7645],[4.6458,46.7645],[4.6454,46.7645],[4.6448,46.7645],[4.6443,46.7647],[4.6439,46.7647],[4.6435,46.7646],[4.6426,46.7646],[4.6415,46.7643],[4.6409,46.7642],[4.6403,46.7637],[4.6394,46.7636],[4.6387,46.7629],[4.6373,46.7621],[4.6355,46.7607],[4.6339,46.7617],[4.6335,46.7619],[4.6328,46.7621],[4.6306,46.7621],[4.6291,46.7623],[4.6288,46.762],[4.6285,46.762],[4.6271,46.7627],[4.6268,46.7631],[4.6267,46.7636],[4.6264,46.7638],[4.6256,46.7641],[4.625,46.7645],[4.6245,46.7648],[4.6246,46.765],[4.6251,46.7651],[4.6252,46.7653],[4.626,46.7657],[4.6264,46.7664],[4.6269,46.7668],[4.6271,46.767],[4.6272,46.7673],[4.627,46.7676],[4.6266,46.7679],[4.6262,46.768],[4.6258,46.7681],[4.6253,46.7685],[4.6256,46.7688],[4.6255,46.7692],[4.6251,46.7692],[4.6241,46.7692],[4.6237,46.7692],[4.6234,46.7696],[4.6231,46.7698],[4.6226,46.7698],[4.6222,46.77],[4.6218,46.7701],[4.6216,46.7702],[4.6216,46.7705],[4.6216,46.7707],[4.6214,46.7707],[4.6212,46.7706],[4.6208,46.7699],[4.6204,46.7699],[4.6198,46.7701],[4.6192,46.7705],[4.6186,46.7711],[4.6177,46.772],[4.6172,46.7722],[4.6156,46.7721],[4.6163,46.7726],[4.618,46.7735],[4.619,46.7738],[4.62,46.7741],[4.6229,46.7748],[4.6233,46.775],[4.6234,46.7752],[4.6233,46.7757],[4.6233,46.7761],[4.6237,46.7767],[4.625,46.7784],[4.6251,46.7788],[4.6252,46.7795],[4.6256,46.7804],[4.6262,46.781],[4.6273,46.782],[4.6286,46.783],[4.6289,46.7834],[4.629,46.7843],[4.6294,46.7847],[4.6301,46.7853],[4.6306,46.7853],[4.6312,46.7853],[4.6317,46.7855],[4.6325,46.7862],[4.6338,46.7873],[4.6344,46.7876],[4.6349,46.7878],[4.6354,46.7879],[4.6358,46.7878],[4.6366,46.7874],[4.6379,46.7871],[4.6393,46.7872],[4.6405,46.7874],[4.6417,46.7875],[4.6428,46.7878],[4.643,46.788],[4.643,46.7883],[4.6427,46.7886],[4.6427,46.789],[4.6432,46.7897],[4.6435,46.79],[4.6437,46.7901],[4.6438,46.7899],[4.6441,46.7895],[4.6445,46.7892],[4.6462,46.7885],[4.6469,46.7882],[4.6478,46.7877],[4.6482,46.7875],[4.6488,46.7873],[4.65,46.7872],[4.6505,46.7872],[4.6509,46.7873],[4.6514,46.7875],[4.6522,46.7879],[4.6529,46.7884],[4.6531,46.7886],[4.6535,46.7892],[4.6546,46.7903],[4.6557,46.791],[4.6563,46.7914],[4.6565,46.7916],[4.6564,46.7922],[4.6564,46.7924],[4.6566,46.793],[4.6566,46.7933],[4.6567,46.7937],[4.6569,46.7938],[4.6571,46.7938],[4.6573,46.7938],[4.6575,46.7937],[4.6578,46.7931],[4.6582,46.7923],[4.6584,46.7921],[4.6586,46.7921],[4.6591,46.792],[4.66,46.7919],[4.6605,46.7919],[4.661,46.7919],[4.6612,46.792],[4.6618,46.7925],[4.6622,46.7927],[4.6626,46.7929],[4.6633,46.7931],[4.6638,46.7932],[4.6642,46.7932],[4.665,46.7934],[4.667,46.7939],[4.6678,46.7941],[4.6685,46.7943],[4.6689,46.7945],[4.6696,46.795],[4.6702,46.7951],[4.67,46.7948],[4.6698,46.7944],[4.6698,46.7942],[4.6699,46.7941],[4.67,46.794],[4.6706,46.794],[4.6709,46.7939],[4.6711,46.7936],[4.6716,46.7933],[4.6719,46.7929],[4.6722,46.7927],[4.6726,46.7926],[4.673,46.7924],[4.6731,46.7922],[4.6735,46.7916],[4.6737,46.7911],[4.6739,46.7909],[4.6743,46.7908],[4.6748,46.7907],[4.6751,46.7906],[4.6753,46.7905],[4.6756,46.79],[4.6761,46.7892],[4.6766,46.7882],[4.6753,46.7874],[4.6752,46.7871],[4.6749,46.7862],[4.6747,46.7851],[4.674,46.7839],[4.6735,46.7828],[4.6736,46.7824],[4.6737,46.7821],[4.6734,46.7818],[4.6731,46.7816],[4.6724,46.7813],[4.6715,46.7811],[4.6711,46.7808],[4.6705,46.7804],[4.6701,46.7802],[4.6696,46.7803],[4.6692,46.7804],[4.6689,46.7806],[4.6684,46.781],[4.6683,46.7811],[4.6679,46.7811],[4.6676,46.781],[4.666,46.7795],[4.6638,46.7776],[4.6636,46.7774],[4.6631,46.7773],[4.6606,46.7764]]]},"properties":{"id_ffco":"8729","nom":"Bois de Jambles","_dept":"71","numero":"2004-D71-020","commune":"Barizey","echelle":"1/10000","surface":"8.29 km²","format":"A3","annee":"2004","cartographes":"Petr UHER,Roman HORKY,Zdenek LACIGA,Josef ULEHLA","proprietaire":"71 - Saône-et-Loire","niveau":"Régional","specialite":"CO à pied","contacts":"CDCO 71, 0668154588, pascal.figuiere@wanadoo.fr","latitude":"46.7785267143","longitude":"4.6462328751","date_saisie":"19/10/2015","valide":"Non","ppo":"Non","type_carte":"Nouvelle carte","fond":"IGN","ref_ign":"2026 Ouest","obsolete":true}},{"type":"Feature","geometry":{"type":"Polygon","coordinates":[[[4.7342,46.7823],[4.7328,46.7827],[4.7314,46.7828],[4.7308,46.7827],[4.7304,46.7828],[4.7297,46.7827],[4.7295,46.7826],[4.7265,46.7826],[4.7242,46.7826],[4.7233,46.7824],[4.7218,46.7824],[4.7203,46.7824],[4.7193,46.7825],[4.719,46.7825],[4.7187,46.7824],[4.7186,46.7967],[4.7181,46.806],[4.718,46.8072],[4.7188,46.8069],[4.7199,46.8067],[4.7212,46.8068],[4.7214,46.8064],[4.7211,46.8062],[4.7212,46.806],[4.7214,46.8058],[4.7225,46.806],[4.7231,46.8053],[4.7238,46.8053],[4.7252,46.8032],[4.7277,46.8036],[4.7278,46.8037],[4.7291,46.804],[4.7312,46.8048],[4.7314,46.8044],[4.7313,46.8039],[4.7321,46.8037],[4.7323,46.8037],[4.733,46.8032],[4.7335,46.8037],[4.7341,46.804],[4.7344,46.8043],[4.7348,46.805],[4.7347,46.8052],[4.7345,46.8053],[4.7347,46.8056],[4.735,46.806],[4.7359,46.806],[4.7372,46.8058],[4.7377,46.8058],[4.7384,46.8059],[4.7392,46.8059],[4.7395,46.8059],[4.7402,46.806],[4.7404,46.8061],[4.7407,46.8064],[4.7409,46.8064],[4.7413,46.8059],[4.7412,46.8057],[4.7412,46.8051],[4.741,46.8045],[4.7409,46.804],[4.7415,46.8036],[4.7416,46.8032],[4.742,46.8024],[4.7423,46.802],[4.7429,46.8015],[4.7435,46.8014],[4.7441,46.8008],[4.7443,46.8006],[4.7447,46.8006],[4.7455,46.8006],[4.7462,46.8006],[4.7467,46.8004],[4.7471,46.8004],[4.7482,46.8006],[4.7498,46.801],[4.7507,46.8012],[4.7517,46.8015],[4.7522,46.8016],[4.7521,46.8009],[4.7519,46.7985],[4.7517,46.7981],[4.7515,46.7977],[4.7507,46.7963],[4.7502,46.7958],[4.7495,46.7936],[4.7484,46.792],[4.7477,46.791],[4.747,46.7895],[4.7456,46.7875],[4.7451,46.7865],[4.7447,46.7862],[4.7445,46.7859],[4.7432,46.7832],[4.7426,46.7819],[4.741,46.7802],[4.7396,46.7807],[4.7377,46.7816],[4.7372,46.7819],[4.7358,46.7825],[4.7346,46.7827],[4.7342,46.7823]]]},"properties":{"id_ffco":"8728","nom":"La Madonne","_dept":"71","numero":"2003-D71-019","commune":"Givry","echelle":"1/10000","surface":"5.49 km²","format":"A3","annee":"2003","cartographes":"Pascal FIGUIERE","proprietaire":"7109 - GIVRY SPORT ORIENTATION","niveau":"Régional","specialite":"CO à pied","latitude":"46.7937647579","longitude":"4.7330145018","date_saisie":"19/10/2015","valide":"Non","ppo":"Non","type_carte":"Reprise","base":"1993-D71-010 Les Chaumes","fond":"IGN","ref_ign":"3026 Ouest","obsolete":true}},{"type":"Feature","geometry":{"type":"Polygon","coordinates":[[[4.3459,46.6785],[4.3465,46.6798],[4.3469,46.6805],[4.3473,46.6811],[4.3482,46.682],[4.3493,46.683],[4.3514,46.6842],[4.3537,46.6851],[4.3566,46.6861],[4.3587,46.6869],[4.3605,46.6844],[4.3622,46.6824],[4.3616,46.6821],[4.3611,46.6818],[4.3606,46.6811],[4.3602,46.6803],[4.3597,46.6787],[4.3595,46.6783],[4.3584,46.6772],[4.3581,46.6768],[4.3578,46.6761],[4.3566,46.6749],[4.3519,46.6762],[4.3517,46.677],[4.3469,46.6764],[4.3456,46.6769],[4.3459,46.6785]]]},"properties":{"id_ffco":"8726","nom":"Le Parc minier","_dept":"71","numero":"2003-D71-018","commune":"Montceau les Mines","echelle":"1/7500","surface":"0.99 km²","format":"A4","annee":"2003","cartographes":"Régis ANTOINE","proprietaire":"7108 - COURSE D'ORIENTATION MONTCEAU MORVAN","niveau":"Départemental","specialite":"CO à pied","latitude":"46.6806154992","longitude":"4.35420218134","date_saisie":"19/10/2015","valide":"Non","ppo":"Non","type_carte":"Reprise","fond":"Cadastre","obsolete":true}},{"type":"Feature","geometry":null,"properties":{"id_ffco":"7497","nom":"Planoise","_dept":"71","numero":"2002-D71-017","commune":"Autun","echelle":"1/15000","surface":"None km²","format":"A3","annee":"2002","date_saisie":"12/10/2014","valide":"Non","ppo":"Non","type_carte":"Reprise","base":"1996-D71-011 Forêt de Planoise","fond":"IGN","ref_ign":"2925 Ouest","obsolete":true}},{"type":"Feature","geometry":null,"properties":{"id_ffco":"9192","nom":"Forêt du Plessis","_dept":"71","numero":"2002-D71-01601","commune":"Montceau-les-Mines","surface":"None km²","annee":"2002","cartographes":"Régis ANTOINE","proprietaire":"7108 - COURSE D'ORIENTATION MONTCEAU MORVAN","niveau":"Interrégional","specialite":"CO à pied","date_saisie":"17/01/2016","valide":"Non","ppo":"Non","type_carte":"Reprise","base":"2000-D71-015 Forêt du Plessis","fond":"IGN","ref_ign":"2926 Ouest","obsolete":true}},{"type":"Feature","geometry":{"type":"Polygon","coordinates":[[[4.3855,46.6713],[4.3838,46.6764],[4.3838,46.6773],[4.3871,46.6773],[4.3874,46.6779],[4.3993,46.6787],[4.4007,46.6794],[4.4024,46.6802],[4.4031,46.6805],[4.4035,46.6811],[4.404,46.6812],[4.4043,46.6814],[4.4049,46.6817],[4.4058,46.6819],[4.4077,46.6817],[4.4094,46.6816],[4.4089,46.6827],[4.408,46.6841],[4.4104,46.6834],[4.4109,46.6833],[4.4121,46.6833],[4.413,46.6835],[4.4158,46.6838],[4.4202,46.6839],[4.4229,46.6847],[4.423,46.6842],[4.4252,46.6841],[4.4271,46.6839],[4.4289,46.6834],[4.4304,46.683],[4.4317,46.6823],[4.4326,46.6825],[4.4334,46.6815],[4.4351,46.6816],[4.4351,46.6811],[4.4352,46.6809],[4.435,46.6807],[4.435,46.6803],[4.435,46.6796],[4.4348,46.6793],[4.4339,46.6785],[4.4336,46.6783],[4.4333,46.6781],[4.4331,46.6778],[4.4331,46.6771],[4.4329,46.6764],[4.4329,46.6755],[4.4327,46.6751],[4.4327,46.6743],[4.4323,46.6736],[4.4323,46.6732],[4.4326,46.6731],[4.4296,46.6713],[4.4272,46.6712],[4.4268,46.6702],[4.4242,46.67],[4.4238,46.671],[4.423,46.6712],[4.4208,46.6713],[4.4205,46.6717],[4.4192,46.6712],[4.4186,46.6707],[4.4185,46.6704],[4.4185,46.6702],[4.4193,46.6687],[4.4193,46.6684],[4.4195,46.6681],[4.419,46.6679],[4.4189,46.6676],[4.4186,46.6669],[4.4185,46.6665],[4.4183,46.6661],[4.4169,46.6642],[4.4167,46.6639],[4.4167,46.6634],[4.4166,46.6627],[4.4167,46.662],[4.4165,46.6618],[4.416,46.6614],[4.4147,46.6616],[4.4129,46.6621],[4.4126,46.6623],[4.4116,46.6627],[4.4111,46.6627],[4.4103,46.6628],[4.4098,46.6635],[4.4092,46.6638],[4.409,46.664],[4.4067,46.6656],[4.4085,46.6668],[4.4088,46.6671],[4.409,46.6675],[4.4093,46.6678],[4.4094,46.6683],[4.4092,46.6685],[4.4089,46.6687],[4.4071,46.6687],[4.4053,46.6686],[4.4013,46.6685],[4.4003,46.6685],[4.3984,46.6683],[4.3971,46.6683],[4.3967,46.6682],[4.3949,46.6682],[4.3931,46.6682],[4.3926,46.6681],[4.3921,46.6679],[4.3903,46.6668],[4.3875,46.6695],[4.3863,46.6705],[4.3855,46.6713]]]},"properties":{"id_ffco":"8727","nom":"Forêt du Plessis","_dept":"71","numero":"2000-D71-015","commune":"Montceau les Mines","echelle":"1/10000","surface":"5.51 km²","format":"A3","annee":"2000","cartographes":"Régis ANTOINE","proprietaire":"7108 - COURSE D'ORIENTATION MONTCEAU MORVAN","niveau":"Interrégional","specialite":"CO à pied","contacts":"Course d'Orientation de Montceau, 03 85 57 16 57, antoine.regis@wanadoo.fr","latitude":"46.6747095195","longitude":"4.41076488545","date_saisie":"19/10/2015","valide":"Non","ppo":"Non","type_carte":"Nouvelle carte","fond":"IGN","ref_ign":"2926 Ouest","obsolete":true}},{"type":"Feature","geometry":null,"properties":{"id_ffco":"8536","nom":"Parc Saint Louis","_dept":"71","numero":"2000-D71-014","commune":"Montceau les Mines","echelle":"1/5000","surface":"None km²","format":"A4","annee":"2000","niveau":"Départemental","specialite":"CO à pied","contacts":"Course d'Orientation de Montceau, 03 85 57 16 57, antoine.regis@wanadoo.fr","date_saisie":"29/07/2015","valide":"Non","ppo":"Non","type_carte":"Reprise","base":"1996-D71-012 Parc Saint Louis","fond":"IGN","obsolete":true}},{"type":"Feature","geometry":{"type":"Polygon","coordinates":[[[4.8054,46.3613],[4.8047,46.3635],[4.8066,46.3683],[4.8073,46.3689],[4.8081,46.3689],[4.8109,46.3683],[4.8122,46.3715],[4.8132,46.3713],[4.8142,46.371],[4.8145,46.371],[4.815,46.371],[4.8157,46.371],[4.8195,46.3712],[4.8214,46.3715],[4.8246,46.372],[4.8297,46.3728],[4.8302,46.3728],[4.8308,46.3727],[4.8339,46.3722],[4.8342,46.3684],[4.8346,46.3673],[4.8337,46.3664],[4.8328,46.3654],[4.8315,46.3635],[4.8309,46.3624],[4.8303,46.3611],[4.8295,46.3588],[4.8292,46.3578],[4.8287,46.3566],[4.8281,46.3551],[4.8277,46.3545],[4.8273,46.3539],[4.8266,46.3529],[4.8265,46.3522],[4.8267,46.3515],[4.8269,46.3509],[4.8265,46.3501],[4.8257,46.3486],[4.8247,46.347],[4.8238,46.3457],[4.8235,46.3458],[4.8236,46.3465],[4.8237,46.347],[4.8214,46.3471],[4.8188,46.3456],[4.8173,46.3455],[4.8149,46.3462],[4.8145,46.3463],[4.8142,46.3462],[4.8129,46.3453],[4.8105,46.3437],[4.811,46.3452],[4.8078,46.3451],[4.8078,46.346],[4.8071,46.3466],[4.8055,46.3474],[4.8035,46.3489],[4.8022,46.3501],[4.8019,46.3506],[4.8017,46.3515],[4.8013,46.353],[4.8011,46.3537],[4.8012,46.3548],[4.8011,46.3555],[4.801,46.3558],[4.8005,46.3563],[4.7997,46.357],[4.799,46.3576],[4.8002,46.3574],[4.8005,46.3575],[4.8015,46.3582],[4.8018,46.3586],[4.8028,46.3585],[4.8038,46.3587],[4.8046,46.36],[4.8054,46.3613]]]},"properties":{"id_ffco":"3262","nom":"Bois de Naisse","_dept":"71","numero":"1999-D71-013","commune":"Sennecé les Macon","echelle":"1/15000","surface":"5.58 km²","format":"A4","annee":"1999","cartographes":"Régis ANTOINE","proprietaire":"7108 - COURSE D'ORIENTATION MONTCEAU MORVAN","niveau":"Régional","specialite":"CO à pied","contacts":"Course d'Orientation de Montceau, 03 85 57 16 57, antoine.regis@wanadoo.fr","latitude":"46.3591325784","longitude":"4.81719290023","valide":"Oui","ppo":"Non","type_carte":"Nouvelle carte","fond":"IGN","ref_ign":"2928 ET","obsolete":true}},{"type":"Feature","geometry":null,"properties":{"id_ffco":"8537","nom":"Parc Saint Louis","_dept":"71","numero":"1996-D71-012","commune":"Montceau les Mines","echelle":"1/5000","surface":"None km²","format":"A4","annee":"1996","date_saisie":"29/07/2015","valide":"Non","ppo":"Non","type_carte":"Nouvelle carte","obsolete":true}},{"type":"Feature","geometry":{"type":"Polygon","coordinates":[[[4.3588,46.9497],[4.3602,46.9494],[4.3611,46.9494],[4.3632,46.9497],[4.3653,46.9499],[4.3662,46.9501],[4.3671,46.9503],[4.3694,46.9509],[4.3709,46.9513],[4.372,46.9519],[4.3723,46.9519],[4.3725,46.9519],[4.373,46.9518],[4.3738,46.9515],[4.3744,46.9514],[4.3749,46.9513],[4.3756,46.9515],[4.3769,46.9501],[4.3778,46.949],[4.3778,46.9464],[4.3764,46.9458],[4.3748,46.9441],[4.3732,46.9445],[4.372,46.945],[4.3716,46.9448],[4.3713,46.9443],[4.3709,46.9437],[4.3701,46.9433],[4.3699,46.9429],[4.3702,46.9423],[4.3701,46.9414],[4.3698,46.9407],[4.3695,46.939],[4.3702,46.939],[4.3721,46.9392],[4.373,46.9375],[4.3756,46.9314],[4.3747,46.9303],[4.3718,46.9272],[4.3702,46.9255],[4.3693,46.9244],[4.3668,46.9218],[4.3573,46.9114],[4.349,46.9233],[4.3378,46.9218],[4.3303,46.9211],[4.3296,46.9224],[4.3288,46.9229],[4.328,46.9233],[4.327,46.9236],[4.3271,46.9246],[4.3277,46.9251],[4.328,46.9256],[4.3281,46.9262],[4.328,46.9267],[4.3278,46.9274],[4.3275,46.9278],[4.3266,46.9286],[4.3262,46.9288],[4.3258,46.9289],[4.3251,46.929],[4.3246,46.929],[4.3241,46.9289],[4.3235,46.9288],[4.3231,46.929],[4.3226,46.9295],[4.3223,46.9297],[4.3219,46.93],[4.3217,46.9302],[4.3218,46.9306],[4.3222,46.931],[4.3226,46.9313],[4.3226,46.9317],[4.3228,46.9321],[4.3228,46.9328],[4.323,46.9336],[4.3231,46.935],[4.3231,46.9357],[4.323,46.9365],[4.3226,46.937],[4.3222,46.9375],[4.3217,46.9377],[4.3213,46.9377],[4.3211,46.938],[4.3212,46.9411],[4.3225,46.9412],[4.3241,46.9419],[4.3246,46.9425],[4.3256,46.9431],[4.3264,46.9439],[4.3273,46.9458],[4.3306,46.9478],[4.3302,46.9483],[4.3339,46.9488],[4.3337,46.9492],[4.3332,46.9503],[4.3399,46.9488],[4.3435,46.9481],[4.3489,46.9494],[4.3527,46.9491],[4.354,46.9494],[4.3552,46.9496],[4.3569,46.9499],[4.3576,46.9499],[4.3588,46.9497]]]},"properties":{"id_ffco":"3164","nom":"Forêt de Planoise","_dept":"71","numero":"1996-D71-011","commune":"Autun","echelle":"1/15000","surface":"11.91 km²","format":"A3","annee":"1996","cartographes":"LBCO (Collectif Ligue de Bourgogne).","proprietaire":"BO - Bourgogne","niveau":"Interrégional","specialite":"CO à pied","latitude":"46.9349511329","longitude":"4.34995311234","valide":"Oui","ppo":"Non","type_carte":"Nouvelle carte","fond":"IGN","ref_ign":"2925 Ouest","obsolete":true}},{"type":"Feature","geometry":{"type":"Polygon","coordinates":[[[4.6945,46.7881],[4.6946,46.7885],[4.6947,46.7893],[4.695,46.7897],[4.6953,46.7901],[4.6964,46.7913],[4.6976,46.7923],[4.6981,46.7926],[4.6988,46.793],[4.6991,46.7932],[4.6993,46.7935],[4.6991,46.7938],[4.6994,46.7942],[4.6993,46.7943],[4.6996,46.7944],[4.6997,46.7945],[4.6998,46.7946],[4.7005,46.7946],[4.7017,46.7952],[4.703,46.7963],[4.7034,46.7969],[4.7038,46.7975],[4.7048,46.7985],[4.7053,46.7989],[4.7053,46.8001],[4.7063,46.8012],[4.7067,46.8019],[4.7069,46.8036],[4.7077,46.8041],[4.708,46.8044],[4.7084,46.8048],[4.7088,46.8054],[4.7094,46.806],[4.7103,46.8065],[4.711,46.8071],[4.7115,46.8078],[4.7124,46.8086],[4.7129,46.809],[4.7132,46.8093],[4.72,46.8074],[4.7215,46.8073],[4.7222,46.8063],[4.7238,46.8055],[4.7252,46.8034],[4.7292,46.8039],[4.7302,46.8043],[4.7315,46.8044],[4.7313,46.8039],[4.7318,46.8038],[4.7323,46.8037],[4.7327,46.8035],[4.733,46.8032],[4.7334,46.8036],[4.7341,46.804],[4.7345,46.8044],[4.7348,46.8049],[4.7347,46.8052],[4.7345,46.8053],[4.7347,46.8056],[4.735,46.806],[4.7357,46.806],[4.7364,46.8059],[4.7372,46.8058],[4.7377,46.8058],[4.7382,46.8059],[4.7389,46.8059],[4.7394,46.8059],[4.7401,46.806],[4.7405,46.8062],[4.7408,46.8064],[4.7409,46.8064],[4.7412,46.8061],[4.7413,46.8059],[4.7412,46.8056],[4.7412,46.8052],[4.741,46.8046],[4.741,46.804],[4.7415,46.8036],[4.7416,46.8034],[4.7417,46.8029],[4.7421,46.8022],[4.7424,46.8019],[4.7428,46.8016],[4.7435,46.8013],[4.7439,46.801],[4.7442,46.8007],[4.7447,46.8006],[4.7454,46.8006],[4.7458,46.8006],[4.7462,46.8006],[4.7468,46.8004],[4.7473,46.8004],[4.7481,46.8006],[4.7497,46.8009],[4.7516,46.8015],[4.7521,46.8016],[4.7521,46.8002],[4.7518,46.7984],[4.7513,46.7973],[4.7506,46.7962],[4.7502,46.7958],[4.7495,46.7936],[4.7488,46.7926],[4.7478,46.7912],[4.7471,46.7898],[4.7467,46.7891],[4.7464,46.7887],[4.7448,46.7888],[4.7443,46.7886],[4.744,46.7881],[4.7437,46.7877],[4.7429,46.7872],[4.7424,46.7871],[4.7417,46.7869],[4.7413,46.7867],[4.7408,46.7864],[4.7404,46.7862],[4.7397,46.7861],[4.7392,46.7861],[4.7386,46.7859],[4.7383,46.7858],[4.7379,46.7855],[4.7382,46.7854],[4.7379,46.7848],[4.7387,46.7845],[4.7389,46.7842],[4.7375,46.7827],[4.7372,46.7824],[4.7368,46.7821],[4.7358,46.7825],[4.7345,46.7827],[4.7341,46.7823],[4.7335,46.7825],[4.7327,46.7827],[4.7314,46.7828],[4.7308,46.7827],[4.7304,46.7827],[4.7298,46.7827],[4.7295,46.7825],[4.7265,46.7825],[4.7242,46.7826],[4.7234,46.7825],[4.7219,46.7824],[4.7204,46.7825],[4.7196,46.7825],[4.7191,46.7825],[4.7187,46.7824],[4.7185,46.7821],[4.7183,46.7818],[4.7176,46.7815],[4.7166,46.7812],[4.7152,46.7809],[4.7141,46.7823],[4.7126,46.7815],[4.7121,46.7814],[4.7114,46.7814],[4.7109,46.7813],[4.7101,46.7817],[4.7095,46.7817],[4.7084,46.7814],[4.708,46.7813],[4.7079,46.7809],[4.7076,46.7808],[4.7075,46.7807],[4.707,46.7803],[4.707,46.7799],[4.7066,46.7797],[4.7064,46.7794],[4.7061,46.7784],[4.7056,46.7778],[4.7026,46.7768],[4.7008,46.7767],[4.6991,46.7771],[4.6981,46.7778],[4.6968,46.7785],[4.6962,46.7786],[4.6956,46.779],[4.6952,46.7796],[4.6949,46.7798],[4.6945,46.7799],[4.6943,46.78],[4.6936,46.7805],[4.6925,46.7807],[4.692,46.7807],[4.6918,46.7818],[4.6917,46.7829],[4.6924,46.7843],[4.6929,46.7844],[4.6931,46.7846],[4.6932,46.7851],[4.6935,46.7858],[4.6936,46.7864],[4.6938,46.7871],[4.6945,46.7881]]]},"properties":{"id_ffco":"624","nom":"Les Chaumes","_dept":"71","numero":"1993-D71-010","commune":"Russilly","echelle":"1/15000","surface":"9.7 km²","format":"+","annee":"1993","cartographes":"Denis GENEVES,Bruno HABERKORN,Michel HABERKORN","proprietaire":"BO - Bourgogne","niveau":"Régional","specialite":"CO à pied","latitude":"46.7928152475","longitude":"4.72103819178","valide":"Oui","ppo":"Non","type_carte":"Nouvelle carte","fond":"IGN","ref_ign":"3026 Ouest","obsolete":true}},{"type":"Feature","geometry":{"type":"Polygon","coordinates":[[[4.7187,46.8773],[4.7193,46.8782],[4.72,46.8791],[4.7204,46.8799],[4.7204,46.8808],[4.7213,46.8831],[4.7221,46.884],[4.7226,46.8846],[4.723,46.8853],[4.7248,46.8872],[4.7249,46.8877],[4.725,46.8881],[4.7259,46.8892],[4.7276,46.8896],[4.7282,46.8898],[4.7288,46.8898],[4.7296,46.8897],[4.7302,46.8896],[4.7307,46.8898],[4.7314,46.8903],[4.7328,46.8913],[4.7338,46.8919],[4.7346,46.8922],[4.7353,46.8925],[4.7381,46.8951],[4.7383,46.8954],[4.7403,46.8978],[4.7406,46.8982],[4.7408,46.8985],[4.7417,46.8994],[4.7426,46.9002],[4.7432,46.9005],[4.7436,46.9006],[4.7445,46.9009],[4.7453,46.9009],[4.7458,46.9008],[4.7471,46.9006],[4.7479,46.9006],[4.7486,46.9006],[4.7498,46.9008],[4.7504,46.9008],[4.7509,46.901],[4.7515,46.9012],[4.7517,46.9012],[4.7518,46.9011],[4.7518,46.9009],[4.7521,46.9002],[4.7522,46.8997],[4.7522,46.8956],[4.7523,46.8891],[4.7509,46.8892],[4.7506,46.8889],[4.7502,46.888],[4.7495,46.8873],[4.7482,46.8857],[4.7472,46.8841],[4.7464,46.8828],[4.7451,46.8811],[4.7438,46.8816],[4.7433,46.8811],[4.7431,46.8806],[4.7421,46.8797],[4.7417,46.8789],[4.7405,46.8784],[4.7399,46.8778],[4.7393,46.8771],[4.7383,46.8764],[4.7375,46.8768],[4.7369,46.8772],[4.7365,46.8773],[4.7361,46.8769],[4.7356,46.8766],[4.7347,46.876],[4.7335,46.8756],[4.7328,46.875],[4.7319,46.8745],[4.7312,46.8736],[4.7306,46.8728],[4.7305,46.8725],[4.7302,46.8722],[4.7298,46.8721],[4.7291,46.8724],[4.7289,46.8724],[4.7286,46.8722],[4.7283,46.8721],[4.728,46.872],[4.728,46.8717],[4.7282,46.8714],[4.7282,46.8712],[4.7281,46.871],[4.7279,46.8711],[4.7277,46.8713],[4.7276,46.8714],[4.7254,46.8716],[4.7238,46.8722],[4.723,46.8722],[4.7225,46.8722],[4.7218,46.8724],[4.7216,46.8731],[4.7212,46.8735],[4.7199,46.874],[4.7189,46.8746],[4.7176,46.8751],[4.7182,46.876],[4.7187,46.8773]]]},"properties":{"id_ffco":"1073","nom":"Montagne de la Folie","_dept":"71","numero":"1991-D71-009","commune":"Rully","echelle":"1/15000","surface":"4.49 km²","format":"A4","annee":"1991","cartographes":"Odile HABERKORN,Yvette HABERKORN,Bruno HABERKORN,Valérie BORNARD","proprietaire":"2105 - ASS. DE DECOUVERTE ET D'ORIENTATION DE CHENOVE","niveau":"Interrégional","specialite":"CO à pied","latitude":"46.8858010531","longitude":"4.73636502073","valide":"Oui","ppo":"Non","type_carte":"Nouvelle carte","fond":"IGN","ref_ign":"3024 Ouest","obsolete":true}},{"type":"Feature","geometry":{"type":"Polygon","coordinates":[[[4.4199,46.8017],[4.4195,46.8022],[4.4192,46.8026],[4.4192,46.8028],[4.4192,46.803],[4.4195,46.8033],[4.4203,46.8038],[4.4205,46.8041],[4.4205,46.8045],[4.4206,46.805],[4.4208,46.8051],[4.4212,46.8052],[4.4216,46.8053],[4.4218,46.8057],[4.4246,46.8058],[4.4246,46.8044],[4.4251,46.8041],[4.4267,46.803],[4.4275,46.8028],[4.4281,46.8022],[4.4287,46.8022],[4.4297,46.802],[4.4297,46.8013],[4.4299,46.8006],[4.4277,46.7996],[4.4273,46.7992],[4.4247,46.7998],[4.4221,46.8004],[4.4209,46.8007],[4.4199,46.8017]]]},"properties":{"id_ffco":"1883","nom":"Parc de la Verrerie","_dept":"71","numero":"1988-D71-008","commune":"Le Creusot","echelle":"1/5000","surface":"0.34 km²","format":"+","annee":"1988","cartographes":"Ligue de Bourgogne de C.O (collectif)","proprietaire":"BO - Bourgogne","niveau":"Initiation, Scolaire","specialite":"CO à pied","latitude":"46.8022810365","longitude":"4.4242255817","valide":"Oui","ppo":"Non","type_carte":"Nouvelle carte","fond":"IGN","ref_ign":"2925 Ouest","obsolete":true}},{"type":"Feature","geometry":{"type":"Polygon","coordinates":[[[4.8669,46.8004],[4.8712,46.8015],[4.8757,46.799],[4.8765,46.7984],[4.8768,46.7979],[4.8769,46.7973],[4.8779,46.7922],[4.8763,46.792],[4.8694,46.7889],[4.8686,46.7886],[4.8668,46.7897],[4.8677,46.7913],[4.8677,46.7918],[4.8678,46.7936],[4.8684,46.7948],[4.8684,46.7966],[4.8684,46.7983],[4.8682,46.7989],[4.8678,46.7996],[4.8669,46.8004]]]},"properties":{"id_ffco":"9191","nom":"Les Prés St Jean","_dept":"71","numero":"1989-D71-00602","commune":"Chalon sur Saône","echelle":"1/10000","surface":"0.79 km²","format":"A5","annee":"1989","cartographes":"Valérie BORNARD,Bruno HABERKORN","proprietaire":"BO - Bourgogne","niveau":"Initiation, Scolaire","specialite":"CO à pied","latitude":"46.7951621191","longitude":"4.87204587186","date_saisie":"17/01/2016","valide":"Oui","ppo":"Non","type_carte":"Nouvelle carte","fond":"IGN","obsolete":true}},{"type":"Feature","geometry":{"type":"Polygon","coordinates":[[[4.769,46.8106],[4.7694,46.8111],[4.7693,46.8117],[4.7688,46.8124],[4.7685,46.8131],[4.7683,46.8134],[4.7689,46.8152],[4.7738,46.8145],[4.7832,46.8132],[4.7925,46.812],[4.7929,46.8114],[4.7929,46.8105],[4.7927,46.8095],[4.7921,46.8075],[4.7919,46.8065],[4.7912,46.8037],[4.7906,46.8021],[4.7906,46.801],[4.7905,46.8005],[4.79,46.8006],[4.7898,46.801],[4.7892,46.8012],[4.7881,46.8016],[4.7877,46.8014],[4.7863,46.8017],[4.7861,46.8018],[4.7857,46.8019],[4.7854,46.8019],[4.785,46.8021],[4.7845,46.8021],[4.7837,46.8023],[4.7818,46.8032],[4.7818,46.8037],[4.7816,46.8041],[4.7802,46.8047],[4.779,46.8046],[4.7786,46.8048],[4.7781,46.8054],[4.778,46.8056],[4.7778,46.8057],[4.7765,46.8054],[4.7759,46.8056],[4.7759,46.806],[4.7754,46.8065],[4.7752,46.8074],[4.773,46.8077],[4.7734,46.8079],[4.7728,46.8083],[4.7716,46.8088],[4.771,46.8092],[4.7703,46.8094],[4.769,46.8098],[4.7684,46.8102],[4.769,46.8106]]]},"properties":{"id_ffco":"1881","nom":"Forêt de Marlou","_dept":"71","numero":"1985-D71-00601","commune":"Chalon sur Saône","echelle":"1/4000","surface":"1.76 km²","format":"A5","annee":"1985","cartographes":"J-C. GUY,A. FORTE","proprietaire":"BO - Bourgogne","niveau":"Départemental","specialite":"CO à pied","contacts":"Maison de quartier St Laurent, 71100, Chalon sur Saône","latitude":"46.8087993903","longitude":"4.78180166606","valide":"Oui","ppo":"Non","type_carte":"Nouvelle carte","fond":"IGN","ref_ign":"3025 Ouest","obsolete":true}},{"type":"Feature","geometry":{"type":"Polygon","coordinates":[[[4.0568,46.9925],[4.0552,46.9928],[4.0548,46.9928],[4.0542,46.9927],[4.0539,46.9927],[4.0532,46.9931],[4.0528,46.9932],[4.0517,46.9933],[4.0511,46.9932],[4.0498,46.9932],[4.0494,46.9934],[4.0492,46.994],[4.049,46.9945],[4.0492,46.9954],[4.0492,46.9955],[4.0491,46.9958],[4.049,46.9961],[4.0488,46.9967],[4.0486,46.997],[4.0479,46.9972],[4.0469,46.9971],[4.0485,46.9988],[4.0493,47.0004],[4.0494,47.0038],[4.051,47.0046],[4.0532,47.0053],[4.054,47.0065],[4.0557,47.0067],[4.0573,47.0068],[4.0581,47.0071],[4.0588,47.0075],[4.0598,47.0078],[4.061,47.008],[4.0616,47.0085],[4.0624,47.009],[4.0633,47.0092],[4.064,47.0092],[4.0647,47.009],[4.0657,47.0089],[4.0676,47.0089],[4.0709,47.0101],[4.0702,47.0133],[4.0751,47.0138],[4.0756,47.0149],[4.0755,47.0157],[4.0755,47.0164],[4.0755,47.0167],[4.0761,47.0174],[4.0767,47.0177],[4.077,47.0177],[4.0788,47.0175],[4.0797,47.0182],[4.0815,47.0182],[4.0833,47.0175],[4.0843,47.0169],[4.0849,47.0165],[4.0855,47.0164],[4.0861,47.0161],[4.0867,47.0163],[4.0874,47.0166],[4.0884,47.0173],[4.0886,47.0177],[4.0887,47.018],[4.0906,47.0172],[4.0907,47.0168],[4.0905,47.016],[4.0904,47.0148],[4.0912,47.0147],[4.0923,47.0149],[4.0933,47.0148],[4.0946,47.0141],[4.0976,47.0143],[4.0973,47.0138],[4.0966,47.0133],[4.0959,47.0125],[4.096,47.0114],[4.0965,47.0106],[4.0971,47.01],[4.0975,47.0091],[4.0975,47.0084],[4.0979,47.008],[4.0979,47.0076],[4.0976,47.0072],[4.1001,47.004],[4.0991,47.003],[4.099,47.0025],[4.0986,47.0024],[4.0982,47.0025],[4.0971,47.0024],[4.0965,47.0022],[4.096,47.0022],[4.0949,47.0023],[4.0939,47.0021],[4.0912,47.0011],[4.0901,46.9989],[4.0901,46.9987],[4.0903,46.9983],[4.0903,46.9982],[4.0897,46.9979],[4.0882,46.9968],[4.0879,46.9961],[4.0872,46.9955],[4.0866,46.9948],[4.0858,46.9943],[4.0856,46.9937],[4.0824,46.9928],[4.0803,46.9922],[4.0796,46.992],[4.0784,46.9919],[4.0781,46.9918],[4.0775,46.9916],[4.0765,46.9912],[4.0763,46.9911],[4.0759,46.9907],[4.0758,46.9906],[4.0756,46.9906],[4.0752,46.9906],[4.0749,46.9906],[4.0747,46.9907],[4.0744,46.9909],[4.074,46.9909],[4.0732,46.9908],[4.0729,46.9908],[4.0727,46.9908],[4.0725,46.991],[4.0724,46.9912],[4.0722,46.9914],[4.0718,46.9915],[4.0714,46.9915],[4.0708,46.9914],[4.0703,46.9914],[4.0695,46.9916],[4.0692,46.9916],[4.0687,46.9916],[4.0679,46.9916],[4.0672,46.9914],[4.0668,46.9912],[4.065,46.9895],[4.064,46.9888],[4.0628,46.9878],[4.0618,46.9866],[4.0613,46.986],[4.0605,46.9856],[4.0601,46.9856],[4.06,46.9858],[4.0602,46.9862],[4.0606,46.9868],[4.0605,46.9875],[4.0604,46.9879],[4.0598,46.9884],[4.0595,46.9887],[4.0593,46.9891],[4.0593,46.9894],[4.0594,46.9897],[4.06,46.9903],[4.06,46.9905],[4.06,46.9908],[4.0596,46.9911],[4.0594,46.9913],[4.059,46.992],[4.0586,46.9922],[4.0568,46.9925]]]},"properties":{"id_ffco":"1072","nom":"La Croisette","_dept":"71","numero":"1985-D71-00502","commune":"Saint Prix","echelle":"1/15000","surface":"7.72 km²","format":"+","annee":"1985","cartographes":"Jacques CHARLES;GérardVENON,Marcel SAUVAIN;André MARCEAU,Ernest PETITJEAN","proprietaire":"BO - Bourgogne","niveau":"National, International","specialite":"CO à pied","latitude":"47.0028497279","longitude":"4.0741394575","valide":"Oui","ppo":"Non","type_carte":"Reprise","base":"1985-D71-00501 Le Pommoy","fond":"IGN","ref_ign":"2824 Ouest","obsolete":true}},{"type":"Feature","geometry":{"type":"Polygon","coordinates":[[[4.0523,47.0096],[4.0539,47.0119],[4.056,47.0134],[4.0565,47.0144],[4.0574,47.0174],[4.0581,47.019],[4.0594,47.0193],[4.0598,47.0214],[4.0605,47.0231],[4.0607,47.0232],[4.0608,47.0235],[4.0605,47.0239],[4.0602,47.0243],[4.0599,47.0246],[4.0591,47.0255],[4.059,47.0262],[4.0591,47.0274],[4.0594,47.028],[4.0594,47.0285],[4.0584,47.0293],[4.0575,47.0297],[4.0569,47.0304],[4.0569,47.0309],[4.0571,47.0311],[4.0567,47.0314],[4.0567,47.0316],[4.0573,47.0315],[4.0579,47.0316],[4.0584,47.0317],[4.0587,47.0319],[4.0599,47.0328],[4.0605,47.0332],[4.0612,47.0333],[4.0617,47.0332],[4.0655,47.0327],[4.0676,47.0321],[4.0696,47.0317],[4.071,47.0316],[4.0721,47.0316],[4.073,47.0319],[4.074,47.0323],[4.0744,47.0323],[4.0747,47.0324],[4.0755,47.0322],[4.0759,47.032],[4.0763,47.0318],[4.0768,47.0312],[4.0772,47.0305],[4.0776,47.0296],[4.0779,47.0291],[4.0785,47.0288],[4.0791,47.0287],[4.0798,47.0287],[4.0807,47.029],[4.0818,47.0296],[4.0829,47.03],[4.0859,47.0308],[4.0872,47.0288],[4.0868,47.0283],[4.0849,47.0273],[4.0837,47.0265],[4.0832,47.0264],[4.0829,47.0261],[4.0821,47.0256],[4.0807,47.025],[4.0801,47.0244],[4.0797,47.0243],[4.0796,47.024],[4.0798,47.0239],[4.0822,47.0243],[4.0839,47.0244],[4.0863,47.0241],[4.0876,47.0242],[4.0925,47.0242],[4.0944,47.0234],[4.0945,47.02],[4.0977,47.0144],[4.0973,47.0137],[4.0966,47.0133],[4.0959,47.0127],[4.0961,47.0113],[4.0965,47.0107],[4.097,47.0101],[4.0972,47.0097],[4.0975,47.0091],[4.0975,47.0084],[4.0979,47.008],[4.0979,47.0075],[4.0976,47.0072],[4.1004,47.0043],[4.0999,47.0037],[4.0991,47.003],[4.0989,47.0026],[4.0986,47.0024],[4.0982,47.0025],[4.097,47.0024],[4.0964,47.0022],[4.0957,47.0022],[4.0947,47.0022],[4.0934,47.0019],[4.0913,47.0011],[4.0907,47.0],[4.0902,46.999],[4.0901,46.9987],[4.0904,46.9983],[4.0903,46.9981],[4.0897,46.9979],[4.0882,46.9967],[4.0879,46.9961],[4.0867,46.9949],[4.0859,46.9943],[4.0857,46.9941],[4.0856,46.9938],[4.085,46.9936],[4.0795,46.992],[4.0787,46.9919],[4.0777,46.9917],[4.0764,46.9912],[4.0761,46.9909],[4.0758,46.9906],[4.0754,46.9905],[4.0749,46.9906],[4.0744,46.9909],[4.0739,46.9909],[4.073,46.9908],[4.0727,46.9908],[4.0725,46.9909],[4.0724,46.9911],[4.0723,46.9913],[4.072,46.9914],[4.0717,46.9915],[4.0713,46.9915],[4.0706,46.9914],[4.0702,46.9914],[4.0696,46.9915],[4.0691,46.9916],[4.068,46.9916],[4.0672,46.9914],[4.0666,46.991],[4.065,46.9895],[4.0642,46.9891],[4.0634,46.9884],[4.0628,46.9878],[4.0622,46.987],[4.0617,46.9864],[4.0614,46.986],[4.0607,46.9857],[4.0606,46.9856],[4.0603,46.9856],[4.0601,46.9856],[4.0599,46.9858],[4.06,46.986],[4.0605,46.9865],[4.0606,46.9867],[4.0606,46.9869],[4.0605,46.9873],[4.0605,46.9879],[4.0596,46.9885],[4.0593,46.9889],[4.0593,46.9895],[4.0594,46.9897],[4.0599,46.9902],[4.0601,46.9906],[4.0599,46.9909],[4.0595,46.9913],[4.0592,46.9917],[4.0589,46.9921],[4.0584,46.9922],[4.0558,46.9928],[4.0551,46.9928],[4.0545,46.9928],[4.0539,46.9927],[4.0533,46.9931],[4.0527,46.9933],[4.0521,46.9933],[4.0513,46.9932],[4.0498,46.9932],[4.0493,46.9935],[4.049,46.9945],[4.0492,46.9955],[4.049,46.996],[4.0488,46.9967],[4.0485,46.997],[4.0478,46.9972],[4.0471,46.9972],[4.0484,46.9987],[4.0491,46.9999],[4.0489,47.0006],[4.0488,47.0041],[4.0505,47.0048],[4.0519,47.0049],[4.053,47.0052],[4.0535,47.0054],[4.0539,47.0063],[4.0528,47.0075],[4.0519,47.0079],[4.0523,47.0096]]]},"properties":{"id_ffco":"1071","nom":"Le Pommoy","_dept":"71","numero":"1985-D71-00501","commune":"Le Pommoy","echelle":"1/15000","surface":"12.91 km²","format":"A3","annee":"1985","cartographes":"André MARCEAU;Marcel SAUVAIN,Gérard VENON;Ernest PETITJEAN,Jacques CHARLES","proprietaire":"BO - Bourgogne","niveau":"National, International","specialite":"CO à pied","latitude":"47.0099936248","longitude":"4.07317016048","valide":"Oui","ppo":"Non","type_carte":"Nouvelle carte","fond":"IGN","ref_ign":"2824 Ouest","obsolete":true}},{"type":"Feature","geometry":{"type":"Polygon","coordinates":[[[4.6804,46.4385],[4.6893,46.4384],[4.6892,46.4365],[4.6799,46.4371],[4.6804,46.4385]]]},"properties":{"id_ffco":"1844","nom":"Bois des Pendus","_dept":"71","numero":"1983-D71-004","commune":"Cluny","echelle":"1/10000","surface":"0.13 km²","format":"A5","annee":"1983","proprietaire":"BO - Bourgogne","niveau":"Régional","specialite":"CO à pied","latitude":"46.4376205473","longitude":"4.68488590361","valide":"Non","ppo":"Non","type_carte":"Nouvelle carte","fond":"IGN","ref_ign":"2928 E","obsolete":true}},{"type":"Feature","geometry":{"type":"Polygon","coordinates":[[[4.072,46.9915],[4.0723,46.9913],[4.0725,46.9911],[4.0726,46.9909],[4.0728,46.9908],[4.0732,46.9908],[4.0737,46.9909],[4.0741,46.9909],[4.0745,46.9908],[4.0749,46.9906],[4.0753,46.9905],[4.0757,46.9906],[4.076,46.9908],[4.0763,46.9911],[4.0766,46.9913],[4.0776,46.9917],[4.0784,46.9919],[4.0791,46.9919],[4.0798,46.9921],[4.084,46.9933],[4.0857,46.9938],[4.0857,46.9941],[4.086,46.9945],[4.0866,46.9949],[4.0872,46.9955],[4.0879,46.9962],[4.0881,46.9967],[4.0893,46.9976],[4.0899,46.998],[4.0903,46.9981],[4.0903,46.9983],[4.0902,46.9987],[4.0901,46.9989],[4.0908,47.0002],[4.091,47.0008],[4.0903,47.0007],[4.0894,47.0006],[4.088,47.0004],[4.0866,47.0],[4.0857,46.9994],[4.0851,46.9991],[4.0847,46.9991],[4.0834,46.9994],[4.0806,46.9999],[4.0801,46.9988],[4.078,46.9987],[4.0752,46.9986],[4.0736,46.9988],[4.072,46.9988],[4.072,46.9978],[4.072,46.9915]]]},"properties":{"id_ffco":"1880","nom":"La Croisette","_dept":"71","numero":"1982-D71-002","commune":"Saint Prix","echelle":"1/5000","surface":"0.98 km²","format":"+","annee":"1982","cartographes":"Marcel SAUVAIN,Gérard VENON","proprietaire":"BO - Bourgogne","niveau":"Régional","specialite":"CO à pied","contacts":"Chalet de la Croisette, 71, Saint Prix","latitude":"46.9958731149","longitude":"4.07998880007","valide":"Oui","ppo":"Non","type_carte":"Nouvelle carte","fond":"IGN","ref_ign":"2824 Ouest","obsolete":true}},{"type":"Feature","geometry":{"type":"Polygon","coordinates":[[[4.7945,46.3636],[4.7943,46.364],[4.794,46.3643],[4.7934,46.3648],[4.7931,46.3653],[4.7929,46.3656],[4.7922,46.3662],[4.7913,46.3668],[4.7908,46.3672],[4.7905,46.3675],[4.7903,46.368],[4.7901,46.369],[4.7899,46.3696],[4.7895,46.3704],[4.789,46.3718],[4.7885,46.3728],[4.7878,46.3738],[4.7875,46.3742],[4.7875,46.3745],[4.7875,46.3748],[4.7876,46.3755],[4.7877,46.376],[4.7876,46.3766],[4.7873,46.377],[4.787,46.3774],[4.786,46.3782],[4.7854,46.3786],[4.785,46.3788],[4.7845,46.3789],[4.7836,46.379],[4.7802,46.379],[4.7791,46.379],[4.7782,46.3789],[4.7776,46.3789],[4.7771,46.3791],[4.7766,46.3796],[4.7753,46.3802],[4.774,46.3807],[4.7727,46.3811],[4.771,46.3811],[4.7682,46.3791],[4.7676,46.3783],[4.7665,46.3779],[4.7661,46.3774],[4.7658,46.3766],[4.7662,46.3763],[4.7659,46.3762],[4.7652,46.3763],[4.7639,46.3762],[4.7638,46.376],[4.7647,46.3759],[4.7651,46.3757],[4.7657,46.3756],[4.767,46.3752],[4.7659,46.3738],[4.7651,46.3733],[4.7647,46.3728],[4.7641,46.3723],[4.7637,46.3717],[4.7642,46.3712],[4.7646,46.3703],[4.7647,46.3701],[4.765,46.3665],[4.7654,46.3662],[4.7657,46.3658],[4.7662,46.3656],[4.7669,46.3651],[4.7684,46.3631],[4.7679,46.361],[4.767,46.3599],[4.7661,46.3594],[4.7656,46.3584],[4.7639,46.3572],[4.7634,46.356],[4.764,46.3555],[4.7641,46.3546],[4.7643,46.3541],[4.7645,46.3535],[4.7645,46.353],[4.7639,46.3524],[4.7638,46.352],[4.7648,46.352],[4.7662,46.3513],[4.7665,46.351],[4.7668,46.3503],[4.7673,46.3498],[4.7677,46.3496],[4.7682,46.3494],[4.7686,46.3493],[4.7695,46.3493],[4.77,46.3495],[4.7703,46.3498],[4.7713,46.35],[4.7736,46.3505],[4.7745,46.351],[4.7763,46.3518],[4.7766,46.3518],[4.7777,46.3515],[4.7781,46.3514],[4.7785,46.3517],[4.7791,46.3523],[4.7795,46.3528],[4.7798,46.353],[4.7802,46.353],[4.7805,46.353],[4.7807,46.353],[4.7822,46.3537],[4.7826,46.3539],[4.783,46.3543],[4.7842,46.3551],[4.7849,46.3555],[4.7855,46.3557],[4.7859,46.3557],[4.7875,46.3552],[4.7882,46.3549],[4.7887,46.3545],[4.7892,46.3539],[4.7898,46.3538],[4.7917,46.3539],[4.7922,46.3538],[4.7939,46.3537],[4.794,46.3545],[4.7947,46.3555],[4.7962,46.3573],[4.7962,46.3576],[4.7961,46.358],[4.7955,46.3589],[4.7954,46.3593],[4.7954,46.36],[4.795,46.3623],[4.7946,46.363],[4.7945,46.3636]]]},"properties":{"id_ffco":"1070","nom":"Verzé","_dept":"71","numero":"1978-D71-001","commune":"Verzé ; La Roche Vineuse","echelle":"1/15000","surface":"6.04 km²","format":"A4","annee":"1978","cartographes":"DE COLIGNY,Jacques CHARLES","proprietaire":"BO - Bourgogne","niveau":"Interrégional","specialite":"CO à pied","latitude":"46.3649386943","longitude":"4.77817479129","valide":"Oui","ppo":"Non","type_carte":"Nouvelle carte","fond":"IGN","ref_ign":"3028 Ouest","obsolete":true}},{"type":"Feature","geometry":{"type":"Polygon","coordinates":[[[4.3674,46.7825],[4.367,46.7826],[4.3666,46.783],[4.3644,46.7823],[4.3634,46.7807],[4.3633,46.7799],[4.3632,46.7786],[4.3628,46.778],[4.3622,46.777],[4.3612,46.7762],[4.3614,46.7753],[4.3626,46.7748],[4.3648,46.776],[4.3684,46.7775],[4.3696,46.778],[4.3712,46.778],[4.3725,46.7788],[4.3742,46.7786],[4.3747,46.7797],[4.376,46.7808],[4.3763,46.7812],[4.376,46.7819],[4.3748,46.7824],[4.3738,46.783],[4.3729,46.7831],[4.3727,46.7835],[4.373,46.785],[4.3725,46.7852],[4.3721,46.785],[4.3716,46.785],[4.3707,46.7849],[4.3701,46.7848],[4.3696,46.7841],[4.3693,46.7834],[4.3678,46.7826],[4.3674,46.7825]]]},"properties":{"id_ffco":"1879","nom":"Brosse de Challas","_dept":"71","numero":"1977-D71-000","commune":"Montcenis","echelle":"1/5000","surface":"0.63 km²","format":"A4","annee":"1977","cartographes":"M-GAUTHY","proprietaire":"BO - Bourgogne","niveau":"Départemental","specialite":"CO à pied","latitude":"46.7801513876","longitude":"4.36863427284","valide":"Non","ppo":"Non","type_carte":"Nouvelle carte","fond":"IGN","ref_ign":"2926 Ouest","obsolete":true}}]}