{"type":"FeatureCollection","features":[{"type":"Feature","geometry":{"type":"Polygon","coordinates":[[[0.1795,47.981],[0.1799,47.9814],[0.1825,47.983],[0.1807,47.9846],[0.1795,47.9837],[0.1792,47.9837],[0.1779,47.9845],[0.1766,47.9828],[0.1795,47.981]]]},"properties":{"id_ffco":"11337","nom":"Stade Pierre Piffault","_dept":"72","numero":"2018-D72-64","commune":"LE MANS","echelle":"1/2000","surface":"0.09 km²","format":"A4","annee":"2018","cartographes":"Mathieu POUVREAU","proprietaire":"7205 - LE MANS ATHLETISME 72","niveau":"Initiation, Scolaire","specialite":"CO à pied","contacts":"LE MANS ATHLETISME 72, 265 AVENUE DU DOCTEUR JEAN MAC, 72000, LE MANS, lma72athletisme@gmail.com, http://www.lemansathletisme72.com/","latitude":"47.982920854","longitude":"0.179450067144","date_saisie":"05/01/2019","date_depot":"02/04/2019","valide":"Oui","ppo":"Non","type_carte":"Nouvelle carte","fond":"Cadastre","url":"https://www.lemansathletisme72.com/en-savoir-plus/la-cartotheque-du-club-61711","obsolete":true}},{"type":"Feature","geometry":{"type":"Polygon","coordinates":[[[0.155,47.9204],[0.1543,47.922],[0.1554,47.9233],[0.156,47.924],[0.1583,47.9223],[0.1604,47.9232],[0.1619,47.9232],[0.1627,47.9192],[0.1637,47.9189],[0.1655,47.9172],[0.1643,47.9159],[0.163,47.9147],[0.1622,47.9144],[0.1611,47.9144],[0.1596,47.915],[0.1589,47.9158],[0.1592,47.9169],[0.1577,47.918],[0.1564,47.9187],[0.1553,47.919],[0.1553,47.9195],[0.155,47.9204]]]},"properties":{"id_ffco":"410","nom":"Domaine de Houssay","_dept":"72","numero":"2007-D72-39","commune":"Spay","echelle":"1/4500","surface":"0.47 km²","format":"A4","annee":"2007","cartographes":"Philippe DURAND","proprietaire":"PL - Pays de la Loire","niveau":"Départemental","specialite":"CO à pied","latitude":"47.9192085038","longitude":"0.159853990519","valide":"Non","ppo":"Oui (38 postes)","type_carte":"Nouvelle carte","fond":"Cadastre","obsolete":true}},{"type":"Feature","geometry":{"type":"Polygon","coordinates":[[[0.3507,48.0063],[0.3534,47.9976],[0.3558,47.9968],[0.3551,47.9918],[0.3549,47.9907],[0.3557,47.989],[0.3589,47.9881],[0.3629,47.9913],[0.363,47.9955],[0.3625,47.9991],[0.3579,48.006],[0.3507,48.0063]]]},"properties":{"id_ffco":"9498","nom":"Domaine des parcs","_dept":"72","numero":"2005-D72-35","commune":"Champagné","echelle":"1/7500","surface":"1.13 km²","format":"A4","annee":"2005","cartographes":"Philippe DURAND","niveau":"Initiation, Scolaire","specialite":"CO à pied","latitude":"47.9977307611","longitude":"0.357603820576","date_saisie":"25/03/2016","valide":"Non","ppo":"Non","obsolete":true}},{"type":"Feature","geometry":{"type":"Polygon","coordinates":[[[-0.0413,47.7001],[-0.0416,47.7008],[-0.0456,47.7026],[-0.0468,47.7014],[-0.0487,47.702],[-0.0499,47.7014],[-0.0501,47.6992],[-0.0485,47.6992],[-0.0475,47.6999],[-0.0469,47.7005],[-0.0459,47.7004],[-0.0452,47.6992],[-0.0441,47.6991],[-0.0423,47.6994],[-0.0413,47.7001]]]},"properties":{"id_ffco":"12961","nom":"La Plage","_dept":"72","numero":"2004-D72-31","commune":"LA FLECHE","echelle":"1/4000","surface":"0.16 km²","format":"A4","annee":"2004","niveau":"Initiation, Scolaire","specialite":"CO à pied","latitude":"47.7006296186","longitude":"-0.0458451843379","date_saisie":"18/10/2021","valide":"Non","ppo":"Non","obsolete":true}},{"type":"Feature","geometry":{"type":"Polygon","coordinates":[[[0.4432,47.8003],[0.451,47.806],[0.4539,47.8036],[0.4544,47.8028],[0.4527,47.8019],[0.4565,47.7987],[0.4573,47.7978],[0.456,47.7968],[0.4551,47.7954],[0.454,47.7949],[0.4521,47.7942],[0.4432,47.8003]]]},"properties":{"id_ffco":"3656","nom":"Le Rond WAUTOT","_dept":"72","numero":"2003-D72-30","commune":"Pruillé-L'Eguillé/Jupilles","echelle":"1/5000","surface":"0.69 km²","format":"A4","annee":"2003","cartographes":"P. Durand,MASSON P","proprietaire":"7203 - PRYTANEE ORIENTATION","niveau":"Initiation, Scolaire","specialite":"CO à pied","latitude":"47.7998107707","longitude":"0.450666504701","date_saisie":"16/05/2003","date_depot":"20/05/2003","valide":"Oui","ppo":"Non","type_carte":"Reprise","base":"1998-D72-19 L'HERMITIERE (forêt de Bercé)","fond":"Cadastre","obsolete":true}},{"type":"Feature","geometry":{"type":"Polygon","coordinates":[[[0.426,47.8269],[0.4283,47.8272],[0.4291,47.8251],[0.433,47.8261],[0.434,47.8276],[0.4357,47.8285],[0.4422,47.8268],[0.4418,47.8265],[0.4421,47.8256],[0.4402,47.825],[0.4422,47.8233],[0.4455,47.8212],[0.4517,47.8183],[0.454,47.8144],[0.4541,47.8123],[0.4524,47.8106],[0.4537,47.8098],[0.4527,47.8091],[0.4515,47.8081],[0.4525,47.8067],[0.4511,47.806],[0.4545,47.8029],[0.4528,47.8019],[0.4573,47.7978],[0.4557,47.7964],[0.4548,47.7951],[0.452,47.7942],[0.4244,47.8133],[0.4204,47.8162],[0.4244,47.8226],[0.4261,47.8254],[0.426,47.8269]]]},"properties":{"id_ffco":"3657","nom":"Le chêne Sermaise","_dept":"72","numero":"2003-D72-29","commune":"Pruillé-L'Eguillé/Jupilles","echelle":"1/10000","surface":"5.22 km²","format":"+","annee":"2003","proprietaire":"7203 - PRYTANEE ORIENTATION","niveau":"Interrégional","specialite":"CO à pied","latitude":"47.8130577581","longitude":"0.43984506638","date_saisie":"16/05/2003","date_depot":"20/05/2003","valide":"Oui","ppo":"Non","type_carte":"Reprise","base":"1998-D72-19 L'HERMITIERE (forêt de Bercé)","fond":"Cadastre","obsolete":true}},{"type":"Feature","geometry":{"type":"Polygon","coordinates":[[[-0.0459,47.7028],[-0.0477,47.7015],[-0.0504,47.7003],[-0.0513,47.7009],[-0.0531,47.6999],[-0.0533,47.6987],[-0.0557,47.6978],[-0.0556,47.6955],[-0.0531,47.6953],[-0.0519,47.6943],[-0.0525,47.6928],[-0.0523,47.6912],[-0.0513,47.6907],[-0.0476,47.6905],[-0.048,47.6919],[-0.0498,47.6954],[-0.0453,47.6968],[-0.0388,47.6969],[-0.0395,47.699],[-0.0417,47.7007],[-0.0459,47.7028]]]},"properties":{"id_ffco":"408","nom":"La Monnerie","_dept":"72","numero":"2004-D72-28","commune":"LA FLECHE","echelle":"1/5000","surface":"0.76 km²","format":"A3","annee":"2004","niveau":"Initiation, Scolaire","specialite":"CO à pied","latitude":"47.69739517","longitude":"-0.0480697536422","valide":"Non","ppo":"Oui (20 postes)","obsolete":true}},{"type":"Feature","geometry":null,"properties":{"id_ffco":"6949","nom":"Ecole Léo Delibes","_dept":"72","numero":"2002-D72-27","commune":"LA FLECHE","echelle":"1/1000","surface":"None km²","format":"A4","annee":"2002","cartographes":"R. Buzon,P. Durand","proprietaire":"7203 - PRYTANEE ORIENTATION","niveau":"Initiation, Scolaire","specialite":"CO à pied","latitude":"47.6991506729","longitude":"-0.0748069763184","date_saisie":"28/09/2013","valide":"Non","ppo":"Non","obsolete":true}},{"type":"Feature","geometry":null,"properties":{"id_ffco":"6950","nom":"Ecole Pasteur","_dept":"72","numero":"2002-D72-26","commune":"LA FLECHE","echelle":"1/500","surface":"None km²","format":"A4","annee":"2002","cartographes":"R. Buzon,P. Durand","proprietaire":"7203 - PRYTANEE ORIENTATION","niveau":"Initiation, Scolaire","specialite":"CO à pied","latitude":"47.6993239708","longitude":"-0.0749786376954","date_saisie":"28/09/2013","valide":"Non","ppo":"Non","obsolete":true}},{"type":"Feature","geometry":null,"properties":{"id_ffco":"6951","nom":"Le Vieux Chêne","_dept":"72","numero":"2002-D72-25","commune":"LA FLECHE","echelle":"1/1000","surface":"None km²","format":"A4","annee":"2002","cartographes":"R. Buzon,P. Durand","proprietaire":"7203 - PRYTANEE ORIENTATION","niveau":"Initiation, Scolaire","specialite":"CO à pied","latitude":"47.6995550338","longitude":"-0.0748069763183","date_saisie":"28/09/2013","valide":"Non","ppo":"Non","obsolete":true}},{"type":"Feature","geometry":null,"properties":{"id_ffco":"6952","nom":"Ecole Lazar de Baïf","_dept":"72","numero":"2001-D72-24","commune":"LA FLECHE","echelle":"1/500","surface":"None km²","format":"A4","annee":"2001","cartographes":"R. Buzon,P. Durand","proprietaire":"7203 - PRYTANEE ORIENTATION","niveau":"Initiation, Scolaire","specialite":"CO à pied","latitude":"47.6995550338","longitude":"-0.0746353149414","date_saisie":"28/09/2013","valide":"Non","ppo":"Non","obsolete":true}},{"type":"Feature","geometry":null,"properties":{"id_ffco":"6953","nom":"Ecole André Fertré","_dept":"72","numero":"2001-D72-23","commune":"LA FLECHE","echelle":"1/500","surface":"None km²","format":"A4","annee":"2001","cartographes":"R. Buzon,P. Durand","proprietaire":"7203 - PRYTANEE ORIENTATION","niveau":"Initiation, Scolaire","specialite":"CO à pied","latitude":"47.6996705649","longitude":"-0.0747211456299","date_saisie":"28/09/2013","valide":"Non","ppo":"Non","obsolete":true}},{"type":"Feature","geometry":null,"properties":{"id_ffco":"6954","nom":"Ecole Jules Ferry","_dept":"72","numero":"2001-D72-22","commune":"LA FLECHE","echelle":"1/1000","surface":"None km²","format":"A4","annee":"2001","cartographes":"R. Buzon,P. Durand","proprietaire":"7203 - PRYTANEE ORIENTATION","niveau":"Initiation, Scolaire","specialite":"CO à pied","latitude":"47.6995550338","longitude":"-0.0747211456298","date_saisie":"28/09/2013","valide":"Non","ppo":"Non","obsolete":true}},{"type":"Feature","geometry":null,"properties":{"id_ffco":"6958","nom":"La petite charnie - La haute bosse","_dept":"72","numero":"1999-D72-21","commune":"SAINT-SYMPHORIEN","echelle":"1/5000","surface":"1.0 km²","format":"A4","annee":"1999","cartographes":"A. Frangeul,R. Feurprier","proprietaire":"PL - Pays de la Loire","niveau":"Initiation, Scolaire","specialite":"CO à pied","latitude":"48.0803895731","longitude":"-0.177031326294","date_saisie":"28/09/2013","valide":"Non","ppo":"Non","obsolete":true}},{"type":"Feature","geometry":{"type":"Polygon","coordinates":[[[-0.0702,47.6975],[-0.0725,47.6976],[-0.0727,47.6964],[-0.0731,47.6964],[-0.0738,47.6957],[-0.0736,47.6956],[-0.0737,47.6955],[-0.0733,47.6953],[-0.0726,47.6952],[-0.0719,47.6951],[-0.071,47.6949],[-0.0702,47.6975]]]},"properties":{"id_ffco":"6956","nom":"Parc des carmes","_dept":"72","numero":"2001-D72-20021","commune":"LA FLECHE","echelle":"1/1500","surface":"0.05 km²","format":"A4","annee":"2001","cartographes":"R. Buzon,P. Durand","proprietaire":"7203 - PRYTANEE ORIENTATION","niveau":"Initiation, Scolaire","specialite":"CO à pied","latitude":"47.6962902923","longitude":"-0.0718343615519","date_saisie":"28/09/2013","valide":"Non","ppo":"Non","type_carte":"Nouvelle carte","fond":"Cadastre","obsolete":true}},{"type":"Feature","geometry":{"type":"Polygon","coordinates":[[[-0.0618,48.2042],[-0.0548,48.2063],[-0.0502,48.2052],[-0.0485,48.2047],[-0.0465,48.2072],[-0.0405,48.2064],[-0.027,48.2174],[-0.0251,48.2299],[-0.0449,48.2327],[-0.0487,48.2229],[-0.0509,48.2263],[-0.0581,48.2264],[-0.0578,48.2322],[-0.103,48.2182],[-0.0957,48.2052],[-0.0903,48.2059],[-0.0842,48.2029],[-0.0803,48.1983],[-0.0703,48.2007],[-0.0618,48.2042]]]},"properties":{"id_ffco":"1458","nom":"PAS DU CHAT (LE)","_dept":"72","numero":"1986-D72-20004","commune":"SILLE LE GUILLAUME","echelle":"1/15000","surface":"13.29 km²","format":"A3","annee":"1986","cartographes":"A. Frangeul","proprietaire":"PL - Pays de la Loire","niveau":"Interrégional","specialite":"CO à pied","latitude":"48.2163426726","longitude":"-0.0626768153751","valide":"Oui","ppo":"Non","type_carte":"Nouvelle carte","fond":"IGN","ref_ign":"inconnue","obsolete":true}},{"type":"Feature","geometry":null,"properties":{"id_ffco":"3067","nom":"L'HERMITIERE EST","_dept":"72","numero":"1998-D72-20","commune":"JUPILLES","echelle":"1/5000","surface":"1.0 km²","format":"A5","annee":"1998","cartographes":"A. Frangeul","proprietaire":"PL - Pays de la Loire","niveau":"Interrégional","specialite":"CO à pied","latitude":"47.8003755521","longitude":"0.443185433322","valide":"Non","ppo":"Non","obsolete":true}},{"type":"Feature","geometry":{"type":"Polygon","coordinates":[[[0.4637,47.7941],[0.4583,47.7899],[0.449,47.7892],[0.4449,47.7898],[0.444,47.7947],[0.4418,47.7946],[0.4412,47.7951],[0.4386,47.7958],[0.4382,47.7965],[0.4355,47.7969],[0.4336,47.7976],[0.4241,47.8015],[0.4219,47.8024],[0.4224,47.8082],[0.4468,47.8091],[0.4549,47.8029],[0.4531,47.8019],[0.4546,47.8003],[0.4637,47.7941]]]},"properties":{"id_ffco":"3068","nom":"L'HERMITIERE (forêt de Bercé)","_dept":"72","numero":"1998-D72-19","commune":"JUPILLES","echelle":"1/10000","surface":"3.9 km²","format":"A4","annee":"1998","cartographes":"A. Frangeul","proprietaire":"PL - Pays de la Loire","niveau":"Interrégional","specialite":"CO à pied","latitude":"47.8001786991","longitude":"0.442935061912","valide":"Non","ppo":"Non","type_carte":"Reprise","base":"1994-D72-10 FORET DE BERCE - L'HERMITIERE","fond":"IGN","ref_ign":"inconnue","obsolete":true}},{"type":"Feature","geometry":{"type":"Polygon","coordinates":[[[0.1774,48.3773],[0.173,48.3848],[0.1735,48.3872],[0.1771,48.3886],[0.1757,48.3911],[0.1756,48.3937],[0.1732,48.3966],[0.1796,48.3994],[0.1801,48.4015],[0.1917,48.4049],[0.1955,48.4053],[0.2024,48.3961],[0.1774,48.3773]]]},"properties":{"id_ffco":"2866","nom":"FORET DOMANIALE DE PERSEIGNE","_dept":"72","numero":"1997-D72-18","commune":"St-Rigomer des Bois","echelle":"1/10000","surface":"3.63 km²","format":"A4","annee":"1997","cartographes":"R. Feurprier,A. Frangel","proprietaire":"PL - Pays de la Loire","niveau":"Interrégional","specialite":"CO à pied","latitude":"48.3931699437","longitude":"0.186117719588","valide":"Oui","ppo":"Non","type_carte":"Nouvelle carte","fond":"Cadastre","obsolete":true}},{"type":"Feature","geometry":null,"properties":{"id_ffco":"6965","nom":"Domaine de l'Arche et de l'Epau (extrait)","_dept":"72","numero":"1997-D72-17","commune":"CHANGE","echelle":"1/5000","surface":"None km²","format":"A5","annee":"1997","cartographes":"A. Frangeul","proprietaire":"PL - Pays de la Loire","niveau":"Régional","specialite":"CO à pied","latitude":"47.9874541036","longitude":"0.254482460022","date_saisie":"04/10/2013","valide":"Non","ppo":"Non","type_carte":"Extrait","base":"1997-D72-16 Domaine de l'Arche et de l'Epau","fond":"Cadastre","obsolete":true}},{"type":"Feature","geometry":{"type":"Polygon","coordinates":[[[0.2865,47.9952],[0.2862,47.9983],[0.2855,47.9989],[0.2785,48.0006],[0.2697,47.9999],[0.2647,47.9968],[0.264,47.9973],[0.2621,47.9967],[0.2587,48.0002],[0.2561,48.0013],[0.2525,48.0006],[0.2488,47.9975],[0.2512,47.9937],[0.2459,47.9919],[0.2424,47.9888],[0.2422,47.9884],[0.2435,47.9878],[0.2423,47.987],[0.2423,47.984],[0.2412,47.9813],[0.2425,47.9806],[0.2438,47.9748],[0.2499,47.9771],[0.2528,47.9775],[0.2586,47.9775],[0.259,47.9835],[0.2657,47.9884],[0.272,47.9932],[0.2749,47.9929],[0.2768,47.9917],[0.2865,47.9952]]]},"properties":{"id_ffco":"6964","nom":"Domaine de l'Arche et de l'Epau","_dept":"72","numero":"1997-D72-16","commune":"CHANGE","echelle":"1/15000","surface":"4.58 km²","format":"A4","annee":"1997","cartographes":"R. Feurprier,A. Frangeul","proprietaire":"PL - Pays de la Loire","niveau":"Régional","specialite":"CO à pied","latitude":"47.9901954677","longitude":"0.259373682298","date_saisie":"04/10/2013","valide":"Oui","ppo":"Non","type_carte":"Nouvelle carte","fond":"Cadastre","obsolete":true}},{"type":"Feature","geometry":null,"properties":{"id_ffco":"6963","nom":"LA CHAPELLE ST-ANNE","_dept":"72","numero":"1996-D72-15","commune":"VIBRAYE","echelle":"1/5000","surface":"None km²","format":"A4","annee":"1996","cartographes":"R. Feurprier,JM Blot,P. Roger","proprietaire":"PL - Pays de la Loire","niveau":"Initiation, Scolaire","specialite":"CO à pied","latitude":"48.0510218912","longitude":"0.727817249298","date_saisie":"04/10/2013","valide":"Non","ppo":"Non","obsolete":true}},{"type":"Feature","geometry":{"type":"Polygon","coordinates":[[[-0.0685,48.2405],[-0.0672,48.239],[-0.0671,48.2379],[-0.07,48.2379],[-0.0707,48.2365],[-0.0725,48.2362],[-0.0756,48.2379],[-0.0769,48.2387],[-0.0767,48.2389],[-0.0787,48.2391],[-0.0809,48.2384],[-0.081,48.2377],[-0.0853,48.237],[-0.0872,48.237],[-0.089,48.2364],[-0.0903,48.2351],[-0.0941,48.2358],[-0.0953,48.2291],[-0.0903,48.2216],[-0.0789,48.225],[-0.0785,48.2244],[-0.0704,48.2231],[-0.0577,48.2237],[-0.057,48.2257],[-0.0584,48.2313],[-0.0622,48.2311],[-0.0676,48.2405],[-0.0685,48.2405]]]},"properties":{"id_ffco":"2916","nom":"LE SAUT DU CERF - ROCHEBRUNE","_dept":"72","numero":"1996-D72-14","commune":"SILLE LE GUILLAUME","echelle":"1/10000","surface":"3.85 km²","format":"A4","annee":"1996","cartographes":"A. Frangeul","proprietaire":"PL - Pays de la Loire","niveau":"Interrégional","specialite":"CO à pied","latitude":"48.2300785027","longitude":"-0.0768847174292","valide":"Oui","ppo":"Non","type_carte":"Nouvelle carte","fond":"IGN","ref_ign":"Inconnue","obsolete":true}},{"type":"Feature","geometry":null,"properties":{"id_ffco":"6962","nom":"LE HAUT BUISSON","_dept":"72","numero":"1996-D72-13","commune":"CHERRE","echelle":"1/5000","surface":"None km²","format":"A4","annee":"1996","cartographes":"R. Feurprier,P. Roger,A. Frangeul","proprietaire":"PL - Pays de la Loire","niveau":"Initiation, Scolaire","specialite":"CO à pied","latitude":"48.1571137401","longitude":"0.658530426025","date_saisie":"04/10/2013","valide":"Non","ppo":"Non","obsolete":true}},{"type":"Feature","geometry":{"type":"Polygon","coordinates":[[[-0.1426,48.2009],[-0.1431,48.2046],[-0.153,48.2118],[-0.1568,48.2132],[-0.1575,48.2144],[-0.1567,48.2156],[-0.1553,48.2165],[-0.1527,48.2194],[-0.1414,48.2199],[-0.1372,48.2188],[-0.1345,48.2194],[-0.1329,48.219],[-0.1321,48.2184],[-0.1296,48.2192],[-0.1255,48.2186],[-0.1252,48.2197],[-0.12,48.2128],[-0.1212,48.2089],[-0.1205,48.2069],[-0.1222,48.2017],[-0.1229,48.1998],[-0.1328,48.1996],[-0.1426,48.2009]]]},"properties":{"id_ffco":"2917","nom":"LE GRAND ETANG","_dept":"72","numero":"1995-D72-12","commune":"SILLE LE GUILLAUME","echelle":"1/10000","surface":"4.47 km²","format":"A4","annee":"1995","cartographes":"Frangeul","proprietaire":"PL - Pays de la Loire","niveau":"Départemental","specialite":"CO à pied","latitude":"48.2105624915","longitude":"-0.136176681792","valide":"Oui","ppo":"Non","type_carte":"Nouvelle carte","fond":"IGN","ref_ign":"Inconnue","obsolete":true}},{"type":"Feature","geometry":{"type":"Polygon","coordinates":[[[0.3313,48.0136],[0.3204,48.0136],[0.3185,48.0129],[0.3206,48.0113],[0.3185,48.0102],[0.3196,48.0089],[0.3205,48.0101],[0.331,48.0097],[0.3313,48.0136]]]},"properties":{"id_ffco":"12869","nom":"Caserne Martin des Pallières","_dept":"72","numero":"2021-D72-112","commune":"CHAMPAGNE","echelle":"1/3500","surface":"0.37 km²","format":"A4","annee":"2021","cartographes":"Eric Charles","proprietaire":"2ème RIMA","niveau":"Initiation, Scolaire","specialite":"CO à pied","contacts":"2ème RIMA, CS 90061, 72470, CHAMPAGNE, 02 43 54 62 99","latitude":"48.0117222114","longitude":"0.325272017073","date_saisie":"09/09/2021","valide":"Non","ppo":"Non","type_carte":"Nouvelle carte","fond":"Cadastre","obsolete":true}},{"type":"Feature","geometry":{"type":"Polygon","coordinates":[[[0.1631,47.9633],[0.162,47.9678],[0.167,47.9724],[0.1683,47.9723],[0.1742,47.9658],[0.1631,47.9633]]]},"properties":{"id_ffco":"3243","nom":"ALLONNES","_dept":"72","numero":"1995-D72-11","commune":"ALLONNES","echelle":"1/5000","surface":"0.52 km²","format":"A4","annee":"1995","cartographes":"A. Frangeul","proprietaire":"PL - Pays de la Loire","niveau":"Initiation, Scolaire","specialite":"CO à pied","latitude":"47.9675160883","longitude":"0.167325568572","valide":"Oui","ppo":"Non","type_carte":"Nouvelle carte","fond":"Cadastre","obsolete":true}},{"type":"Feature","geometry":null,"properties":{"id_ffco":"6955","nom":"Cité Scolaire","_dept":"72","numero":"2001-D72-10021","commune":"LA FLECHE","echelle":"1/2000","surface":"None km²","format":"A4","annee":"2001","cartographes":"R. Buzon,P. Durand","proprietaire":"7203 - PRYTANEE ORIENTATION","niveau":"Initiation, Scolaire","specialite":"CO à pied","latitude":"47.6995550338","longitude":"-0.074377822876","date_saisie":"28/09/2013","valide":"Non","ppo":"Non","type_carte":"Nouvelle carte","fond":"Cadastre","obsolete":true}},{"type":"Feature","geometry":null,"properties":{"id_ffco":"6957","nom":"Bois de la Lande Plate","_dept":"72","numero":"2001-D72-10020","commune":"LA FLECHE","echelle":"1/1500","surface":"None km²","format":"A4","annee":"2001","cartographes":"R. Buzon,P. Durand","proprietaire":"7203 - PRYTANEE ORIENTATION","niveau":"Initiation, Scolaire","specialite":"CO à pied","latitude":"47.6995550338","longitude":"-0.0748069763184","date_saisie":"28/09/2013","valide":"Non","ppo":"Non","type_carte":"Nouvelle carte","fond":"IGN","ref_ign":"inconnue","obsolete":true}},{"type":"Feature","geometry":null,"properties":{"id_ffco":"2978","nom":"LA ROIRIE OUEST","_dept":"72","numero":"1996-D72-10019","commune":"LA FLECHE","echelle":"1/10000","surface":"1.5 km²","format":"A4","annee":"1996","proprietaire":"7203 - PRYTANEE ORIENTATION","specialite":"CO à pied","latitude":"47.6977113","longitude":"-0.0749811","valide":"Non","ppo":"Non","type_carte":"Nouvelle carte","fond":"IGN","ref_ign":"inconnue","obsolete":true}},{"type":"Feature","geometry":{"type":"Polygon","coordinates":[[[0.3052,48.4119],[0.2997,48.3976],[0.2676,48.402],[0.2689,48.4056],[0.2646,48.4083],[0.265,48.4091],[0.2647,48.411],[0.2656,48.4115],[0.2672,48.4114],[0.2704,48.4113],[0.2711,48.4118],[0.2716,48.4132],[0.2732,48.4146],[0.2751,48.4149],[0.2773,48.416],[0.2784,48.4171],[0.2806,48.4168],[0.2806,48.4172],[0.2828,48.4187],[0.3052,48.4119]]]},"properties":{"id_ffco":"1460","nom":"LE BELVEDERE (PERSEIGNE)","_dept":"72","numero":"1984-D72-10004","commune":"MAMERS","echelle":"1/15000","surface":"4.59 km²","format":"A4","annee":"1984","cartographes":"G Crochet,A Bechu,JL Feuillet","proprietaire":"PL - Pays de la Loire","niveau":"Interrégional","specialite":"CO à pied","latitude":"48.4077595649","longitude":"0.285819502697","valide":"Oui","ppo":"Non","type_carte":"Nouvelle carte","fond":"Cadastre","obsolete":true}},{"type":"Feature","geometry":{"type":"Polygon","coordinates":[[[0.4369,47.7977],[0.4364,47.7967],[0.4383,47.7966],[0.4413,47.7951],[0.4418,47.7946],[0.444,47.7947],[0.4449,47.79],[0.4481,47.79],[0.4522,47.7941],[0.4526,47.7944],[0.4549,47.7952],[0.4563,47.7971],[0.4579,47.7982],[0.4563,47.7996],[0.4555,47.7994],[0.4527,47.802],[0.4544,47.8028],[0.4511,47.806],[0.4454,47.8097],[0.4431,47.8083],[0.4304,47.8093],[0.427,47.8072],[0.4269,47.8029],[0.4315,47.8014],[0.4343,47.8],[0.4355,47.7974],[0.4369,47.7977]]]},"properties":{"id_ffco":"1461","nom":"FORET DE BERCE - L'HERMITIERE","_dept":"72","numero":"1994-D72-10","commune":"JUPILLES","echelle":"1/10000","surface":"2.79 km²","format":"A4","annee":"1994","cartographes":"Partridge,Morvan,Frangeul","proprietaire":"PL - Pays de la Loire","niveau":"Interrégional","specialite":"CO à pied","latitude":"47.8013262177","longitude":"0.442676571388","valide":"Oui","ppo":"Non","type_carte":"Reprise","base":"1981-D72-01 HERMITIERE (L')","fond":"IGN","ref_ign":"inconnue","obsolete":true}},{"type":"Feature","geometry":{"type":"Polygon","coordinates":[[[-0.4666,47.8785],[-0.4666,47.8914],[-0.4424,47.8914],[-0.4424,47.8785],[-0.4666,47.8785]]]},"properties":{"id_ffco":"2560","nom":"ST-LOUP (forêt de Bellebranche-72)","_dept":"72","numero":"1991-D72-09","commune":"SAINT-LOUP-DU-DORAT","echelle":"1/7500","surface":"2.6 km²","format":"A4","annee":"1991","cartographes":"A. Frangeul","proprietaire":"PL - Pays de la Loire","niveau":"Initiation, Scolaire","specialite":"CO à pied","latitude":"47.884981009","longitude":"-0.454473495483","valide":"Oui","ppo":"Non","type_carte":"Nouvelle carte","fond":"IGN","ref_ign":"inconnue","obsolete":true}},{"type":"Feature","geometry":null,"properties":{"id_ffco":"2559","nom":"LE MANS - BOIS DE CHANGE","_dept":"72","numero":"1990-D72-08","commune":"LE MANS","echelle":"1/10000","surface":"4.0 km²","format":"A3","annee":"1990","cartographes":"A. Frangeul","proprietaire":"PL - Pays de la Loire","niveau":"Initiation, Scolaire","specialite":"CO à pied","latitude":"47.9885041124","longitude":"0.264958008701","valide":"Non","ppo":"Non","type_carte":"Nouvelle carte","fond":"Cadastre","obsolete":true}},{"type":"Feature","geometry":{"type":"Polygon","coordinates":[[[0.2421,47.977],[0.2421,47.9891],[0.2555,47.9891],[0.2555,47.977],[0.2421,47.977]]]},"properties":{"id_ffco":"2558","nom":"BOIS DE CHANGE","_dept":"72","numero":"1990-D72-07","commune":"LE MANS","echelle":"1/7500","surface":"1.34 km²","format":"A4","annee":"1990","cartographes":"A. Frangeul","proprietaire":"PL - Pays de la Loire","niveau":"Initiation, Scolaire","specialite":"CO à pied","latitude":"47.9830133111","longitude":"0.248801708221","valide":"Oui","ppo":"Non","type_carte":"Nouvelle carte","fond":"IGN","ref_ign":"inconnue","obsolete":true}},{"type":"Feature","geometry":{"type":"Polygon","coordinates":[[[-0.3338,47.8295],[-0.3338,47.8362],[-0.3265,47.8362],[-0.3265,47.8295],[-0.3338,47.8295]]]},"properties":{"id_ffco":"2557","nom":"Champ De Course - Camping","_dept":"72","numero":"1990-D72-06","commune":"SABLE","echelle":"1/6000","surface":"0.41 km²","format":"A5","annee":"1990","cartographes":"A. Frangeul","proprietaire":"PL - Pays de la Loire","niveau":"Initiation, Scolaire","specialite":"CO à pied","latitude":"47.8328562211","longitude":"-0.330126285553","valide":"Oui","ppo":"Non","type_carte":"Nouvelle carte","fond":"Cadastre","obsolete":true}},{"type":"Feature","geometry":{"type":"Polygon","coordinates":[[[-0.3414,47.8344],[-0.3414,47.839],[-0.3286,47.839],[-0.3286,47.8344],[-0.3414,47.8344]]]},"properties":{"id_ffco":"2556","nom":"LE CHATEAU","_dept":"72","numero":"1990-D72-05","commune":"SABLE","echelle":"1/6000","surface":"0.49 km²","format":"A5","annee":"1990","cartographes":"A. Frangeul","proprietaire":"PL - Pays de la Loire","niveau":"Initiation, Scolaire","specialite":"CO à pied","latitude":"47.8367237291","longitude":"-0.334986448288","valide":"Oui","ppo":"Non","type_carte":"Nouvelle carte","fond":"Cadastre","obsolete":true}},{"type":"Feature","geometry":{"type":"Polygon","coordinates":[[[0.4201,47.8162],[0.4244,47.8132],[0.4517,47.8183],[0.4465,47.8207],[0.4403,47.8252],[0.4422,47.8255],[0.4419,47.8265],[0.4448,47.8301],[0.4423,47.8311],[0.4395,47.8314],[0.4383,47.8329],[0.4384,47.8345],[0.4372,47.835],[0.4355,47.8345],[0.4345,47.8315],[0.4365,47.8291],[0.4333,47.827],[0.433,47.8262],[0.4289,47.8252],[0.4288,47.8248],[0.4272,47.8246],[0.4264,47.8252],[0.4258,47.825],[0.4201,47.8162]]]},"properties":{"id_ffco":"1459","nom":"SERMAISE","_dept":"72","numero":"1982-D72-04","commune":"JUPILLES","echelle":"1/15000","surface":"2.49 km²","format":"A4","annee":"1982","cartographes":"Partridge W.,A. Frangeul","proprietaire":"PL - Pays de la Loire","niveau":"Interrégional","specialite":"CO à pied","latitude":"47.8216571736","longitude":"0.434665426291","valide":"Oui","ppo":"Non","type_carte":"Nouvelle carte","fond":"IGN","ref_ign":"inconnue","obsolete":true}},{"type":"Feature","geometry":{"type":"Polygon","coordinates":[[[-0.1378,48.2112],[-0.1388,48.211],[-0.1399,48.2114],[-0.14,48.2127],[-0.1428,48.2172],[-0.1419,48.2204],[-0.1394,48.2221],[-0.1389,48.2231],[-0.1372,48.2242],[-0.1372,48.2247],[-0.134,48.2259],[-0.123,48.2273],[-0.1226,48.2121],[-0.1264,48.211],[-0.1358,48.2101],[-0.1378,48.2112]]]},"properties":{"id_ffco":"2555","nom":"LE DEFAYS","_dept":"72","numero":"1984-D72-03","commune":"SILLE LE GUILLAUME","echelle":"1/10000","surface":"2.25 km²","format":"A5","annee":"1984","cartographes":"A. Frangeul","proprietaire":"PL - Pays de la Loire","niveau":"Interrégional","specialite":"CO à pied","latitude":"48.2183270649","longitude":"-0.131613289333","valide":"Oui","ppo":"Non","type_carte":"Nouvelle carte","fond":"Cadastre","obsolete":true}},{"type":"Feature","geometry":{"type":"Polygon","coordinates":[[[0.2073,48.4003],[0.2117,48.4037],[0.227,48.4111],[0.2334,48.4068],[0.2427,48.4001],[0.2325,48.3936],[0.2313,48.3935],[0.2301,48.3929],[0.2275,48.3923],[0.2194,48.3981],[0.2181,48.3986],[0.2136,48.3988],[0.2106,48.3989],[0.2073,48.4003]]]},"properties":{"id_ffco":"2554","nom":"CROIX SAMSON (Forêt de Perseigne)","_dept":"72","numero":"1982-D72-02","commune":"Neufchâtel-en-Saosnois (MAMERS / ALENCON)","echelle":"1/10000","surface":"2.72 km²","format":"A4","annee":"1982","cartographes":"Le Clec'h,Samson,Simon,Frangeul","proprietaire":"PL - Pays de la Loire","niveau":"Interrégional","specialite":"CO à pied","contacts":"Syndicat d'Initiative du Saosnois, 72600, Mamers","latitude":"48.4015033547","longitude":"0.226193190392","valide":"Oui","ppo":"Non","type_carte":"Nouvelle carte","fond":"IGN","ref_ign":"inconnue","obsolete":true}},{"type":"Feature","geometry":{"type":"Polygon","coordinates":[[[0.4186,47.8037],[0.42,47.8029],[0.4205,47.8032],[0.4357,47.7976],[0.437,47.7979],[0.4366,47.7969],[0.4383,47.7966],[0.4402,47.7954],[0.4414,47.7953],[0.442,47.7946],[0.4441,47.7948],[0.4451,47.7899],[0.446,47.7899],[0.4493,47.7918],[0.4502,47.793],[0.4515,47.7937],[0.452,47.7942],[0.4551,47.7954],[0.4565,47.7973],[0.4579,47.7982],[0.4563,47.7997],[0.4553,47.7994],[0.4527,47.802],[0.4545,47.8029],[0.4511,47.806],[0.4369,47.8157],[0.4243,47.8134],[0.4186,47.8037]]]},"properties":{"id_ffco":"2553","nom":"HERMITIERE (L')","_dept":"72","numero":"1981-D72-01","commune":"JUPILLES","echelle":"1/10000","surface":"4.24 km²","format":"+","annee":"1981","cartographes":"Partridge,Morvan,Michel,Alain FRANGEUL","proprietaire":"PL - Pays de la Loire","niveau":"Interrégional","specialite":"CO à pied","latitude":"47.8040178806","longitude":"0.438408288736","valide":"Oui","ppo":"Non","type_carte":"Nouvelle carte","fond":"IGN","ref_ign":"La Chartre sur le Loir","obsolete":true}},{"type":"Feature","geometry":null,"properties":{"id_ffco":"2552","nom":"LE SAULT MOULIN","_dept":"72","numero":"1981-D72-00","echelle":"1/10000","surface":"1.2 km²","format":"A4","annee":"1981","cartographes":"JP Auffret,JM Roumanie,H Letteron","proprietaire":"PL - Pays de la Loire","niveau":"Initiation, Scolaire","specialite":"CO à pied","latitude":"47.9217014","longitude":"0.1655803","valide":"Non","ppo":"Non","obsolete":true}}]}