{"type":"FeatureCollection","features":[{"type":"Feature","geometry":{"type":"Polygon","coordinates":[[[6.4822,45.1815],[6.4797,45.1819],[6.4784,45.1823],[6.4779,45.1854],[6.4772,45.1869],[6.476,45.1895],[6.4753,45.1919],[6.4755,45.1939],[6.4769,45.1947],[6.4794,45.1943],[6.4847,45.1945],[6.4854,45.1939],[6.4844,45.1926],[6.4827,45.192],[6.4826,45.1908],[6.4837,45.188],[6.4848,45.1861],[6.4858,45.185],[6.4864,45.1836],[6.4852,45.1825],[6.4828,45.1824],[6.4822,45.1815],[6.4822,45.1815]]]},"properties":{"id_ffco":"5862","nom":"LE VILLAGE 1500","_dept":"73","numero":"2002-D73-72b","commune":"VALMEINIER","echelle":"1/5000","surface":"0.83 km²","annee":"2002","cartographes":"GARCIA Pierre","proprietaire":"38 - Isère","specialite":"CO à pied","contacts":"CDCO 38, cdco38@free.fr, http://cdco38.free.fr","latitude":"45.18775","longitude":"6.47932","date_saisie":"19/07/2013","valide":"Non","ppo":"Non","obsolete":true}},{"type":"Feature","geometry":{"type":"Polygon","coordinates":[[[5.6316,45.5978],[5.6306,45.5986],[5.6319,45.5993],[5.6339,45.599],[5.634,45.5981],[5.6369,45.5959],[5.6386,45.5948],[5.6392,45.5938],[5.6379,45.5928],[5.6374,45.5927],[5.6367,45.5932],[5.6344,45.594],[5.633,45.5959],[5.6316,45.5978]]]},"properties":{"id_ffco":"6557","nom":"LES BORDS DU GUIERS","_dept":"73","numero":"2011-D73-63","commune":"ST GENIX SUR GUIER","echelle":"1/3000","surface":"0.19 km²","format":"A4","annee":"2011","cartographes":"PLOCKYN Daniel","proprietaire":"73 - Savoie","niveau":"Initiation, Scolaire","specialite":"CO à pied","contacts":"COLLEGE DE SAINT GENIX, 04 76 31 83 13","latitude":"45.59598","longitude":"5.63488","date_saisie":"19/07/2013","date_depot":"01/07/2011","valide":"Oui","ppo":"Non","type_carte":"Nouvelle carte","fond":"Cadastre","obsolete":true}},{"type":"Feature","geometry":{"type":"Polygon","coordinates":[[[5.8321,45.9367],[5.8316,45.9371],[5.8314,45.9371],[5.8307,45.9369],[5.8305,45.9365],[5.8305,45.9363],[5.8305,45.9357],[5.83,45.9349],[5.8286,45.9345],[5.8276,45.9341],[5.8266,45.9326],[5.8248,45.9308],[5.8256,45.9307],[5.8271,45.9315],[5.83,45.9331],[5.8312,45.9332],[5.834,45.9323],[5.8354,45.932],[5.836,45.932],[5.836,45.9322],[5.8352,45.9328],[5.8345,45.934],[5.8329,45.9357],[5.8321,45.9367]]]},"properties":{"id_ffco":"6309","nom":"BASE DE LOISIRS","_dept":"73","numero":"2007-D73-58","commune":"MOTZ","echelle":"1/3000","surface":"0.2 km²","format":"A4","annee":"2007","cartographes":"LASOUCHE Johann","proprietaire":"74 - Haute-Savoie","niveau":"Départemental","specialite":"CO à pied","contacts":"CDCO 74, cdco74ra@free.fr, http://www.cdco74.fr/","latitude":"45.93392","longitude":"5.83042","date_saisie":"19/07/2013","date_depot":"27/07/2010","valide":"Oui","ppo":"Non","type_carte":"Nouvelle carte","fond":"Ortho","obsolete":true}},{"type":"Feature","geometry":{"type":"Polygon","coordinates":[[[5.8856,45.6985],[5.8876,45.699],[5.8899,45.6954],[5.8904,45.6944],[5.8911,45.6945],[5.892,45.6942],[5.8923,45.6945],[5.8934,45.6948],[5.8937,45.6951],[5.8943,45.6959],[5.8955,45.6958],[5.8969,45.6956],[5.8968,45.6944],[5.8968,45.6943],[5.8957,45.6943],[5.8942,45.6942],[5.8933,45.6938],[5.8921,45.6934],[5.891,45.6931],[5.8901,45.6934],[5.8898,45.6933],[5.8885,45.6929],[5.8857,45.6981],[5.8856,45.6985],[5.8856,45.6985]]]},"properties":{"id_ffco":"6541","nom":"LE PETIT PORT AIX LES BAINS","_dept":"73","numero":"2004-D73-41","commune":"AIX-LES-BAINS","echelle":"1/4000","surface":"0.2 km²","format":"A4","annee":"2004","cartographes":"BORNARD Patrice","proprietaire":"7305 - ESPACE CHAMBERY ORIENTATION 73 - ECHO 73","niveau":"Initiation, Scolaire","specialite":"CO à pied","contacts":"CLUB ECHO 73, 06 71 26 19 79, georges_tre@yahoo.fr, http://www.echo7305.com/","latitude":"45.69596","longitude":"5.89125","date_saisie":"19/07/2013","valide":"Non","ppo":"Non","type_carte":"Nouvelle carte","fond":"Ortho","obsolete":true}},{"type":"Feature","geometry":{"type":"Polygon","coordinates":[[[6.4061,45.2274],[6.4054,45.2272],[6.4048,45.227],[6.4049,45.2266],[6.4009,45.2275],[6.4001,45.2288],[6.4012,45.2305],[6.4055,45.2295],[6.4065,45.2283],[6.4061,45.2274]]]},"properties":{"id_ffco":"5852","nom":"LE FORUM","_dept":"73","numero":"2002-D73-39","commune":"MONTRICHER-ALBANNE","echelle":"1/2500","surface":"0.14 km²","annee":"2002","cartographes":"GASSIEN Michel","proprietaire":"7305 - ESPACE CHAMBERY ORIENTATION 73 - ECHO 73","specialite":"CO à pied","contacts":"CLUB ECHO 73, 06 71 26 19 79, georges_tre@yahoo.fr, http://www.echo7305.com/","latitude":"45.22853","longitude":"6.40331","date_saisie":"19/07/2013","valide":"Non","ppo":"Non","obsolete":true}},{"type":"Feature","geometry":{"type":"Polygon","coordinates":[[[6.8053,45.6019],[6.7966,45.5995],[6.7875,45.5947],[6.7727,45.5757],[6.7587,45.5566],[6.7648,45.5477],[6.7914,45.5428],[6.8127,45.5429],[6.8316,45.5517],[6.8374,45.5742],[6.8368,45.5846],[6.827,45.5957],[6.8138,45.6011],[6.8053,45.6019]]]},"properties":{"id_ffco":"6144","nom":"LES ARCS","_dept":"73","numero":"2006-D73-28","commune":"LANDRY","echelle":"1/20000","surface":"29.03 km²","format":"A3","annee":"2006","cartographes":"MAREIGNER Franz et Yann","proprietaire":"73 - Savoie","niveau":"National, International","specialite":"Raid'O","contacts":"CDCO 73, cdco73@free.fr, https://sites.google.com/site/cdco73/home","latitude":"45.57235","longitude":"6.79805","date_saisie":"19/07/2013","valide":"Non","ppo":"Non","type_carte":"Nouvelle carte","fond":"Ortho","obsolete":true}},{"type":"Feature","geometry":{"type":"Polygon","coordinates":[[[6.1713,45.4802],[6.1586,45.4732],[6.1558,45.4705],[6.1578,45.4683],[6.1676,45.4681],[6.1755,45.4659],[6.1851,45.4693],[6.1896,45.4779],[6.1826,45.4809],[6.1713,45.4802]]]},"properties":{"id_ffco":"6168","nom":"PIC DE L'HUILE","_dept":"73","numero":"1998-D73-22","commune":"LA TABLE","echelle":"1/7500","surface":"2.83 km²","format":"A4","annee":"1998","cartographes":"MAREIGNER Franz et Yann","proprietaire":"BIEN VIVRE en VAL GELON","niveau":"Départemental","specialite":"CO à pied","contacts":"BIEN VIVRE en VAL GELON, 04 79 65 68 42, bienvivre@valgelon.com, http://www.bienvivre.valgelon.com/","latitude":"45.47337","longitude":"6.17269","date_saisie":"19/07/2013","valide":"Non","ppo":"Non","type_carte":"Nouvelle carte","fond":"Ortho","obsolete":true}},{"type":"Feature","geometry":{"type":"Polygon","coordinates":[[[5.9071,45.7215],[5.9031,45.7215],[5.8991,45.718],[5.8995,45.7159],[5.8969,45.7149],[5.8971,45.7134],[5.8995,45.7114],[5.9028,45.7111],[5.9054,45.711],[5.9064,45.7118],[5.9062,45.7148],[5.9074,45.7156],[5.9068,45.7184],[5.9084,45.7204],[5.9071,45.7215]]]},"properties":{"id_ffco":"6126","nom":"BOIS DE CORSUET VTT","_dept":"73","numero":"2000-D73-20","commune":"DRUMETTAZ-CLARAFOND","echelle":"1/15000","surface":"0.69 km²","format":"A4","annee":"2000","cartographes":"INCONNU","proprietaire":"7305 - ESPACE CHAMBERY ORIENTATION 73 - ECHO 73","niveau":"Initiation, Scolaire","specialite":"CO à VTT","contacts":"CLUB ECHO 73, 06 71 26 19 79, georges_tre@yahoo.fr, http://www.echo7305.com/","latitude":"45.71625","longitude":"5.90264","date_saisie":"19/07/2013","valide":"Non","ppo":"Non","type_carte":"Nouvelle carte","fond":"Ortho","obsolete":true}},{"type":"Feature","geometry":{"type":"Polygon","coordinates":[[[5.8012,45.4532],[5.8048,45.4505],[5.8098,45.4506],[5.8156,45.4547],[5.8186,45.459],[5.8124,45.4624],[5.8081,45.4585],[5.8045,45.4584],[5.8021,45.4565],[5.8012,45.4532]]]},"properties":{"id_ffco":"7441","nom":"St-JEAN-DE-COUZ","_dept":"73","numero":"2003-D73-19","commune":"St-JeanCouz","echelle":"1/10000","surface":"1.03 km²","format":"A4","annee":"2003","cartographes":"MAREIGNER Franz et Yann","proprietaire":"73 - Savoie","niveau":"Régional","specialite":"CO à pied","contacts":"CDCO 73, cdco73@free.fr, https://sites.google.com/site/cdco73/home","date_saisie":"01/10/2014","date_depot":"22/07/2014","valide":"Oui","ppo":"Non","type_carte":"Nouvelle carte","fond":"Ortho","obsolete":true}},{"type":"Feature","geometry":{"type":"Polygon","coordinates":[[[6.2059,45.5063],[6.2119,45.5101],[6.2396,45.5021],[6.2263,45.4889],[6.1946,45.4761],[6.1685,45.4612],[6.1333,45.4588],[6.1223,45.4645],[6.1748,45.5067],[6.2047,45.5055],[6.2059,45.5063]]]},"properties":{"id_ffco":"6160","nom":"VALLEE DES HUILES","_dept":"73","numero":"2012-D73-18","commune":"LA ROCHETTE","echelle":"1/20000","surface":"25.3 km²","format":"A3","annee":"2012","cartographes":"MAREIGNER Franz et Yann","proprietaire":"BIEN VIVRE en VAL GELON","niveau":"Régional","specialite":"Rand'O","contacts":"BIEN VIVRE en VAL GELON, 04 79 65 68 42, bienvivre@valgelon.com, http://www.bienvivre.valgelon.com/","latitude":"45.48445","longitude":"6.18093","date_saisie":"19/07/2013","date_depot":"27/11/2015","valide":"Oui","ppo":"Non","type_carte":"Reprise","base":"2012-D73-18 VALLEE DES HUILES","fond":"Ortho","obsolete":true}},{"type":"Feature","geometry":{"type":"Polygon","coordinates":[[[6.3777,45.6701],[6.3743,45.6685],[6.3743,45.6674],[6.3747,45.6665],[6.3753,45.6656],[6.3763,45.665],[6.3778,45.6644],[6.3783,45.6644],[6.3798,45.6656],[6.3816,45.6672],[6.3777,45.6701]]]},"properties":{"id_ffco":"12572","nom":"VAL DES ROSES","_dept":"73","numero":"2020-D73-174","commune":"Albertville","echelle":"1/3000","surface":"0.22 km²","format":"A4","annee":"2020","cartographes":"ASTRADE Laurent","proprietaire":"73 - Savoie","niveau":"Initiation, Scolaire","specialite":"CO à pied","contacts":"CDCO73","latitude":"45.6672107945","longitude":"6.37759652976","date_saisie":"24/01/2021","date_depot":"09/03/2021","valide":"Oui","ppo":"Non","type_carte":"Nouvelle carte","fond":"Ortho","obsolete":true}},{"type":"Feature","geometry":{"type":"Polygon","coordinates":[[[6.1299,45.4732],[6.1234,45.4684],[6.1275,45.4652],[6.136,45.4716],[6.1356,45.4718],[6.1307,45.4731],[6.1299,45.4732]]]},"properties":{"id_ffco":"6159","nom":"LE CASTELLET N° 2","_dept":"73","numero":"2000-D73-17","commune":"LA ROCHETTE","echelle":"1/2000","surface":"0.41 km²","annee":"2000","cartographes":"MAREIGNER Franz et Yann","proprietaire":"BIEN VIVRE en VAL GELON","specialite":"CO à pied","contacts":"BIEN VIVRE en VAL GELON, 04 79 65 68 42, bienvivre@valgelon.com, http://www.bienvivre.valgelon.com/","latitude":"45.46919","longitude":"6.12973","date_saisie":"19/07/2013","valide":"Non","ppo":"Non","type_carte":"Nouvelle carte","fond":"Ortho","obsolete":true}},{"type":"Feature","geometry":{"type":"Polygon","coordinates":[[[6.021,45.6802],[6.0243,45.6827],[6.0256,45.6847],[6.0291,45.684],[6.0331,45.6846],[6.033,45.6865],[6.0348,45.6879],[6.0373,45.6882],[6.0368,45.69],[6.032,45.691],[6.0268,45.6921],[6.0214,45.6919],[6.0172,45.6898],[6.0123,45.6871],[6.0099,45.6841],[6.0098,45.682],[6.0119,45.6802],[6.0173,45.68],[6.021,45.6802]]]},"properties":{"id_ffco":"5925","nom":"LA CROIX DES BERGERS","_dept":"73","numero":"1999-D73-16","commune":"SAINT-FRANCOIS-DE-SALES","echelle":"1/25000","surface":"1.75 km²","annee":"1999","cartographes":"INCONNU","proprietaire":"RA - Rhône-Alpes","specialite":"CO à ski","contacts":"LIGUE RHONE-ALPES CO, 04 72 34 56 68, lraco@free.fr, http://www.lraco.net","latitude":"45.68602","longitude":"6.02356","date_saisie":"19/07/2013","valide":"Non","ppo":"Non","type_carte":"Nouvelle carte","fond":"Ortho","obsolete":true}},{"type":"Feature","geometry":{"type":"Polygon","coordinates":[[[6.5383,45.7603],[6.54,45.762],[6.5385,45.7622],[6.5375,45.7626],[6.5366,45.7628],[6.5359,45.7628],[6.5351,45.7626],[6.535,45.7621],[6.535,45.7616],[6.535,45.7613],[6.5353,45.7609],[6.5367,45.7604],[6.5379,45.7606],[6.5383,45.7603]]]},"properties":{"id_ffco":"10682","nom":"GARGANTUA","_dept":"73","numero":"2018-D73-155","commune":"Les Saisies","echelle":"1/2000","surface":"0.07 km²","format":"A4","annee":"2018","cartographes":"David Barranger","proprietaire":"73 - Savoie","niveau":"Initiation, Scolaire","specialite":"CO à pied","contacts":"OT Les Saisies","latitude":"45.7616041888","longitude":"6.53712978299","date_saisie":"31/01/2018","date_depot":"12/04/2018","valide":"Oui","ppo":"Non","type_carte":"Nouvelle carte","fond":"Ortho","obsolete":true}},{"type":"Feature","geometry":{"type":"Polygon","coordinates":[[[6.2107,45.231],[6.2037,45.2285],[6.2001,45.2319],[6.1968,45.2337],[6.2025,45.2396],[6.2123,45.2446],[6.2232,45.2507],[6.2318,45.2562],[6.2375,45.2621],[6.245,45.268],[6.2562,45.274],[6.2656,45.2788],[6.2722,45.2847],[6.2735,45.2889],[6.2758,45.2912],[6.2845,45.2952],[6.2881,45.2987],[6.2904,45.3045],[6.2943,45.3074],[6.2991,45.304],[6.3024,45.3027],[6.3092,45.3036],[6.319,45.3095],[6.3252,45.3091],[6.3286,45.3057],[6.3328,45.3035],[6.3365,45.3021],[6.3463,45.2984],[6.3371,45.2897],[6.3293,45.2888],[6.3195,45.2751],[6.312,45.2643],[6.3063,45.2547],[6.3067,45.2436],[6.3012,45.2382],[6.2948,45.232],[6.2874,45.2247],[6.2773,45.218],[6.272,45.2076],[6.2569,45.2136],[6.2505,45.2232],[6.2454,45.2322],[6.2366,45.2368],[6.228,45.2388],[6.2107,45.231]]]},"properties":{"id_ffco":"10188","nom":"LA TOUSSUIRE - LE CORBIER - AIGUILLES D'ARVES","_dept":"73","numero":"2017-D73-150","commune":"La Toussuire","echelle":"1/20000","surface":"50.75 km²","format":"+","annee":"2017","cartographes":"CAP ORIENTATION","proprietaire":"73 - Savoie","niveau":"National, International","specialite":"Raid'O","contacts":"CDCO73","latitude":"45.2599397899","longitude":"6.27758651531","date_saisie":"10/05/2017","date_depot":"05/07/2017","valide":"Oui","ppo":"Non","type_carte":"Nouvelle carte","fond":"Ortho","obsolete":true}},{"type":"Feature","geometry":{"type":"Polygon","coordinates":[[[5.9997,45.657],[5.9973,45.659],[5.9912,45.6592],[5.9808,45.6576],[5.9797,45.6498],[5.98,45.6456],[5.9865,45.6421],[5.9971,45.6483],[5.9966,45.6532],[5.9997,45.657]]]},"properties":{"id_ffco":"5816","nom":"SAVOIE GRAND REVARD","_dept":"73","numero":"1999-D73-15","commune":"LES DESERTS","echelle":"1/20000","surface":"2.1 km²","annee":"1999","cartographes":"KAJAK Stephane","proprietaire":"7305 - ESPACE CHAMBERY ORIENTATION 73 - ECHO 73","specialite":"CO à ski","contacts":"CLUB ECHO 73, 06 71 26 19 79, georges_tre@yahoo.fr, http://www.echo7305.com/","latitude":"45.65068","longitude":"5.9897","date_saisie":"19/07/2013","valide":"Non","ppo":"Non","type_carte":"Nouvelle carte","fond":"Ortho","obsolete":true}},{"type":"Feature","geometry":{"type":"Polygon","coordinates":[[[5.9741,45.6466],[5.9745,45.6489],[5.9754,45.6504],[5.9763,45.6512],[5.9772,45.6525],[5.9772,45.6545],[5.9794,45.6548],[5.9784,45.6602],[5.979,45.6647],[5.9774,45.6677],[5.9742,45.668],[5.9721,45.6716],[5.9745,45.6735],[5.9768,45.6766],[5.9742,45.6811],[5.9755,45.6843],[5.9775,45.6868],[5.9808,45.6867],[5.9879,45.6894],[5.9885,45.6884],[5.9985,45.6922],[6.0009,45.6941],[6.0089,45.6972],[6.0148,45.6954],[6.0203,45.7001],[6.0244,45.7043],[6.0272,45.7107],[6.0297,45.7142],[6.0327,45.7151],[6.0375,45.7143],[6.0415,45.7101],[6.0421,45.7015],[6.0415,45.6967],[6.0414,45.6939],[6.0366,45.6886],[6.0334,45.6868],[6.0334,45.6811],[6.0328,45.6764],[6.0305,45.676],[6.029,45.6712],[6.0269,45.6596],[6.0154,45.6438],[6.0125,45.6392],[6.0101,45.6348],[6.0048,45.6333],[6.0039,45.6318],[5.9991,45.6303],[5.9964,45.6224],[5.9924,45.6136],[5.9903,45.6083],[5.9851,45.6063],[5.9808,45.6096],[5.9763,45.6088],[5.9706,45.6122],[5.9718,45.6378],[5.9743,45.6389],[5.9741,45.6466]]]},"properties":{"id_ffco":"5861","nom":"SAVOIE GRAND REVARD","_dept":"73","numero":"2000-D73-14","commune":"LES DESERTS","echelle":"1/20000","surface":"34.09 km²","annee":"2000","cartographes":"MAREIGNER Franz et Yann","proprietaire":"7305 - ESPACE CHAMBERY ORIENTATION 73 - ECHO 73","specialite":"Rand'O","contacts":"CLUB ECHO 73, 06 71 26 19 79, georges_tre@yahoo.fr, http://www.echo7305.com/","latitude":"45.66075","longitude":"6.00637","date_saisie":"19/07/2013","valide":"Non","ppo":"Non","type_carte":"Nouvelle carte","fond":"Ortho","obsolete":true}},{"type":"Feature","geometry":{"type":"Polygon","coordinates":[[[5.9846,45.641],[5.9847,45.641],[5.9788,45.6394],[5.9782,45.6397],[5.9777,45.6411],[5.978,45.6433],[5.9778,45.6437],[5.977,45.6441],[5.9755,45.6439],[5.9761,45.6443],[5.9761,45.6452],[5.9746,45.6456],[5.9747,45.6469],[5.9753,45.6475],[5.9756,45.6486],[5.976,45.6504],[5.9765,45.6508],[5.9774,45.6514],[5.9774,45.6519],[5.9775,45.6532],[5.9777,45.6543],[5.9782,45.6543],[5.9787,45.6543],[5.979,45.6544],[5.9796,45.6544],[5.9805,45.6545],[5.9811,45.6549],[5.9816,45.6543],[5.9821,45.6539],[5.9825,45.6537],[5.983,45.6541],[5.9833,45.6546],[5.9839,45.6549],[5.9844,45.6552],[5.9844,45.6558],[5.9844,45.6558],[5.9859,45.6553],[5.9876,45.6548],[5.9884,45.6547],[5.9895,45.6548],[5.9902,45.6544],[5.9909,45.6544],[5.9917,45.6542],[5.9921,45.6545],[5.993,45.654],[5.9936,45.6539],[5.9946,45.6542],[5.9942,45.6487],[5.9939,45.6484],[5.9931,45.6484],[5.9925,45.6481],[5.992,45.648],[5.9914,45.6475],[5.9911,45.647],[5.9915,45.6449],[5.9921,45.6437],[5.992,45.643],[5.9923,45.6423],[5.992,45.6423],[5.9906,45.6422],[5.9891,45.6422],[5.9881,45.6418],[5.9862,45.6411],[5.9852,45.641],[5.9846,45.641],[5.9846,45.641]]]},"properties":{"id_ffco":"5904","nom":"LA FECLAZ","_dept":"73","numero":"2000-D73-13","commune":"LES DESERTS","echelle":"1/7500","surface":"1.94 km²","annee":"2000","cartographes":"MAREIGNER Franz et Yann","proprietaire":"7305 - ESPACE CHAMBERY ORIENTATION 73 - ECHO 73","specialite":"CO à pied","contacts":"CLUB ECHO 73, 06 71 26 19 79, georges_tre@yahoo.fr, http://www.echo7305.com/","latitude":"45.64946","longitude":"5.98524","date_saisie":"19/07/2013","valide":"Non","ppo":"Non","type_carte":"Nouvelle carte","fond":"Ortho","obsolete":true}},{"type":"Feature","geometry":{"type":"Polygon","coordinates":[[[6.5353,45.7589],[6.5338,45.7577],[6.5308,45.7565],[6.5291,45.7563],[6.5269,45.758],[6.5258,45.7594],[6.5251,45.7607],[6.5257,45.7622],[6.5259,45.7632],[6.5258,45.7647],[6.5265,45.766],[6.5284,45.767],[6.5296,45.7668],[6.5322,45.7666],[6.5338,45.7641],[6.5336,45.7601],[6.5353,45.7589]]]},"properties":{"id_ffco":"8691","nom":"LE COL DES SAISIES","_dept":"73","numero":"2015-D73-129","commune":"Les Saisies","echelle":"1/5000","surface":"0.65 km²","format":"A4","annee":"2015","cartographes":"DECHAVANNE Franck","proprietaire":"73 - Savoie","niveau":"Initiation, Scolaire","specialite":"CO à pied","contacts":"CDCO73","latitude":"45.7616569638","longitude":"6.52986597104","date_saisie":"14/10/2015","date_depot":"27/11/2015","valide":"Oui","ppo":"Oui (30 postes)","type_carte":"Nouvelle carte","fond":"Ortho","obsolete":true}},{"type":"Feature","geometry":{"type":"Polygon","coordinates":[[[5.9883,45.682],[5.9872,45.6809],[5.986,45.6801],[5.9832,45.6778],[5.9822,45.6768],[5.9806,45.677],[5.9799,45.6768],[5.9791,45.6763],[5.9787,45.6763],[5.9785,45.6765],[5.9786,45.6768],[5.978,45.6771],[5.9765,45.677],[5.9755,45.6776],[5.9749,45.6793],[5.9749,45.6813],[5.9747,45.6815],[5.9746,45.6816],[5.9753,45.6817],[5.9746,45.6817],[5.9746,45.6821],[5.9743,45.6824],[5.975,45.6834],[5.9776,45.6861],[5.9785,45.6864],[5.9789,45.6866],[5.9792,45.6866],[5.9796,45.6867],[5.9797,45.6869],[5.9799,45.6874],[5.9804,45.6877],[5.9809,45.6878],[5.9814,45.6876],[5.9824,45.6881],[5.9829,45.6883],[5.9836,45.6884],[5.984,45.6882],[5.9844,45.688],[5.985,45.6878],[5.986,45.6884],[5.9884,45.6897],[5.9902,45.6887],[5.9894,45.688],[5.9905,45.6879],[5.9905,45.6873],[5.9911,45.687],[5.9905,45.6861],[5.9918,45.686],[5.9894,45.6827],[5.9883,45.682],[5.9883,45.682]]]},"properties":{"id_ffco":"5784","nom":"LE REVARD Espace Initiation","_dept":"73","numero":"2000-D73-12","commune":"MONTCEL - LES DESERTS","echelle":"1/7500","surface":"1.19 km²","annee":"2000","cartographes":"MAREIGNER Franz et Yann","proprietaire":"7305 - ESPACE CHAMBERY ORIENTATION 73 - ECHO 73","specialite":"CO à pied","contacts":"CLUB ECHO 73, 06 71 26 19 79, georges_tre@yahoo.fr, http://www.echo7305.com/","latitude":"45.68314","longitude":"5.97879","date_saisie":"19/07/2013","valide":"Non","ppo":"Non","type_carte":"Nouvelle carte","fond":"Ortho","obsolete":true}},{"type":"Feature","geometry":{"type":"Polygon","coordinates":[[[6.1364,45.6855],[6.1351,45.6842],[6.133,45.6825],[6.1309,45.6814],[6.1302,45.6814],[6.1288,45.6823],[6.1278,45.6831],[6.1271,45.6833],[6.1264,45.6841],[6.1259,45.6846],[6.1243,45.6843],[6.1225,45.6842],[6.1214,45.6849],[6.1202,45.6868],[6.1204,45.688],[6.1203,45.6893],[6.1196,45.6902],[6.1198,45.6907],[6.1202,45.6916],[6.1197,45.6925],[6.1192,45.6933],[6.1189,45.6942],[6.1194,45.6955],[6.1192,45.6967],[6.1192,45.6972],[6.1219,45.6976],[6.1255,45.6979],[6.1253,45.697],[6.1253,45.6966],[6.1258,45.6962],[6.1269,45.6961],[6.1279,45.6956],[6.128,45.6953],[6.128,45.6944],[6.1293,45.6929],[6.1315,45.6922],[6.1323,45.691],[6.1333,45.6899],[6.134,45.6899],[6.1355,45.6881],[6.1361,45.6876],[6.1364,45.6855],[6.1364,45.6855]]]},"properties":{"id_ffco":"5867","nom":"LE VERNEY - PICOT","_dept":"73","numero":"2006-D73-112","commune":"LE CHATELARD","echelle":"1/7500","surface":"1.5 km²","format":"A4","annee":"2006","cartographes":"PLOCKYN Daniel","proprietaire":"CONSEIL GENERAL SAVOIE","niveau":"Initiation, Scolaire","specialite":"CO à pied","contacts":"CONSEIL GENERAL SAVOIE, 04 79 70 63 10","latitude":"45.68962","longitude":"6.12767","date_saisie":"19/07/2013","valide":"Non","ppo":"Non","type_carte":"Nouvelle carte","fond":"Ortho","obsolete":true}},{"type":"Feature","geometry":{"type":"Polygon","coordinates":[[[6.1313,45.6897],[6.1315,45.6913],[6.1316,45.6928],[6.1324,45.6951],[6.1327,45.696],[6.1323,45.6968],[6.1315,45.6984],[6.1306,45.6996],[6.1306,45.7001],[6.1313,45.7006],[6.135,45.7005],[6.137,45.7004],[6.1386,45.6996],[6.1393,45.6985],[6.1399,45.6966],[6.1406,45.6953],[6.1409,45.6937],[6.1405,45.6929],[6.1398,45.6905],[6.1397,45.6885],[6.1405,45.6876],[6.14,45.6862],[6.1392,45.6853],[6.1377,45.6853],[6.1346,45.6856],[6.1324,45.6863],[6.1318,45.6883],[6.1313,45.6897],[6.1313,45.6897]]]},"properties":{"id_ffco":"5762","nom":"LES GRANGES","_dept":"73","numero":"2006-D73-111","commune":"LE CHATELARD","echelle":"1/6000","surface":"1.05 km²","format":"A4","annee":"2006","cartographes":"PLOCKYN Daniel","proprietaire":"CONSEIL GENERAL SAVOIE","niveau":"Initiation, Scolaire","specialite":"CO à pied","contacts":"CONSEIL GENERAL SAVOIE, 04 79 70 63 10","latitude":"45.69294","longitude":"6.13576","date_saisie":"19/07/2013","valide":"Non","ppo":"Non","type_carte":"Nouvelle carte","fond":"Ortho","obsolete":true}},{"type":"Feature","geometry":{"type":"Polygon","coordinates":[[[6.3707,45.6669],[6.3743,45.6684],[6.3745,45.6668],[6.3753,45.6658],[6.3753,45.6648],[6.3756,45.6635],[6.3684,45.6598],[6.367,45.6613],[6.3697,45.6659],[6.3697,45.6659],[6.3698,45.6659],[6.3697,45.6659],[6.3698,45.6659],[6.3707,45.6669]]]},"properties":{"id_ffco":"5977","nom":"PARC OLYMPIQUE DU SAUVAY","_dept":"73","numero":"2014-D73-109","commune":"Albertville","echelle":"1/4000","surface":"0.33 km²","format":"A4","annee":"2014","cartographes":"FLEURENT Théo","proprietaire":"73 - Savoie","niveau":"Initiation, Scolaire","specialite":"CO à pied","contacts":"CONSEIL GENERAL SAVOIE, 04 79 70 63 10","latitude":"45.6640240161","longitude":"6.37153121628","date_saisie":"19/07/2013","date_depot":"20/11/2009","valide":"Oui","ppo":"Oui (12 postes)","type_carte":"Reprise","base":"2014-D73-109 PARC OLYMPIQUE DU SAUVAY","fond":"Ortho","obsolete":true}},{"type":"Feature","geometry":{"type":"Polygon","coordinates":[[[6.3484,45.2663],[6.342,45.2711],[6.3332,45.265],[6.325,45.2571],[6.3231,45.2539],[6.3269,45.251],[6.3346,45.2593],[6.3484,45.2663]]]},"properties":{"id_ffco":"5851","nom":"LA COMBE AUX FOURNEAUX","_dept":"73","numero":"2006-D73-108","commune":"ST JEAN DE MAURIENNE","echelle":"1/6000","surface":"1.35 km²","format":"A4","annee":"2006","cartographes":"PLOCKYN Daniel","proprietaire":"CONSEIL GENERAL SAVOIE","niveau":"Initiation, Scolaire","specialite":"CO à pied","contacts":"CONSEIL GENERAL SAVOIE, 04 79 70 63 10","latitude":"45.26105","longitude":"6.33572","date_saisie":"19/07/2013","valide":"Non","ppo":"Non","type_carte":"Nouvelle carte","fond":"Ortho","obsolete":true}},{"type":"Feature","geometry":{"type":"Polygon","coordinates":[[[5.9351,45.6002],[5.9365,45.6001],[5.9377,45.5997],[5.9382,45.5989],[5.9384,45.5977],[5.9385,45.5974],[5.9405,45.5965],[5.9415,45.596],[5.942,45.5933],[5.9416,45.593],[5.9408,45.5928],[5.9388,45.5918],[5.9371,45.591],[5.9362,45.5899],[5.9356,45.5883],[5.9349,45.5878],[5.9334,45.5863],[5.9318,45.5855],[5.9301,45.5842],[5.9264,45.5852],[5.9261,45.5882],[5.9257,45.5901],[5.9253,45.5915],[5.9249,45.5924],[5.9246,45.5932],[5.9265,45.5936],[5.9285,45.5936],[5.9303,45.5937],[5.9318,45.5947],[5.9321,45.5967],[5.9329,45.5981],[5.9341,45.5995],[5.9351,45.6002],[5.9351,45.6002]]]},"properties":{"id_ffco":"5976","nom":"SUR LES MONTS","_dept":"73","numero":"2006-D73-105","commune":"BASSENS","echelle":"1/7000","surface":"1.22 km²","format":"A4","annee":"2006","cartographes":"PLOCKYN Daniel","proprietaire":"CONSEIL GENERAL SAVOIE","niveau":"Initiation, Scolaire","specialite":"CO à pied","contacts":"CONSEIL GENERAL SAVOIE, 04 79 70 63 10","latitude":"45.5922","longitude":"5.93328","date_saisie":"19/07/2013","valide":"Non","ppo":"Non","type_carte":"Nouvelle carte","fond":"Ortho","obsolete":true}},{"type":"Feature","geometry":{"type":"Polygon","coordinates":[[[6.226,45.5035],[6.2268,45.5027],[6.2269,45.5017],[6.2269,45.5013],[6.2261,45.5007],[6.2259,45.5],[6.227,45.4994],[6.2275,45.4993],[6.2313,45.499],[6.2305,45.4981],[6.2287,45.4967],[6.2277,45.4951],[6.2263,45.4942],[6.2229,45.4919],[6.2198,45.4914],[6.2193,45.4909],[6.2171,45.4893],[6.2151,45.4889],[6.2147,45.4889],[6.2126,45.4879],[6.21,45.4872],[6.2089,45.4872],[6.2069,45.4866],[6.2024,45.4863],[6.1997,45.4861],[6.1989,45.4854],[6.1979,45.4851],[6.1958,45.4846],[6.194,45.4839],[6.1927,45.4843],[6.1909,45.4843],[6.1854,45.4844],[6.1842,45.4889],[6.1846,45.4891],[6.184,45.4903],[6.1856,45.4912],[6.1896,45.4936],[6.1905,45.4958],[6.1916,45.4972],[6.1917,45.4979],[6.1908,45.4994],[6.1899,45.5003],[6.191,45.5013],[6.1928,45.5021],[6.195,45.5019],[6.1981,45.5006],[6.1986,45.4998],[6.2031,45.5011],[6.2069,45.5018],[6.2133,45.503],[6.2141,45.504],[6.2143,45.5049],[6.215,45.5058],[6.217,45.5063],[6.2188,45.5062],[6.2198,45.506],[6.2203,45.5051],[6.2202,45.5041],[6.2196,45.5029],[6.2212,45.5037],[6.2222,45.5043],[6.2232,45.5043],[6.2231,45.5032],[6.2232,45.5026],[6.2243,45.5027],[6.2248,45.5034],[6.2254,45.5037],[6.226,45.5035],[6.226,45.5035]]]},"properties":{"id_ffco":"6173","nom":"LES FOUGERES ESO","_dept":"73","numero":"1998-D73-10","commune":"BOURGET-EN-HUILE / LA ROCHETTE","echelle":"1/10000","surface":"5.16 km²","format":"A4","annee":"1998","cartographes":"MAREIGNER Franz et Yann","proprietaire":"BIEN VIVRE en VAL GELON","niveau":"Départemental","specialite":"CO à pied","contacts":"BIEN VIVRE en VAL GELON, 04 79 65 68 42, bienvivre@valgelon.com, http://www.bienvivre.valgelon.com/","latitude":"45.4951","longitude":"6.20768","date_saisie":"19/07/2013","date_depot":"20/11/2009","valide":"Oui","ppo":"Non","type_carte":"Nouvelle carte","fond":"Ortho","obsolete":true}},{"type":"Feature","geometry":{"type":"Polygon","coordinates":[[[6.1404,45.4881],[6.1411,45.4874],[6.1402,45.4872],[6.1395,45.4868],[6.1392,45.4867],[6.1382,45.4874],[6.1395,45.4883],[6.1404,45.4881]]]},"properties":{"id_ffco":"6225","nom":"LA VOLIERE","_dept":"73","numero":"1997-D73-08","commune":"VILLARD-SALLET","echelle":"1/1000","surface":"0.02 km²","annee":"1997","cartographes":"MAREIGNER Franz et Yann","proprietaire":"BIEN VIVRE en VAL GELON","specialite":"CO à pied","contacts":"BIEN VIVRE en VAL GELON, 04 79 65 68 42, bienvivre@valgelon.com, http://www.bienvivre.valgelon.com/","latitude":"45.48751","longitude":"6.13964","date_saisie":"19/07/2013","valide":"Non","ppo":"Non","type_carte":"Nouvelle carte","fond":"Ortho","obsolete":true}},{"type":"Feature","geometry":{"type":"Polygon","coordinates":[[[6.1388,45.4873],[6.1377,45.4858],[6.1366,45.4865],[6.1376,45.4877],[6.1388,45.4874],[6.1388,45.4873]]]},"properties":{"id_ffco":"6224","nom":"LE VERGER","_dept":"73","numero":"1997-D73-07","commune":"VILLARD SALLET","echelle":"1/1000","surface":"0.02 km²","annee":"1997","cartographes":"MAREIGNER Franz et Yann","proprietaire":"BIEN VIVRE en VAL GELON","specialite":"CO à pied","contacts":"BIEN VIVRE en VAL GELON, 04 79 65 68 42, bienvivre@valgelon.com, http://www.bienvivre.valgelon.com/","latitude":"45.48673","longitude":"6.1377","date_saisie":"19/07/2013","valide":"Non","ppo":"Non","type_carte":"Nouvelle carte","fond":"Ortho","obsolete":true}},{"type":"Feature","geometry":{"type":"Polygon","coordinates":[[[6.1391,45.4873],[6.1397,45.4872],[6.1399,45.4869],[6.1398,45.4861],[6.1391,45.4854],[6.1384,45.4854],[6.1381,45.4858],[6.1386,45.4868],[6.1391,45.4873],[6.1391,45.4873]]]},"properties":{"id_ffco":"6226","nom":"LES NOYERS","_dept":"73","numero":"1997-D73-06","commune":"VILLARD SALLET","echelle":"1/1000","surface":"0.02 km²","annee":"1997","cartographes":"MAREIGNER Franz et Yann","proprietaire":"BIEN VIVRE en VAL GELON","specialite":"CO à pied","contacts":"BIEN VIVRE en VAL GELON, 04 79 65 68 42, bienvivre@valgelon.com, http://www.bienvivre.valgelon.com/","latitude":"45.48634","longitude":"6.13899","date_saisie":"19/07/2013","valide":"Non","ppo":"Non","type_carte":"Nouvelle carte","fond":"Ortho","obsolete":true}},{"type":"Feature","geometry":{"type":"Polygon","coordinates":[[[5.9786,45.6764],[5.9769,45.6768],[5.9762,45.6789],[5.9753,45.6802],[5.9748,45.6815],[5.9742,45.6824],[5.9756,45.6841],[5.9776,45.6861],[5.9788,45.6869],[5.9793,45.6867],[5.9799,45.6874],[5.981,45.6879],[5.9834,45.6884],[5.984,45.6885],[5.985,45.6879],[5.9884,45.6897],[5.99,45.6889],[5.9893,45.688],[5.9903,45.688],[5.9969,45.691],[5.999,45.6916],[6.0079,45.6976],[6.0121,45.6965],[6.0133,45.6967],[6.0144,45.6965],[6.0178,45.6962],[6.0202,45.6996],[6.0233,45.7028],[6.0244,45.7039],[6.025,45.706],[6.0255,45.7077],[6.0266,45.708],[6.0262,45.7091],[6.0272,45.7103],[6.0285,45.7122],[6.03,45.7141],[6.0317,45.7142],[6.0329,45.7144],[6.0337,45.7155],[6.035,45.7155],[6.0364,45.7157],[6.0367,45.7162],[6.0383,45.7165],[6.04,45.7155],[6.0413,45.7153],[6.0421,45.7143],[6.0416,45.7137],[6.0418,45.7129],[6.0422,45.7118],[6.043,45.7112],[6.0432,45.71],[6.0431,45.7092],[6.0417,45.7092],[6.0414,45.709],[6.0415,45.7082],[6.0418,45.7076],[6.0418,45.7061],[6.0427,45.7055],[6.0426,45.7042],[6.0421,45.7032],[6.0426,45.7024],[6.0425,45.697],[6.042,45.6958],[6.0428,45.6952],[6.0423,45.6949],[6.0415,45.695],[6.0415,45.6942],[6.042,45.6936],[6.0416,45.693],[6.0402,45.6925],[6.0393,45.6908],[6.0391,45.6903],[6.0373,45.6898],[6.038,45.6888],[6.0378,45.6882],[6.0366,45.6879],[6.0355,45.6881],[6.0338,45.6866],[6.0336,45.6849],[6.0342,45.6846],[6.0343,45.684],[6.0342,45.6832],[6.0329,45.6826],[6.0327,45.6827],[6.0326,45.6821],[6.0331,45.6815],[6.0334,45.6811],[6.0344,45.6805],[6.0341,45.6794],[6.0344,45.6781],[6.0331,45.6774],[6.0325,45.6767],[6.031,45.6764],[6.0305,45.6741],[6.0303,45.674],[6.0306,45.6726],[6.0304,45.6725],[6.0298,45.6716],[6.0303,45.6706],[6.0306,45.6701],[6.0303,45.6691],[6.0304,45.6681],[6.0299,45.6673],[6.0299,45.6664],[6.0291,45.6654],[6.0286,45.6644],[6.0285,45.6637],[6.0286,45.6633],[6.0282,45.6629],[6.028,45.6626],[6.0266,45.6626],[6.024,45.6623],[6.0227,45.6621],[6.0189,45.6596],[6.0178,45.6575],[6.0164,45.6526],[6.0138,45.6492],[6.0144,45.6491],[6.0149,45.6488],[6.0151,45.6485],[6.0148,45.6481],[6.0164,45.6483],[6.0163,45.648],[6.0162,45.6475],[6.0158,45.6461],[6.0149,45.6458],[6.0159,45.6449],[6.016,45.6444],[6.0155,45.6438],[6.0151,45.6427],[6.0142,45.6417],[6.0138,45.6403],[6.013,45.6399],[6.0115,45.6378],[6.01,45.6357],[6.0085,45.6344],[6.0064,45.6333],[6.0044,45.6327],[6.0037,45.6323],[6.0035,45.6323],[6.0035,45.6317],[6.0019,45.631],[5.9993,45.6306],[5.9988,45.6301],[5.999,45.6295],[5.9987,45.6293],[5.9987,45.6299],[5.9979,45.6292],[5.9969,45.6285],[5.9966,45.628],[5.9964,45.6256],[5.996,45.6253],[5.9956,45.6227],[5.997,45.6223],[5.9964,45.6217],[5.9956,45.6223],[5.9928,45.6188],[5.9924,45.618],[5.9916,45.6165],[5.9889,45.6126],[5.9873,45.6125],[5.9867,45.6112],[5.9846,45.6087],[5.9769,45.6091],[5.9756,45.6093],[5.9748,45.6097],[5.9726,45.6108],[5.9725,45.6119],[5.9718,45.6124],[5.9703,45.6126],[5.9719,45.6377],[5.9728,45.6378],[5.975,45.6383],[5.9759,45.6385],[5.9772,45.6383],[5.9782,45.6404],[5.9776,45.641],[5.9777,45.6421],[5.978,45.6437],[5.976,45.6434],[5.9755,45.6456],[5.976,45.646],[5.9759,45.6506],[5.9774,45.6519],[5.9779,45.6526],[5.9788,45.6525],[5.9783,45.653],[5.9777,45.6538],[5.9784,45.6544],[5.9794,45.6546],[5.9808,45.6548],[5.9803,45.6555],[5.9792,45.6598],[5.9793,45.6614],[5.9798,45.6654],[5.9788,45.6667],[5.9782,45.6671],[5.9781,45.6678],[5.9774,45.6676],[5.976,45.668],[5.9746,45.6684],[5.9738,45.6692],[5.973,45.6706],[5.973,45.6718],[5.974,45.6724],[5.9748,45.6733],[5.9755,45.6735],[5.9756,45.6745],[5.9764,45.675],[5.977,45.6762],[5.9786,45.6764],[5.9786,45.6764]]]},"properties":{"id_ffco":"6220","nom":"SAVOIE GRAND REVARD","_dept":"73","numero":"1999-D73-05","commune":"MONTCEL","echelle":"1/20000","surface":"32.7 km²","annee":"1999","cartographes":"KAJAK Stephane","proprietaire":"7305 - ESPACE CHAMBERY ORIENTATION 73 - ECHO 73","specialite":"CO à ski","contacts":"CLUB ECHO 73, 06 71 26 19 79, georges_tre@yahoo.fr, http://www.echo7305.com/","latitude":"45.68147","longitude":"6.00422","date_saisie":"19/07/2013","valide":"Non","ppo":"Non","type_carte":"Nouvelle carte","fond":"Ortho","obsolete":true}},{"type":"Feature","geometry":{"type":"Polygon","coordinates":[[[5.9382,45.566],[5.9406,45.5651],[5.9415,45.5621],[5.9407,45.5602],[5.9388,45.5602],[5.9366,45.5613],[5.9349,45.561],[5.9343,45.5618],[5.9382,45.566]]]},"properties":{"id_ffco":"6376","nom":"BUISSON ROND","_dept":"73","numero":"1985-D73-01","commune":"CHAMBERY","echelle":"1/5000","surface":"0.22 km²","annee":"1985","cartographes":"GORET Gilles","proprietaire":"SANS ADRESSE","specialite":"CO à pied","contacts":"SANS ADRESSE","latitude":"45.56309","longitude":"5.93792","date_saisie":"19/07/2013","valide":"Non","ppo":"Non","type_carte":"Nouvelle carte","fond":"Ortho","obsolete":true}}]}