{"type":"FeatureCollection","features":[{"type":"Feature","geometry":null,"properties":{"id_ffco":"15568","nom":"Batignolles-Monceau","_dept":"75","numero":"2026-D75-62","commune":"Paris","echelle":"1/4000","surface":"None km²","annee":"2026","cartographes":"Frédéric Fischer","proprietaire":"7512 - RAID ORIENTATION DE PARIS","niveau":"Régional","specialite":"CO à pied","date_saisie":"15/03/2026","valide":"Non","ppo":"Non","type_carte":"Nouvelle carte","obsolete":false}},{"type":"Feature","geometry":null,"properties":{"id_ffco":"15567","nom":"Parc Martin Luther King","_dept":"75","numero":"2026-D75-61","commune":"Paris","echelle":"1/4000","surface":"None km²","annee":"2026","cartographes":"Frédéric Fischer","proprietaire":"7512 - RAID ORIENTATION DE PARIS","niveau":"Régional","specialite":"CO à pied","date_saisie":"14/03/2026","valide":"Non","ppo":"Non","type_carte":"Nouvelle carte","obsolete":false}},{"type":"Feature","geometry":{"type":"Polygon","coordinates":[[[2.2751,48.8442],[2.2769,48.8447],[2.278,48.8436],[2.279,48.8379],[2.2781,48.837],[2.2732,48.8382],[2.2716,48.8398],[2.2697,48.8403],[2.2737,48.8449],[2.2751,48.8442]]]},"properties":{"id_ffco":"15167","nom":"Parc André Citroên 2","_dept":"75","numero":"2025-D75-60","commune":"Paris","echelle":"1/4000","surface":"0.38 km²","format":"A4","annee":"2025","cartographes":"Frédéric Fischer","proprietaire":"7512 - RAID ORIENTATION DE PARIS","niveau":"Régional","specialite":"CO à pied","latitude":"48.8409289519","longitude":"2.27508300308","date_saisie":"09/09/2025","valide":"Non","ppo":"Non","type_carte":"Nouvelle carte","fond":"Cadastre","obsolete":false}},{"type":"Feature","geometry":{"type":"Polygon","coordinates":[[[2.3518,48.8368],[2.3534,48.8347],[2.3525,48.8344],[2.3522,48.8341],[2.3517,48.8332],[2.3506,48.8325],[2.3481,48.831],[2.3472,48.8303],[2.346,48.8307],[2.3464,48.8313],[2.3469,48.8327],[2.347,48.8327],[2.3483,48.8357],[2.3518,48.8368]]]},"properties":{"id_ffco":"14991","nom":"Square René Le Gall Manufacture des Gobelins","_dept":"75","numero":"2024-D75-59","commune":"Paris","echelle":"1/4000","surface":"0.18 km²","format":"A4","annee":"2024","cartographes":"Quentin Moulet","proprietaire":"7512 - RAID ORIENTATION DE PARIS","niveau":"Initiation, Scolaire","specialite":"CO à pied","contacts":"Michel PINAUD, michel.pinaud75@orange.fr","latitude":"48.8337587281","longitude":"2.34958176166","date_saisie":"17/04/2025","valide":"Non","ppo":"Non","type_carte":"Nouvelle carte","fond":"Ortho","obsolete":false}},{"type":"Feature","geometry":{"type":"Polygon","coordinates":[[[2.2987,48.8335],[2.3008,48.8327],[2.303,48.8321],[2.3021,48.8306],[2.3014,48.8286],[2.3004,48.8289],[2.3001,48.8289],[2.2959,48.8298],[2.2957,48.8299],[2.2965,48.8311],[2.2976,48.8325],[2.2987,48.8335]]]},"properties":{"id_ffco":"14989","nom":"Parc Georges Brassens","_dept":"75","numero":"2024-D75-58","commune":"Paris","echelle":"1/4000","surface":"0.17 km²","format":"A4","annee":"2024","cartographes":"Quentin Moulet","proprietaire":"7512 - RAID ORIENTATION DE PARIS","niveau":"Initiation, Scolaire","specialite":"CO à pied","contacts":"Michel PINAUD, michel.pinaud75@orange.fr","latitude":"48.8309856113","longitude":"2.29946670155","date_saisie":"17/04/2025","valide":"Non","ppo":"Non","type_carte":"Nouvelle carte","fond":"Ortho","obsolete":false}},{"type":"Feature","geometry":{"type":"Polygon","coordinates":[[[2.398,48.8317],[2.3998,48.8325],[2.4023,48.8334],[2.4037,48.8339],[2.4044,48.833],[2.4042,48.8325],[2.4039,48.8323],[2.4035,48.832],[2.4036,48.8319],[2.4023,48.8307],[2.4023,48.8305],[2.4015,48.83],[2.4017,48.8298],[2.4015,48.8297],[2.401,48.8297],[2.398,48.8317]]]},"properties":{"id_ffco":"14990","nom":"Centre sportif Léo Lagrange","_dept":"75","numero":"2024-D75-57","commune":"Paris","echelle":"1/4000","surface":"0.1 km²","format":"A4","annee":"2024","cartographes":"Quentin Moulet","proprietaire":"7512 - RAID ORIENTATION DE PARIS","niveau":"Initiation, Scolaire","specialite":"CO à pied","contacts":"Michel PINAUD, michel.pinaud75@orange.fr","latitude":"48.8318050066","longitude":"2.40145321375","date_saisie":"17/04/2025","valide":"Non","ppo":"Non","type_carte":"Nouvelle carte","fond":"Ortho","obsolete":false}},{"type":"Feature","geometry":{"type":"Polygon","coordinates":[[[2.3858,48.8298],[2.3755,48.8382],[2.3792,48.8403],[2.3821,48.8379],[2.3862,48.8358],[2.3867,48.8359],[2.3903,48.8328],[2.3858,48.8298]]]},"properties":{"id_ffco":"14332","nom":"Parc de Bercy","_dept":"75","numero":"2023-D75-56","commune":"Paris","echelle":"1/4000","surface":"0.49 km²","format":"A4","annee":"2023","cartographes":"Quentin Moulet","proprietaire":"7512 - RAID ORIENTATION DE PARIS","niveau":"Initiation, Scolaire","specialite":"CO à pied","contacts":"DRUZETIC Stéphane, president@raid-o-paris.org // THEMINES Anthony, anthony.themines@ffcorientation.fr, http://raid-o-paris.org/","latitude":"48.8350217735","longitude":"2.38306038118","date_saisie":"25/01/2024","date_depot":"24/07/2024","valide":"Oui","ppo":"Non","type_carte":"Nouvelle carte","fond":"Cadastre","obsolete":false}},{"type":"Feature","geometry":{"type":"Polygon","coordinates":[[[2.3616,48.8472],[2.3652,48.8445],[2.364,48.8431],[2.3533,48.8405],[2.3518,48.8408],[2.3522,48.8445],[2.3516,48.8465],[2.3545,48.8466],[2.357,48.845],[2.3618,48.8472],[2.3616,48.8472]]]},"properties":{"id_ffco":"14331","nom":"Jardin des Plantes","_dept":"75","numero":"2023-D75-55","commune":"Paris","echelle":"1/4000","surface":"0.45 km²","format":"A4","annee":"2023","cartographes":"Quentin Moulet","proprietaire":"7512 - RAID ORIENTATION DE PARIS","niveau":"Initiation, Scolaire","specialite":"CO à pied","contacts":"DRUZETIC Stéphane, president@raid-o-paris.org // THEMINES Anthony, anthony.themines@ffcorientation.fr, http://raid-o-paris.org/","latitude":"48.8438766119","longitude":"2.35756213733","date_saisie":"25/01/2024","date_depot":"24/07/2024","valide":"Oui","ppo":"Non","type_carte":"Nouvelle carte","fond":"Cadastre","obsolete":false}},{"type":"Feature","geometry":{"type":"Polygon","coordinates":[[[2.4466,48.8449],[2.4477,48.8438],[2.4477,48.8434],[2.4493,48.8419],[2.4568,48.8399],[2.4699,48.8364],[2.4692,48.8376],[2.4668,48.8394],[2.4647,48.8416],[2.4625,48.8425],[2.4568,48.8438],[2.4503,48.8446],[2.4466,48.8449]]]},"properties":{"id_ffco":"14199","nom":"La Plaine de Fontenay 2","_dept":"75","numero":"2023-D75-53","commune":"Fontenay-sous-Bois","echelle":"1/5000","surface":"0.57 km²","format":"A3","annee":"2023","cartographes":"Hervé Quinquenel","proprietaire":"9404 - ASSOCIATION SPORTIVE DE L'IGN","niveau":"Départemental","specialite":"Sprint (ISSOM)","contacts":"AS IGN, 73 avenue de Paris, 94165, Saint-Mandé cedex, 0678006088, coasign@ign.fr, https://www.coasign.fr/","latitude":"48.8412703728","longitude":"2.4582879712","date_saisie":"10/12/2023","date_depot":"05/03/2025","valide":"Oui","ppo":"Non","type_carte":"Nouvelle carte","fond":"Ortho","obsolete":false}},{"type":"Feature","geometry":{"type":"Polygon","coordinates":[[[2.3361,48.8242],[2.3398,48.8246],[2.3416,48.8198],[2.3408,48.82],[2.3344,48.8214],[2.3361,48.8242]]]},"properties":{"id_ffco":"14330","nom":"Parc Montsouris 2","_dept":"75","numero":"2023-D75-52","commune":"Paris","echelle":"1/2500","surface":"0.17 km²","format":"A4","annee":"2023","cartographes":"Christine Verdeil - Cartographie Orientation MA D7702","proprietaire":"7512 - RAID ORIENTATION DE PARIS","niveau":"Initiation, Scolaire","specialite":"CO à pied","contacts":"DRUZETIC Stéphane, president@raid-o-paris.org // THEMINES Anthony, anthony.themines@ffcorientation.fr, http://raid-o-paris.org/","latitude":"48.8222493303","longitude":"2.33816872107","date_saisie":"25/01/2024","date_depot":"24/07/2024","valide":"Oui","ppo":"Non","type_carte":"Reprise","base":"1990-D75-03 PARC DE MONTSOURIS","fond":"Cadastre","obsolete":false}},{"type":"Feature","geometry":{"type":"Polygon","coordinates":[[[2.3318,48.822],[2.3323,48.8229],[2.3309,48.8232],[2.3306,48.8223],[2.3307,48.8223],[2.3318,48.822]]]},"properties":{"id_ffco":"13697","nom":"Ecole Normale Supérieure site 48 boulevard Jourdan","_dept":"75","numero":"2022-D75-51","commune":"Paris","echelle":"1/1000","surface":"0.01 km²","format":"A4","annee":"2022","cartographes":"Hervé Quinquenel","proprietaire":"Club de course d'orientation de l'ENS Ulm","niveau":"Initiation, Scolaire","specialite":"CO à pied","latitude":"48.8226306024","longitude":"2.33141986947","date_saisie":"04/12/2022","date_depot":"12/01/2023","valide":"Oui","ppo":"Non","type_carte":"Nouvelle carte","fond":"Ortho","obsolete":false}},{"type":"Feature","geometry":{"type":"Polygon","coordinates":[[[2.3445,48.8425],[2.3444,48.8425],[2.3438,48.8414],[2.3452,48.8409],[2.3458,48.8421],[2.3458,48.8422],[2.3445,48.8425]]]},"properties":{"id_ffco":"13425","nom":"Ecole Normale Supérieure site 45 rue d'ULM","_dept":"75","numero":"2022-D75-50","commune":"Paris","echelle":"1/1000","surface":"0.02 km²","format":"A4","annee":"2022","cartographes":"Hervé Quinquenel","proprietaire":"Club de course d'orientation de l'ENS Ulm","niveau":"Initiation, Scolaire","specialite":"Sprint (ISSOM)","latitude":"48.841752449","longitude":"2.34483963495","date_saisie":"25/06/2022","date_depot":"12/01/2023","valide":"Oui","ppo":"Non","type_carte":"Nouvelle carte","fond":"Cadastre","obsolete":false}},{"type":"Feature","geometry":{"type":"Polygon","coordinates":[[[2.3305,48.822],[2.3299,48.8209],[2.3296,48.8195],[2.3329,48.8188],[2.3333,48.8186],[2.3356,48.8173],[2.3355,48.8171],[2.3359,48.8169],[2.3384,48.8169],[2.3388,48.8168],[2.3388,48.8169],[2.3417,48.8168],[2.3429,48.8167],[2.3435,48.8169],[2.344,48.8175],[2.3445,48.8193],[2.3416,48.8197],[2.3396,48.82],[2.338,48.8204],[2.3373,48.8205],[2.3353,48.821],[2.3329,48.8215],[2.3305,48.822]]]},"properties":{"id_ffco":"12980","nom":"Cité Internationale Universitaire de Paris","_dept":"75","numero":"2021-D75-47","commune":"Paris","echelle":"1/4000","surface":"0.35 km²","format":"A4","annee":"2021","cartographes":"Frédéric Fischer","proprietaire":"7512 - RAID ORIENTATION DE PARIS","niveau":"Régional","specialite":"CO à pied","contacts":"DRUZETIC Stéphane, president@raid-o-paris.org // THEMINES Anthony, anthony.themines@ffcorientation.fr, http://raid-o-paris.org/","latitude":"48.8190507697","longitude":"2.33701735865","date_saisie":"02/11/2021","date_depot":"22/06/2022","valide":"Oui","ppo":"Non","type_carte":"Nouvelle carte","fond":"Cadastre","obsolete":false}},{"type":"Feature","geometry":{"type":"Polygon","coordinates":[[[2.4218,48.8444],[2.42,48.8435],[2.4197,48.843],[2.4194,48.8425],[2.4196,48.8413],[2.4203,48.8406],[2.4207,48.8399],[2.4214,48.8371],[2.4221,48.8358],[2.4258,48.8379],[2.4299,48.8394],[2.4345,48.8407],[2.4282,48.8415],[2.4244,48.8419],[2.4233,48.8429],[2.4224,48.8442],[2.4218,48.8444]]]},"properties":{"id_ffco":"12724","nom":"Lac de Saint Mandé","_dept":"75","numero":"2019-D75-46","commune":"Saint Mandé","echelle":"1/5000","surface":"0.41 km²","format":"A4","annee":"2019","cartographes":"Hervé Quinquenel","proprietaire":"9404 - ASSOCIATION SPORTIVE DE L'IGN","niveau":"Initiation, Scolaire","specialite":"CO à pied","contacts":"Hervé Quinquenel, coasign@ign.fr, http://www.coasign.fr/","latitude":"48.8402079474","longitude":"2.42463560795","date_saisie":"22/04/2021","date_depot":"22/06/2022","valide":"Oui","ppo":"Non","type_carte":"Reprise","base":"2016-D75-26 Le Lac de Saint MANDE","fond":"Cadastre","obsolete":false}},{"type":"Feature","geometry":{"type":"Polygon","coordinates":[[[2.3755,48.8354],[2.3738,48.8373],[2.3691,48.8351],[2.3715,48.8325],[2.3728,48.8317],[2.3746,48.831],[2.378,48.8264],[2.3794,48.8255],[2.38,48.8256],[2.3805,48.8253],[2.3854,48.8276],[2.3755,48.8354]]]},"properties":{"id_ffco":"11509","nom":"Bibliothèque nationale de France Université Diderot","_dept":"75","numero":"2019-D75-44","commune":"Paris","echelle":"1/5000","surface":"0.6 km²","format":"A4","annee":"2019","cartographes":"Anne Coniel","proprietaire":"7512 - RAID ORIENTATION DE PARIS","niveau":"Régional","specialite":"Sprint (ISSOM)","contacts":"DRUZETIC Stéphane, president@raid-o-paris.org // THEMINES Anthony, anthony.themines@ffcorientation.fr, http://raid-o-paris.org/","latitude":"48.831074447","longitude":"2.37715608349","date_saisie":"27/05/2019","date_depot":"18/01/2021","valide":"Oui","ppo":"Non","type_carte":"Nouvelle carte","fond":"Cadastre","obsolete":false}},{"type":"Feature","geometry":{"type":"Polygon","coordinates":[[[2.3991,48.8804],[2.4,48.8806],[2.3999,48.881],[2.4004,48.8817],[2.4004,48.8821],[2.4001,48.8824],[2.3993,48.8826],[2.3981,48.8828],[2.3972,48.8832],[2.3964,48.883],[2.3967,48.8824],[2.3973,48.8816],[2.3975,48.8814],[2.3991,48.8804]]]},"properties":{"id_ffco":"12304","nom":"Parc de la Butte du Chapeau Rouge","_dept":"75","numero":"2018-D75-43","commune":"Paris","echelle":"1/2000","surface":"0.05 km²","format":"A4","annee":"2018","cartographes":"Anne Coniel","proprietaire":"7512 - RAID ORIENTATION DE PARIS","niveau":"Initiation, Scolaire","specialite":"CO à pied","contacts":"DRUZETIC Stéphane, president@raid-o-paris.org // THEMINES Anthony, anthony.themines@ffcorientation.fr, http://raid-o-paris.org/","latitude":"48.8818635853","longitude":"2.39856730071","date_saisie":"18/11/2020","date_depot":"18/01/2021","valide":"Oui","ppo":"Non","type_carte":"Nouvelle carte","fond":"Cadastre","obsolete":false}},{"type":"Feature","geometry":{"type":"Polygon","coordinates":[[[2.2772,48.8372],[2.2754,48.8378],[2.2764,48.8386],[2.2761,48.8392],[2.2754,48.8395],[2.2746,48.8394],[2.2736,48.84],[2.2727,48.8399],[2.2715,48.8401],[2.2721,48.8413],[2.2722,48.8414],[2.272,48.8417],[2.2726,48.8424],[2.2732,48.8423],[2.2743,48.8436],[2.2748,48.8434],[2.2749,48.8425],[2.2768,48.8417],[2.277,48.8412],[2.2778,48.8408],[2.2768,48.8397],[2.277,48.8389],[2.2782,48.8384],[2.2772,48.8372]]]},"properties":{"id_ffco":"12303","nom":"Parc André Citroen","_dept":"75","numero":"2017-D75-42","commune":"Paris","echelle":"1/3000","surface":"0.15 km²","format":"A3","annee":"2017","cartographes":"Anne Coniel","proprietaire":"7512 - RAID ORIENTATION DE PARIS","niveau":"Régional","specialite":"CO à pied","contacts":"DRUZETIC Stéphane, president@raid-o-paris.org // THEMINES Anthony, anthony.themines@ffcorientation.fr, http://raid-o-paris.org/","latitude":"48.8405819247","longitude":"2.27496547493","date_saisie":"18/11/2020","date_depot":"18/01/2021","valide":"Oui","ppo":"Non","type_carte":"Nouvelle carte","fond":"Cadastre","obsolete":false}},{"type":"Feature","geometry":{"type":"Polygon","coordinates":[[[2.3661,48.8268],[2.3668,48.8254],[2.3672,48.8245],[2.3671,48.8242],[2.3662,48.8241],[2.3666,48.8236],[2.3674,48.8234],[2.367,48.8233],[2.3672,48.823],[2.367,48.823],[2.3668,48.8233],[2.3663,48.8232],[2.3655,48.8236],[2.3657,48.8238],[2.3646,48.8244],[2.3646,48.8251],[2.3645,48.8257],[2.3643,48.8261],[2.3639,48.8261],[2.3638,48.8265],[2.3661,48.8268]]]},"properties":{"id_ffco":"10606","nom":"Les Olympiades","_dept":"75","numero":"2017-D75-41","commune":"Paris","echelle":"1/2000","surface":"0.06 km²","format":"A4","annee":"2017","cartographes":"Frantz MAREIGNIER","proprietaire":"7509 - PARIS ORIENTSPORT","niveau":"Départemental","specialite":"Sprint (ISSOM)","contacts":"Paris OrientSport, 27, rue du Javelot , Boîte aux lettres 321, 75013, Paris, 0608827524, 7509pos@gmail.com, http://www.klubasso.fr/paris-orientsport","latitude":"48.8251505047","longitude":"2.3656851377","date_saisie":"20/12/2017","date_depot":"02/11/2018","valide":"Oui","ppo":"Non","type_carte":"Nouvelle carte","fond":"Cadastre","obsolete":false}},{"type":"Feature","geometry":{"type":"Polygon","coordinates":[[[2.4578,48.8239],[2.4643,48.8272],[2.4635,48.828],[2.457,48.8324],[2.4512,48.8295],[2.4547,48.8271],[2.4578,48.8239]]]},"properties":{"id_ffco":"12302","nom":"Pershing 3","_dept":"75","numero":"2017-D75-40","commune":"Paris","echelle":"1/5000","surface":"0.44 km²","format":"A4","annee":"2017","cartographes":"Frédéric Fisher","proprietaire":"7512 - RAID ORIENTATION DE PARIS","niveau":"Régional","specialite":"CO à pied","contacts":"DRUZETIC Stéphane, president@raid-o-paris.org // THEMINES Anthony, anthony.themines@ffcorientation.fr, http://raid-o-paris.org/","latitude":"48.8282582396","longitude":"2.45781310567","date_saisie":"18/11/2020","date_depot":"18/01/2021","valide":"Oui","ppo":"Non","type_carte":"Reprise","base":"2013-D75-17 Persching 2","fond":"Cadastre","obsolete":false}},{"type":"Feature","geometry":{"type":"Polygon","coordinates":[[[2.3297,48.8846],[2.3397,48.8822],[2.3471,48.8838],[2.3476,48.8869],[2.3469,48.8882],[2.3452,48.888],[2.3445,48.8892],[2.3428,48.8899],[2.3351,48.8895],[2.3326,48.8867],[2.3297,48.8846]]]},"properties":{"id_ffco":"12301","nom":"La Butte Montmartre 2","_dept":"75","numero":"2017-D75-39","commune":"Paris","echelle":"1/4000","surface":"0.76 km²","format":"A3","annee":"2017","cartographes":"Hervé Quinquenel","proprietaire":"7512 - RAID ORIENTATION DE PARIS","niveau":"Régional","specialite":"CO à pied","contacts":"DRUZETIC Stéphane, president@raid-o-paris.org // THEMINES Anthony, anthony.themines@ffcorientation.fr, http://raid-o-paris.org/","latitude":"48.8860531162","longitude":"2.33962586441","date_saisie":"18/11/2020","date_depot":"18/01/2021","valide":"Oui","ppo":"Non","type_carte":"Nouvelle carte","fond":"Cadastre","obsolete":false}},{"type":"Feature","geometry":{"type":"Polygon","coordinates":[[[2.3825,48.8948],[2.3836,48.8934],[2.3847,48.8913],[2.3848,48.8907],[2.3848,48.8879],[2.3891,48.8879],[2.3987,48.8905],[2.3976,48.8943],[2.3979,48.8935],[2.4008,48.8958],[2.4008,48.8965],[2.3947,48.8964],[2.3934,48.8964],[2.3917,48.8973],[2.3875,48.8975],[2.3854,48.8975],[2.3825,48.8948]]]},"properties":{"id_ffco":"12300","nom":"Parc de la Villette 2","_dept":"75","numero":"2017-D75-38","commune":"Paris","echelle":"1/4000","surface":"0.99 km²","format":"A3","annee":"2017","cartographes":"Anne Coniel,Hervé Quinquenel","niveau":"Régional","specialite":"CO à pied","contacts":"DRUZETIC Stéphane, president@raid-o-paris.org // THEMINES Anthony, anthony.themines@ffcorientation.fr, http://raid-o-paris.org/","latitude":"48.8929952799","longitude":"2.39088327878","date_saisie":"18/11/2020","date_depot":"18/01/2021","valide":"Oui","ppo":"Non","type_carte":"Reprise","base":"2016-D75-32 La Villette","fond":"Cadastre","obsolete":false}},{"type":"Feature","geometry":{"type":"Polygon","coordinates":[[[2.3967,48.8902],[2.3978,48.8901],[2.3987,48.8904],[2.3977,48.8934],[2.3979,48.8937],[2.3969,48.8954],[2.3949,48.8952],[2.3957,48.8929],[2.3967,48.8902]]]},"properties":{"id_ffco":"12299","nom":"Stade Jules LADOUMEGUE","_dept":"75","numero":"2017-D75-37","commune":"Paris","echelle":"1/2000","surface":"0.09 km²","format":"A4","annee":"2017","cartographes":"Hervé Quinquenel","proprietaire":"7512 - RAID ORIENTATION DE PARIS","niveau":"Initiation, Scolaire","specialite":"CO à pied","contacts":"DRUZETIC Stéphane, president@raid-o-paris.org // THEMINES Anthony, anthony.themines@ffcorientation.fr, http://raid-o-paris.org/","latitude":"48.8927895794","longitude":"2.3968276735","date_saisie":"18/11/2020","date_depot":"18/01/2021","valide":"Oui","ppo":"Non","type_carte":"Nouvelle carte","fond":"Cadastre","obsolete":false}},{"type":"Feature","geometry":{"type":"Polygon","coordinates":[[[2.2766,48.8331],[2.2764,48.8332],[2.276,48.8328],[2.2751,48.8326],[2.2739,48.8322],[2.2721,48.8323],[2.2713,48.8321],[2.2711,48.832],[2.2707,48.8322],[2.2704,48.8326],[2.27,48.8325],[2.2697,48.8324],[2.2694,48.8327],[2.2692,48.8326],[2.2696,48.8323],[2.2674,48.8311],[2.2676,48.8279],[2.2711,48.828],[2.2706,48.8287],[2.2708,48.8291],[2.2714,48.8294],[2.2719,48.8295],[2.2725,48.8295],[2.2728,48.8293],[2.273,48.8291],[2.2739,48.8294],[2.2743,48.8295],[2.2743,48.8299],[2.2746,48.8299],[2.2746,48.8301],[2.2741,48.8301],[2.2746,48.8305],[2.2742,48.8308],[2.274,48.8307],[2.2738,48.8308],[2.2741,48.8311],[2.2735,48.8315],[2.2735,48.8316],[2.2737,48.8316],[2.274,48.8319],[2.2741,48.832],[2.2748,48.8323],[2.2752,48.8322],[2.2756,48.8321],[2.2766,48.8331]]]},"properties":{"id_ffco":"12285","nom":"Parc Suzanne Lenglen 2","_dept":"75","numero":"2017-D75-36","commune":"Paris","echelle":"1/4000","surface":"0.19 km²","format":"A4","annee":"2017","cartographes":"CAP ORIENTATION","proprietaire":"7512 - RAID ORIENTATION DE PARIS","niveau":"Régional","specialite":"CO à pied","contacts":"DRUZETIC Stéphane, president@raid-o-paris.org // THEMINES Anthony, anthony.themines@ffcorientation.fr, http://raid-o-paris.org/","latitude":"48.8303732599","longitude":"2.27071617113","date_saisie":"13/11/2020","date_depot":"18/01/2021","valide":"Oui","ppo":"Non","type_carte":"Reprise","base":"2014-D75-21 Parc Suzanne Lenglen","fond":"Cadastre","obsolete":false}},{"type":"Feature","geometry":{"type":"Polygon","coordinates":[[[2.3798,48.8321],[2.3769,48.8306],[2.3809,48.8263],[2.382,48.8259],[2.3856,48.8275],[2.3798,48.8321]]]},"properties":{"id_ffco":"11269","nom":"Avenue de France Université Diderot","_dept":"75","numero":"2017-D75-35","commune":"Paris","echelle":"1/3000","surface":"0.2 km²","format":"A4","annee":"2017","cartographes":"Anne Coniel","proprietaire":"7512 - RAID ORIENTATION DE PARIS","niveau":"Départemental","specialite":"CO à pied","contacts":"DRUZETIC Stéphane, president@raid-o-paris.org // THEMINES Anthony, anthony.themines@ffcorientation.fr, http://raid-o-paris.org/","latitude":"48.8288724467","longitude":"2.38107309937","date_saisie":"13/12/2018","date_depot":"02/04/2019","valide":"Oui","ppo":"Non","type_carte":"Nouvelle carte","fond":"Ortho","obsolete":false}},{"type":"Feature","geometry":{"type":"Polygon","coordinates":[[[2.4132,48.8409],[2.4129,48.8411],[2.4111,48.8408],[2.4106,48.8391],[2.4109,48.839],[2.4108,48.8385],[2.4105,48.8386],[2.4103,48.838],[2.4105,48.8379],[2.4124,48.8384],[2.4126,48.8385],[2.4132,48.8409]]]},"properties":{"id_ffco":"11270","nom":"Centre Sportif Alain Mimoun","_dept":"75","numero":"2017-D75-34","commune":"Paris","echelle":"1/1500","surface":"0.05 km²","format":"A4","annee":"2017","cartographes":"Anne Coniel","proprietaire":"7512 - RAID ORIENTATION DE PARIS","niveau":"Initiation, Scolaire","specialite":"CO à pied","contacts":"DRUZETIC Stéphane, president@raid-o-paris.org // THEMINES Anthony, anthony.themines@ffcorientation.fr, http://raid-o-paris.org/","latitude":"48.8395523293","longitude":"2.41181621303","date_saisie":"13/12/2018","date_depot":"02/04/2019","valide":"Oui","ppo":"Non","type_carte":"Nouvelle carte","fond":"Ortho","obsolete":false}},{"type":"Feature","geometry":{"type":"Polygon","coordinates":[[[2.3667,48.8177],[2.3658,48.8189],[2.366,48.819],[2.3661,48.8202],[2.3688,48.8211],[2.3688,48.8203],[2.3689,48.8202],[2.369,48.8202],[2.3694,48.8203],[2.3695,48.8202],[2.3701,48.8204],[2.3702,48.8205],[2.3703,48.8205],[2.3702,48.8206],[2.3704,48.8207],[2.3706,48.8206],[2.3705,48.8205],[2.3705,48.8204],[2.3705,48.8203],[2.3705,48.8202],[2.3706,48.8201],[2.3699,48.8198],[2.3705,48.8189],[2.3667,48.8177]]]},"properties":{"id_ffco":"11249","nom":"Centre sportif Georges Carpentier","_dept":"75","numero":"2017-D75-33","commune":"Paris","echelle":"1/2000","surface":"0.08 km²","format":"A4","annee":"2017","cartographes":"Anne Coniel","proprietaire":"7512 - RAID ORIENTATION DE PARIS","niveau":"Initiation, Scolaire","specialite":"Sprint (ISSOM)","contacts":"DRUZETIC Stéphane, president@raid-o-paris.org // THEMINES Anthony, anthony.themines@ffcorientation.fr, http://raid-o-paris.org/","latitude":"48.8193708024","longitude":"2.36804245119","date_saisie":"04/12/2018","date_depot":"02/04/2019","valide":"Oui","ppo":"Non","type_carte":"Nouvelle carte","fond":"Ortho","obsolete":false}},{"type":"Feature","geometry":{"type":"Polygon","coordinates":[[[2.4453,48.8337],[2.4544,48.8271],[2.4439,48.8277],[2.4453,48.8337]]]},"properties":{"id_ffco":"10605","nom":"La plaine Saint Hubert","_dept":"75","numero":"2016-D75-31","commune":"Paris","echelle":"1/4000","surface":"0.26 km²","format":"A4","annee":"2016","cartographes":"Frantz MAREIGNIER","proprietaire":"7509 - PARIS ORIENTSPORT","niveau":"Initiation, Scolaire","specialite":"CO à pied","contacts":"Paris OrientSport, 27, rue du Javelot , Boîte aux lettres 321, 75013, Paris, 0608827524, 7509pos@gmail.com, http://www.klubasso.fr/paris-orientsport","latitude":"48.8294883217","longitude":"2.44785547256","date_saisie":"20/12/2017","date_depot":"06/11/2018","valide":"Oui","ppo":"Non","type_carte":"Nouvelle carte","fond":"Cadastre","obsolete":false}},{"type":"Feature","geometry":{"type":"Polygon","coordinates":[[[2.3995,48.8308],[2.4017,48.8311],[2.403,48.8315],[2.4038,48.8321],[2.4042,48.8324],[2.4045,48.833],[2.4059,48.8334],[2.4069,48.834],[2.4078,48.8344],[2.4083,48.835],[2.4105,48.8342],[2.41,48.8339],[2.4093,48.8337],[2.4086,48.8333],[2.4083,48.8324],[2.4085,48.8314],[2.4093,48.8307],[2.4097,48.8285],[2.4095,48.8268],[2.4096,48.8258],[2.4101,48.8251],[2.4085,48.8259],[2.4065,48.8273],[2.4051,48.8284],[2.4036,48.8292],[2.4023,48.8297],[2.4012,48.8296],[2.3995,48.8308]]]},"properties":{"id_ffco":"10603","nom":"La pelouse de Reuilly","_dept":"75","numero":"2016-D75-30","commune":"Paris","echelle":"1/4000","surface":"0.34 km²","format":"A4","annee":"2016","cartographes":"Frantz MAREIGNIER","proprietaire":"7509 - PARIS ORIENTSPORT","niveau":"Initiation, Scolaire","specialite":"CO à pied","contacts":"Paris OrientSport, 27, rue du Javelot , Boîte aux lettres 321, 75013, Paris, 0608827524, 7509pos@gmail.com, http://www.klubasso.fr/paris-orientsport","latitude":"48.8303453248","longitude":"2.40636180233","date_saisie":"20/12/2017","date_depot":"02/11/2018","valide":"Oui","ppo":"Non","type_carte":"Nouvelle carte","fond":"Cadastre","obsolete":false}},{"type":"Feature","geometry":{"type":"Polygon","coordinates":[[[2.4501,48.8303],[2.4505,48.8306],[2.4525,48.8294],[2.4572,48.8324],[2.4637,48.8279],[2.4645,48.8272],[2.4579,48.8238],[2.4501,48.8303]]]},"properties":{"id_ffco":"10602","nom":"La plaine de Mortemart","_dept":"75","numero":"2016-D75-29","commune":"Paris","echelle":"1/5000","surface":"0.46 km²","format":"A4","annee":"2016","cartographes":"Frantz MAREIGNIER","proprietaire":"7509 - PARIS ORIENTSPORT","niveau":"Initiation, Scolaire","specialite":"CO à pied","contacts":"Paris OrientSport, 27, rue du Javelot , Boîte aux lettres 321, 75013, Paris, 0608827524, 7509pos@gmail.com, http://www.klubasso.fr/paris-orientsport","latitude":"48.8281311457","longitude":"2.45781057775","date_saisie":"20/12/2017","date_depot":"06/11/2018","valide":"Oui","ppo":"Non","type_carte":"Nouvelle carte","fond":"Cadastre","obsolete":false}},{"type":"Feature","geometry":{"type":"Polygon","coordinates":[[[2.41,48.8252],[2.4096,48.8262],[2.4095,48.827],[2.4096,48.829],[2.4095,48.8298],[2.4091,48.8309],[2.4087,48.8313],[2.4083,48.8321],[2.4083,48.8329],[2.4089,48.8336],[2.4099,48.8338],[2.4104,48.8341],[2.4123,48.8338],[2.4144,48.8329],[2.4159,48.8321],[2.4177,48.8308],[2.4192,48.8291],[2.4195,48.8281],[2.4195,48.8273],[2.4201,48.8258],[2.4201,48.8241],[2.4185,48.8243],[2.4159,48.8247],[2.4127,48.8247],[2.41,48.8252]]]},"properties":{"id_ffco":"10604","nom":"La Cipale","_dept":"75","numero":"2016-D75-28","commune":"Paris","echelle":"1/5000","surface":"0.66 km²","format":"A4","annee":"2016","cartographes":"Frantz MAREIGNIER","proprietaire":"7509 - PARIS ORIENTSPORT","niveau":"Régional","specialite":"CO à pied","contacts":"Paris OrientSport, 27, rue du Javelot , Boîte aux lettres 321, 75013, Paris, 0608827524, 7509pos@gmail.com, http://www.klubasso.fr/paris-orientsport","latitude":"48.828771887","longitude":"2.41400131786","date_saisie":"20/12/2017","date_depot":"06/11/2018","valide":"Oui","ppo":"Non","type_carte":"Nouvelle carte","fond":"Cadastre","obsolete":false}},{"type":"Feature","geometry":{"type":"Polygon","coordinates":[[[2.4495,48.8418],[2.4698,48.8361],[2.4691,48.8342],[2.4673,48.833],[2.4657,48.8318],[2.4651,48.8309],[2.4643,48.8294],[2.4636,48.8282],[2.459,48.8311],[2.455,48.8341],[2.4526,48.8369],[2.4502,48.8404],[2.4495,48.8418]]]},"properties":{"id_ffco":"10599","nom":"Lac des Minimes","_dept":"75","numero":"2016-D75-25","commune":"Paris","echelle":"1/7500","surface":"0.96 km²","format":"A4","annee":"2016","cartographes":"Frantz MAREIGNIER","proprietaire":"7509 - PARIS ORIENTSPORT","niveau":"Régional","specialite":"CO à pied","contacts":"Paris OrientSport, 27, rue du Javelot , Boîte aux lettres 321, 75013, Paris, 0608827524, 7509pos@gmail.com, http://www.klubasso.fr/paris-orientsport","latitude":"48.8353336207","longitude":"2.46009062706","date_saisie":"20/12/2017","date_depot":"06/11/2018","valide":"Oui","ppo":"Non","type_carte":"Nouvelle carte","fond":"Cadastre","obsolete":false}},{"type":"Feature","geometry":{"type":"Polygon","coordinates":[[[2.4198,48.835],[2.4263,48.8379],[2.4307,48.8395],[2.4368,48.8402],[2.4454,48.8339],[2.4466,48.8274],[2.4455,48.8213],[2.4388,48.8216],[2.4345,48.8223],[2.4323,48.8226],[2.4276,48.8236],[2.4244,48.824],[2.4225,48.8243],[2.4205,48.8256],[2.4196,48.8286],[2.4198,48.835]]]},"properties":{"id_ffco":"10597","nom":"Le Polygone","_dept":"75","numero":"2016-D75-24","commune":"Paris","echelle":"1/10000","surface":"3.21 km²","format":"A4","annee":"2016","cartographes":"Frantz MAREIGNIER","proprietaire":"7509 - PARIS ORIENTSPORT","niveau":"Régional","specialite":"CO à pied","contacts":"Paris OrientSport, 27, rue du Javelot , Boîte aux lettres 321, 75013, Paris, 0608827524, 7509pos@gmail.com, http://www.klubasso.fr/paris-orientsport","latitude":"48.8303293293","longitude":"2.43345559093","date_saisie":"20/12/2017","date_depot":"06/11/2018","valide":"Oui","ppo":"Non","type_carte":"Nouvelle carte","fond":"Cadastre","obsolete":false}},{"type":"Feature","geometry":{"type":"Polygon","coordinates":[[[2.3235,48.8662],[2.3216,48.8638],[2.3302,48.8611],[2.3343,48.8603],[2.3344,48.8608],[2.3371,48.8602],[2.3376,48.8612],[2.3352,48.8618],[2.3354,48.8624],[2.332,48.8633],[2.3318,48.8639],[2.3235,48.8662]]]},"properties":{"id_ffco":"8397","nom":"Jardin des Tuileries","_dept":"75","numero":"2014-D75-22","commune":"Paris 1e","echelle":"1/4000","surface":"0.32 km²","format":"A4","annee":"2014","cartographes":"Didier Buzon","proprietaire":"7512 - RAID ORIENTATION DE PARIS","niveau":"Départemental","specialite":"CO à pied","contacts":"RO Paris, carto@raid-o-paris.org, http://www.raid-o-paris.org/","latitude":"48.8630360756","longitude":"2.32904759756","date_saisie":"01/05/2015","date_depot":"04/05/2015","valide":"Oui","ppo":"Non","type_carte":"Nouvelle carte","fond":"Ortho","obsolete":false}},{"type":"Feature","geometry":{"type":"Polygon","coordinates":[[[2.2676,48.828],[2.2673,48.8315],[2.2692,48.8326],[2.2704,48.8319],[2.2722,48.8322],[2.2739,48.8321],[2.2764,48.8334],[2.2768,48.8332],[2.2749,48.8314],[2.2739,48.8304],[2.2751,48.8296],[2.2723,48.8282],[2.2676,48.828]]]},"properties":{"id_ffco":"8396","nom":"Parc Suzanne Lenglen","_dept":"75","numero":"2014-D75-21","commune":"Paris 15e","echelle":"1/4000","surface":"0.24 km²","format":"A4","annee":"2014","cartographes":"Didier Buzon","proprietaire":"7512 - RAID ORIENTATION DE PARIS","niveau":"Départemental","specialite":"CO à pied","contacts":"RO Paris, carto@raid-o-paris.org, http://www.raid-o-paris.org/","latitude":"48.8303382866","longitude":"2.27111230331","date_saisie":"01/05/2015","date_depot":"04/05/2015","valide":"Oui","ppo":"Non","type_carte":"Nouvelle carte","fond":"Ortho","obsolete":false}},{"type":"Feature","geometry":{"type":"Polygon","coordinates":[[[2.3362,48.8243],[2.3344,48.8214],[2.3416,48.8198],[2.3398,48.8246],[2.3362,48.8243]]]},"properties":{"id_ffco":"8395","nom":"Parc Montsouris 3","_dept":"75","numero":"2014-D75-20","commune":"Paris 13e","echelle":"1/2500","surface":"0.17 km²","format":"A4","annee":"2014","cartographes":"Didier Buzon","proprietaire":"7512 - RAID ORIENTATION DE PARIS","niveau":"Initiation, Scolaire","specialite":"CO à pied","latitude":"48.8222808057","longitude":"2.33816475864","date_saisie":"01/05/2015","date_depot":"04/05/2015","valide":"Oui","ppo":"Non","type_carte":"Reprise","base":"1998-D75-05 LE PARC DE MONTSOURIS 2","fond":"Ortho","obsolete":false}},{"type":"Feature","geometry":{"type":"Polygon","coordinates":[[[2.3325,48.8486],[2.3324,48.845],[2.333,48.8444],[2.3375,48.8443],[2.3376,48.8455],[2.3388,48.8462],[2.34,48.8462],[2.3404,48.847],[2.3399,48.8479],[2.3388,48.849],[2.3381,48.8492],[2.338,48.8479],[2.3365,48.8479],[2.3362,48.8482],[2.3338,48.8483],[2.3338,48.8489],[2.3325,48.8486]]]},"properties":{"id_ffco":"8394","nom":"Jardin du Luxembourg","_dept":"75","numero":"2014-D75-19","commune":"Paris 6e","echelle":"1/4000","surface":"0.22 km²","format":"A4","annee":"2014","cartographes":"Didier Buzon","proprietaire":"7512 - RAID ORIENTATION DE PARIS","niveau":"Initiation, Scolaire","specialite":"CO à pied","contacts":"RO Paris, carto@raid-o-paris.org, http://www.raid-o-paris.org/","latitude":"48.8465713171","longitude":"2.3358636818","date_saisie":"01/05/2015","date_depot":"04/05/2015","valide":"Oui","ppo":"Non","type_carte":"Nouvelle carte","fond":"Ortho","obsolete":false}},{"type":"Feature","geometry":{"type":"Polygon","coordinates":[[[2.4516,48.8294],[2.457,48.8322],[2.4645,48.8273],[2.4578,48.8242],[2.4516,48.8294]]]},"properties":{"id_ffco":"8392","nom":"Persching 2","_dept":"75","numero":"2013-D75-17","commune":"Paris 12e","echelle":"1/6000","surface":"0.42 km²","format":"A4","annee":"2013","cartographes":"Christine Verdeil","proprietaire":"7512 - RAID ORIENTATION DE PARIS","niveau":"Initiation, Scolaire","specialite":"CO à pied","contacts":"RO Paris, carto@raid-o-paris.org, http://www.raid-o-paris.org/","latitude":"48.8282109421","longitude":"2.45783334447","date_saisie":"01/05/2015","valide":"Oui","ppo":"Non","type_carte":"Reprise","base":"2007-D75-010 PERSHING","fond":"Ortho","obsolete":false}},{"type":"Feature","geometry":{"type":"Polygon","coordinates":[[[2.4082,48.8334],[2.406,48.8323],[2.4038,48.8311],[2.4041,48.83],[2.4052,48.8283],[2.4085,48.8258],[2.4121,48.8247],[2.4167,48.8248],[2.4197,48.8242],[2.4196,48.8268],[2.4191,48.8291],[2.4172,48.8312],[2.4151,48.8326],[2.4123,48.8337],[2.4104,48.834],[2.4082,48.8334]]]},"properties":{"id_ffco":"8391","nom":"Ile de Bercy","_dept":"75","numero":"2013-D75-16","commune":"Paris 12e","echelle":"1/6000","surface":"0.86 km²","format":"A4","annee":"2013","cartographes":"Christine Verdeil","proprietaire":"7512 - RAID ORIENTATION DE PARIS","niveau":"Régional","specialite":"CO à pied","latitude":"48.8290116638","longitude":"2.41214422857","date_saisie":"01/05/2015","valide":"Oui","ppo":"Non","type_carte":"Nouvelle carte","fond":"Ortho","obsolete":false}},{"type":"Feature","geometry":{"type":"Polygon","coordinates":[[[2.3811,48.876],[2.3791,48.8767],[2.3782,48.8779],[2.3783,48.8789],[2.3801,48.8809],[2.3821,48.8823],[2.3844,48.8829],[2.3855,48.883],[2.3896,48.8796],[2.384,48.8792],[2.3814,48.878],[2.3811,48.877],[2.3815,48.8762],[2.3811,48.876]]]},"properties":{"id_ffco":"8390","nom":"Parc des Buttes Chaumont 2","_dept":"75","numero":"2012-D75-15","commune":"Paris 19e","echelle":"1/3500","surface":"0.28 km²","format":"A4","annee":"2012","cartographes":"Christine Verdeil","proprietaire":"7512 - RAID ORIENTATION DE PARIS","niveau":"Régional","specialite":"CO à pied","contacts":"RO Paris, carto@raid-o-paris.org, http://www.raid-o-paris.org/","latitude":"48.8799867216","longitude":"2.38302558424","date_saisie":"01/05/2015","date_depot":"25/09/2013","valide":"Oui","ppo":"Non","type_carte":"Reprise","base":"2002-D75-06 LES BUTTES DE CHAUMONT","fond":"Ortho","obsolete":false}},{"type":"Feature","geometry":{"type":"Polygon","coordinates":[[[2.2951,48.8601],[2.2914,48.8579],[2.3017,48.8521],[2.304,48.8538],[2.2964,48.8586],[2.2969,48.859],[2.2951,48.8601]]]},"properties":{"id_ffco":"8389","nom":"Champs de Mars 2","_dept":"75","numero":"2011-D75-14","commune":"Paris 7e","echelle":"1/5000","surface":"0.28 km²","format":"A4","annee":"2011","cartographes":"Christine Verdeil","proprietaire":"7512 - RAID ORIENTATION DE PARIS","niveau":"Initiation, Scolaire","specialite":"CO à pied","contacts":"RO Paris, carto@raid-o-paris.org, http://www.raid-o-paris.org/","latitude":"48.8561204467","longitude":"2.29764621764","date_saisie":"01/05/2015","valide":"Oui","ppo":"Non","type_carte":"Nouvelle carte","fond":"Ortho","obsolete":false}}]}