{"type":"FeatureCollection","features":[{"type":"Feature","geometry":{"type":"Polygon","coordinates":[[[2.3126,48.8916],[2.3133,48.8918],[2.3126,48.8926],[2.3118,48.8922],[2.311,48.893],[2.3137,48.8942],[2.3183,48.8915],[2.316,48.8891],[2.3157,48.8893],[2.3159,48.8896],[2.3154,48.8898],[2.3156,48.89],[2.3135,48.8913],[2.3133,48.8912],[2.3126,48.8916]]]},"properties":{"id_ffco":"12657","nom":"Parc de Clichy Batignolles Martin Luther King","_dept":"75","numero":"2021-D75-45","commune":"Paris","echelle":"1/3000","surface":"0.13 km²","format":"A4","annee":"2021","cartographes":"ACORIENTATION","proprietaire":"7512 - RAID ORIENTATION DE PARIS","niveau":"Départemental","specialite":"CO à pied","latitude":"48.8919417751","longitude":"2.31489164798","date_saisie":"15/03/2021","valide":"Non","ppo":"Non","type_carte":"Nouvelle carte","fond":"Cadastre","obsolete":true}},{"type":"Feature","geometry":{"type":"Polygon","coordinates":[[[2.3842,48.896],[2.3856,48.8974],[2.3882,48.8973],[2.392,48.8968],[2.3936,48.8958],[2.3954,48.8897],[2.3892,48.888],[2.3883,48.8895],[2.3878,48.8894],[2.3842,48.896]]]},"properties":{"id_ffco":"10127","nom":"La Villette","_dept":"75","numero":"2016-D75-32","commune":"PARIS","echelle":"1/4000","surface":"0.56 km²","format":"A4","annee":"2016","cartographes":"Anne Coniel","proprietaire":"75 - Paris","niveau":"Régional","specialite":"Sprint (ISSOM)","contacts":"RAID -O - PARIS, http://raid-o-paris.org/","latitude":"48.893079942","longitude":"2.39000834465","date_saisie":"27/03/2017","date_depot":"28/04/2017","valide":"Oui","ppo":"Non","type_carte":"Nouvelle carte","fond":"Cadastre","obsolete":true}},{"type":"Feature","geometry":{"type":"Polygon","coordinates":[[[2.4509,48.8444],[2.4571,48.8437],[2.4617,48.8428],[2.4642,48.842],[2.4672,48.8394],[2.4681,48.8381],[2.4695,48.8371],[2.4695,48.8365],[2.4492,48.8421],[2.4502,48.8431],[2.4509,48.8444]]]},"properties":{"id_ffco":"10601","nom":"La plaine de Fontenay","_dept":"75","numero":"2016-D75-27","commune":"Paris","echelle":"1/5000","surface":"0.51 km²","format":"A4","annee":"2016","cartographes":"Frantz MAREIGNIER","proprietaire":"7509 - PARIS ORIENTSPORT","niveau":"Initiation, Scolaire","specialite":"CO à pied","contacts":"Paris OrientSport, 27, rue du Javelot , Boîte aux lettres 321, 75013, Paris, 0608827524, 7509pos@gmail.com, http://www.klubasso.fr/paris-orientsport","latitude":"48.8410571012","longitude":"2.45932492799","date_saisie":"20/12/2017","date_depot":"06/11/2018","valide":"Oui","ppo":"Non","type_carte":"Nouvelle carte","fond":"Cadastre","obsolete":true}},{"type":"Feature","geometry":{"type":"Polygon","coordinates":[[[2.4222,48.8358],[2.4215,48.8371],[2.421,48.8393],[2.4206,48.8402],[2.4201,48.8408],[2.4195,48.8414],[2.4192,48.8425],[2.4198,48.8431],[2.4219,48.8443],[2.4233,48.8429],[2.4241,48.8421],[2.4257,48.8417],[2.4327,48.841],[2.4343,48.8407],[2.4338,48.8403],[2.4275,48.8385],[2.4256,48.8376],[2.4222,48.8358]]]},"properties":{"id_ffco":"10600","nom":"Le Lac de Saint MANDE","_dept":"75","numero":"2016-D75-26","commune":"Paris","echelle":"1/5000","surface":"0.41 km²","format":"A4","annee":"2016","cartographes":"Frantz MAREIGNIER","proprietaire":"7509 - PARIS ORIENTSPORT","niveau":"Initiation, Scolaire","specialite":"CO à pied","contacts":"Paris OrientSport, 27, rue du Javelot , Boîte aux lettres 321, 75013, Paris, 0608827524, 7509pos@gmail.com, http://www.klubasso.fr/paris-orientsport","latitude":"48.8401519436","longitude":"2.4248726862","date_saisie":"20/12/2017","date_depot":"06/11/2018","valide":"Oui","ppo":"Non","type_carte":"Nouvelle carte","fond":"Cadastre","obsolete":true}},{"type":"Feature","geometry":{"type":"Polygon","coordinates":[[[2.4509,48.8449],[2.4662,48.8422],[2.4722,48.8349],[2.4645,48.8281],[2.4552,48.8227],[2.45,48.8213],[2.4409,48.8216],[2.4325,48.8225],[2.4236,48.8238],[2.4109,48.8247],[2.4023,48.829],[2.3991,48.8314],[2.4069,48.8352],[2.4159,48.8326],[2.4224,48.836],[2.4195,48.8434],[2.4293,48.8416],[2.438,48.8404],[2.4468,48.8396],[2.4476,48.8436],[2.449,48.8421],[2.4509,48.8449]]]},"properties":{"id_ffco":"10596","nom":"Bois de vincennes","_dept":"75","numero":"2016-D75-23","commune":"Paris","echelle":"1/10000","surface":"8.63 km²","format":"+","annee":"2016","cartographes":"Frantz MAREIGNIER","proprietaire":"7509 - PARIS ORIENTSPORT","niveau":"National, International","specialite":"CO à pied","contacts":"Paris OrientSport, 27, rue du Javelot , Boîte aux lettres 321, 75013, Paris, 0608827524, 7509pos@gmail.com, http://www.klubasso.fr/paris-orientsport","latitude":"48.8322702923","longitude":"2.43941490041","date_saisie":"20/12/2017","valide":"Non","ppo":"Non","type_carte":"Nouvelle carte","fond":"Cadastre","obsolete":true}},{"type":"Feature","geometry":{"type":"Polygon","coordinates":[[[2.3424,48.8843],[2.3423,48.8849],[2.3379,48.8861],[2.337,48.887],[2.3374,48.8876],[2.3357,48.8883],[2.3355,48.8885],[2.336,48.8891],[2.3371,48.8896],[2.3429,48.8898],[2.3445,48.8893],[2.3452,48.8882],[2.345,48.8858],[2.3443,48.8852],[2.3441,48.8844],[2.3424,48.8843]]]},"properties":{"id_ffco":"8393","nom":"La Butte Montmartre","_dept":"75","numero":"2014-D75-18","commune":"Paris 18e","echelle":"1/3500","surface":"0.29 km²","format":"A4","annee":"2014","cartographes":"Didier Buzon","proprietaire":"7512 - RAID ORIENTATION DE PARIS","niveau":"Départemental","specialite":"CO à pied","contacts":"RO Paris, carto@raid-o-paris.org, http://www.raid-o-paris.org/","latitude":"48.8875058441","longitude":"2.34107244661","date_saisie":"01/05/2015","date_depot":"04/05/2015","valide":"Oui","ppo":"Non","type_carte":"Nouvelle carte","fond":"Ortho","obsolete":true}},{"type":"Feature","geometry":{"type":"Polygon","coordinates":[[[2.2422,48.8481],[2.2416,48.8535],[2.2449,48.8586],[2.2474,48.8579],[2.2501,48.8578],[2.2529,48.8579],[2.2572,48.8584],[2.2566,48.8578],[2.2563,48.8572],[2.2563,48.8565],[2.2555,48.8555],[2.2542,48.8546],[2.2536,48.8538],[2.2538,48.8532],[2.2542,48.8525],[2.254,48.8519],[2.2535,48.8512],[2.2523,48.8492],[2.2507,48.8484],[2.2422,48.8481]]]},"properties":{"id_ffco":"5032","nom":"La Reine Marguerite","_dept":"75","numero":"2010-D75-13","commune":"Paris","echelle":"1/5000","surface":"0.94 km²","format":"A4","annee":"2010","cartographes":"Christian Vernin,Michel HUET,Serge Pons","proprietaire":"7509 - PARIS ORIENTSPORT","niveau":"Initiation, Scolaire","specialite":"CO à pied","contacts":"Paris OrientSport, 27, rue du Javelot , Boîte aux lettres 321, 75013, Paris, 0608827524, 7509pos@gmail.com, http://www.klubasso.fr/paris-orientsport","latitude":"48.8533683518","longitude":"2.24834326586","date_saisie":"09/08/2010","date_depot":"22/09/2010","valide":"Oui","ppo":"Non","type_carte":"Nouvelle carte","base":"1990-D75-00 BOIS DE BOULOGNE","fond":"Cadastre","obsolete":true}},{"type":"Feature","geometry":{"type":"Polygon","coordinates":[[[2.2918,48.8579],[2.2951,48.8601],[2.2969,48.859],[2.2965,48.8587],[2.2991,48.8571],[2.2993,48.8572],[2.2996,48.857],[2.2995,48.8569],[2.3043,48.8536],[2.3018,48.8519],[2.2968,48.8551],[2.2965,48.8549],[2.2961,48.8552],[2.2964,48.8553],[2.2939,48.8569],[2.2936,48.8567],[2.2918,48.8579]]]},"properties":{"id_ffco":"10150","nom":"CHAMPS DE MARS","_dept":"75","numero":"2007-D75-09","commune":"PARIS","echelle":"1/4500","surface":"0.29 km²","format":"A4","annee":"2007","cartographes":"Christine Verdail,Maris Colombier","proprietaire":"7701 - C.S.A. DU CENTRE NATIONAL DES SPORTS DE LA DEFENSE","niveau":"Initiation, Scolaire","specialite":"Sprint (ISSOM)","latitude":"48.8560049074","longitude":"2.2980458529","date_saisie":"08/04/2017","date_depot":"28/04/2017","valide":"Oui","ppo":"Non","type_carte":"Nouvelle carte","fond":"Cadastre","obsolete":true}},{"type":"Feature","geometry":null,"properties":{"id_ffco":"3613","nom":"LES BUTTES DE CHAUMONT","_dept":"75","numero":"2002-D75-06","commune":"Paris","echelle":"1/4000","surface":"0.4 km²","annee":"2002","proprietaire":"7501","specialite":"CO à pied","latitude":"48.8566667","longitude":"2.3509871","date_saisie":"10/02/2003","date_depot":"10/02/2003","valide":"Non","ppo":"Non","obsolete":true}},{"type":"Feature","geometry":null,"properties":{"id_ffco":"3084","nom":"LE PARC DE MONTSOURIS 2","_dept":"75","numero":"1998-D75-05","commune":"PARIS","echelle":"1/4000","surface":"1.0 km²","annee":"1998","proprietaire":"IF - Île de France","specialite":"CO à pied","latitude":"48.8566667","longitude":"2.3509871","valide":"Non","ppo":"Non","obsolete":true}},{"type":"Feature","geometry":null,"properties":{"id_ffco":"3035","nom":"BOIS DE BOULOGNE SUD","_dept":"75","numero":"1998-D75-04","commune":"BOULOGNE BILLANCOURT","echelle":"1/5000","surface":"0.7 km²","annee":"1998","proprietaire":"IF - Île de France","specialite":"CO à pied","latitude":"48.8338029","longitude":"2.24333","valide":"Non","ppo":"Non","obsolete":true}},{"type":"Feature","geometry":null,"properties":{"id_ffco":"2207","nom":"PARC DE MONTSOURIS","_dept":"75","numero":"1990-D75-03","commune":"PARIS","echelle":"1/4000","surface":"0.2 km²","annee":"1990","proprietaire":"IF - Île de France","specialite":"CO à pied","latitude":"48.8566667","longitude":"2.3509871","valide":"Non","ppo":"Non","obsolete":true}},{"type":"Feature","geometry":null,"properties":{"id_ffco":"2206","nom":"LAC DES MINIMES","_dept":"75","numero":"1990-D75-02","commune":"PARIS","echelle":"1/10000","surface":"0.9 km²","annee":"1990","proprietaire":"IF - Île de France","specialite":"CO à pied","latitude":"48.8566667","longitude":"2.3509871","valide":"Non","ppo":"Non","obsolete":true}},{"type":"Feature","geometry":{"type":"Polygon","coordinates":[[[2.3673,48.8203],[2.3667,48.8201],[2.3668,48.8199],[2.3663,48.8197],[2.3661,48.8198],[2.366,48.8191],[2.3659,48.819],[2.3657,48.8189],[2.3667,48.8176],[2.3712,48.8192],[2.3706,48.8201],[2.3706,48.8205],[2.3707,48.8206],[2.3708,48.8207],[2.3705,48.8209],[2.3703,48.8207],[2.369,48.8202],[2.3689,48.8203],[2.3688,48.8203],[2.3688,48.8207],[2.3686,48.8206],[2.3683,48.8209],[2.3672,48.8205],[2.3673,48.8203]]]},"properties":{"id_ffco":"4874","nom":"Centre Sportif Georges CARPENTIER","_dept":"75","numero":"2008-D75-012","commune":"Paris","echelle":"1/1500","surface":"0.08 km²","format":"A4","annee":"2008","cartographes":"R Lazarowicz","proprietaire":"7512 - RAID ORIENTATION DE PARIS","niveau":"Initiation, Scolaire","specialite":"CO à pied","latitude":"48.8193402114","longitude":"2.36829881655","date_saisie":"19/03/2010","date_depot":"26/03/2010","valide":"Oui","ppo":"Non","type_carte":"Nouvelle carte","fond":"Cadastre","obsolete":true}},{"type":"Feature","geometry":null,"properties":{"id_ffco":"4873","nom":"PERSHING","_dept":"75","numero":"2007-D75-010","commune":"Paris","echelle":"1/3000","surface":"0.6 km²","format":"A4","annee":"2007","cartographes":"M Franquet,R Lazarowicz","proprietaire":"7512 - RAID ORIENTATION DE PARIS","niveau":"Initiation, Scolaire","specialite":"CO à pied","latitude":"48.8566667","longitude":"2.3509871","date_saisie":"19/03/2010","date_depot":"26/03/2010","valide":"Non","ppo":"Non","obsolete":true}},{"type":"Feature","geometry":null,"properties":{"id_ffco":"2205","nom":"BUTTES CHAUMONT","_dept":"75","numero":"1990-D75-01","commune":"PARIS","echelle":"1/4000","surface":"0.3 km²","annee":"1990","proprietaire":"IF - Île de France","specialite":"CO à pied","latitude":"48.8566667","longitude":"2.3509871","valide":"Non","ppo":"Non","obsolete":true}},{"type":"Feature","geometry":null,"properties":{"id_ffco":"4260","nom":"Cité Internationale De Paris","_dept":"75","numero":"2006-D75-008","commune":"Paris","echelle":"1/4500","surface":"0.4 km²","annee":"2006","cartographes":"M Franquet","proprietaire":"CRSU","specialite":"CO à pied","latitude":"48.8566667","longitude":"2.3509871","date_saisie":"18/11/2006","date_depot":"28/12/2006","valide":"Non","ppo":"Non","obsolete":true}},{"type":"Feature","geometry":null,"properties":{"id_ffco":"4872","nom":"LAC DES MINIMES","_dept":"75","numero":"2006-D75-007","commune":"Paris","echelle":"1/6000","surface":"3.3 km²","format":"A3","annee":"2006","cartographes":"M Franquet","proprietaire":"75 - Paris","niveau":"Régional","specialite":"CO à pied","latitude":"48.8566667","longitude":"2.3509871","date_saisie":"19/03/2010","date_depot":"26/03/2010","valide":"Non","ppo":"Non","obsolete":true}},{"type":"Feature","geometry":null,"properties":{"id_ffco":"2204","nom":"BOIS DE BOULOGNE","_dept":"75","numero":"1990-D75-00","commune":"PARIS","echelle":"1/5000","surface":"1.0 km²","annee":"1990","proprietaire":"IF - Île de France","specialite":"CO à pied","latitude":"48.8566667","longitude":"2.3509871","valide":"Non","ppo":"Non","obsolete":true}}]}