{"type":"FeatureCollection","features":[{"type":"Feature","geometry":{"type":"Polygon","coordinates":[[[0.1966,49.5261],[0.1963,49.526],[0.196,49.5262],[0.1949,49.5258],[0.1954,49.5236],[0.196,49.5222],[0.1957,49.5209],[0.1977,49.52],[0.1994,49.5195],[0.1998,49.5202],[0.2019,49.5209],[0.204,49.5213],[0.2095,49.5233],[0.2073,49.5247],[0.2069,49.5244],[0.2048,49.5231],[0.2022,49.5225],[0.1996,49.5228],[0.1983,49.5234],[0.1972,49.5245],[0.197,49.5253],[0.1966,49.5261]]]},"properties":{"id_ffco":"8460","nom":"Bois du Petit Colmoulins","_dept":"76","numero":"2014-D76-95","commune":"Montvilliers","echelle":"1/4000","surface":"0.28 km²","format":"A4","annee":"2014","proprietaire":"2704 - CLUB D'ORIENTATION DES BOUCLES DE LA SEINE","niveau":"Régional","specialite":"CO à pied","latitude":"49.5224997087","longitude":"0.200552773157","date_saisie":"02/06/2015","date_depot":"27/01/2016","valide":"Oui","ppo":"Non","type_carte":"Nouvelle carte","fond":"Cadastre","obsolete":true}},{"type":"Feature","geometry":{"type":"Polygon","coordinates":[[[0.2701,49.5317],[0.2725,49.5281],[0.2751,49.5286],[0.274,49.5301],[0.2758,49.5306],[0.2746,49.5327],[0.2701,49.5317]]]},"properties":{"id_ffco":"7615","nom":"La Ferme d'Aplemour","_dept":"76","numero":"2014-D76-92","commune":"St Laurent de Brévedent","echelle":"1/2500","surface":"0.12 km²","format":"A4","annee":"2014","cartographes":"Michel Duboc","niveau":"Initiation, Scolaire","specialite":"CO à pied","latitude":"49.5305588195","longitude":"0.273097021123","date_saisie":"22/11/2014","date_depot":"26/11/2014","valide":"Oui","ppo":"Non","type_carte":"Extrait","base":"2014-D76-91 Le Bois de l'Etoile","fond":"Ortho","obsolete":true}},{"type":"Feature","geometry":{"type":"Polygon","coordinates":[[[1.1553,49.4416],[1.152,49.4399],[1.1514,49.4394],[1.1524,49.4381],[1.1539,49.4369],[1.1553,49.436],[1.1577,49.4351],[1.1605,49.4344],[1.164,49.4342],[1.1654,49.434],[1.1666,49.4382],[1.1661,49.4381],[1.166,49.4407],[1.1631,49.441],[1.1604,49.4408],[1.1593,49.4407],[1.1575,49.4414],[1.1559,49.4418],[1.1553,49.4416]]]},"properties":{"id_ffco":"7578","nom":"Le Bois du Roule - Darnétal","_dept":"76","numero":"2014-D76-90","commune":"Darnétal","echelle":"1/5000","surface":"0.65 km²","format":"A4","annee":"2014","cartographes":"Michel Duboc","proprietaire":"NM - Normandie","niveau":"Départemental","specialite":"CO à pied","latitude":"49.4380105667","longitude":"1.15975580179","date_saisie":"27/10/2014","date_depot":"26/11/2014","valide":"Oui","ppo":"Oui (30 postes)","type_carte":"Nouvelle carte","fond":"Ortho","obsolete":true}},{"type":"Feature","geometry":{"type":"Polygon","coordinates":[[[0.7229,49.5242],[0.7227,49.5252],[0.721,49.5269],[0.7199,49.5284],[0.7182,49.5309],[0.7187,49.5314],[0.721,49.5314],[0.7227,49.5314],[0.7238,49.53],[0.7245,49.5299],[0.7266,49.5271],[0.7297,49.5248],[0.7297,49.5241],[0.7252,49.524],[0.723,49.524],[0.7229,49.5242]]]},"properties":{"id_ffco":"7388","nom":"Caudebec en Caux","_dept":"76","numero":"2014-D76-88","commune":"Caudebec en Caux","echelle":"1/4000","surface":"0.34 km²","format":"A4","annee":"2014","cartographes":"G Coupey","proprietaire":"2704 - CLUB D'ORIENTATION DES BOUCLES DE LA SEINE","niveau":"Régional","specialite":"CO à pied","latitude":"49.5274869067","longitude":"0.723624350676","date_saisie":"04/06/2014","date_depot":"06/04/2014","valide":"Oui","ppo":"Non","type_carte":"Nouvelle carte","fond":"Cadastre","obsolete":true}},{"type":"Feature","geometry":{"type":"Polygon","coordinates":[[[0.1483,49.5214],[0.1483,49.5203],[0.153,49.5199],[0.1528,49.5209],[0.1514,49.5209],[0.1512,49.521],[0.1496,49.521],[0.1494,49.5215],[0.1483,49.5214]]]},"properties":{"id_ffco":"8790","nom":"Forêt de Montgeon  Stade Delamare","_dept":"76","numero":"2013-D76-85","commune":"Le Havre","echelle":"1/1500","surface":"0.03 km²","format":"A4","annee":"2013","cartographes":"Ph Sanchez","proprietaire":"2704 - CLUB D'ORIENTATION DES BOUCLES DE LA SEINE","niveau":"Initiation, Scolaire","specialite":"CO à pied","latitude":"49.520611525","longitude":"0.150500655135","date_saisie":"26/10/2015","date_depot":"06/04/2014","valide":"Oui","ppo":"Non","type_carte":"Nouvelle carte","fond":"Cadastre","obsolete":true}},{"type":"Feature","geometry":{"type":"Polygon","coordinates":[[[0.153,49.5215],[0.155,49.5222],[0.155,49.5218],[0.1559,49.5218],[0.1557,49.5202],[0.1547,49.5203],[0.1547,49.5198],[0.1529,49.5201],[0.153,49.5215]]]},"properties":{"id_ffco":"7006","nom":"Forêt de Montgeon - L'Arborétum","_dept":"76","numero":"2013-D76-84","commune":"Le Havre","echelle":"1/1500","surface":"0.04 km²","format":"A4","annee":"2013","cartographes":"Ph Sanchez","proprietaire":"2704 - CLUB D'ORIENTATION DES BOUCLES DE LA SEINE","niveau":"Initiation, Scolaire","specialite":"CO à pied","latitude":"49.5209404004","longitude":"0.154359218292","date_saisie":"18/11/2013","date_depot":"15/05/2014","valide":"Oui","ppo":"Non","type_carte":"Extrait","base":"2009-D76-52 Forêt de Montgeon","fond":"Cadastre","obsolete":true}},{"type":"Feature","geometry":{"type":"Polygon","coordinates":[[[0.1785,49.5445],[0.1747,49.5441],[0.1742,49.5462],[0.1748,49.5479],[0.1757,49.548],[0.1756,49.5489],[0.1746,49.5501],[0.1773,49.5531],[0.1833,49.5523],[0.1858,49.5516],[0.186,49.5473],[0.1785,49.5445]]]},"properties":{"id_ffco":"7004","nom":"Montvilliers Belle Etoile","_dept":"76","numero":"2013-D76-82","commune":"Le Havre","echelle":"1/4000","surface":"0.62 km²","format":"A4","annee":"2013","cartographes":"A Eudier","proprietaire":"2704 - CLUB D'ORIENTATION DES BOUCLES DE LA SEINE","niveau":"Départemental","specialite":"CO à pied","latitude":"49.5487173524","longitude":"0.179894487058","date_saisie":"18/11/2013","date_depot":"15/05/2014","valide":"Oui","ppo":"Non","type_carte":"Nouvelle carte","fond":"Cadastre","obsolete":true}},{"type":"Feature","geometry":{"type":"Polygon","coordinates":[[[0.6589,49.4255],[0.6708,49.4237],[0.6785,49.4305],[0.6749,49.4354],[0.6756,49.4392],[0.6718,49.4392],[0.6596,49.4412],[0.656,49.4388],[0.6589,49.4255]]]},"properties":{"id_ffco":"6918","nom":"La Vacquerie Sud","_dept":"76","numero":"2012-D76-75","commune":"Rouen","echelle":"1/7500","surface":"2.27 km²","format":"A4","annee":"2012","cartographes":"Ph Sanchez","proprietaire":"2704 - CLUB D'ORIENTATION DES BOUCLES DE LA SEINE","niveau":"Régional","specialite":"CO à pied","latitude":"49.4326028344","longitude":"0.666511328795","date_saisie":"27/07/2013","date_depot":"07/01/2015","valide":"Non","ppo":"Non","type_carte":"Nouvelle carte","fond":"Cadastre","obsolete":true}},{"type":"Feature","geometry":{"type":"Polygon","coordinates":[[[0.53,49.5227],[0.5311,49.5228],[0.5321,49.523],[0.5337,49.5231],[0.5345,49.5243],[0.5344,49.5254],[0.5338,49.5272],[0.5329,49.5282],[0.5322,49.5287],[0.531,49.5281],[0.5291,49.5283],[0.5284,49.528],[0.5268,49.5282],[0.5274,49.5274],[0.528,49.5265],[0.5287,49.526],[0.5296,49.5261],[0.5295,49.5251],[0.5299,49.5238],[0.53,49.5227]]]},"properties":{"id_ffco":"8787","nom":"Parc des Aulnes","_dept":"76","numero":"2014-D76-71","commune":"Lillebonne","echelle":"1/3000","surface":"0.22 km²","format":"A4","annee":"2014","cartographes":"Agnès Eudier","proprietaire":"2704 - CLUB D'ORIENTATION DES BOUCLES DE LA SEINE","niveau":"Initiation, Scolaire","specialite":"CO à pied","latitude":"49.5258113027","longitude":"0.531361178024","date_saisie":"24/10/2015","date_depot":"06/04/2014","valide":"Oui","ppo":"Non","type_carte":"Nouvelle carte","fond":"Cadastre","obsolete":true}},{"type":"Feature","geometry":null,"properties":{"id_ffco":"6917","nom":"Montivilliers les Lombards","_dept":"76","numero":"2012-D76-70","commune":"Le Havre","echelle":"1/4000","surface":"1.1 km²","format":"A4","annee":"2012","cartographes":"G Coupey,A Eudier","proprietaire":"2704 - CLUB D'ORIENTATION DES BOUCLES DE LA SEINE","niveau":"Régional","specialite":"CO à pied","date_saisie":"27/07/2013","date_depot":"07/01/2015","valide":"Non","ppo":"Non","type_carte":"Nouvelle carte","fond":"Cadastre","obsolete":true}},{"type":"Feature","geometry":null,"properties":{"id_ffco":"5580","nom":"Base de Loisirs Jumièges","_dept":"76","numero":"2012-D76-63","commune":"Rouen","echelle":"1/2500","surface":"0.1 km²","format":"A4","annee":"2012","cartographes":"COBS","proprietaire":"2704 - CLUB D'ORIENTATION DES BOUCLES DE LA SEINE","niveau":"Initiation, Scolaire","specialite":"CO à pied","latitude":"49.4244461752","longitude":"0.799121093786","date_saisie":"20/11/2012","date_depot":"25/09/2013","valide":"Non","ppo":"Non","type_carte":"Nouvelle carte","fond":"Cadastre","obsolete":true}},{"type":"Feature","geometry":null,"properties":{"id_ffco":"5582","nom":"Montivilliers Centre","_dept":"76","numero":"2011-D76-61","commune":"Le Havre","echelle":"1/4000","surface":"0.25 km²","format":"A4","annee":"2011","cartographes":"COBS","proprietaire":"2704 - CLUB D'ORIENTATION DES BOUCLES DE LA SEINE","niveau":"Départemental","specialite":"CO à pied","latitude":"49.4905027044","longitude":"0.233325195371","date_saisie":"20/11/2012","valide":"Non","ppo":"Non","obsolete":true}},{"type":"Feature","geometry":null,"properties":{"id_ffco":"5579","nom":"Le Grand Maître","_dept":"76","numero":"2011-D76-60","commune":"Rouen","echelle":"1/10000","surface":"3.5 km²","format":"A4","annee":"2011","cartographes":"D Barranger,D Barthelemy","proprietaire":"NM - Normandie","niveau":"Interrégional","specialite":"CO à pied","latitude":"49.4351860667","longitude":"0.733203125038","date_saisie":"20/11/2012","date_depot":"25/09/2013","valide":"Non","ppo":"Non","obsolete":true}},{"type":"Feature","geometry":null,"properties":{"id_ffco":"5583","nom":"Bois du Vivier","_dept":"76","numero":"2011-D76-59","commune":"Le Havre","echelle":"1/5000","surface":"0.5 km²","format":"A4","annee":"2011","cartographes":"COBS","proprietaire":"2704 - CLUB D'ORIENTATION DES BOUCLES DE LA SEINE","niveau":"Initiation, Scolaire","specialite":"CO à pied","date_saisie":"20/11/2012","date_depot":"25/09/2013","valide":"Non","ppo":"Non","type_carte":"Nouvelle carte","fond":"Cadastre","obsolete":true}},{"type":"Feature","geometry":null,"properties":{"id_ffco":"5102","nom":"La Vaquerie","_dept":"76","numero":"2011-D76-58","commune":"Le Havre","echelle":"1/10000","surface":"3.5 km²","format":"A4","annee":"2011","niveau":"Régional","specialite":"CO à pied","date_saisie":"13/09/2011","valide":"Non","ppo":"Non","obsolete":true}},{"type":"Feature","geometry":null,"properties":{"id_ffco":"5586","nom":"Le Petit Charme - Forêt de Roumare","_dept":"76","numero":"2009-D76-55","commune":"Rouen","echelle":"1/10000","surface":"3.4 km²","format":"A4","annee":"2009","cartographes":"COBS","proprietaire":"2704 - CLUB D'ORIENTATION DES BOUCLES DE LA SEINE","niveau":"Régional","specialite":"CO à pied","latitude":"49.4030033135","longitude":"0.994128417997","date_saisie":"20/11/2012","date_depot":"25/09/2013","valide":"Non","ppo":"Non","type_carte":"Nouvelle carte","fond":"Ortho","obsolete":true}},{"type":"Feature","geometry":null,"properties":{"id_ffco":"5107","nom":"Parc de Rouelles","_dept":"76","numero":"2008-D76-53","commune":"Le Havre","echelle":"1/3500","surface":"0.8 km²","format":"A4","annee":"2008","proprietaire":"COBS","niveau":"Initiation, Scolaire","specialite":"CO à pied","date_saisie":"13/09/2011","valide":"Non","ppo":"Non","obsolete":true}},{"type":"Feature","geometry":null,"properties":{"id_ffco":"5108","nom":"Forêt de Montgeon","_dept":"76","numero":"2009-D76-52","commune":"Le Havre","echelle":"1/7500","surface":"3.3 km²","format":"A3","annee":"2009","proprietaire":"COBS","niveau":"Départemental","specialite":"CO à pied","date_saisie":"13/09/2011","valide":"Non","ppo":"Non","obsolete":true}},{"type":"Feature","geometry":null,"properties":{"id_ffco":"7000","nom":"Rond de Mortemart","_dept":"76","numero":"2013-D76-44","commune":"Rouen","echelle":"1/5000","surface":"0.6 km²","format":"A4","annee":"2013","cartographes":"Ph Sanchez","proprietaire":"2704 - CLUB D'ORIENTATION DES BOUCLES DE LA SEINE","niveau":"Départemental","specialite":"CO à pied","date_saisie":"18/11/2013","date_depot":"15/05/2014","valide":"Non","ppo":"Non","type_carte":"Nouvelle carte","fond":"Cadastre","obsolete":true}},{"type":"Feature","geometry":null,"properties":{"id_ffco":"5104","nom":"Le Chêne-La Croix","_dept":"76","numero":"2007-D76-43","commune":"Rouen","echelle":"1/7500","surface":"1.8 km²","format":"A4","annee":"2007","proprietaire":"COBS","niveau":"Départemental","specialite":"CO à pied","date_saisie":"13/09/2011","valide":"Non","ppo":"Non","obsolete":true}},{"type":"Feature","geometry":{"type":"Polygon","coordinates":[[[0.8511,49.4818],[0.8689,49.4809],[0.8545,49.4684],[0.825,49.4599],[0.8154,49.4778],[0.8161,49.4867],[0.8099,49.4871],[0.7989,49.497],[0.8181,49.4987],[0.8387,49.4992],[0.8497,49.4938],[0.8442,49.4836],[0.8511,49.4818]]]},"properties":{"id_ffco":"5111","nom":"La mare catelière","_dept":"76","numero":"2005-D76-38","commune":"Le Havre","echelle":"1/10000","surface":"11.19 km²","format":"A3","annee":"2005","niveau":"Départemental","specialite":"CO à pied","latitude":"49.4816529921","longitude":"0.833069000692","date_saisie":"13/09/2011","valide":"Non","ppo":"Non","obsolete":true}},{"type":"Feature","geometry":null,"properties":{"id_ffco":"5103","nom":"Forêt de Brotonne-Bourg l'Abbé","_dept":"76","numero":"2004-D76-37","commune":"Le Havre","echelle":"1/10000","surface":"3.2 km²","format":"A4","annee":"2004","niveau":"Départemental","specialite":"CO à pied","date_saisie":"13/09/2011","valide":"Non","ppo":"Non","obsolete":true}},{"type":"Feature","geometry":null,"properties":{"id_ffco":"446","nom":"Bois de l'Epinay","_dept":"76","numero":"????-D76-31","commune":"Forges les Eaux","surface":"None km²","latitude":"49.6126681","longitude":"1.5469131","valide":"Non","ppo":"Oui","obsolete":true}},{"type":"Feature","geometry":null,"properties":{"id_ffco":"3107","nom":"CAUDEBEC","_dept":"76","numero":"1998-D76-28","commune":"CAUDEBEC EN CAUX","echelle":"1/5000","surface":"1.2 km²","annee":"1998","proprietaire":"NM - Normandie","specialite":"CO à pied","latitude":"49.5262178","longitude":"0.7245011","valide":"Non","ppo":"Non","obsolete":true}},{"type":"Feature","geometry":null,"properties":{"id_ffco":"3106","nom":"CAUDEBEC","_dept":"76","numero":"1998-D76-27","commune":"CAUDEBEC EN CAUX","echelle":"1/7500","surface":"2.5 km²","annee":"1998","proprietaire":"NM - Normandie","specialite":"CO à pied","latitude":"49.5262178","longitude":"0.7245011","valide":"Non","ppo":"Non","obsolete":true}},{"type":"Feature","geometry":null,"properties":{"id_ffco":"1841","nom":"PARC DE ROUELLE - ARBORETUM","_dept":"76","numero":"1988-D76-25","commune":"LE HAVRE","echelle":"1/5000","surface":"0.5 km²","annee":"1988","proprietaire":"NM - Normandie","specialite":"CO à pied","latitude":"49.4925909","longitude":"0.1065027","valide":"Non","ppo":"Non","obsolete":true}},{"type":"Feature","geometry":null,"properties":{"id_ffco":"1839","nom":"BOTS DU VIVIER","_dept":"76","numero":"1988-D76-23","commune":"BOLBEC","echelle":"1/5000","surface":"1.5 km²","annee":"1988","proprietaire":"NM - Normandie","specialite":"CO à pied","latitude":"49.5717657","longitude":"0.4705072","valide":"Non","ppo":"Non","obsolete":true}},{"type":"Feature","geometry":null,"properties":{"id_ffco":"1838","nom":"BOTS DE VALMONT","_dept":"76","numero":"1988-D76-22","commune":"VALMONT","echelle":"1/7500","surface":"1.1 km²","annee":"1988","proprietaire":"NM - Normandie","specialite":"CO à pied","latitude":"49.7419984","longitude":"0.5152244","valide":"Non","ppo":"Non","obsolete":true}},{"type":"Feature","geometry":null,"properties":{"id_ffco":"1040","nom":"ROND DE NAGU","_dept":"76","numero":"1981-D76-21","commune":"ROUTOT","echelle":"1/15000","surface":"4.0 km²","annee":"1981","proprietaire":"NM - Normandie","niveau":"Interrégional","specialite":"CO à pied","latitude":"49.378413","longitude":"0.7332734","valide":"Non","ppo":"Non","obsolete":true}},{"type":"Feature","geometry":null,"properties":{"id_ffco":"1836","nom":"ROND DE MORTENART","_dept":"76","numero":"1988-D76-20","commune":"BOURNEVILLE","echelle":"1/7500","surface":"1.0 km²","annee":"1988","proprietaire":"NM - Normandie","specialite":"CO à pied","latitude":"49.390387","longitude":"0.6211102","valide":"Non","ppo":"Non","obsolete":true}},{"type":"Feature","geometry":null,"properties":{"id_ffco":"1835","nom":"VALLOT","_dept":"76","numero":"1988-D76-19","commune":"VAL DE REUIL","echelle":"1/10000","surface":"3.8 km²","annee":"1988","proprietaire":"NM - Normandie","specialite":"CO à pied","latitude":"49.2718942","longitude":"1.213145","valide":"Non","ppo":"Non","obsolete":true}},{"type":"Feature","geometry":null,"properties":{"id_ffco":"1834","nom":"BOIS DE LA CHEVRETTE","_dept":"76","numero":"1988-D76-18","commune":"FORGES LES EAUX","echelle":"1/5000","surface":"0.7 km²","annee":"1988","proprietaire":"NM - Normandie","specialite":"CO à pied","latitude":"49.6126681","longitude":"1.5469131","valide":"Non","ppo":"Non","obsolete":true}},{"type":"Feature","geometry":null,"properties":{"id_ffco":"2201","nom":"HAIE DES PRES","_dept":"76","numero":"1990-D76-17","commune":"CAUDEBEC EN CAUX","echelle":"1/10000","surface":"1.0 km²","annee":"1990","proprietaire":"NM - Normandie","specialite":"CO à pied","latitude":"49.5262178","longitude":"0.7245011","valide":"Non","ppo":"Non","obsolete":true}},{"type":"Feature","geometry":null,"properties":{"id_ffco":"1833","nom":"BOIS DE LA CHEVRETTE","_dept":"76","numero":"1988-D76-16","commune":"FORGES LES EAUX","echelle":"1/5000","surface":"0.7 km²","annee":"1988","proprietaire":"NM - Normandie","specialite":"CO à pied","latitude":"49.6126681","longitude":"1.5469131","valide":"Non","ppo":"Non","obsolete":true}},{"type":"Feature","geometry":null,"properties":{"id_ffco":"2200","nom":"BOIS DE LA CHEVRETTE","_dept":"76","numero":"1990-D76-15","commune":"FORGES EAUX","echelle":"1/5000","surface":"0.5 km²","annee":"1990","proprietaire":"NM - Normandie","specialite":"CO à pied","latitude":"49.6126681","longitude":"1.5469131","valide":"Non","ppo":"Non","obsolete":true}},{"type":"Feature","geometry":null,"properties":{"id_ffco":"1832","nom":"PARC DE ROUELLES","_dept":"76","numero":"1988-D76-14","commune":"LE HAVRE","echelle":"1/5000","surface":"0.8 km²","annee":"1988","proprietaire":"NM - Normandie","specialite":"CO à pied","latitude":"49.4925909","longitude":"0.1065027","valide":"Non","ppo":"Non","obsolete":true}},{"type":"Feature","geometry":null,"properties":{"id_ffco":"2198","nom":"PARC DE ROUELLES","_dept":"76","numero":"1990-D76-13","commune":"ROUELLES","echelle":"1/5000","surface":"0.4 km²","annee":"1990","proprietaire":"NM - Normandie","specialite":"CO à pied","latitude":"49.5221013","longitude":"0.1608583","valide":"Non","ppo":"Non","obsolete":true}},{"type":"Feature","geometry":{"type":"Polygon","coordinates":[[[0.7437,49.525],[0.7497,49.5247],[0.7538,49.533],[0.7527,49.5343],[0.7531,49.5347],[0.7524,49.5351],[0.7539,49.5362],[0.7517,49.5393],[0.7512,49.5439],[0.752,49.5454],[0.7482,49.545],[0.7473,49.5446],[0.747,49.5423],[0.7449,49.5404],[0.738,49.5364],[0.737,49.5367],[0.7362,49.5357],[0.7332,49.5355],[0.7309,49.5353],[0.7291,49.5346],[0.7282,49.5327],[0.7267,49.5292],[0.7274,49.5279],[0.7293,49.5272],[0.7307,49.5278],[0.743,49.5266],[0.7437,49.525]]]},"properties":{"id_ffco":"10017","nom":"La Haye des près","_dept":"76","numero":"2016-D76-121","commune":"Caudebec","echelle":"1/10000","surface":"2.43 km²","format":"A4","annee":"2016","cartographes":"Michel Duboc","proprietaire":"2704 - CLUB D'ORIENTATION DES BOUCLES DE LA SEINE","niveau":"Régional","specialite":"CO à pied","latitude":"49.5331160941","longitude":"0.742561891054","date_saisie":"01/01/2017","date_depot":"13/02/2017","valide":"Oui","ppo":"Non","type_carte":"Reprise","base":"1998-D76-27 CAUDEBEC","fond":"Cadastre","obsolete":true}},{"type":"Feature","geometry":null,"properties":{"id_ffco":"2197","nom":"FORET DE MONTGEON","_dept":"76","numero":"1990-D76-12","commune":"MONTGEON","echelle":"1/5000","surface":"0.5 km²","annee":"1990","proprietaire":"NM - Normandie","specialite":"CO à pied","latitude":"49.5096651","longitude":"0.1725242","valide":"Non","ppo":"Non","obsolete":true}},{"type":"Feature","geometry":{"type":"Polygon","coordinates":[[[0.6867,49.4407],[0.6879,49.4485],[0.6759,49.4492],[0.6604,49.4505],[0.6578,49.4479],[0.6558,49.4446],[0.6555,49.4391],[0.6581,49.4254],[0.6692,49.4239],[0.6781,49.4305],[0.6783,49.4324],[0.675,49.4362],[0.6755,49.439],[0.679,49.4408],[0.6867,49.4407]]]},"properties":{"id_ffco":"10016","nom":"Le Rond du Loup","_dept":"76","numero":"2016-D76-116","commune":"Caudebec","echelle":"1/10000","surface":"4.63 km²","format":"A4","annee":"2016","cartographes":"Ph Sanchez","proprietaire":"2704 - CLUB D'ORIENTATION DES BOUCLES DE LA SEINE","niveau":"Régional","specialite":"CO à pied","latitude":"49.4386931141","longitude":"0.66875672383","date_saisie":"01/01/2017","date_depot":"13/02/2017","valide":"Oui","ppo":"Non","type_carte":"Reprise","base":"2011-D76-58 La Vaquerie","fond":"Cadastre","obsolete":true}},{"type":"Feature","geometry":{"type":"Polygon","coordinates":[[[0.5431,49.5169],[0.5379,49.5162],[0.5386,49.5138],[0.5399,49.5116],[0.5437,49.5108],[0.5485,49.5117],[0.5485,49.513],[0.5461,49.5146],[0.5438,49.5167],[0.5431,49.5169]]]},"properties":{"id_ffco":"9125","nom":"Lillebonne Le toupin","_dept":"76","numero":"2015-D76-106","commune":"Lillebonne","echelle":"1/3500","surface":"0.35 km²","format":"A4","annee":"2015","cartographes":"COBS","proprietaire":"2704 - CLUB D'ORIENTATION DES BOUCLES DE LA SEINE","niveau":"Départemental","specialite":"CO à pied","latitude":"49.5137215673","longitude":"0.542935439158","date_saisie":"03/01/2016","date_depot":"27/01/2016","valide":"Oui","ppo":"Non","type_carte":"Nouvelle carte","fond":"Cadastre","obsolete":true}},{"type":"Feature","geometry":{"type":"Polygon","coordinates":[[[0.7642,49.6072],[0.7595,49.6098],[0.7587,49.6103],[0.7579,49.6147],[0.7578,49.615],[0.7593,49.6163],[0.76,49.6167],[0.7683,49.6157],[0.769,49.6141],[0.7716,49.6128],[0.7711,49.6111],[0.7677,49.6099],[0.7642,49.6072]]]},"properties":{"id_ffco":"9127","nom":"Yvetot rétimare","_dept":"76","numero":"2015-D76-105","commune":"Yvetot","echelle":"1/5000","surface":"0.67 km²","format":"A4","annee":"2015","cartographes":"JM Delaume","proprietaire":"NM - Normandie","niveau":"Départemental","specialite":"CO à pied","latitude":"49.6124473536","longitude":"0.764037662223","date_saisie":"03/01/2016","date_depot":"27/01/2016","valide":"Oui","ppo":"Non","type_carte":"Nouvelle carte","fond":"Cadastre","obsolete":true}},{"type":"Feature","geometry":null,"properties":{"id_ffco":"2195","nom":"BEGUINIERE","_dept":"76","numero":"1990-D76-10","commune":"ROUEN","echelle":"1/10000","surface":"0.7 km²","annee":"1990","proprietaire":"NM - Normandie","specialite":"CO à pied","latitude":"49.4423668","longitude":"1.0984924","valide":"Non","ppo":"Non","obsolete":true}},{"type":"Feature","geometry":null,"properties":{"id_ffco":"2819","nom":"LA MARE ASSE","_dept":"76","numero":"1995-D76-09","commune":"ST PIERRE LES ELBOEUFS","echelle":"1/7500","surface":"1.5 km²","annee":"1995","specialite":"CO à pied","latitude":"49.2703699","longitude":"1.04312","valide":"Non","ppo":"Non","obsolete":true}},{"type":"Feature","geometry":null,"properties":{"id_ffco":"1039","nom":"PETIT CHARME","_dept":"76","numero":"1981-D76-08","commune":"ROUEN","echelle":"1/15000","surface":"8.0 km²","annee":"1981","proprietaire":"7603","niveau":"Interrégional","specialite":"CO à pied","latitude":"49.4423668","longitude":"1.0984924","valide":"Non","ppo":"Non","obsolete":true}},{"type":"Feature","geometry":null,"properties":{"id_ffco":"1038","nom":"LE GRAND CANTON","_dept":"76","numero":"1981-D76-07","commune":"ROUEN","echelle":"1/15000","surface":"8.0 km²","annee":"1981","proprietaire":"7603","niveau":"Interrégional","specialite":"CO à pied","latitude":"49.4423668","longitude":"1.0984924","valide":"Non","ppo":"Non","obsolete":true}},{"type":"Feature","geometry":null,"properties":{"id_ffco":"1252","nom":"VALLEE JONCS","_dept":"76","numero":"1983-D76-06","commune":"ROUEN","echelle":"1/15000","surface":"10.0 km²","annee":"1983","proprietaire":"7603","niveau":"Interrégional","specialite":"CO à pied","latitude":"49.4423668","longitude":"1.0984924","valide":"Non","ppo":"Non","obsolete":true}},{"type":"Feature","geometry":null,"properties":{"id_ffco":"1251","nom":"HAYE D'YAINVILLE","_dept":"76","numero":"1983-D76-05","commune":"DUCLAIR","echelle":"1/15000","surface":"4.8 km²","annee":"1983","proprietaire":"7603","niveau":"Interrégional","specialite":"CO à pied","latitude":"49.4821947","longitude":"0.8741956","valide":"Non","ppo":"Non","obsolete":true}},{"type":"Feature","geometry":null,"properties":{"id_ffco":"1250","nom":"MARE CATELIERE","_dept":"76","numero":"1983-D76-04","commune":"LE TRAIT","echelle":"1/15000","surface":"5.4 km²","annee":"1983","proprietaire":"7603","niveau":"Interrégional","specialite":"CO à pied","latitude":"49.4804087","longitude":"0.8095554","valide":"Non","ppo":"Non","obsolete":true}},{"type":"Feature","geometry":null,"properties":{"id_ffco":"2194","nom":"FORTE DE CANTELEU","_dept":"76","numero":"1990-D76-03","commune":"CANTELEU","echelle":"1/7500","surface":"0.6 km²","annee":"1990","specialite":"CO à pied","latitude":"49.4521755","longitude":"1.0352313","valide":"Non","ppo":"Non","obsolete":true}},{"type":"Feature","geometry":null,"properties":{"id_ffco":"1831","nom":"BOTS L'ARCHEVEQUE","_dept":"76","numero":"1988-D76-02","commune":"ROUEN","echelle":"1/5000","surface":"0.5 km²","annee":"1988","proprietaire":"NM - Normandie","specialite":"CO à pied","latitude":"49.4423668","longitude":"1.0984924","valide":"Non","ppo":"Non","obsolete":true}},{"type":"Feature","geometry":null,"properties":{"id_ffco":"2193","nom":"ECALLES - ALIX","_dept":"76","numero":"1990-D76-01","commune":"ECALLES","echelle":"1/10000","surface":"0.5 km²","annee":"1990","specialite":"CO à pied","latitude":"49.5826334","longitude":"1.2911695","valide":"Non","ppo":"Non","obsolete":true}},{"type":"Feature","geometry":null,"properties":{"id_ffco":"2190","nom":"MARE DES LUNES","_dept":"76","numero":"1990-D76-00","commune":"HENOUVILLE","echelle":"1/5000","surface":"0.6 km²","annee":"1990","proprietaire":"76 - Seine-Maritime","specialite":"CO à pied","latitude":"49.4804058","longitude":"0.9542746","valide":"Non","ppo":"Non","obsolete":true}},{"type":"Feature","geometry":null,"properties":{"id_ffco":"2190","nom":"ROUMARE","_dept":"76","numero":"1990-D76-00","commune":"ROUEN","echelle":"1/10000","surface":"1.9 km²","annee":"1990","proprietaire":"76 - Seine-Maritime","specialite":"CO à pied","latitude":"49.4423668","longitude":"1.0984924","valide":"Non","ppo":"Non","obsolete":true}},{"type":"Feature","geometry":null,"properties":{"id_ffco":"1253","nom":"ROND DE NAGU","_dept":"76","numero":"1983-D76-00","commune":"PONT AUDEMER","echelle":"1/15000","surface":"4.0 km²","annee":"1983","proprietaire":"HN","niveau":"Interrégional","specialite":"CO à pied","latitude":"49.3538485","longitude":"0.511665","valide":"Non","ppo":"Non","obsolete":true}}]}