{"type":"FeatureCollection","features":[{"type":"Feature","geometry":{"type":"Polygon","coordinates":[[[2.0308,48.8028],[2.032,48.8043],[2.0278,48.8056],[2.0298,48.8085],[2.0313,48.8081],[2.0316,48.8089],[2.0099,48.817],[1.9999,48.814],[2.0003,48.8154],[1.9981,48.8153],[1.9954,48.8144],[1.9923,48.8153],[1.9912,48.8171],[1.9886,48.8155],[1.9861,48.8173],[1.9845,48.8159],[1.9836,48.8165],[1.9814,48.816],[1.9799,48.8178],[1.9705,48.8158],[1.9702,48.8162],[1.9687,48.816],[1.9686,48.8148],[1.9641,48.8157],[1.9599,48.8146],[1.961,48.8106],[1.9645,48.8102],[1.9681,48.8117],[1.9712,48.8071],[1.9735,48.8073],[1.9741,48.8093],[1.9762,48.8093],[1.9822,48.8048],[1.9841,48.8046],[1.9861,48.802],[1.9889,48.8023],[1.9932,48.7993],[2.0,48.7991],[2.0018,48.8097],[2.011,48.8082],[2.0121,48.81],[2.0133,48.8101],[2.0308,48.8028]]]},"properties":{"id_ffco":"8454","nom":"Bois d'arcy 2","_dept":"78","numero":"2015-D78-95","commune":"Bois d'arcy","echelle":"1/10000","surface":"5.01 km²","format":"+","annee":"2015","niveau":"National, International","specialite":"CO à pied","latitude":"48.8101185023","longitude":"1.99416847837","date_saisie":"01/06/2015","date_depot":"04/05/2015","valide":"Oui","ppo":"Non","type_carte":"Nouvelle carte","fond":"Ortho","obsolete":false}},{"type":"Feature","geometry":{"type":"Polygon","coordinates":[[[1.923,48.778],[1.9213,48.7761],[1.9207,48.7764],[1.9204,48.776],[1.9205,48.7748],[1.92,48.7741],[1.9222,48.7729],[1.9238,48.7723],[1.9249,48.7719],[1.9254,48.771],[1.9264,48.771],[1.9274,48.7699],[1.9284,48.7689],[1.9333,48.7688],[1.9341,48.7696],[1.9369,48.7688],[1.9379,48.7694],[1.9351,48.77],[1.9348,48.7703],[1.9349,48.771],[1.9349,48.7716],[1.934,48.7721],[1.934,48.7727],[1.932,48.774],[1.9321,48.7748],[1.9341,48.7756],[1.9331,48.7767],[1.9382,48.7786],[1.9354,48.7806],[1.934,48.7809],[1.9336,48.7825],[1.9329,48.7829],[1.9319,48.7831],[1.931,48.7832],[1.9303,48.7831],[1.9251,48.7818],[1.9248,48.7812],[1.9235,48.7801],[1.9228,48.78],[1.9226,48.7797],[1.9226,48.7792],[1.9215,48.7789],[1.9216,48.7786],[1.923,48.778]]]},"properties":{"id_ffco":"4138","nom":"Bois de Maurepas 2","_dept":"78","numero":"2005-D78-93","commune":"Maurepas","echelle":"1/7500","surface":"1.27 km²","format":"A4","annee":"2005","cartographes":"M Franquet","proprietaire":"7808 - ASSOCIATION SPORTIVE DE MONTIGNY-LE-BRETONNEUX","niveau":"Départemental","specialite":"CO à pied","latitude":"48.7760909336","longitude":"1.92891960618","date_saisie":"25/11/2005","date_depot":"16/01/2006","valide":"Oui","ppo":"Non","type_carte":"Nouvelle carte","fond":"IGN","obsolete":false}},{"type":"Feature","geometry":{"type":"Polygon","coordinates":[[[2.0365,48.8679],[2.0413,48.8655],[2.0433,48.8655],[2.0509,48.8672],[2.0502,48.8685],[2.0533,48.871],[2.0559,48.8719],[2.06,48.8716],[2.065,48.8748],[2.0553,48.8781],[2.0607,48.8789],[2.0629,48.8795],[2.0584,48.8817],[2.0565,48.8806],[2.0535,48.8818],[2.0521,48.881],[2.0488,48.8823],[2.0485,48.8842],[2.0524,48.8899],[2.0495,48.8922],[2.0435,48.8931],[2.0419,48.8959],[2.0407,48.8959],[2.038,48.8905],[2.0394,48.8895],[2.0356,48.8856],[2.0304,48.887],[2.025,48.8871],[2.0205,48.8888],[2.0215,48.8905],[2.0184,48.8918],[2.0171,48.8906],[2.0136,48.8921],[2.0111,48.8905],[2.0148,48.8842],[2.0181,48.8798],[2.0275,48.8722],[2.0346,48.867],[2.0368,48.8681],[2.0365,48.8679]]]},"properties":{"id_ffco":"4026","nom":"Marly le Roi","_dept":"78","numero":"2005-D78-92","commune":"Saint-Nom-la-Bretèche","echelle":"1/10000","surface":"6.46 km²","format":"A3","annee":"2005","cartographes":"Mareigner,M Franquet,S Rora,Charles T","proprietaire":"78 - Yvelines","niveau":"Régional","specialite":"CO à pied","latitude":"48.8795784046","longitude":"2.03825182302","date_saisie":"13/09/2005","date_depot":"20/09/2005","valide":"Oui","ppo":"Non","type_carte":"Reprise","base":"1983-D78-47 MARLY LE ROY 2","fond":"IGN","ref_ign":"Marly","obsolete":false}},{"type":"Feature","geometry":{"type":"Polygon","coordinates":[[[2.0195,48.7709],[2.0198,48.7714],[2.0173,48.7712],[2.0168,48.7721],[2.0216,48.7745],[2.0253,48.7736],[2.0242,48.7714],[2.024,48.7714],[2.0236,48.7705],[2.0195,48.7709]]]},"properties":{"id_ffco":"3899","nom":"Bois de l'hotel d'agglomération Saint Quentin en Yvelines","_dept":"78","numero":"2004-D78-90","commune":"Montigny le Bretonneux","echelle":"1/2500","surface":"0.17 km²","format":"A4","annee":"2004","cartographes":"Michel Franquet","proprietaire":"7808 - ASSOCIATION SPORTIVE DE MONTIGNY-LE-BRETONNEUX","niveau":"Initiation, Scolaire","specialite":"CO à pied","latitude":"48.7723860245","longitude":"2.02142442237","date_saisie":"13/04/2005","date_depot":"26/04/2005","valide":"Oui","ppo":"Non","type_carte":"Nouvelle carte","fond":"Cadastre","obsolete":false}},{"type":"Feature","geometry":{"type":"Polygon","coordinates":[[[2.0534,48.7667],[2.0497,48.768],[2.0504,48.769],[2.0496,48.7695],[2.0486,48.7685],[2.0467,48.7692],[2.0472,48.7699],[2.0462,48.7704],[2.0451,48.7693],[2.0426,48.7701],[2.0402,48.7678],[2.0426,48.7667],[2.0422,48.7663],[2.0491,48.7633],[2.0505,48.7633],[2.0534,48.7667]]]},"properties":{"id_ffco":"4267","nom":"Lac Sourderie","_dept":"78","numero":"2004-D78-89","commune":"Voisins le Bretonneux","echelle":"1/6000","surface":"0.4 km²","format":"A4","annee":"2004","cartographes":"C Beauvisage","proprietaire":"7807 - GUYANCOURT ORIENTATION 78","niveau":"Initiation, Scolaire","specialite":"CO à pied","latitude":"48.7668456352","longitude":"2.04694640688","date_saisie":"29/11/2006","date_depot":"28/12/2006","valide":"Oui","ppo":"Non","type_carte":"Nouvelle carte","fond":"IGN","obsolete":false}},{"type":"Feature","geometry":{"type":"Polygon","coordinates":[[[2.0625,48.7155],[2.0606,48.7152],[2.0605,48.7133],[2.0569,48.7127],[2.052,48.7121],[2.0515,48.7124],[2.0498,48.712],[2.048,48.7181],[2.0288,48.7212],[2.0248,48.7275],[2.0294,48.7272],[2.0311,48.7266],[2.0341,48.727],[2.0358,48.7269],[2.0369,48.7265],[2.0378,48.7267],[2.0387,48.7265],[2.0397,48.7268],[2.0417,48.7265],[2.0444,48.7254],[2.0455,48.7255],[2.0466,48.7254],[2.0488,48.7257],[2.0513,48.7247],[2.0551,48.7245],[2.0565,48.7229],[2.0579,48.7222],[2.0602,48.72],[2.0625,48.7155]]]},"properties":{"id_ffco":"3770","nom":"La madeleine","_dept":"78","numero":"2003-D78-88","commune":"Chevreuse","echelle":"1/10000","surface":"2.3 km²","format":"A4","annee":"2003","cartographes":"Radim Ondracek,Ivo Haban","proprietaire":"7807 - GUYANCOURT ORIENTATION 78","niveau":"Départemental","specialite":"CO à pied","latitude":"48.7207766926","longitude":"2.04583072167","date_saisie":"29/01/2004","date_depot":"02/02/2004","valide":"Oui","ppo":"Non","type_carte":"Nouvelle carte","fond":"IGN","obsolete":false}},{"type":"Feature","geometry":{"type":"Polygon","coordinates":[[[1.9944,48.7615],[1.9827,48.7566],[1.9786,48.7564],[1.972,48.7609],[1.9671,48.7586],[1.9682,48.7548],[1.9867,48.7395],[2.0031,48.7302],[2.018,48.7243],[2.0288,48.7213],[2.0336,48.7203],[2.0377,48.7196],[2.0481,48.7186],[2.0512,48.7132],[2.0529,48.7145],[2.0734,48.7172],[2.0769,48.7232],[2.0736,48.724],[2.0781,48.7291],[2.0814,48.7285],[2.0806,48.7302],[2.0859,48.7342],[2.0881,48.7353],[2.0869,48.7413],[2.0822,48.7456],[2.0674,48.7507],[2.0616,48.753],[2.0556,48.7555],[2.0557,48.759],[2.0447,48.7607],[2.0434,48.7588],[2.027,48.7596],[2.0209,48.7606],[2.0211,48.7618],[2.0219,48.7637],[2.0192,48.7648],[1.9944,48.7615]]]},"properties":{"id_ffco":"3766","nom":"Sentier Jean Racine","_dept":"78","numero":"2003-D78-84","commune":"St Quentin en Yvelines","echelle":"1/20000","surface":"29.2 km²","format":"A3","annee":"2003","cartographes":"Radim Ondracek,Ivo Haban","proprietaire":"7807 - GUYANCOURT ORIENTATION 78","niveau":"Régional","specialite":"CO à pied","latitude":"48.7410771603","longitude":"2.03241559284","date_saisie":"29/01/2004","date_depot":"02/02/2004","valide":"Oui","ppo":"Non","type_carte":"Nouvelle carte","fond":"IGN","obsolete":false}},{"type":"Feature","geometry":{"type":"Polygon","coordinates":[[[2.0806,48.7759],[2.08,48.7755],[2.0794,48.7758],[2.0795,48.7759],[2.0795,48.776],[2.0795,48.776],[2.0794,48.7761],[2.0796,48.7762],[2.0795,48.7763],[2.0797,48.7764],[2.0806,48.7759]]]},"properties":{"id_ffco":"3424","nom":"Ecole primaire Varlin","_dept":"78","numero":"2001-D78-72","commune":"GUYANCOURT","echelle":"1/500","surface":"0.01 km²","format":"A4","annee":"2001","proprietaire":"7807 - GUYANCOURT ORIENTATION 78","niveau":"Initiation, Scolaire","specialite":"CO à pied","latitude":"48.7759185379","longitude":"2.07992135871","date_saisie":"15/01/2002","date_depot":"11/03/2002","valide":"Oui","ppo":"Non","type_carte":"Nouvelle carte","fond":"Cadastre","obsolete":false}},{"type":"Feature","geometry":{"type":"Polygon","coordinates":[[[2.0497,48.7748],[2.0511,48.7745],[2.0518,48.7757],[2.0515,48.7759],[2.0516,48.776],[2.0513,48.7762],[2.0498,48.7758],[2.0497,48.7761],[2.0491,48.7762],[2.0487,48.7757],[2.0487,48.7756],[2.05,48.7753],[2.0497,48.7748]]]},"properties":{"id_ffco":"3427","nom":"Place Jacques Brel","_dept":"78","numero":"2001-D78-71","commune":"Guyancourt","echelle":"1/750","surface":"0.03 km²","format":"A4","annee":"2001","proprietaire":"7807 - GUYANCOURT ORIENTATION 78","niveau":"Initiation, Scolaire","specialite":"CO à pied","latitude":"48.775449823","longitude":"2.05043752651","date_saisie":"15/01/2002","date_depot":"11/03/2002","valide":"Oui","ppo":"Non","type_carte":"Nouvelle carte","fond":"Cadastre","obsolete":false}},{"type":"Feature","geometry":{"type":"Polygon","coordinates":[[[2.051,48.7749],[2.0514,48.7748],[2.0516,48.7749],[2.0518,48.7748],[2.0529,48.7751],[2.053,48.7753],[2.0522,48.7757],[2.052,48.7756],[2.0515,48.7759],[2.0506,48.7757],[2.0505,48.7754],[2.051,48.7752],[2.0511,48.7751],[2.051,48.775],[2.051,48.7749]]]},"properties":{"id_ffco":"9516","nom":"Groupe Scolaire Brassens - Poulenc","_dept":"78","numero":"2000-D78-62","commune":"GUYANCOURT","echelle":"1/600","surface":"0.01 km²","format":"A4","annee":"2000","cartographes":"Christophe RAUTURIER","proprietaire":"7807 - GUYANCOURT ORIENTATION 78","niveau":"Initiation, Scolaire","specialite":"CO à pied","contacts":"Cartographe GO78, carto@go78.org","latitude":"48.7753324284","longitude":"2.05169286468","date_saisie":"31/03/2016","valide":"Oui","ppo":"Non","type_carte":"Nouvelle carte","fond":"Cadastre","obsolete":false}},{"type":"Feature","geometry":{"type":"Polygon","coordinates":[[[1.8648,48.6782],[1.8663,48.6775],[1.8658,48.6751],[1.8682,48.675],[1.8584,48.6616],[1.8562,48.6612],[1.8532,48.662],[1.8509,48.6613],[1.8484,48.6639],[1.8471,48.6643],[1.8516,48.6784],[1.8648,48.6782]]]},"properties":{"id_ffco":"15177","nom":"Forêt Verte","_dept":"78","numero":"2025-D78-202","commune":"Rambouillet","echelle":"1/10000","surface":"1.99 km²","format":"A4","annee":"2025","proprietaire":"7811 - RAMBOUILLET OLYMPIQUE","niveau":"Départemental","specialite":"CO à pied","contacts":"Rambouillet Olympique, contact.rambouilletolympique@gmail.com","latitude":"48.6704871447","longitude":"1.85677934385","date_saisie":"14/09/2025","valide":"Non","ppo":"Non","fond":"IGN","obsolete":false}},{"type":"Feature","geometry":{"type":"Polygon","coordinates":[[[1.8365,48.6356],[1.8392,48.6351],[1.8415,48.6372],[1.845,48.6351],[1.8483,48.6362],[1.8539,48.6322],[1.8563,48.6338],[1.8627,48.6307],[1.8676,48.6249],[1.8614,48.6193],[1.8503,48.6193],[1.8445,48.6216],[1.8441,48.6218],[1.8421,48.6218],[1.8355,48.6273],[1.8373,48.6294],[1.8421,48.6297],[1.841,48.6311],[1.8375,48.6307],[1.8344,48.6325],[1.8365,48.6356]]]},"properties":{"id_ffco":"15176","nom":"Etang d'or","_dept":"78","numero":"2025-D78-201","commune":"Rambouillet","echelle":"1/10000","surface":"3.09 km²","format":"A4","annee":"2025","proprietaire":"7811 - RAMBOUILLET OLYMPIQUE","niveau":"Régional","specialite":"CO à pied","contacts":"Rambouillet Olympique, contact.rambouilletolympique@gmail.com","latitude":"48.6274330063","longitude":"1.85070691514","date_saisie":"14/09/2025","valide":"Non","ppo":"Non","type_carte":"Nouvelle carte","fond":"IGN","obsolete":false}},{"type":"Feature","geometry":{"type":"Polygon","coordinates":[[[2.1664,48.7987],[2.1806,48.7958],[2.1789,48.7949],[2.1776,48.7932],[2.1777,48.7922],[2.1794,48.7911],[2.1795,48.7898],[2.1793,48.7882],[2.1753,48.7894],[2.1735,48.7867],[2.1688,48.7877],[2.1656,48.7861],[2.1656,48.7852],[2.1665,48.785],[2.1641,48.7824],[2.159,48.7834],[2.1519,48.7871],[2.152,48.7887],[2.1525,48.7895],[2.1547,48.7904],[2.1561,48.7915],[2.1571,48.7935],[2.1635,48.7978],[2.1653,48.7984],[2.1664,48.7987]]]},"properties":{"id_ffco":"14950","nom":"Porchefontaine 3","_dept":"78","numero":"2025-D78-200","echelle":"1/10000","surface":"2.19 km²","format":"A4","annee":"2025","niveau":"Régional","specialite":"CO à pied","latitude":"48.7909979144","longitude":"2.16593969355","date_saisie":"25/03/2025","valide":"Non","ppo":"Non","type_carte":"Nouvelle carte","fond":"IGN","obsolete":false}},{"type":"Feature","geometry":{"type":"Polygon","coordinates":[[[1.9732,48.7894],[1.9736,48.7889],[1.9737,48.7882],[1.9726,48.7872],[1.9716,48.7866],[1.971,48.7854],[1.9701,48.784],[1.9699,48.7821],[1.9671,48.7812],[1.9654,48.782],[1.9622,48.7829],[1.9634,48.784],[1.9631,48.7845],[1.9617,48.7847],[1.9603,48.7856],[1.9601,48.7862],[1.9604,48.7871],[1.9621,48.7874],[1.9624,48.7877],[1.9623,48.7881],[1.9606,48.7893],[1.9601,48.79],[1.9618,48.793],[1.9732,48.7894]]]},"properties":{"id_ffco":"14903","nom":"Colline d'Elancourt 2","_dept":"78","numero":"2025-D78-199","commune":"Elancourt","echelle":"1/5000","surface":"0.79 km²","format":"A4","annee":"2025","proprietaire":"Agglomération de Saint Quentin En Yvelines","niveau":"Régional","specialite":"Sprint (ISSOM)","contacts":"Cartographe GO78, carto@go78.org","latitude":"48.7872078312","longitude":"1.96628110296","date_saisie":"10/02/2025","valide":"Non","ppo":"Non","type_carte":"Nouvelle carte","fond":"IGN","obsolete":false}},{"type":"Feature","geometry":{"type":"Polygon","coordinates":[[[2.0367,48.6941],[2.0384,48.6939],[2.0415,48.6943],[2.0474,48.6938],[2.0499,48.6938],[2.0524,48.6947],[2.053,48.6941],[2.0515,48.6917],[2.0526,48.6914],[2.0508,48.6876],[2.0528,48.687],[2.056,48.6979],[2.0538,48.6983],[2.0513,48.6984],[2.0491,48.6989],[2.0497,48.6992],[2.0465,48.6992],[2.045,48.7],[2.0442,48.7018],[2.0436,48.7017],[2.0435,48.7006],[2.0408,48.7002],[2.0358,48.6989],[2.0332,48.6971],[2.0327,48.6973],[2.0322,48.6968],[2.0324,48.6953],[2.0336,48.6948],[2.0364,48.6942],[2.0367,48.6941]]]},"properties":{"id_ffco":"14476","nom":"Vossery 2","_dept":"78","numero":"2024-D78-198","commune":"Chevreuse","echelle":"1/7500","surface":"1.06 km²","format":"A4","annee":"2024","cartographes":"Rémi LEQUINT","proprietaire":"7807 - GUYANCOURT ORIENTATION 78","niveau":"Régional","specialite":"CO à pied","contacts":"Cartographe GO78, carto@go78.org","latitude":"48.6961350209","longitude":"2.04499992289","date_saisie":"15/05/2024","valide":"Non","ppo":"Non","type_carte":"Nouvelle carte","fond":"IGN","obsolete":false}},{"type":"Feature","geometry":{"type":"Polygon","coordinates":[[[2.0364,48.6943],[2.0351,48.6919],[2.0344,48.6913],[2.0338,48.6913],[2.0314,48.6857],[2.0344,48.6845],[2.033,48.6818],[2.03,48.6824],[2.0297,48.6816],[2.0285,48.6834],[2.0266,48.6843],[2.0217,48.6862],[2.0207,48.6888],[2.0208,48.6908],[2.0214,48.6922],[2.0229,48.6931],[2.025,48.6935],[2.0295,48.6945],[2.03,48.6939],[2.0306,48.6942],[2.032,48.6969],[2.0331,48.6948],[2.0364,48.6943]]]},"properties":{"id_ffco":"14475","nom":"Meridon 2","_dept":"78","numero":"2024-D78-197","commune":"Chevreuse","echelle":"1/7500","surface":"1.06 km²","format":"A4","annee":"2024","cartographes":"Rémi LEQUINT","proprietaire":"7807 - GUYANCOURT ORIENTATION 78","niveau":"Régional","specialite":"CO à pied","contacts":"Cartographe GO78, carto@go78.org","latitude":"48.6891871932","longitude":"2.02828972103","date_saisie":"15/05/2024","valide":"Non","ppo":"Non","type_carte":"Nouvelle carte","fond":"IGN","obsolete":false}},{"type":"Feature","geometry":{"type":"Polygon","coordinates":[[[1.9404,48.7665],[1.9373,48.7674],[1.9338,48.7674],[1.9277,48.768],[1.9248,48.7681],[1.9227,48.7696],[1.9243,48.7711],[1.9239,48.7722],[1.9202,48.7741],[1.9208,48.7766],[1.921,48.7778],[1.9216,48.7787],[1.9225,48.7794],[1.9227,48.7801],[1.9233,48.7802],[1.9248,48.7819],[1.9289,48.7832],[1.9308,48.7833],[1.9333,48.7829],[1.9362,48.782],[1.9375,48.7812],[1.9363,48.78],[1.939,48.7782],[1.9399,48.7754],[1.9392,48.7728],[1.9417,48.7685],[1.9417,48.7672],[1.9404,48.7665]]]},"properties":{"id_ffco":"14474","nom":"Maurepas 3","_dept":"78","numero":"2024-D78-196","commune":"Maurepas","echelle":"1/7500","surface":"2.06 km²","format":"A4","annee":"2024","cartographes":"Rémi LEQUINT","proprietaire":"7807 - GUYANCOURT ORIENTATION 78","niveau":"Régional","specialite":"CO à pied","contacts":"Cartographe GO78, carto@go78.org","latitude":"48.7747726618","longitude":"1.93106506306","date_saisie":"15/05/2024","valide":"Non","ppo":"Non","type_carte":"Nouvelle carte","fond":"IGN","obsolete":false}},{"type":"Feature","geometry":{"type":"Polygon","coordinates":[[[2.0502,48.7871],[2.0431,48.7838],[2.0421,48.7839],[2.041,48.7832],[2.0413,48.7827],[2.0375,48.7764],[2.056,48.7711],[2.0616,48.7692],[2.0643,48.77],[2.0656,48.7706],[2.0686,48.7727],[2.0697,48.7723],[2.0735,48.7756],[2.0686,48.778],[2.0694,48.7785],[2.0698,48.7816],[2.0693,48.7823],[2.0677,48.782],[2.067,48.7821],[2.0668,48.783],[2.0616,48.7828],[2.0585,48.7857],[2.053,48.7852],[2.0502,48.7871]]]},"properties":{"id_ffco":"14473","nom":"Parc des sources de la Biévre 5","_dept":"78","numero":"2024-D78-195","commune":"Guyancourt","echelle":"1/5000","surface":"3.09 km²","format":"A3","annee":"2024","cartographes":"Rémi LEQUINT","proprietaire":"7807 - GUYANCOURT ORIENTATION 78","niveau":"National, International","specialite":"Sprint (ISSOM)","contacts":"Cartographe GO78, carto@go78.org","latitude":"48.7780914014","longitude":"2.05553408651","date_saisie":"15/05/2024","valide":"Non","ppo":"Non","type_carte":"Nouvelle carte","fond":"IGN","obsolete":false}},{"type":"Feature","geometry":{"type":"Polygon","coordinates":[[[2.0184,48.7447],[2.0173,48.7456],[2.0165,48.7459],[2.0151,48.7457],[2.0129,48.7463],[2.0108,48.7469],[2.009,48.747],[2.0072,48.7473],[2.0053,48.7479],[2.0035,48.748],[2.002,48.7478],[2.0005,48.748],[1.9989,48.748],[1.9962,48.7481],[1.9929,48.7481],[1.9917,48.7473],[1.995,48.7471],[1.9968,48.7466],[1.9971,48.746],[1.9955,48.7454],[1.996,48.7436],[1.9972,48.7428],[1.997,48.7416],[1.9951,48.7405],[1.9948,48.7411],[1.9937,48.7412],[1.9935,48.7415],[1.9929,48.7415],[1.9924,48.7403],[1.9918,48.7403],[1.9907,48.7412],[1.9878,48.7396],[1.9891,48.7387],[1.9903,48.7383],[1.9911,48.7377],[1.9921,48.7363],[2.0006,48.7339],[2.0015,48.7336],[2.0024,48.7343],[2.0032,48.7333],[2.0046,48.7319],[2.01,48.7346],[2.0129,48.7368],[2.011,48.737],[2.0116,48.7381],[2.0055,48.7382],[2.0114,48.7425],[2.0138,48.7423],[2.0178,48.7406],[2.0173,48.7424],[2.0185,48.7429],[2.0195,48.7433],[2.0184,48.7447]]]},"properties":{"id_ffco":"14271","nom":"Champ Garnier 3","_dept":"78","numero":"2023-D78-194","commune":"Saint LAMBERT","echelle":"1/10000","surface":"2.13 km²","format":"A4","annee":"2023","cartographes":"Rémi LEQUINT","proprietaire":"7807 - GUYANCOURT ORIENTATION 78","niveau":"Régional","specialite":"CO à pied","contacts":"Cartographe GO78, carto@go78.org","latitude":"48.7409563758","longitude":"2.0033356286","date_saisie":"19/12/2023","date_depot":"27/06/2024","valide":"Oui","ppo":"Non","type_carte":"Nouvelle carte","fond":"Cadastre","obsolete":false}},{"type":"Feature","geometry":{"type":"Polygon","coordinates":[[[2.0205,48.7606],[2.0211,48.7624],[2.0183,48.7641],[2.0173,48.7641],[2.0158,48.7633],[2.0129,48.7647],[2.0111,48.765],[2.0088,48.7654],[2.0082,48.7657],[2.0073,48.7666],[2.007,48.767],[1.9949,48.7615],[1.9957,48.7601],[1.9871,48.7567],[1.9784,48.7564],[1.972,48.7609],[1.9679,48.7588],[1.968,48.7561],[1.9708,48.755],[1.9712,48.754],[1.973,48.7539],[1.9733,48.7536],[1.9846,48.7517],[1.9859,48.7502],[1.9857,48.7492],[1.9847,48.7487],[1.9874,48.7465],[1.9907,48.7478],[1.9926,48.7485],[1.995,48.7483],[1.9964,48.7483],[1.997,48.7479],[1.9987,48.7482],[2.0006,48.7478],[2.0044,48.7478],[2.007,48.7472],[2.0087,48.7467],[2.0115,48.7467],[2.0137,48.7457],[2.0156,48.7455],[2.0152,48.7471],[2.0117,48.7482],[2.0121,48.7489],[2.0071,48.7508],[2.0099,48.754],[2.0106,48.7534],[2.0126,48.7536],[2.0136,48.754],[2.0148,48.7545],[2.0175,48.755],[2.0176,48.7558],[2.019,48.7566],[2.0169,48.7576],[2.0178,48.7592],[2.0207,48.7587],[2.0207,48.7604],[2.0205,48.7606]]]},"properties":{"id_ffco":"14272","nom":"Le Manet 4","_dept":"78","numero":"2023-D78-193","commune":"Voisin Le Bretonneux","echelle":"1/10000","surface":"4.35 km²","format":"A3","annee":"2023","cartographes":"Rémi LEQUINT","proprietaire":"7807 - GUYANCOURT ORIENTATION 78","niveau":"Régional","specialite":"CO à pied","contacts":"Cartographe GO78, carto@go78.org","latitude":"48.7559447929","longitude":"1.99859586743","date_saisie":"19/12/2023","date_depot":"27/06/2024","valide":"Oui","ppo":"Non","type_carte":"Nouvelle carte","fond":"Cadastre","obsolete":false}},{"type":"Feature","geometry":{"type":"Polygon","coordinates":[[[2.1328,48.7877],[2.1286,48.7831],[2.1298,48.7831],[2.1295,48.7815],[2.1301,48.7812],[2.1274,48.7774],[2.1256,48.777],[2.1249,48.7771],[2.123,48.7776],[2.1199,48.7778],[2.1176,48.7777],[2.1182,48.7752],[2.1192,48.775],[2.1182,48.7729],[2.1169,48.7732],[2.1155,48.7722],[2.1115,48.773],[2.1082,48.7724],[2.1069,48.7717],[2.1022,48.7716],[2.0969,48.7746],[2.0964,48.7761],[2.0972,48.7773],[2.0985,48.7776],[2.0991,48.7802],[2.0995,48.7803],[2.1009,48.779],[2.1036,48.779],[2.1058,48.7807],[2.1068,48.7794],[2.1113,48.7805],[2.1122,48.7805],[2.1153,48.7792],[2.1184,48.7807],[2.1213,48.7803],[2.1229,48.7809],[2.1253,48.7889],[2.1328,48.7877]]]},"properties":{"id_ffco":"13698","nom":"La Geneste 4","_dept":"78","numero":"2022-D78-192","commune":"BUC","echelle":"1/10000","surface":"1.91 km²","format":"A4","annee":"2022","cartographes":"Rémi LEQUINT","proprietaire":"7807 - GUYANCOURT ORIENTATION 78","niveau":"Régional","specialite":"CO à pied","contacts":"Cartographe GO78, carto@go78.org","latitude":"48.7783260462","longitude":"2.1143211396","date_saisie":"05/12/2022","date_depot":"27/06/2024","valide":"Oui","ppo":"Non","type_carte":"Nouvelle carte","fond":"IGN","obsolete":false}},{"type":"Feature","geometry":{"type":"Polygon","coordinates":[[[2.0429,48.7993],[2.0442,48.8025],[2.0443,48.8033],[2.0456,48.8032],[2.0459,48.8041],[2.0441,48.8044],[2.0417,48.8057],[2.0406,48.8047],[2.0362,48.8058],[2.0377,48.8063],[2.0388,48.8075],[2.0429,48.807],[2.0466,48.806],[2.0498,48.8043],[2.0524,48.8022],[2.0557,48.7995],[2.0575,48.7972],[2.0566,48.7975],[2.0433,48.7992],[2.0429,48.7993]]]},"properties":{"id_ffco":"12295","nom":"Le Pont du Diable 2","_dept":"78","numero":"2019-D78-191","commune":"Bois d'Arcy","echelle":"1/7500","surface":"0.64 km²","format":"A4","annee":"2019","cartographes":"Rémi LEQUINT","proprietaire":"78 - Yvelines","niveau":"O+","specialite":"CO à pied","contacts":"Cartographe GO78, carto@go78.org","latitude":"48.8021501368","longitude":"2.04750688454","date_saisie":"16/11/2020","date_depot":"08/07/2021","valide":"Oui","ppo":"Non","type_carte":"Reprise","base":"2008-D78-134 Le pont du diable","fond":"IGN","obsolete":false}},{"type":"Feature","geometry":{"type":"Polygon","coordinates":[[[2.0414,48.7548],[2.0414,48.7568],[2.0431,48.759],[2.0446,48.7607],[2.0442,48.7622],[2.0402,48.7618],[2.0377,48.7626],[2.0339,48.7654],[2.0322,48.766],[2.0298,48.7661],[2.0283,48.7659],[2.0261,48.7658],[2.0236,48.7663],[2.0228,48.7665],[2.0214,48.7656],[2.0275,48.7635],[2.0268,48.7596],[2.0254,48.76],[2.0212,48.7603],[2.0214,48.7574],[2.0235,48.7561],[2.0258,48.7558],[2.0286,48.7558],[2.0304,48.756],[2.0323,48.7553],[2.033,48.7549],[2.0374,48.7541],[2.0384,48.7543],[2.0397,48.7541],[2.0409,48.7542],[2.0417,48.7546],[2.0414,48.7548]]]},"properties":{"id_ffco":"12426","nom":"Le Plan de l'église 2","_dept":"78","numero":"2019-D78-190","commune":"Voisins le Bretonneux","echelle":"1/5000","surface":"1.44 km²","format":"A3","annee":"2019","cartographes":"Rémi LEQUINT,Frédéric Fischer","proprietaire":"7807 - GUYANCOURT ORIENTATION 78","niveau":"Régional","specialite":"CO à pied","contacts":"Cartographe GO78, carto@go78.org","latitude":"48.7598517238","longitude":"2.03275765738","date_saisie":"13/12/2020","date_depot":"08/07/2021","valide":"Oui","ppo":"Non","type_carte":"Reprise","base":"2011-D78-143 Le plan de l'église","fond":"IGN","obsolete":false}},{"type":"Feature","geometry":{"type":"Polygon","coordinates":[[[2.0512,48.7546],[2.0468,48.7549],[2.0465,48.7547],[2.0447,48.7552],[2.0445,48.7556],[2.0421,48.7547],[2.0407,48.7542],[2.0394,48.7541],[2.0385,48.7542],[2.0377,48.7538],[2.0419,48.7485],[2.045,48.7492],[2.0467,48.748],[2.0491,48.7486],[2.0495,48.7494],[2.0507,48.7499],[2.0512,48.7506],[2.0505,48.7508],[2.0508,48.7522],[2.0514,48.754],[2.0512,48.7546]]]},"properties":{"id_ffco":"12294","nom":"Le Saut du loup 4","_dept":"78","numero":"2019-D78-189","commune":"Voisins le Bretonneux","echelle":"1/7500","surface":"0.56 km²","format":"A4","annee":"2019","cartographes":"Rémi LEQUINT","proprietaire":"78 - Yvelines","niveau":"O+","specialite":"CO à pied","contacts":"Cartographe GO78, carto@go78.org","latitude":"48.7519312415","longitude":"2.0452030802","date_saisie":"16/11/2020","date_depot":"08/07/2021","valide":"Oui","ppo":"Non","type_carte":"Reprise","base":"2015-D78-168 Le Saut du loup 3","fond":"IGN","obsolete":false}},{"type":"Feature","geometry":{"type":"Polygon","coordinates":[[[2.054,48.7527],[2.0507,48.7522],[2.0505,48.7508],[2.0513,48.7505],[2.0495,48.7493],[2.0514,48.7495],[2.0536,48.7489],[2.0559,48.7488],[2.0583,48.7482],[2.0608,48.7475],[2.0603,48.7442],[2.0604,48.7438],[2.0644,48.7421],[2.0652,48.7399],[2.0683,48.7407],[2.0714,48.7406],[2.0727,48.7402],[2.0735,48.7409],[2.0761,48.7394],[2.0769,48.7386],[2.0782,48.7384],[2.0809,48.7387],[2.0827,48.7372],[2.083,48.7355],[2.0838,48.7344],[2.0844,48.7337],[2.0862,48.7342],[2.0877,48.7352],[2.0853,48.7373],[2.0863,48.7379],[2.0868,48.7398],[2.0862,48.7416],[2.0838,48.7431],[2.0836,48.7428],[2.082,48.7451],[2.0809,48.7455],[2.0789,48.7457],[2.0785,48.7442],[2.0752,48.7457],[2.0745,48.7452],[2.0703,48.7464],[2.0689,48.7464],[2.0697,48.7476],[2.0608,48.7512],[2.0571,48.7523],[2.0546,48.7526],[2.054,48.7527]]]},"properties":{"id_ffco":"12293","nom":"La Sente des Carrières 5","_dept":"78","numero":"2019-D78-188","commune":"Magny Les Hameaux","echelle":"1/7500","surface":"1.77 km²","format":"A4","annee":"2019","cartographes":"Rémi LEQUINT","proprietaire":"78 - Yvelines","niveau":"Départemental","specialite":"CO à pied","latitude":"48.7441156605","longitude":"2.07053264061","date_saisie":"16/11/2020","date_depot":"08/07/2021","valide":"Oui","ppo":"Non","type_carte":"Reprise","base":"2014-D78-163 La Sente des Carrières","fond":"IGN","obsolete":false}},{"type":"Feature","geometry":{"type":"Polygon","coordinates":[[[2.1603,48.7709],[2.1628,48.7708],[2.1642,48.7719],[2.1646,48.7721],[2.1679,48.7717],[2.1674,48.7732],[2.1675,48.7787],[2.1695,48.7809],[2.1645,48.7813],[2.1608,48.7812],[2.1567,48.7808],[2.1474,48.7715],[2.1474,48.771],[2.1482,48.7704],[2.1503,48.7697],[2.1523,48.7698],[2.1547,48.77],[2.1563,48.7699],[2.1572,48.7693],[2.1583,48.7696],[2.1593,48.77],[2.1603,48.7709]]]},"properties":{"id_ffco":"12292","nom":"Bois des Metz 2","_dept":"78","numero":"2019-D78-187","commune":"Jouy en Josas","echelle":"1/10000","surface":"1.39 km²","format":"A4","annee":"2019","cartographes":"Rémi LEQUINT","proprietaire":"78 - Yvelines","niveau":"Départemental","specialite":"CO à pied","contacts":"Cartographe GO78, carto@go78.org","latitude":"48.7752496703","longitude":"2.15903072759","date_saisie":"16/11/2020","date_depot":"08/07/2021","valide":"Oui","ppo":"Non","type_carte":"Reprise","base":"2006-D78-115 Bois des Metz","fond":"IGN","obsolete":false}},{"type":"Feature","geometry":{"type":"Polygon","coordinates":[[[2.0047,48.9413],[2.011,48.942],[2.0112,48.9409],[2.0132,48.9386],[2.0149,48.9363],[2.018,48.9346],[2.0227,48.9362],[2.0238,48.9364],[2.0265,48.9379],[2.0321,48.9387],[2.0335,48.9368],[2.0354,48.9353],[2.0335,48.9345],[2.0307,48.9337],[2.0268,48.9318],[2.0255,48.9313],[2.0242,48.931],[2.0221,48.9309],[2.0202,48.931],[2.0182,48.9313],[2.0162,48.9319],[2.0145,48.9323],[2.0116,48.9336],[2.0091,48.9354],[2.0074,48.937],[2.0056,48.9394],[2.0047,48.9413]]]},"properties":{"id_ffco":"12072","nom":"Parc du Peuple de l'Herbe","_dept":"78","numero":"2019-D78-186","commune":"Poissy","echelle":"1/5000","surface":"1.16 km²","format":"A3","annee":"2019","cartographes":"Rémi LEQUINT","proprietaire":"78 - Yvelines","niveau":"Initiation, Scolaire","specialite":"CO à pied","contacts":"TAISSON Sandrine, cd.yvelines@ffcorientation.fr","latitude":"48.935635509","longitude":"2.01952445823","date_saisie":"11/07/2020","valide":"Non","ppo":"Non","type_carte":"Nouvelle carte","fond":"Cadastre","obsolete":false}},{"type":"Feature","geometry":{"type":"Polygon","coordinates":[[[2.0075,48.7796],[1.9889,48.785],[1.9898,48.7857],[1.9941,48.7857],[1.994,48.7864],[1.9921,48.7867],[1.992,48.7874],[1.9925,48.7879],[1.9938,48.7884],[1.993,48.7895],[1.9928,48.7906],[1.9914,48.7916],[1.9956,48.7951],[2.007,48.7944],[2.0106,48.791],[2.0119,48.7908],[2.0169,48.7916],[2.0208,48.7912],[2.0224,48.7909],[2.0263,48.7956],[2.0309,48.7955],[2.0285,48.795],[2.0287,48.7924],[2.0322,48.791],[2.0347,48.7907],[2.0349,48.7896],[2.0366,48.7885],[2.0341,48.7851],[2.0308,48.7829],[2.0261,48.782],[2.0239,48.7829],[2.0208,48.7822],[2.0187,48.7814],[2.0129,48.7808],[2.0075,48.7796]]]},"properties":{"id_ffco":"12326","nom":"Base de Loisirs Saint Quentin en Yvelines 2","_dept":"78","numero":"2019-D78-185","commune":"Montigny le Bretonneux","echelle":"1/10000","surface":"3.87 km²","format":"A3","annee":"2019","cartographes":"Rémi LEQUINT","proprietaire":"7807 - GUYANCOURT ORIENTATION 78","niveau":"Régional","specialite":"CO à pied","contacts":"Cartographe GO78, carto@go78.org","latitude":"48.7874404086","longitude":"2.01223158413","date_saisie":"24/11/2020","date_depot":"08/07/2021","valide":"Oui","ppo":"Oui (100 postes)","type_carte":"Reprise","base":"2003-D78-97 Base de Loisirs de St. Quentin en Yvelines","fond":"IGN","obsolete":false}},{"type":"Feature","geometry":{"type":"Polygon","coordinates":[[[1.8886,48.6854],[1.8923,48.686],[1.8944,48.6878],[1.8943,48.6894],[1.8951,48.6911],[1.8967,48.6928],[1.8969,48.6952],[1.8968,48.6979],[1.8998,48.6983],[1.9021,48.7029],[1.9108,48.7014],[1.9151,48.708],[1.9266,48.7045],[1.925,48.7019],[1.9316,48.6978],[1.9296,48.6947],[1.9278,48.6919],[1.9241,48.6888],[1.9215,48.6864],[1.9333,48.6817],[1.9307,48.6799],[1.9133,48.6829],[1.9106,48.6775],[1.9014,48.6786],[1.8993,48.6805],[1.8939,48.6808],[1.8886,48.6854]]]},"properties":{"id_ffco":"11397","nom":"La Sablière 2","_dept":"78","numero":"2019-D78-184","commune":"Auffargis","echelle":"1/10000","surface":"6.27 km²","format":"A3","annee":"2019","cartographes":"Rémi LEQUINT","proprietaire":"78 - Yvelines","niveau":"National, International","specialite":"CO à pied","contacts":"TAISSON Sandrine, cd.yvelines@ffcorientation.fr","latitude":"48.6915854731","longitude":"1.91178905639","date_saisie":"21/02/2019","valide":"Non","ppo":"Non","type_carte":"Reprise","base":"2009-D78-128 Auffargis - La Sablière","fond":"Ortho","obsolete":false}},{"type":"Feature","geometry":{"type":"Polygon","coordinates":[[[1.9669,48.6909],[1.9655,48.6919],[1.9652,48.6925],[1.9644,48.6928],[1.9639,48.6932],[1.9625,48.6934],[1.9599,48.6923],[1.9593,48.6922],[1.9538,48.6929],[1.9507,48.692],[1.9479,48.6906],[1.9468,48.6901],[1.9415,48.6913],[1.9404,48.6898],[1.9293,48.6943],[1.9264,48.6849],[1.9233,48.6813],[1.9295,48.6814],[1.9304,48.6809],[1.9309,48.6798],[1.9325,48.6791],[1.9368,48.6785],[1.938,48.678],[1.9393,48.6772],[1.942,48.6761],[1.9508,48.674],[1.9526,48.6724],[1.9549,48.6763],[1.9473,48.6784],[1.9487,48.6808],[1.9515,48.6793],[1.9548,48.6785],[1.9559,48.6786],[1.9581,48.6775],[1.961,48.6769],[1.9631,48.677],[1.9648,48.6781],[1.9643,48.6795],[1.9645,48.6807],[1.965,48.682],[1.9663,48.6829],[1.9662,48.6832],[1.9668,48.6835],[1.9642,48.685],[1.965,48.6875],[1.9649,48.688],[1.9654,48.6882],[1.9639,48.6886],[1.9642,48.6897],[1.9641,48.6905],[1.9669,48.6909]]]},"properties":{"id_ffco":"11718","nom":"Les Grés de Cernay 3","_dept":"78","numero":"2018-D78-183","commune":"Cernay-la-ville","echelle":"1/10000","surface":"4.52 km²","format":"+","annee":"2018","cartographes":"Rémi LEQUINT","proprietaire":"7807 - GUYANCOURT ORIENTATION 78","niveau":"National, International","specialite":"CO à pied","contacts":"Cartographe GO78, carto@go78.org","latitude":"48.68453351","longitude":"1.94663666854","date_saisie":"20/10/2019","date_depot":"13/02/2020","valide":"Oui","ppo":"Non","type_carte":"Reprise","base":"2009-D78-127 Les Grès de Cernay 2","fond":"Ortho","obsolete":false}},{"type":"Feature","geometry":{"type":"Polygon","coordinates":[[[2.0596,48.7126],[2.0586,48.7161],[2.0599,48.7165],[2.0595,48.7174],[2.0586,48.7174],[2.0567,48.7197],[2.0562,48.7205],[2.0549,48.7211],[2.055,48.7216],[2.0534,48.7227],[2.0512,48.7235],[2.0496,48.7234],[2.0493,48.7227],[2.0454,48.7229],[2.0446,48.7224],[2.0443,48.7238],[2.0435,48.7239],[2.0425,48.724],[2.0427,48.7247],[2.0414,48.7254],[2.0383,48.7243],[2.0379,48.7258],[2.0343,48.7259],[2.033,48.7252],[2.0327,48.7255],[2.0301,48.7253],[2.0281,48.7238],[2.0285,48.7228],[2.0291,48.7228],[2.0293,48.7222],[2.0317,48.7217],[2.032,48.7218],[2.0327,48.7216],[2.0348,48.7222],[2.0358,48.7231],[2.0379,48.7229],[2.0382,48.7226],[2.0439,48.7201],[2.0446,48.7208],[2.0471,48.72],[2.0491,48.7204],[2.0504,48.7199],[2.0517,48.7187],[2.0521,48.7178],[2.0518,48.7169],[2.0519,48.7163],[2.0526,48.7154],[2.0529,48.7149],[2.0527,48.7138],[2.0527,48.7132],[2.0521,48.7127],[2.0534,48.7107],[2.0595,48.7125],[2.0596,48.7126]]]},"properties":{"id_ffco":"11826","nom":"La Madeleine 2","_dept":"78","numero":"2018-D78-182","commune":"Milon la Chapelle","echelle":"1/10000","surface":"1.12 km²","format":"A4","annee":"2018","cartographes":"Rémi LEQUINT","proprietaire":"7807 - GUYANCOURT ORIENTATION 78","niveau":"Régional","specialite":"CO à pied","contacts":"Cartographe GO78, carto@go78.org","latitude":"48.7198876943","longitude":"2.04713992748","date_saisie":"01/12/2019","date_depot":"13/02/2020","valide":"Oui","ppo":"Non","type_carte":"Reprise","base":"2003-D78-88 La madeleine","fond":"IGN","obsolete":false}},{"type":"Feature","geometry":{"type":"Polygon","coordinates":[[[2.096,48.9394],[2.0952,48.9484],[2.0941,48.9524],[2.0956,48.9553],[2.0965,48.958],[2.1081,48.9611],[2.1151,48.9632],[2.1171,48.9626],[2.1206,48.9633],[2.1333,48.959],[2.1334,48.9552],[2.1347,48.9535],[2.1316,48.9506],[2.1281,48.9432],[2.1173,48.9417],[2.1106,48.9417],[2.096,48.9394]]]},"properties":{"id_ffco":"10867","nom":"Le Chène Capitaine VTT","_dept":"78","numero":"2018-D78-181","commune":"Maison-Lafitte","echelle":"1/10000","surface":"5.79 km²","format":"A3","annee":"2018","cartographes":"Jean-Marc Delaume","proprietaire":"78 - Yvelines","niveau":"Régional","specialite":"CO à VTT","contacts":"GSBdD-IdF-SGM, david.voegel@intradef.gouv.fr","latitude":"48.9515526189","longitude":"2.11349079177","date_saisie":"03/08/2018","date_depot":"21/05/2019","valide":"Oui","ppo":"Non","type_carte":"Nouvelle carte","fond":"IGN","obsolete":false}},{"type":"Feature","geometry":{"type":"Polygon","coordinates":[[[2.054,48.9236],[2.0525,48.9226],[2.0509,48.923],[2.0491,48.9239],[2.0471,48.9237],[2.0457,48.9238],[2.0443,48.9227],[2.0425,48.9223],[2.0432,48.9209],[2.0422,48.919],[2.0413,48.9187],[2.04,48.9168],[2.0544,48.9061],[2.069,48.9024],[2.0736,48.9033],[2.074,48.9104],[2.054,48.9236]]]},"properties":{"id_ffco":"10858","nom":"Etoile de Beaumont VTT","_dept":"78","numero":"2018-D78-180","commune":"Saint-Germain-en-Laye","echelle":"1/10000","surface":"3.33 km²","format":"A3","annee":"2018","cartographes":"Jean-Marc Delaume","proprietaire":"78 - Yvelines","niveau":"Régional","specialite":"CO à VTT","contacts":"GSBdD-IdF-SGM, david.voegel@intradef.gouv.fr","latitude":"48.9131018409","longitude":"2.05756975243","date_saisie":"26/07/2018","date_depot":"21/05/2019","valide":"Oui","ppo":"Non","type_carte":"Nouvelle carte","fond":"IGN","obsolete":false}},{"type":"Feature","geometry":{"type":"Polygon","coordinates":[[[2.0742,48.9479],[2.0755,48.9419],[2.0832,48.9428],[2.0865,48.9434],[2.0871,48.9449],[2.0881,48.9461],[2.0901,48.9487],[2.0828,48.9516],[2.0742,48.9479]]]},"properties":{"id_ffco":"10855","nom":"Grand Cormier","_dept":"78","numero":"2018-D78-179","commune":"Achères","echelle":"1/7500","surface":"0.81 km²","format":"A4","annee":"2018","cartographes":"Jean-Marc Delaume","proprietaire":"78 - Yvelines","niveau":"Régional","specialite":"CO à pied","contacts":"GSBdD-IdF-SGM, david.voegel@intradef.gouv.fr // TAISSON Sandrine, cd.yvelines@ffcorientation.fr","latitude":"48.9465872452","longitude":"2.08154598963","date_saisie":"20/07/2018","date_depot":"02/11/2018","valide":"Oui","ppo":"Non","type_carte":"Nouvelle carte","fond":"IGN","obsolete":false}},{"type":"Feature","geometry":{"type":"Polygon","coordinates":[[[2.1353,48.9539],[2.1341,48.9547],[2.1334,48.9551],[2.1337,48.9573],[2.1335,48.9588],[2.1278,48.9612],[2.1205,48.9633],[2.1183,48.9627],[2.1169,48.9628],[2.1145,48.9631],[2.1083,48.9612],[2.1082,48.9563],[2.0958,48.948],[2.0956,48.944],[2.0959,48.9399],[2.0999,48.94],[2.1055,48.9405],[2.1097,48.9416],[2.1169,48.9417],[2.1231,48.9421],[2.1284,48.9434],[2.1353,48.9539]]]},"properties":{"id_ffco":"10854","nom":"Le Chène Capitaine","_dept":"78","numero":"2018-D78-178","commune":"Maison-Lafitte","echelle":"1/10000","surface":"5.11 km²","format":"A3","annee":"2018","cartographes":"Jean-Marc Delaume","proprietaire":"78 - Yvelines","niveau":"Régional","specialite":"CO à pied","contacts":"GSBdD-IdF-SGM, david.voegel@intradef.gouv.fr // TAISSON Sandrine, cd.yvelines@ffcorientation.fr","latitude":"48.9509709777","longitude":"2.11587838098","date_saisie":"20/07/2018","date_depot":"02/11/2018","valide":"Oui","ppo":"Non","type_carte":"Nouvelle carte","fond":"IGN","obsolete":false}},{"type":"Feature","geometry":{"type":"Polygon","coordinates":[[[2.054,48.9235],[2.0454,48.924],[2.0421,48.9221],[2.0403,48.9171],[2.0405,48.9137],[2.0483,48.9094],[2.0531,48.9063],[2.068,48.9024],[2.0721,48.9034],[2.0741,48.9044],[2.0744,48.9105],[2.054,48.9235]]]},"properties":{"id_ffco":"10754","nom":"Etoile de Beaumont","_dept":"78","numero":"2018-D78-177","commune":"Saint-Germain-en-Laye","echelle":"1/10000","surface":"3.61 km²","format":"A3","annee":"2018","cartographes":"Jean-Marc Delaume","proprietaire":"78 - Yvelines","niveau":"National, International","specialite":"CO à pied","contacts":"GSBdD-IdF-SGM, david.voegel@intradef.gouv.fr","latitude":"48.9131420721","longitude":"2.05691474205","date_saisie":"05/04/2018","date_depot":"21/05/2019","valide":"Oui","ppo":"Non","type_carte":"Nouvelle carte","fond":"IGN","obsolete":false}},{"type":"Feature","geometry":{"type":"Polygon","coordinates":[[[1.6753,48.7726],[1.6774,48.7742],[1.6785,48.7738],[1.6813,48.7734],[1.6822,48.7731],[1.6879,48.7705],[1.6887,48.7703],[1.6928,48.7698],[1.7013,48.7662],[1.7041,48.7652],[1.7094,48.7617],[1.717,48.7577],[1.7223,48.7589],[1.7273,48.7581],[1.7264,48.7579],[1.7249,48.7569],[1.7243,48.7565],[1.7234,48.7564],[1.7209,48.7534],[1.7149,48.7517],[1.7109,48.7532],[1.7091,48.7536],[1.707,48.7545],[1.7061,48.7547],[1.7052,48.7551],[1.6965,48.7557],[1.6921,48.7555],[1.6901,48.7542],[1.6902,48.7548],[1.6893,48.756],[1.688,48.7577],[1.6874,48.7599],[1.6823,48.7602],[1.6765,48.7571],[1.675,48.758],[1.6739,48.7602],[1.6729,48.76],[1.6716,48.7626],[1.6683,48.7623],[1.666,48.7692],[1.6675,48.7712],[1.6692,48.7711],[1.6705,48.7715],[1.6716,48.7715],[1.6748,48.7726],[1.6753,48.7726]]]},"properties":{"id_ffco":"10680","nom":"Neuville 3","_dept":"78","numero":"2018-D78-176","commune":"Gambais","echelle":"1/10000","surface":"4.9 km²","format":"+","annee":"2018","cartographes":"Rémi LEQUINT","proprietaire":"7807 - GUYANCOURT ORIENTATION 78","niveau":"National, International","specialite":"CO à pied","contacts":"Cartographe GO78, carto@go78.org","latitude":"48.7626554953","longitude":"1.69190664523","date_saisie":"27/01/2018","date_depot":"13/02/2020","valide":"Oui","ppo":"Non","type_carte":"Extrait","base":"1977-D78-45 NEUVILLE 2 - RAMBOUILLET","fond":"Ortho","obsolete":false}},{"type":"Feature","geometry":{"type":"Polygon","coordinates":[[[1.8173,48.7289],[1.811,48.7266],[1.7985,48.7172],[1.7973,48.7165],[1.7936,48.7145],[1.7933,48.7127],[1.7937,48.7108],[1.7907,48.7122],[1.7883,48.7135],[1.7851,48.7141],[1.7824,48.7142],[1.7794,48.7141],[1.775,48.7145],[1.7737,48.7157],[1.7726,48.7178],[1.7714,48.7187],[1.7685,48.7198],[1.7678,48.7202],[1.7685,48.7216],[1.7697,48.7225],[1.7691,48.7234],[1.7691,48.7244],[1.7702,48.7259],[1.7711,48.7264],[1.7708,48.7274],[1.7724,48.7284],[1.7739,48.7293],[1.7768,48.728],[1.7794,48.7283],[1.7797,48.7304],[1.7796,48.7317],[1.7727,48.7331],[1.7704,48.7335],[1.7774,48.7368],[1.7778,48.7376],[1.7761,48.7385],[1.7937,48.7354],[1.8173,48.7289]]]},"properties":{"id_ffco":"10570","nom":"Mares Gautier","_dept":"78","numero":"2018-D78-175","commune":"Saint-Léger-en-Yvelines","echelle":"1/10000","surface":"5.86 km²","format":"A3","annee":"2018","cartographes":"Rémi LEQUINT","proprietaire":"7807 - GUYANCOURT ORIENTATION 78","niveau":"National, International","specialite":"CO à pied","contacts":"Cartographe GO78, carto@go78.org","latitude":"48.7252651274","longitude":"1.78891374419","date_saisie":"04/12/2017","date_depot":"13/02/2020","valide":"Oui","ppo":"Non","type_carte":"Nouvelle carte","fond":"Ortho","obsolete":false}},{"type":"Feature","geometry":{"type":"Polygon","coordinates":[[[2.0881,48.9152],[2.0744,48.9124],[2.0745,48.9103],[2.0828,48.9045],[2.0907,48.905],[2.0913,48.9046],[2.0929,48.905],[2.0881,48.9152]]]},"properties":{"id_ffco":"10159","nom":"Etoile d'Ayen","_dept":"78","numero":"2017-D78-174","commune":"Saint-Germain-en-Laye","echelle":"1/6000","surface":"1.04 km²","format":"A4","annee":"2017","cartographes":"Jean-Marc Delaume","proprietaire":"Camp des Loges","niveau":"Départemental","specialite":"CO à pied","contacts":"GSBdD-IdF-SGM, david.voegel@intradef.gouv.fr","latitude":"48.9095830276","longitude":"2.0840372351","date_saisie":"18/04/2017","date_depot":"05/07/2017","valide":"Oui","ppo":"Non","type_carte":"Nouvelle carte","fond":"IGN","obsolete":false}},{"type":"Feature","geometry":{"type":"Polygon","coordinates":[[[2.092,48.9259],[2.0962,48.9396],[2.11,48.9417],[2.117,48.9417],[2.1222,48.9422],[2.1201,48.9381],[2.1224,48.9369],[2.1222,48.9352],[2.1242,48.9347],[2.121,48.9289],[2.1194,48.9274],[2.1136,48.928],[2.1133,48.925],[2.1121,48.924],[2.107,48.9226],[2.1056,48.9214],[2.1068,48.92],[2.1029,48.9184],[2.1008,48.9153],[2.0859,48.9192],[2.0854,48.9202],[2.0862,48.923],[2.092,48.9259]]]},"properties":{"id_ffco":"10161","nom":"Le chateau du Val","_dept":"78","numero":"2017-D78-173","commune":"Saint-Germain-en-Laye","echelle":"1/10000","surface":"4.77 km²","format":"A3","annee":"2017","cartographes":"Jean-Marc Delaume","proprietaire":"GSBdB de Saint-Germain-en-Laye","niveau":"National, International","specialite":"CO à VTT","contacts":"GSBdD-IdF-SGM, david.voegel@intradef.gouv.fr","latitude":"48.9299547189","longitude":"2.10495105637","date_saisie":"20/04/2017","date_depot":"05/07/2017","valide":"Oui","ppo":"Non","type_carte":"Nouvelle carte","fond":"IGN","obsolete":false}},{"type":"Feature","geometry":{"type":"Polygon","coordinates":[[[2.0949,48.9354],[2.1149,48.9334],[2.1155,48.9338],[2.1176,48.9342],[2.1185,48.9347],[2.1194,48.9349],[2.1225,48.9314],[2.1203,48.9288],[2.1185,48.928],[2.1186,48.9275],[2.1161,48.9275],[2.1144,48.9279],[2.1137,48.925],[2.1108,48.9237],[2.1121,48.9213],[2.1135,48.9216],[2.1141,48.921],[2.1101,48.9169],[2.1088,48.9173],[2.1018,48.9034],[2.1008,48.9034],[2.0994,48.9035],[2.0967,48.9028],[2.0945,48.9018],[2.0845,48.9222],[2.0914,48.9263],[2.0949,48.9354]]]},"properties":{"id_ffco":"10160","nom":"Mare aux canes","_dept":"78","numero":"2017-D78-172","commune":"Saint-Germain-en-Laye","echelle":"1/10000","surface":"5.37 km²","format":"A3","annee":"2017","cartographes":"Jean-Marc Delaume","proprietaire":"GSBdB de Saint-Germain-en-Laye","niveau":"National, International","specialite":"CO à pied","contacts":"GSBdD-IdF-SGM, david.voegel@intradef.gouv.fr","latitude":"48.9212152086","longitude":"2.10115417465","date_saisie":"19/04/2017","date_depot":"05/07/2017","valide":"Oui","ppo":"Non","type_carte":"Reprise","base":"2008-D78-118 La Terrasse de St-Germain","fond":"IGN","obsolete":false}},{"type":"Feature","geometry":{"type":"Polygon","coordinates":[[[2.1024,48.9926],[2.1022,48.9946],[2.1005,48.9947],[2.097,48.9947],[2.0961,48.9943],[2.0954,48.9938],[2.0949,48.9933],[2.0955,48.9927],[2.0955,48.9923],[2.0957,48.992],[2.0981,48.9923],[2.1024,48.9926]]]},"properties":{"id_ffco":"9579","nom":"Parc du prieuré","_dept":"78","numero":"2016-D78-171","commune":"Conflans-Saint-Honorine","echelle":"1/2500","surface":"0.13 km²","format":"A4","annee":"2016","cartographes":"Le Hellec Yann,Bertrand Pellin","proprietaire":"Collège Montaigne Conflans-Saint-Honorine","niveau":"Initiation, Scolaire","specialite":"CO à pied","latitude":"48.9934520772","longitude":"2.09874226838","date_saisie":"23/05/2016","date_depot":"30/05/2018","valide":"Oui","ppo":"Non","type_carte":"Nouvelle carte","fond":"Cadastre","obsolete":false}},{"type":"Feature","geometry":{"type":"Polygon","coordinates":[[[2.0781,48.7863],[2.0749,48.784],[2.0703,48.7827],[2.0674,48.7822],[2.0665,48.783],[2.0612,48.7829],[2.0607,48.7807],[2.0608,48.7779],[2.0604,48.7764],[2.0644,48.7744],[2.0656,48.7767],[2.069,48.7774],[2.0714,48.7784],[2.0741,48.7796],[2.0761,48.779],[2.0781,48.7815],[2.0814,48.7814],[2.0833,48.7804],[2.0841,48.7807],[2.0868,48.7786],[2.0874,48.7775],[2.0907,48.7771],[2.0917,48.7775],[2.0932,48.777],[2.0943,48.7781],[2.0966,48.7773],[2.0962,48.7762],[2.0964,48.7751],[2.0971,48.7745],[2.1001,48.7727],[2.1032,48.7713],[2.1038,48.7717],[2.1064,48.7721],[2.1114,48.773],[2.1156,48.7722],[2.1171,48.773],[2.1189,48.775],[2.1262,48.7739],[2.1269,48.7759],[2.1252,48.7759],[2.1232,48.7773],[2.1236,48.7775],[2.1255,48.7769],[2.1278,48.7774],[2.1334,48.7751],[2.1407,48.7723],[2.1452,48.7699],[2.147,48.771],[2.1474,48.7766],[2.1401,48.7762],[2.1381,48.7767],[2.1398,48.7783],[2.1439,48.7817],[2.1439,48.7834],[2.1454,48.785],[2.148,48.7839],[2.1487,48.7869],[2.1479,48.7897],[2.1462,48.7911],[2.1408,48.7927],[2.1392,48.7886],[2.1354,48.7905],[2.1332,48.7883],[2.1258,48.7894],[2.1221,48.7803],[2.1182,48.7806],[2.1155,48.7792],[2.112,48.7806],[2.1075,48.7798],[2.1052,48.7804],[2.1026,48.7789],[2.1003,48.7794],[2.0986,48.7808],[2.0965,48.7807],[2.0961,48.7811],[2.0922,48.7814],[2.091,48.7844],[2.082,48.7901],[2.0803,48.7905],[2.071,48.7915],[2.0656,48.7884],[2.0781,48.7863]]]},"properties":{"id_ffco":"10087","nom":"Haute Vallée de la Biévre","_dept":"78","numero":"2014-D78-170","commune":"Versailles","echelle":"1/15000","surface":"6.57 km²","format":"+","annee":"2014","cartographes":"Rui Antunes","proprietaire":"7807 - GUYANCOURT ORIENTATION 78","niveau":"Régional","specialite":"CO à pied","contacts":"Cartographe GO78, carto@go78.org","latitude":"48.7810968749","longitude":"2.10992399616","date_saisie":"28/02/2017","date_depot":"26/09/2017","valide":"Oui","ppo":"Non","type_carte":"Reprise","base":"2005-D78-105 Haute Vallée de la Bièvre 2","fond":"IGN","obsolete":false}},{"type":"Feature","geometry":{"type":"Polygon","coordinates":[[[2.1648,48.7821],[2.1593,48.7834],[2.1543,48.7859],[2.1524,48.7868],[2.1519,48.7882],[2.1524,48.789],[2.1535,48.7899],[2.156,48.7916],[2.157,48.7933],[2.1591,48.7944],[2.1629,48.7974],[2.1622,48.7985],[2.1664,48.7987],[2.181,48.7958],[2.1787,48.7946],[2.1776,48.7936],[2.1777,48.7926],[2.1785,48.7919],[2.1795,48.7913],[2.1799,48.7904],[2.179,48.7883],[2.1753,48.7895],[2.1732,48.7868],[2.1706,48.7871],[2.1687,48.7878],[2.1654,48.7862],[2.1653,48.7852],[2.1665,48.7849],[2.1648,48.7821]]]},"properties":{"id_ffco":"8481","nom":"Porchefontaine 2","_dept":"78","numero":"2015-D78-169","commune":"Versailles","echelle":"1/10000","surface":"2.2 km²","format":"A4","annee":"2015","cartographes":"Rui Antunes,José Batista","proprietaire":"7807 - GUYANCOURT ORIENTATION 78","niveau":"Départemental","specialite":"CO à pied","contacts":"Cartographe GO78, carto@go78.org","latitude":"48.791031541","longitude":"2.1660320072","date_saisie":"21/06/2015","date_depot":"26/09/2017","valide":"Oui","ppo":"Non","type_carte":"Reprise","base":"2006-D78-114 Porchefontaine","fond":"Ortho","obsolete":false}},{"type":"Feature","geometry":{"type":"Polygon","coordinates":[[[2.0514,48.7546],[2.0468,48.755],[2.0464,48.7547],[2.0448,48.7551],[2.0443,48.7556],[2.0424,48.7548],[2.0418,48.7548],[2.0415,48.7544],[2.0409,48.7542],[2.0402,48.7541],[2.0382,48.7543],[2.0373,48.7538],[2.0393,48.7524],[2.0398,48.7511],[2.0408,48.7494],[2.0417,48.7483],[2.0444,48.749],[2.0453,48.7491],[2.0466,48.748],[2.047,48.7479],[2.0484,48.7481],[2.049,48.7483],[2.0495,48.7482],[2.0491,48.7486],[2.0495,48.7493],[2.0503,48.7496],[2.0507,48.7497],[2.0515,48.7504],[2.0514,48.7506],[2.0506,48.7507],[2.0504,48.7509],[2.0511,48.7532],[2.0514,48.7546]]]},"properties":{"id_ffco":"8675","nom":"Le Saut du loup 3","_dept":"78","numero":"2015-D78-168","commune":"Voisins le Bretonneux","echelle":"1/5000","surface":"0.58 km²","format":"A4","annee":"2015","cartographes":"Rui Antunes,José Batista","proprietaire":"7807 - GUYANCOURT ORIENTATION 78","niveau":"Départemental","specialite":"CO à pied","contacts":"Cartographe GO78, carto@go78.org","latitude":"48.7518578096","longitude":"2.04522565865","date_saisie":"12/10/2015","date_depot":"26/09/2017","valide":"Oui","ppo":"Non","type_carte":"Reprise","base":"2008-D78-123 Le Saut du Loup 2","fond":"Ortho","obsolete":false}},{"type":"Feature","geometry":{"type":"Polygon","coordinates":[[[2.0456,48.799],[2.0551,48.7978],[2.0559,48.7994],[2.0519,48.8024],[2.0498,48.8043],[2.0465,48.8007],[2.046,48.7999],[2.0456,48.799]]]},"properties":{"id_ffco":"8488","nom":"Bois Gazé 3","_dept":"78","numero":"2015-D78-167","commune":"Saint-Cyr-l'Ecole","echelle":"1/5000","surface":"0.29 km²","format":"A4","annee":"2015","cartographes":"Rui Antunes,José Batista","proprietaire":"7807 - GUYANCOURT ORIENTATION 78","niveau":"Initiation, Scolaire","specialite":"CO à pied","contacts":"Cartographe GO78, carto@go78.org","latitude":"48.8003629588","longitude":"2.05066972748","date_saisie":"25/06/2015","date_depot":"26/09/2017","valide":"Oui","ppo":"Non","type_carte":"Nouvelle carte","fond":"IGN","obsolete":false}},{"type":"Feature","geometry":{"type":"Polygon","coordinates":[[[2.0969,48.7773],[2.0965,48.7771],[2.096,48.7759],[2.0968,48.7747],[2.101,48.772],[2.103,48.7713],[2.1036,48.7717],[2.1068,48.7718],[2.1081,48.7723],[2.1115,48.773],[2.1155,48.7721],[2.1168,48.7731],[2.1182,48.7729],[2.1191,48.775],[2.1182,48.7767],[2.1203,48.7766],[2.1215,48.7763],[2.1223,48.7775],[2.1235,48.7778],[2.1251,48.777],[2.1273,48.7774],[2.1291,48.7795],[2.1301,48.7813],[2.1296,48.7817],[2.1297,48.7831],[2.1288,48.7831],[2.1326,48.7878],[2.1302,48.7884],[2.1267,48.7886],[2.1258,48.7888],[2.1251,48.7888],[2.1241,48.7854],[2.1224,48.7806],[2.1215,48.7803],[2.1184,48.7805],[2.1155,48.7792],[2.1124,48.7805],[2.1123,48.7811],[2.106,48.7813],[2.1047,48.7798],[2.1034,48.7792],[2.1022,48.7789],[2.1011,48.779],[2.1,48.7797],[2.0989,48.7808],[2.0977,48.781],[2.0965,48.7807],[2.0965,48.7795],[2.0965,48.7787],[2.0969,48.7777],[2.0969,48.7773]]]},"properties":{"id_ffco":"9499","nom":"La Geneste 3","_dept":"78","numero":"2014-D78-166","commune":"Buc","echelle":"1/10000","surface":"2.12 km²","format":"A4","annee":"2014","cartographes":"Rui Antunes","proprietaire":"7807 - GUYANCOURT ORIENTATION 78","niveau":"Régional","specialite":"CO à pied","contacts":"Cartographe GO78, carto@go78.org","latitude":"48.7784031882","longitude":"2.1137189541","date_saisie":"27/03/2016","date_depot":"01/01/2014","valide":"Oui","ppo":"Non","type_carte":"Reprise","base":"2005-D78-104 Geneste 2","fond":"Ortho","obsolete":false}},{"type":"Feature","geometry":{"type":"Polygon","coordinates":[[[2.0676,48.7822],[2.0631,48.7817],[2.0621,48.7824],[2.0606,48.7808],[2.0606,48.7789],[2.0604,48.7771],[2.0628,48.7761],[2.0656,48.7769],[2.0681,48.7776],[2.0696,48.7787],[2.0708,48.7782],[2.0722,48.7793],[2.0746,48.7801],[2.0758,48.7796],[2.0784,48.7813],[2.0828,48.7804],[2.087,48.7778],[2.091,48.7769],[2.094,48.7766],[2.0959,48.7787],[2.0961,48.7809],[2.0963,48.7816],[2.092,48.7815],[2.0906,48.7847],[2.0872,48.787],[2.082,48.7903],[2.068,48.792],[2.0661,48.7912],[2.0659,48.7922],[2.0629,48.793],[2.0616,48.7899],[2.0651,48.7885],[2.079,48.7866],[2.0754,48.7838],[2.0692,48.7824],[2.0676,48.7822]]]},"properties":{"id_ffco":"9515","nom":"Moulin à Renard 3","_dept":"78","numero":"2014-D78-165","commune":"Guyancourt","echelle":"1/10000","surface":"2.31 km²","format":"A4","annee":"2014","cartographes":"Rui Antunes","proprietaire":"7807 - GUYANCOURT ORIENTATION 78","niveau":"Régional","specialite":"CO à pied","contacts":"Cartographe GO78, carto@go78.org","latitude":"48.7837890052","longitude":"2.07767544589","date_saisie":"28/03/2016","date_depot":"01/01/2014","valide":"Oui","ppo":"Non","type_carte":"Reprise","base":"2002-D78-76 Le Moulin à Renard","fond":"Ortho","obsolete":false}},{"type":"Feature","geometry":{"type":"Polygon","coordinates":[[[2.1333,48.7884],[2.1286,48.7832],[2.1296,48.7831],[2.1297,48.7817],[2.1301,48.7814],[2.1288,48.779],[2.1291,48.7789],[2.1297,48.7785],[2.1294,48.778],[2.1296,48.7763],[2.1332,48.775],[2.1346,48.7746],[2.141,48.7718],[2.146,48.7703],[2.147,48.771],[2.1469,48.7723],[2.1481,48.7735],[2.147,48.7768],[2.1386,48.7755],[2.1353,48.7763],[2.1381,48.7787],[2.14,48.7782],[2.1435,48.7813],[2.1438,48.7829],[2.1459,48.7848],[2.148,48.7836],[2.1486,48.7868],[2.1477,48.7896],[2.1464,48.7909],[2.1405,48.7928],[2.1389,48.7887],[2.1353,48.7905],[2.1333,48.7884]]]},"properties":{"id_ffco":"9514","nom":"Bois des Gonards 2","_dept":"78","numero":"2014-D78-164","commune":"Buc","echelle":"1/10000","surface":"2.07 km²","format":"A4","annee":"2014","cartographes":"Rui Antunes","proprietaire":"7807 - GUYANCOURT ORIENTATION 78","niveau":"Régional","specialite":"CO à pied","contacts":"Cartographe GO78, carto@go78.org","latitude":"48.7820524609","longitude":"2.13898085821","date_saisie":"28/03/2016","date_depot":"01/01/2014","valide":"Oui","ppo":"Non","type_carte":"Nouvelle carte","fond":"Ortho","obsolete":false}},{"type":"Feature","geometry":{"type":"Polygon","coordinates":[[[2.0511,48.7531],[2.0506,48.7509],[2.0518,48.7506],[2.0494,48.7487],[2.0499,48.7483],[2.0537,48.7486],[2.0659,48.7452],[2.0637,48.7429],[2.0651,48.7402],[2.0657,48.7399],[2.0686,48.7409],[2.0727,48.7402],[2.0733,48.7411],[2.076,48.739],[2.0742,48.7374],[2.0744,48.737],[2.081,48.7387],[2.0833,48.7359],[2.0876,48.7374],[2.0867,48.7382],[2.087,48.7408],[2.084,48.7433],[2.0819,48.7454],[2.0798,48.746],[2.0785,48.7446],[2.0751,48.7459],[2.0738,48.7454],[2.0693,48.7467],[2.07,48.7478],[2.0605,48.7512],[2.0546,48.753],[2.0511,48.7531]]]},"properties":{"id_ffco":"9513","nom":"La Sente des Carrières","_dept":"78","numero":"2014-D78-163","commune":"Voisins-le-Bretonneux","echelle":"1/10000","surface":"1.77 km²","format":"A4","annee":"2014","cartographes":"Rui Antunes","proprietaire":"7807 - GUYANCOURT ORIENTATION 78","niveau":"Départemental","specialite":"CO à pied","contacts":"Cartographe GO78, carto@go78.org","latitude":"48.7444692074","longitude":"2.07021785762","date_saisie":"28/03/2016","date_depot":"01/01/2014","valide":"Oui","ppo":"Non","type_carte":"Reprise","base":"2008-D78-121 La Sente des carrières 3","fond":"Ortho","obsolete":false}},{"type":"Feature","geometry":{"type":"Polygon","coordinates":[[[2.0638,48.8535],[2.0633,48.8567],[2.0665,48.8591],[2.0695,48.8591],[2.0672,48.8611],[2.0671,48.8626],[2.0638,48.863],[2.0607,48.8652],[2.0547,48.866],[2.0513,48.8675],[2.0501,48.869],[2.0509,48.87],[2.0538,48.8714],[2.0583,48.8713],[2.0604,48.8712],[2.0638,48.8741],[2.0676,48.8775],[2.0624,48.8788],[2.0554,48.8783],[2.0356,48.8671],[2.0638,48.8535]]]},"properties":{"id_ffco":"8722","nom":"Croix Saint-Michel","_dept":"78","numero":"2014-D78-162","commune":"Saint-Nom-la-Bretêche","echelle":"1/10000","surface":"2.82 km²","format":"A4","annee":"2014","cartographes":"Bastien MENGIN","proprietaire":"78 - Yvelines","niveau":"National, International","specialite":"CO à pied","latitude":"48.8669835838","longitude":"2.05400132149","date_saisie":"17/10/2015","date_depot":"05/07/2017","valide":"Oui","ppo":"Non","type_carte":"Nouvelle carte","fond":"Ortho","obsolete":false}},{"type":"Feature","geometry":{"type":"Polygon","coordinates":[[[2.1051,48.7874],[2.1005,48.788],[2.0989,48.7887],[2.0968,48.7892],[2.0978,48.7914],[2.1068,48.7905],[2.1051,48.7874]]]},"properties":{"id_ffco":"8908","nom":"Quartier Gribauval","_dept":"78","numero":"2014-D78-160","commune":"Versailles","echelle":"1/2500","surface":"0.21 km²","format":"A4","annee":"2014","cartographes":"Rudeaut Dominique","proprietaire":"CSA STAT Satory","niveau":"Initiation, Scolaire","specialite":"CO à pied","contacts":"CSA STAT Satory, 78000, Versailles, 0139673460","latitude":"48.7895105045","longitude":"2.10183837859","date_saisie":"22/11/2015","date_depot":"01/01/2014","valide":"Oui","ppo":"Non","type_carte":"Nouvelle carte","fond":"Cadastre","obsolete":false}},{"type":"Feature","geometry":{"type":"Polygon","coordinates":[[[2.0207,48.7603],[1.9959,48.7604],[1.9877,48.7568],[1.9683,48.7562],[1.9717,48.7537],[1.9778,48.7523],[1.984,48.7516],[1.9861,48.7499],[1.9849,48.7483],[1.9875,48.7464],[1.9911,48.7473],[1.9967,48.7467],[1.9973,48.7458],[1.9953,48.7452],[1.9976,48.7426],[1.9955,48.7407],[1.9932,48.7415],[1.9925,48.7402],[1.9914,48.7402],[1.9908,48.7411],[1.9881,48.7395],[1.9923,48.7362],[2.0057,48.7325],[2.0178,48.7426],[2.0132,48.744],[2.0143,48.7485],[2.0062,48.7517],[2.01,48.754],[2.0138,48.7538],[2.0181,48.7552],[2.019,48.7568],[2.0169,48.7576],[2.0181,48.7591],[2.0211,48.7588],[2.0207,48.7603]]]},"properties":{"id_ffco":"9512","nom":"Les Granges de Port Royal","_dept":"78","numero":"2013-D78-158","commune":"Montigny-le-Bretonneux","echelle":"1/10000","surface":"5.53 km²","format":"A3","annee":"2013","cartographes":"Rui Antunes","proprietaire":"7807 - GUYANCOURT ORIENTATION 78","niveau":"National, International","specialite":"CO à pied","contacts":"Cartographe GO78, carto@go78.org","latitude":"48.748879424","longitude":"1.9998470933","date_saisie":"28/03/2016","date_depot":"01/01/2013","valide":"Oui","ppo":"Non","type_carte":"Nouvelle carte","fond":"Ortho","ref_ign":"IGn TOP 25 2215 OT","obsolete":false}},{"type":"Feature","geometry":{"type":"Polygon","coordinates":[[[2.0609,48.7838],[2.0585,48.7856],[2.054,48.7852],[2.053,48.7853],[2.052,48.7856],[2.0501,48.7872],[2.045,48.7846],[2.0468,48.7831],[2.0465,48.7818],[2.0433,48.7801],[2.0468,48.7771],[2.046,48.7757],[2.0462,48.7748],[2.0456,48.7738],[2.0559,48.771],[2.0597,48.7765],[2.0603,48.778],[2.0603,48.78],[2.0603,48.7809],[2.0612,48.7831],[2.0609,48.7838]]]},"properties":{"id_ffco":"9511","nom":"Le Parc des sources de la Biévre","_dept":"78","numero":"2013-D78-157","commune":"Guyancourt","echelle":"1/5000","surface":"1.53 km²","format":"A3","annee":"2013","cartographes":"Frédéric Fischer,Rudeaut Dominique","proprietaire":"7807 - GUYANCOURT ORIENTATION 78","niveau":"National, International","specialite":"CO à pied","contacts":"Cartographe GO78, carto@go78.org","latitude":"48.7792874598","longitude":"2.05275569434","date_saisie":"28/03/2016","date_depot":"01/01/2013","valide":"Oui","ppo":"Non","type_carte":"Reprise","base":"2003-D78-82 Parc des Sources de la Bièvre 2","fond":"Cadastre","obsolete":false}},{"type":"Feature","geometry":{"type":"Polygon","coordinates":[[[2.0072,48.7672],[1.998,48.7631],[1.9944,48.7613],[1.9956,48.7602],[1.9878,48.7568],[1.9783,48.7564],[1.9721,48.7609],[1.9681,48.759],[1.9678,48.7579],[1.9681,48.7557],[1.9703,48.7546],[1.9714,48.7536],[1.9736,48.753],[1.9781,48.7523],[1.98,48.7524],[1.9838,48.7515],[1.9862,48.7499],[1.9852,48.7483],[1.9872,48.7466],[1.9909,48.7473],[1.9944,48.7476],[1.9993,48.747],[2.0036,48.7463],[2.0064,48.7465],[2.0084,48.7456],[2.0117,48.7454],[2.0136,48.7448],[2.0145,48.7486],[2.0084,48.75],[2.0063,48.7517],[2.0099,48.7539],[2.0138,48.7539],[2.0178,48.755],[2.0181,48.7557],[2.0191,48.7565],[2.0173,48.7577],[2.0181,48.7589],[2.0212,48.7587],[2.021,48.761],[2.0217,48.7628],[2.0189,48.7641],[2.0172,48.7642],[2.0165,48.7634],[2.0087,48.7657],[2.0088,48.7665],[2.0072,48.7672]]]},"properties":{"id_ffco":"9509","nom":"Le Manet 3","_dept":"78","numero":"2013-D78-156","commune":"Montigny-le-Bretonneux","echelle":"1/10000","surface":"4.68 km²","format":"A3","annee":"2013","cartographes":"Rui Antunes","proprietaire":"7807 - GUYANCOURT ORIENTATION 78","niveau":"National, International","specialite":"CO à pied","latitude":"48.7556593135","longitude":"1.99861906194","date_saisie":"28/03/2016","date_depot":"01/01/2013","valide":"Oui","ppo":"Non","type_carte":"Reprise","base":"2010-D78-136 Le Manet 2","fond":"Ortho","obsolete":false}},{"type":"Feature","geometry":{"type":"Polygon","coordinates":[[[1.9588,48.9975],[1.9603,48.9993],[1.9614,48.9993],[1.9631,49.0003],[1.9638,49.0009],[1.9602,49.0022],[1.9594,49.0026],[1.956,49.0036],[1.9537,49.0042],[1.9491,49.0051],[1.9461,49.0055],[1.9419,49.0055],[1.9372,49.0053],[1.9377,49.0025],[1.9456,49.0024],[1.9449,48.9998],[1.9571,48.9987],[1.9588,48.9975]]]},"properties":{"id_ffco":"8983","nom":"Base de loisirs du Val de Seine","_dept":"78","numero":"2012-D78-155","commune":"Les Mureaux","echelle":"1/6500","surface":"0.88 km²","format":"A4","annee":"2012","cartographes":"Besbot François","proprietaire":"78 - Yvelines","niveau":"Initiation, Scolaire","specialite":"CO à pied","contacts":"TAISSON Sandrine, cd.yvelines@ffcorientation.fr","latitude":"49.0021123991","longitude":"1.95056675035","date_saisie":"02/12/2015","valide":"Oui","ppo":"Non","type_carte":"Nouvelle carte","fond":"Cadastre","obsolete":false}},{"type":"Feature","geometry":{"type":"Polygon","coordinates":[[[1.9973,48.7775],[1.9987,48.7778],[1.999,48.7785],[1.9982,48.7787],[1.9978,48.7789],[1.9971,48.7789],[1.9969,48.7779],[1.997,48.7777],[1.9972,48.7776],[1.9973,48.7775]]]},"properties":{"id_ffco":"9508","nom":"Parc des Bateleurs","_dept":"78","numero":"2012-D78-154","commune":"Trappes","echelle":"1/1000","surface":"0.02 km²","format":"A4","annee":"2012","cartographes":"Frédéric Fischer","proprietaire":"7807 - GUYANCOURT ORIENTATION 78","niveau":"Initiation, Scolaire","specialite":"CO à pied","contacts":"Cartographe GO78, carto@go78.org","latitude":"48.7782074713","longitude":"1.99781778306","date_saisie":"28/03/2016","date_depot":"25/09/2013","valide":"Oui","ppo":"Non","type_carte":"Nouvelle carte","fond":"Cadastre","obsolete":false}},{"type":"Feature","geometry":{"type":"Polygon","coordinates":[[[1.9946,48.7802],[1.9955,48.7809],[1.9946,48.7813],[1.9938,48.7806],[1.9946,48.7802]]]},"properties":{"id_ffco":"9507","nom":"Parc du Cèdre","_dept":"78","numero":"2012-D78-153","commune":"Trappes","echelle":"1/1000","surface":"0.01 km²","format":"A4","annee":"2012","cartographes":"Frédéric Fischer","proprietaire":"7807 - GUYANCOURT ORIENTATION 78","niveau":"Initiation, Scolaire","specialite":"CO à pied","contacts":"Cartographe GO78, carto@go78.org","latitude":"48.7807532601","longitude":"1.99467573058","date_saisie":"28/03/2016","date_depot":"25/09/2013","valide":"Oui","ppo":"Non","type_carte":"Nouvelle carte","fond":"Cadastre","obsolete":false}},{"type":"Feature","geometry":{"type":"Polygon","coordinates":[[[1.991,48.7725],[1.9908,48.7731],[1.9866,48.7733],[1.9863,48.7734],[1.9851,48.7702],[1.991,48.7725]]]},"properties":{"id_ffco":"9446","nom":"Stade Gravaud","_dept":"78","numero":"2012-D78-152","commune":"Trappes","echelle":"1/2000","surface":"0.08 km²","format":"A4","annee":"2012","cartographes":"Frédéric Fischer","proprietaire":"7807 - GUYANCOURT ORIENTATION 78","niveau":"Initiation, Scolaire","specialite":"CO à pied","latitude":"48.7721587913","longitude":"1.98776802106","date_saisie":"09/03/2016","date_depot":"25/09/2013","valide":"Oui","ppo":"Non","type_carte":"Nouvelle carte","fond":"IGN","obsolete":false}},{"type":"Feature","geometry":{"type":"Polygon","coordinates":[[[1.9744,48.7758],[1.9756,48.7756],[1.9761,48.7764],[1.9757,48.7775],[1.9726,48.7807],[1.971,48.7785],[1.9721,48.7772],[1.9731,48.7763],[1.9744,48.7758]]]},"properties":{"id_ffco":"9506","nom":"Petit bois de l'Armanderie","_dept":"78","numero":"2012-D78-151","commune":"Elancourt","echelle":"1/2000","surface":"0.11 km²","format":"A4","annee":"2012","cartographes":"Frédéric Fischer","proprietaire":"7807 - GUYANCOURT ORIENTATION 78","niveau":"Initiation, Scolaire","specialite":"CO à pied","contacts":"Cartographe GO78, carto@go78.org","latitude":"48.7778727593","longitude":"1.97355883586","date_saisie":"28/03/2016","date_depot":"25/09/2013","valide":"Oui","ppo":"Non","type_carte":"Nouvelle carte","fond":"Cadastre","obsolete":false}},{"type":"Feature","geometry":{"type":"Polygon","coordinates":[[[1.6818,49.0618],[1.6826,49.0619],[1.695,49.0627],[1.6954,49.0614],[1.695,49.06],[1.6932,49.0583],[1.6925,49.057],[1.6887,49.0534],[1.6836,49.0513],[1.6761,49.0494],[1.6667,49.0478],[1.665,49.0492],[1.6612,49.052],[1.678,49.0607],[1.6799,49.0613],[1.681,49.0615],[1.6818,49.0618]]]},"properties":{"id_ffco":"8984","nom":"Base régionale de loisirs des Boucles de la Seine","_dept":"78","numero":"2011-D78-150","commune":"Moisson-Mousseaux-sur-Seine","echelle":"1/10000","surface":"2.2 km²","format":"A4","annee":"2011","cartographes":"Rauturier Nathalie","proprietaire":"78 - Yvelines","niveau":"Initiation, Scolaire","specialite":"CO à pied","latitude":"49.0554012836","longitude":"1.6790471509","date_saisie":"02/12/2015","date_depot":"28/04/2017","valide":"Oui","ppo":"Non","type_carte":"Reprise","base":"2006-D78-110 Base de Moisson","fond":"IGN","obsolete":false}},{"type":"Feature","geometry":{"type":"Polygon","coordinates":[[[1.9603,48.7386],[1.9567,48.7398],[1.9589,48.7423],[1.9594,48.7422],[1.9601,48.7419],[1.9605,48.7419],[1.961,48.742],[1.9615,48.7424],[1.9638,48.7417],[1.9637,48.7413],[1.9603,48.7386]]]},"properties":{"id_ffco":"9413","nom":"Chateau du Mesnil Saint-Denis","_dept":"78","numero":"2011-D78-149","commune":"Le Mesnil Saint-Denis","echelle":"1/2500","surface":"0.13 km²","format":"A4","annee":"2011","cartographes":"Frédéric Fischer","proprietaire":"7807 - GUYANCOURT ORIENTATION 78","niveau":"Initiation, Scolaire","specialite":"CO à pied","latitude":"48.7406598909","longitude":"1.96021944652","date_saisie":"05/03/2016","valide":"Oui","ppo":"Non","type_carte":"Nouvelle carte","fond":"IGN","obsolete":false}},{"type":"Feature","geometry":{"type":"Polygon","coordinates":[[[2.0021,48.7807],[2.0007,48.779],[1.999,48.7796],[1.9987,48.7799],[1.9987,48.7804],[1.9989,48.7804],[1.9991,48.7805],[1.9996,48.7814],[2.0021,48.7807]]]},"properties":{"id_ffco":"9504","nom":"Parc Municipal","_dept":"78","numero":"2011-D78-148","commune":"Trappes","echelle":"1/1500","surface":"0.04 km²","format":"A4","annee":"2011","cartographes":"Frédéric Fischer","proprietaire":"7807 - GUYANCOURT ORIENTATION 78","niveau":"Initiation, Scolaire","specialite":"CO à pied","contacts":"Cartographe GO78, carto@go78.org","latitude":"48.7802179423","longitude":"2.00026855207","date_saisie":"28/03/2016","valide":"Oui","ppo":"Non","type_carte":"Nouvelle carte","fond":"Cadastre","obsolete":false}},{"type":"Feature","geometry":{"type":"Polygon","coordinates":[[[2.0576,48.7734],[2.0608,48.7722],[2.0621,48.7733],[2.0619,48.7754],[2.0603,48.7764],[2.0599,48.7765],[2.0576,48.7734]]]},"properties":{"id_ffco":"9417","nom":"Le Petit bois de la Garenne","_dept":"78","numero":"2011-D78-147","commune":"Guyancourt","echelle":"1/2500","surface":"0.1 km²","format":"A4","annee":"2011","cartographes":"Frédéric Fischer","proprietaire":"7807 - GUYANCOURT ORIENTATION 78","niveau":"Initiation, Scolaire","specialite":"CO à pied","latitude":"48.7742310011","longitude":"2.06017375395","date_saisie":"06/03/2016","valide":"Oui","ppo":"Non","type_carte":"Nouvelle carte","fond":"IGN","obsolete":false}},{"type":"Feature","geometry":{"type":"Polygon","coordinates":[[[2.0602,48.765],[2.0542,48.7676],[2.0544,48.7681],[2.0548,48.7688],[2.0564,48.7706],[2.0613,48.7692],[2.0597,48.7676],[2.0597,48.7674],[2.0598,48.7672],[2.0605,48.7661],[2.0606,48.7657],[2.0605,48.7654],[2.0602,48.765]]]},"properties":{"id_ffco":"9415","nom":"Moulin à vent","_dept":"78","numero":"2011-D78-146","commune":"Guyancourt","echelle":"1/5000","surface":"0.18 km²","format":"A4","annee":"2011","cartographes":"Frédéric Fischer","proprietaire":"7807 - GUYANCOURT ORIENTATION 78","niveau":"Initiation, Scolaire","specialite":"CO à pied","latitude":"48.7680249836","longitude":"2.05778963423","date_saisie":"06/03/2016","valide":"Oui","ppo":"Non","type_carte":"Nouvelle carte","fond":"IGN","obsolete":false}},{"type":"Feature","geometry":{"type":"Polygon","coordinates":[[[2.104,48.7114],[2.1021,48.7094],[2.101,48.7095],[2.0977,48.7062],[2.1018,48.7052],[2.105,48.7053],[2.1073,48.7068],[2.111,48.707],[2.1194,48.706],[2.1204,48.7079],[2.1194,48.7116],[2.1181,48.7136],[2.1174,48.7148],[2.1177,48.7161],[2.1153,48.718],[2.111,48.7204],[2.1095,48.7217],[2.1057,48.7196],[2.1062,48.7188],[2.1041,48.715],[2.107,48.7133],[2.1069,48.7117],[2.104,48.7114]]]},"properties":{"id_ffco":"9122","nom":"Le Fond de la Cure 2","_dept":"78","numero":"2010-D78-145","commune":"Magny-les-Hameaux","echelle":"1/7500","surface":"1.63 km²","format":"A4","annee":"2010","cartographes":"Taillebois Roger,Liviu Tintar","proprietaire":"7808 - ASSOCIATION SPORTIVE DE MONTIGNY-LE-BRETONNEUX","niveau":"Départemental","specialite":"CO à pied","latitude":"48.7120647755","longitude":"2.11052840602","date_saisie":"31/12/2015","valide":"Oui","ppo":"Non","type_carte":"Reprise","base":"2005-D78-94 Bois d'Aigrefoin","fond":"IGN","obsolete":false}},{"type":"Feature","geometry":{"type":"Polygon","coordinates":[[[2.0221,48.7669],[2.0213,48.766],[2.0212,48.7656],[2.0276,48.7635],[2.027,48.7597],[2.0258,48.76],[2.0209,48.7603],[2.0211,48.7586],[2.0215,48.7574],[2.0219,48.7565],[2.0254,48.7553],[2.0299,48.7551],[2.0363,48.7534],[2.0381,48.7541],[2.0386,48.7543],[2.0401,48.7541],[2.0418,48.7547],[2.0414,48.7558],[2.0414,48.7565],[2.0446,48.7604],[2.0446,48.7613],[2.0442,48.7623],[2.0415,48.762],[2.0403,48.7619],[2.0386,48.7623],[2.0379,48.7627],[2.034,48.7653],[2.0327,48.7659],[2.0311,48.7662],[2.0288,48.7662],[2.0266,48.766],[2.0248,48.7662],[2.0233,48.7667],[2.0221,48.7669]]]},"properties":{"id_ffco":"9503","nom":"Le plan de l'église","_dept":"78","numero":"2011-D78-143","commune":"Voisins-le-Bretonneux","echelle":"1/5000","surface":"1.57 km²","format":"A3","annee":"2011","cartographes":"Frédéric Fischer","proprietaire":"7807 - GUYANCOURT ORIENTATION 78","niveau":"Régional","specialite":"CO à pied","contacts":"Cartographe GO78, carto@go78.org","latitude":"48.7596650384","longitude":"2.03261265897","date_saisie":"28/03/2016","date_depot":"01/07/2011","valide":"Oui","ppo":"Non","type_carte":"Nouvelle carte","fond":"Cadastre","obsolete":false}},{"type":"Feature","geometry":{"type":"Polygon","coordinates":[[[1.7476,48.682],[1.7407,48.6787],[1.7423,48.6781],[1.743,48.6771],[1.7431,48.6767],[1.7429,48.6765],[1.7453,48.6755],[1.7479,48.6745],[1.7438,48.6735],[1.7384,48.6728],[1.7359,48.6733],[1.7329,48.6728],[1.73,48.6703],[1.7251,48.6689],[1.7195,48.6668],[1.7136,48.6664],[1.7079,48.6651],[1.7042,48.6616],[1.6997,48.6606],[1.6959,48.663],[1.698,48.6674],[1.693,48.6695],[1.697,48.6743],[1.6988,48.6808],[1.7043,48.6838],[1.7062,48.686],[1.7095,48.684],[1.7317,48.6854],[1.7423,48.687],[1.743,48.6858],[1.7443,48.6857],[1.7453,48.6842],[1.7458,48.6837],[1.7451,48.683],[1.7476,48.682]]]},"properties":{"id_ffco":"9091","nom":"Les Taillis d'Epernon","_dept":"78","numero":"2010-D78-141","commune":"Poigny-la-forêt","echelle":"1/10000","surface":"6.65 km²","format":"A3","annee":"2010","cartographes":"Taillebois Roger","niveau":"Régional","specialite":"CO à pied","latitude":"48.6756991727","longitude":"1.71826327332","date_saisie":"17/12/2015","date_depot":"01/01/2010","valide":"Oui","ppo":"Non","type_carte":"Reprise","base":"2004-D78-91 Taillis d'Epernon","fond":"IGN","obsolete":false}},{"type":"Feature","geometry":{"type":"Polygon","coordinates":[[[1.9821,48.8695],[1.9766,48.8696],[1.9775,48.8733],[1.9796,48.8776],[1.9824,48.8836],[1.9846,48.8829],[1.9882,48.8867],[1.9902,48.8865],[1.9916,48.8894],[1.993,48.8908],[1.9948,48.8918],[1.9984,48.8914],[2.0017,48.8932],[2.0065,48.8941],[2.0082,48.8911],[2.01,48.8876],[2.013,48.8831],[2.0163,48.8795],[2.0191,48.8767],[2.0214,48.8748],[2.0173,48.8702],[2.0112,48.8727],[2.0091,48.8715],[2.0062,48.8726],[2.0018,48.874],[1.9984,48.8753],[1.9964,48.8767],[1.9921,48.8776],[1.9884,48.8763],[1.9886,48.8745],[1.983,48.8739],[1.9821,48.8695]]]},"properties":{"id_ffco":"9010","nom":"Le chateau de Retz","_dept":"78","numero":"2010-D78-139","commune":"Feucherolles","echelle":"1/10000","surface":"4.55 km²","format":"A4","annee":"2010","cartographes":"Taillebois Roger,Liviu Tintar","proprietaire":"7807 - GUYANCOURT ORIENTATION 78","niveau":"Régional","specialite":"CO à pied","contacts":"GO78, 37, allée des Genêts, 78280, Guyancourt, 06 38 42 68 51, contact@go78.org, http://www.go78.org/","latitude":"48.8808952861","longitude":"1.99954885468","date_saisie":"09/12/2015","date_depot":"01/07/2011","valide":"Oui","ppo":"Non","type_carte":"Nouvelle carte","fond":"IGN","obsolete":false}},{"type":"Feature","geometry":{"type":"Polygon","coordinates":[[[2.0013,48.8918],[2.0023,48.8937],[1.9974,48.897],[2.0042,48.9016],[2.0068,48.9023],[2.0082,48.904],[2.0125,48.9051],[2.0137,48.9067],[2.0162,48.9074],[2.018,48.9057],[2.0159,48.9035],[2.0178,48.902],[2.0195,48.8999],[2.0257,48.8993],[2.0327,48.894],[2.0281,48.8924],[2.0193,48.8923],[2.013,48.896],[2.0089,48.8943],[2.0013,48.8918]]]},"properties":{"id_ffco":"9011","nom":"Les tailles d'Herbelay","_dept":"78","numero":"2010-D78-138","commune":"Aigremont","echelle":"1/10000","surface":"2.09 km²","format":"A4","annee":"2010","cartographes":"Taillebois Roger,Liviu Tintar","proprietaire":"7807 - GUYANCOURT ORIENTATION 78","niveau":"Régional","specialite":"CO à pied","contacts":"GO78, 37, allée des Genêts, 78280, Guyancourt, 06 38 42 68 51, contact@go78.org, http://www.go78.org/","latitude":"48.8979673576","longitude":"2.01423620087","date_saisie":"09/12/2015","date_depot":"01/01/2010","valide":"Oui","ppo":"Non","type_carte":"Nouvelle carte","fond":"IGN","obsolete":false}},{"type":"Feature","geometry":{"type":"Polygon","coordinates":[[[2.1056,48.8617],[2.1065,48.8573],[2.1023,48.8569],[2.1006,48.8552],[2.0999,48.8554],[2.0976,48.8552],[2.0952,48.8562],[2.0926,48.8587],[2.0943,48.8616],[2.092,48.8622],[2.0916,48.8635],[2.1007,48.8664],[2.1018,48.8662],[2.1056,48.8617]]]},"properties":{"id_ffco":"5366","nom":"Les Chevaux de Marly","_dept":"78","numero":"2010-D78-137","commune":"Marly-le-Roi","echelle":"1/7500","surface":"0.91 km²","format":"A4","annee":"2010","cartographes":"F Fischer","proprietaire":"78 - Yvelines","niveau":"Initiation, Scolaire","specialite":"CO à pied","contacts":"TAISSON Sandrine, cd.yvelines@ffcorientation.fr","latitude":"48.8606220472","longitude":"2.09922689416","date_saisie":"09/03/2012","date_depot":"11/03/2016","valide":"Oui","ppo":"Non","type_carte":"Nouvelle carte","fond":"Cadastre","obsolete":false}},{"type":"Feature","geometry":{"type":"Polygon","coordinates":[[[2.0551,48.7978],[2.0419,48.7993],[2.0411,48.8002],[2.0418,48.8027],[2.0372,48.8042],[2.0362,48.8058],[2.0379,48.8064],[2.0383,48.8068],[2.0386,48.8075],[2.0438,48.8067],[2.0473,48.8056],[2.0498,48.8041],[2.0512,48.8028],[2.0525,48.8017],[2.054,48.8005],[2.0557,48.7994],[2.0551,48.7978]]]},"properties":{"id_ffco":"9412","nom":"Le pont du diable","_dept":"78","numero":"2008-D78-134","commune":"Saint-Cyr-l'Ecole","echelle":"1/7500","surface":"0.78 km²","format":"A4","annee":"2008","cartographes":"Frédéric Fischer","proprietaire":"7807 - GUYANCOURT ORIENTATION 78","niveau":"Initiation, Scolaire","specialite":"CO à pied","latitude":"48.8024472751","longitude":"2.04581222719","date_saisie":"05/03/2016","valide":"Oui","ppo":"Non","type_carte":"Nouvelle carte","fond":"IGN","obsolete":false}},{"type":"Feature","geometry":{"type":"Polygon","coordinates":[[[2.1916,48.7685],[2.1881,48.7664],[2.1871,48.7667],[2.187,48.7672],[2.1845,48.767],[2.1821,48.7668],[2.1754,48.7661],[2.1713,48.7672],[2.1742,48.7714],[2.1737,48.7718],[2.1729,48.7721],[2.1729,48.7729],[2.173,48.7737],[2.1726,48.7745],[2.1715,48.7752],[2.1711,48.7758],[2.1713,48.7769],[2.1691,48.7791],[2.1691,48.7799],[2.1708,48.78],[2.1724,48.7792],[2.1744,48.7792],[2.1765,48.779],[2.1777,48.7789],[2.1858,48.7726],[2.1903,48.7714],[2.1916,48.7685]]]},"properties":{"id_ffco":"9502","nom":"Cour Roland","_dept":"78","numero":"2010-D78-133","commune":"JOUY EN JOSAS","echelle":"1/7500","surface":"1.4 km²","format":"A4","annee":"2010","cartographes":"Frédéric Fischer,Michel Ediar","proprietaire":"7807 - GUYANCOURT ORIENTATION 78","niveau":"Initiation, Scolaire","specialite":"CO à pied","contacts":"Cartographe GO78, carto@go78.org","latitude":"48.7719838757","longitude":"2.17940381512","date_saisie":"28/03/2016","date_depot":"26/09/2017","valide":"Oui","ppo":"Non","type_carte":"Nouvelle carte","fond":"IGN","ref_ign":"IGn TOP 25 2214 ET","obsolete":false}},{"type":"Feature","geometry":{"type":"Polygon","coordinates":[[[1.9414,48.8034],[1.9393,48.8032],[1.9382,48.8023],[1.937,48.8022],[1.9348,48.7998],[1.9311,48.8],[1.9288,48.8001],[1.9227,48.8],[1.9202,48.8004],[1.9146,48.8026],[1.9094,48.8075],[1.9124,48.8083],[1.9158,48.8058],[1.9208,48.8074],[1.9203,48.8086],[1.9225,48.8109],[1.9241,48.8118],[1.9253,48.8118],[1.9251,48.8129],[1.9249,48.8138],[1.921,48.8156],[1.9225,48.8167],[1.9245,48.8169],[1.9255,48.8156],[1.9273,48.8159],[1.9281,48.817],[1.9297,48.817],[1.9309,48.8157],[1.9332,48.8157],[1.936,48.8151],[1.937,48.8149],[1.9394,48.8146],[1.9412,48.8128],[1.9437,48.8127],[1.9446,48.8114],[1.9429,48.8102],[1.9414,48.8034]]]},"properties":{"id_ffco":"4890","nom":"Forêt Départementale de Sainte Apolline","_dept":"78","numero":"2009-D78-132","commune":"Plaisir","echelle":"1/7500","surface":"2.85 km²","format":"A3","annee":"2009","cartographes":"Y Mareigner,F Mareigner,F Besbot","proprietaire":"CG78","niveau":"Régional","specialite":"CO à pied","latitude":"48.8075503748","longitude":"1.92935503949","date_saisie":"19/03/2010","date_depot":"26/03/2010","valide":"Oui","ppo":"Non","type_carte":"Reprise","base":"2005-D78-106 Sainte Apolline 2","fond":"IGN","obsolete":false}},{"type":"Feature","geometry":{"type":"Polygon","coordinates":[[[1.923,48.778],[1.9213,48.7761],[1.9232,48.7749],[1.9226,48.7737],[1.9256,48.7726],[1.9251,48.7716],[1.9254,48.771],[1.9263,48.771],[1.9276,48.7697],[1.9289,48.7687],[1.9303,48.7678],[1.9319,48.7676],[1.9335,48.7674],[1.9358,48.7672],[1.9376,48.7671],[1.9385,48.7682],[1.9393,48.7693],[1.9376,48.77],[1.937,48.7706],[1.935,48.771],[1.9346,48.7717],[1.9338,48.7725],[1.9318,48.774],[1.9321,48.7747],[1.934,48.7756],[1.9388,48.7781],[1.9367,48.7796],[1.9354,48.7805],[1.934,48.781],[1.9336,48.7826],[1.9325,48.7831],[1.9311,48.7832],[1.9303,48.7832],[1.9293,48.7828],[1.9282,48.7823],[1.925,48.7819],[1.9248,48.7811],[1.9241,48.7806],[1.9226,48.7797],[1.9226,48.7792],[1.9218,48.7789],[1.9219,48.7785],[1.923,48.778]]]},"properties":{"id_ffco":"4889","nom":"Maurepas","_dept":"78","numero":"2009-D78-131","commune":"Maurepas","echelle":"1/7500","surface":"1.37 km²","format":"A4","annee":"2009","cartographes":"R Taillebois","proprietaire":"7808 - ASSOCIATION SPORTIVE DE MONTIGNY-LE-BRETONNEUX","niveau":"Départemental","specialite":"CO à pied","latitude":"48.775427337","longitude":"1.93014970214","date_saisie":"19/03/2010","date_depot":"26/03/2010","valide":"Oui","ppo":"Non","type_carte":"Nouvelle carte","fond":"IGN","obsolete":false}},{"type":"Feature","geometry":{"type":"Polygon","coordinates":[[[2.0294,48.6943],[2.0275,48.6938],[2.0258,48.694],[2.0248,48.6933],[2.0232,48.693],[2.0217,48.6922],[2.0211,48.6914],[2.021,48.6905],[2.0208,48.6895],[2.0205,48.6886],[2.0217,48.6861],[2.0275,48.684],[2.0287,48.683],[2.0292,48.6819],[2.0305,48.6823],[2.032,48.6822],[2.0329,48.6825],[2.0339,48.6845],[2.0313,48.6857],[2.0336,48.6912],[2.0344,48.6911],[2.0351,48.6916],[2.0366,48.6942],[2.0383,48.6939],[2.0418,48.6942],[2.0417,48.6965],[2.0318,48.6967],[2.0317,48.6954],[2.0325,48.6946],[2.031,48.6941],[2.0294,48.6943]]]},"properties":{"id_ffco":"4888","nom":"Bois de Méridon","_dept":"78","numero":"2009-D78-130","commune":"Chevreuse","echelle":"1/7500","surface":"1.2 km²","format":"A4","annee":"2009","cartographes":"Alain Godet","proprietaire":"7808 - ASSOCIATION SPORTIVE DE MONTIGNY-LE-BRETONNEUX","niveau":"Initiation, Scolaire","specialite":"CO à pied","latitude":"48.690098971","longitude":"2.02956757072","date_saisie":"19/03/2010","date_depot":"26/03/2010","valide":"Oui","ppo":"Non","type_carte":"Nouvelle carte","fond":"IGN","obsolete":false}},{"type":"Feature","geometry":{"type":"Polygon","coordinates":[[[2.0552,48.6944],[2.0542,48.6949],[2.0532,48.6943],[2.0523,48.6948],[2.0499,48.6938],[2.0417,48.6943],[2.0383,48.694],[2.0368,48.6942],[2.0352,48.6917],[2.0344,48.6912],[2.0337,48.6913],[2.0327,48.689],[2.0306,48.6892],[2.0307,48.6942],[2.0324,48.6946],[2.0315,48.6954],[2.0319,48.697],[2.0336,48.6978],[2.0371,48.699],[2.039,48.6997],[2.0394,48.6997],[2.0396,48.7003],[2.0412,48.7005],[2.042,48.7008],[2.0433,48.7009],[2.0452,48.7004],[2.0461,48.7],[2.0461,48.6995],[2.048,48.6994],[2.0491,48.6993],[2.0507,48.6987],[2.053,48.6985],[2.0536,48.6986],[2.0549,48.698],[2.0562,48.6976],[2.0552,48.6944]]]},"properties":{"id_ffco":"4887","nom":"Bois de Vossery","_dept":"78","numero":"2009-D78-129","commune":"Chevreuse","echelle":"1/7500","surface":"1.15 km²","format":"A4","annee":"2009","cartographes":"Alain Godet","proprietaire":"7808 - ASSOCIATION SPORTIVE DE MONTIGNY-LE-BRETONNEUX","niveau":"Départemental","specialite":"CO à pied","latitude":"48.696128622","longitude":"2.04215705899","date_saisie":"19/03/2010","date_depot":"26/03/2010","valide":"Oui","ppo":"Non","type_carte":"Nouvelle carte","fond":"IGN","obsolete":false}},{"type":"Feature","geometry":{"type":"Polygon","coordinates":[[[1.9046,48.6972],[1.9026,48.6958],[1.9021,48.696],[1.8998,48.6955],[1.8992,48.6951],[1.8999,48.6941],[1.8991,48.6937],[1.8998,48.6934],[1.8999,48.6931],[1.9005,48.6926],[1.9014,48.6926],[1.9022,48.6923],[1.9012,48.689],[1.8974,48.6889],[1.8935,48.6897],[1.8915,48.6889],[1.8893,48.6889],[1.8877,48.6879],[1.888,48.6874],[1.8879,48.6861],[1.888,48.6856],[1.8921,48.6826],[1.8938,48.6803],[1.8975,48.6805],[1.8975,48.6808],[1.8998,48.681],[1.8999,48.6805],[1.903,48.6813],[1.9053,48.6816],[1.9073,48.681],[1.908,48.6807],[1.909,48.6807],[1.9097,48.681],[1.9123,48.6816],[1.9135,48.6824],[1.9168,48.6824],[1.9175,48.682],[1.9189,48.6823],[1.9233,48.6815],[1.9244,48.6811],[1.9276,48.6813],[1.928,48.6815],[1.9283,48.6814],[1.9293,48.6815],[1.9303,48.6812],[1.9307,48.6809],[1.9307,48.6801],[1.9314,48.6793],[1.9366,48.6786],[1.9388,48.6775],[1.9407,48.6765],[1.9464,48.6751],[1.951,48.6739],[1.9519,48.6731],[1.9522,48.673],[1.9523,48.6726],[1.9538,48.6714],[1.9546,48.6706],[1.9554,48.6702],[1.956,48.6703],[1.9559,48.6707],[1.9562,48.6716],[1.9574,48.6724],[1.9591,48.6742],[1.96,48.6741],[1.9612,48.6752],[1.9613,48.6767],[1.962,48.6765],[1.9627,48.6766],[1.9639,48.6774],[1.964,48.6776],[1.9646,48.678],[1.9648,48.6792],[1.965,48.6797],[1.9648,48.6799],[1.9649,48.6807],[1.9651,48.6818],[1.9654,48.6822],[1.9656,48.6826],[1.9657,48.6827],[1.9671,48.6829],[1.9678,48.6831],[1.9677,48.6834],[1.9673,48.6838],[1.967,48.6839],[1.9645,48.6851],[1.9653,48.6854],[1.9648,48.6862],[1.9653,48.6874],[1.9649,48.6879],[1.9653,48.6881],[1.9657,48.6882],[1.9663,48.6881],[1.9666,48.6881],[1.9676,48.6882],[1.9678,48.6888],[1.9654,48.6894],[1.9639,48.6898],[1.9647,48.6907],[1.966,48.6907],[1.9665,48.691],[1.9654,48.6922],[1.9644,48.6926],[1.9641,48.6932],[1.963,48.6934],[1.9615,48.693],[1.9606,48.6924],[1.9595,48.6921],[1.9537,48.6929],[1.9505,48.6921],[1.949,48.6914],[1.9464,48.69],[1.9417,48.6914],[1.9406,48.6898],[1.9403,48.6897],[1.9393,48.6879],[1.9382,48.6878],[1.9363,48.6885],[1.936,48.6883],[1.934,48.6889],[1.9336,48.6894],[1.933,48.6896],[1.9317,48.6908],[1.9318,48.6912],[1.9305,48.6919],[1.93,48.6927],[1.9302,48.6938],[1.9293,48.6942],[1.9314,48.6975],[1.9274,48.6995],[1.9241,48.7021],[1.9264,48.7042],[1.9205,48.7063],[1.9153,48.708],[1.9136,48.7056],[1.9136,48.7045],[1.9119,48.7032],[1.912,48.7022],[1.912,48.701],[1.9115,48.7003],[1.9095,48.6998],[1.9093,48.6995],[1.9122,48.6992],[1.9123,48.6989],[1.9133,48.6988],[1.9144,48.6985],[1.9139,48.6977],[1.914,48.6962],[1.9136,48.6957],[1.9138,48.6951],[1.9143,48.6949],[1.9127,48.6943],[1.9123,48.6945],[1.9118,48.6944],[1.9109,48.695],[1.9094,48.6956],[1.9094,48.696],[1.9068,48.6961],[1.9066,48.696],[1.9054,48.6966],[1.9046,48.6972]]]},"properties":{"id_ffco":"8735","nom":"Les Vaux de Cernay","_dept":"78","numero":"2008-D78-126","commune":"Auffargis","echelle":"1/10000","surface":"9.88 km²","format":"A3","annee":"2008","proprietaire":"78 - Yvelines","niveau":"National, International","specialite":"CO à pied","latitude":"48.6874869785","longitude":"1.92990948418","date_saisie":"19/10/2015","date_depot":"05/07/2017","valide":"Oui","ppo":"Non","type_carte":"Reprise","base":"2003-D78-80 Les Vaux de Cernay","fond":"Ortho","obsolete":false}},{"type":"Feature","geometry":{"type":"Polygon","coordinates":[[[2.054,48.9248],[2.0739,48.9108],[2.0732,48.9174],[2.0825,48.9235],[2.0897,48.9273],[2.0945,48.939],[2.0928,48.9499],[2.091,48.9544],[2.0725,48.9465],[2.067,48.9433],[2.0622,48.9386],[2.0646,48.9343],[2.054,48.9248]]]},"properties":{"id_ffco":"4886","nom":"La Légion d'Honneur","_dept":"78","numero":"2009-D78-124","commune":"Poissy","echelle":"1/15000","surface":"7.28 km²","format":"A3","annee":"2009","cartographes":"Campbell N","proprietaire":"78 - Yvelines","niveau":"Régional","specialite":"CO à pied","latitude":"48.9336900394","longitude":"2.07650511864","date_saisie":"01/03/2012","date_depot":"26/03/2010","valide":"Oui","ppo":"Non","type_carte":"Reprise","base":"1999-D78-61 LA LEGION D'HONNEUR 2","fond":"IGN","ref_ign":"Saint-Germain","obsolete":false}},{"type":"Feature","geometry":{"type":"Polygon","coordinates":[[[2.0063,48.7328],[2.0117,48.7364],[2.0151,48.7377],[2.0136,48.7379],[2.0115,48.7393],[2.0132,48.7404],[2.0148,48.741],[2.0141,48.7424],[2.0149,48.7439],[2.0151,48.7472],[2.0082,48.7483],[2.0023,48.7489],[1.9968,48.7501],[1.9966,48.7473],[1.9972,48.7461],[1.9956,48.7454],[1.9959,48.7433],[1.997,48.7428],[1.9971,48.7418],[1.9958,48.7409],[1.993,48.7414],[1.9924,48.7401],[1.9914,48.7402],[1.9905,48.7413],[1.9881,48.7392],[1.9929,48.7365],[1.997,48.7349],[1.9994,48.7351],[2.0063,48.7328]]]},"properties":{"id_ffco":"4535","nom":"Champ garnier 2","_dept":"78","numero":"2008-D78-122","commune":"Voisins-le-Bretonneux","echelle":"1/7500","surface":"2.27 km²","format":"A4","annee":"2008","cartographes":"S Kireilis","proprietaire":"7807 - GUYANCOURT ORIENTATION 78","niveau":"Régional","specialite":"CO à pied","latitude":"48.7413936658","longitude":"2.00356126417","date_saisie":"10/11/2009","date_depot":"17/11/2009","valide":"Oui","ppo":"Non","type_carte":"Reprise","base":"2003-D78-87 Champ Garnier","fond":"IGN","obsolete":false}},{"type":"Feature","geometry":{"type":"Polygon","coordinates":[[[2.0955,48.9093],[2.102,48.9182],[2.1032,48.9195],[2.106,48.9203],[2.1049,48.9218],[2.1063,48.9238],[2.1089,48.9232],[2.113,48.9249],[2.114,48.9276],[2.1194,48.928],[2.1254,48.9339],[2.1201,48.936],[2.1209,48.9415],[2.1149,48.9407],[2.1106,48.9412],[2.1032,48.9395],[2.0967,48.9392],[2.0921,48.9258],[2.0854,48.9218],[2.0905,48.9116],[2.0955,48.9093]]]},"properties":{"id_ffco":"5365","nom":"La Terrasse de St-Germain","_dept":"78","numero":"2008-D78-118","commune":"Saint-Germain","echelle":"1/10000","surface":"4.93 km²","format":"A3","annee":"2008","cartographes":"Campbell Nick","proprietaire":"78 - Yvelines","niveau":"Régional","specialite":"CO à pied","latitude":"48.9280771713","longitude":"2.10369451524","date_saisie":"01/03/2012","date_depot":"11/03/2016","valide":"Oui","ppo":"Non","type_carte":"Reprise","base":"1983-D78-00 MAISONS LAFFITTE","fond":"IGN","ref_ign":"Saint-Germain","obsolete":false}},{"type":"Feature","geometry":{"type":"Polygon","coordinates":[[[1.8143,48.6747],[1.816,48.661],[1.8203,48.6588],[1.8209,48.6576],[1.8227,48.6576],[1.8335,48.6631],[1.8363,48.6656],[1.8415,48.6777],[1.8394,48.6793],[1.8401,48.6809],[1.8367,48.681],[1.8336,48.6832],[1.8121,48.6856],[1.8109,48.6855],[1.8112,48.6787],[1.8065,48.6793],[1.8079,48.675],[1.8143,48.6747]]]},"properties":{"id_ffco":"9115","nom":"La Pommeraie - 3","_dept":"78","numero":"2006-D78-117","commune":"Rambouillet","echelle":"1/10000","surface":"4.9 km²","format":"A4","annee":"2006","cartographes":"Michel Franquet","proprietaire":"7808 - ASSOCIATION SPORTIVE DE MONTIGNY-LE-BRETONNEUX","niveau":"Régional","specialite":"CO à pied","latitude":"48.6731492459","longitude":"1.82476674331","date_saisie":"30/12/2015","date_depot":"05/07/2017","valide":"Oui","ppo":"Non","type_carte":"Reprise","base":"1997-D78-51 La Pommeraie - 2","fond":"IGN","obsolete":false}},{"type":"Feature","geometry":{"type":"Polygon","coordinates":[[[2.169,48.7802],[2.1677,48.779],[2.1675,48.7765],[2.1674,48.7733],[2.1677,48.7718],[2.1688,48.7687],[2.1571,48.7679],[2.1542,48.7689],[2.1507,48.7691],[2.1473,48.7711],[2.1478,48.7719],[2.1562,48.7802],[2.1569,48.7808],[2.1597,48.7817],[2.1619,48.7816],[2.1655,48.7808],[2.1687,48.7806],[2.169,48.7802]]]},"properties":{"id_ffco":"9501","nom":"Bois des Metz","_dept":"78","numero":"2006-D78-115","commune":"JOUY EN JOSAS","echelle":"1/7500","surface":"1.7 km²","format":"A4","annee":"2006","cartographes":"Marc Brochot","proprietaire":"7807 - GUYANCOURT ORIENTATION 78","niveau":"Départemental","specialite":"CO à pied","latitude":"48.7742297979","longitude":"2.15948618151","date_saisie":"28/03/2016","date_depot":"05/07/2017","valide":"Oui","ppo":"Non","type_carte":"Nouvelle carte","fond":"IGN","ref_ign":"IGn TOP 25 2214 ET","obsolete":false}},{"type":"Feature","geometry":{"type":"Polygon","coordinates":[[[1.9664,48.7631],[1.9668,48.7636],[1.9667,48.7644],[1.9667,48.7649],[1.9661,48.7652],[1.9651,48.7671],[1.9641,48.7679],[1.9638,48.7685],[1.9632,48.7684],[1.9632,48.7679],[1.9595,48.7665],[1.9595,48.7628],[1.9576,48.7606],[1.961,48.7611],[1.9664,48.7631]]]},"properties":{"id_ffco":"4279","nom":"Villedieu : Commanderie Des Templiers","_dept":"78","numero":"2006-D78-111","commune":"Elancourt","echelle":"1/4000","surface":"0.32 km²","format":"A4","annee":"2006","cartographes":"M Brochot","proprietaire":"7807 - GUYANCOURT ORIENTATION 78","niveau":"Initiation, Scolaire","specialite":"CO à pied","latitude":"48.764372405","longitude":"1.96252039888","date_saisie":"03/12/2006","date_depot":"28/12/2006","valide":"Oui","ppo":"Non","type_carte":"Nouvelle carte","fond":"IGN","obsolete":false}},{"type":"Feature","geometry":{"type":"Polygon","coordinates":[[[1.6947,49.0625],[1.6837,49.0617],[1.6789,49.0602],[1.6627,49.0518],[1.6665,49.049],[1.6698,49.0495],[1.671,49.0484],[1.683,49.0508],[1.6907,49.0539],[1.6931,49.0567],[1.6952,49.0604],[1.6952,49.0625],[1.6947,49.0625]]]},"properties":{"id_ffco":"5364","nom":"Base de Moisson","_dept":"78","numero":"2006-D78-110","commune":"Mousseaux","echelle":"1/10000","surface":"2.01 km²","format":"A4","annee":"2006","cartographes":"M Franquet","proprietaire":"78 - Yvelines","niveau":"Initiation, Scolaire","specialite":"CO à pied","latitude":"49.0553587102","longitude":"1.68033024528","date_saisie":"01/03/2012","date_depot":"11/03/2016","valide":"Oui","ppo":"Non","type_carte":"Nouvelle carte","fond":"Cadastre","obsolete":false}},{"type":"Feature","geometry":{"type":"Polygon","coordinates":[[[2.0638,48.795],[2.0638,48.795],[2.0612,48.7954],[2.0552,48.7924],[2.0607,48.7893],[2.0637,48.795],[2.0638,48.795]]]},"properties":{"id_ffco":"5363","nom":"Stade Maurice Leluc","_dept":"78","numero":"2006-D78-109","commune":"Saint-Cyr-l'Ecole","echelle":"1/2500","surface":"0.2 km²","format":"A4","annee":"2006","cartographes":"N Rauturier","proprietaire":"78 - Yvelines","niveau":"Initiation, Scolaire","specialite":"CO à pied","latitude":"48.7926320177","longitude":"2.05987500401","date_saisie":"01/03/2012","date_depot":"11/03/2016","valide":"Oui","ppo":"Non","type_carte":"Nouvelle carte","fond":"Cadastre","obsolete":false}},{"type":"Feature","geometry":{"type":"Polygon","coordinates":[[[1.8665,48.8394],[1.8651,48.8389],[1.8626,48.8389],[1.8581,48.8405],[1.8577,48.8413],[1.8533,48.8422],[1.8526,48.8407],[1.8507,48.8409],[1.8482,48.8434],[1.8388,48.8453],[1.837,48.845],[1.8347,48.8461],[1.8365,48.8481],[1.8378,48.8483],[1.8372,48.8493],[1.8329,48.8506],[1.8323,48.8517],[1.834,48.8536],[1.8367,48.854],[1.8375,48.854],[1.8382,48.8565],[1.849,48.8567],[1.8551,48.8582],[1.8593,48.8578],[1.8638,48.8582],[1.8665,48.8575],[1.8699,48.8565],[1.8727,48.8546],[1.8737,48.8531],[1.8747,48.8523],[1.8737,48.8504],[1.8728,48.8485],[1.8742,48.8474],[1.876,48.8458],[1.872,48.8448],[1.8724,48.8429],[1.8742,48.8426],[1.8748,48.8408],[1.8758,48.8403],[1.8751,48.8377],[1.8702,48.8383],[1.8681,48.8378],[1.8668,48.8383],[1.8665,48.8394]]]},"properties":{"id_ffco":"4277","nom":"La Côte Du Petit Dieu","_dept":"78","numero":"2006-D78-108","commune":"Beynes","echelle":"1/10000","surface":"4.91 km²","format":"A4","annee":"2006","cartographes":"Alain Godet","proprietaire":"GGM V/1","niveau":"Régional","specialite":"CO à pied","latitude":"48.848946679","longitude":"1.85656563089","date_saisie":"03/12/2006","date_depot":"28/12/2006","valide":"Oui","ppo":"Non","type_carte":"Nouvelle carte","fond":"IGN","obsolete":false}},{"type":"Feature","geometry":{"type":"Polygon","coordinates":[[[1.8943,48.853],[1.8894,48.854],[1.8889,48.8535],[1.8865,48.8542],[1.8819,48.8674],[1.8849,48.8704],[1.8863,48.8697],[1.8874,48.8683],[1.8898,48.8691],[1.8899,48.87],[1.892,48.8693],[1.896,48.8677],[1.8972,48.8712],[1.9016,48.8715],[1.9039,48.8704],[1.9045,48.8697],[1.9063,48.8696],[1.9074,48.8702],[1.9087,48.869],[1.9074,48.8685],[1.9091,48.867],[1.9088,48.8651],[1.9079,48.8649],[1.9051,48.861],[1.9004,48.8568],[1.8978,48.856],[1.8943,48.853]]]},"properties":{"id_ffco":"4276","nom":"Camp de Beynes - Frileuse","_dept":"78","numero":"2006-D78-107","commune":"Beynes","echelle":"1/10000","surface":"2.68 km²","format":"A4","annee":"2006","cartographes":"A Godet","proprietaire":"GGM V/1","niveau":"Régional","specialite":"CO à pied","latitude":"48.862975816","longitude":"1.89486664289","date_saisie":"03/12/2006","date_depot":"28/12/2006","valide":"Oui","ppo":"Non","type_carte":"Reprise","base":"1990-D78-09 FRILEUSE","fond":"IGN","obsolete":false}},{"type":"Feature","geometry":{"type":"Polygon","coordinates":[[[2.0645,48.7743],[2.0652,48.7762],[2.0672,48.7759],[2.0684,48.7755],[2.0683,48.7746],[2.0692,48.7743],[2.0683,48.7732],[2.0675,48.7735],[2.0671,48.773],[2.0645,48.7743]]]},"properties":{"id_ffco":"4270","nom":"Bois De La Grille","_dept":"78","numero":"2005-D78-101","commune":"Guyancourt","echelle":"1/2500","surface":"0.08 km²","format":"A4","annee":"2005","cartographes":"N Rauturier","proprietaire":"7807 - GUYANCOURT ORIENTATION 78","niveau":"Initiation, Scolaire","specialite":"CO à pied","latitude":"48.7746356172","longitude":"2.06672911694","date_saisie":"01/12/2006","date_depot":"28/12/2006","valide":"Oui","ppo":"Non","type_carte":"Nouvelle carte","fond":"Cadastre","obsolete":false}},{"type":"Feature","geometry":{"type":"Polygon","coordinates":[[[2.0293,48.8086],[2.0092,48.8164],[2.0066,48.8155],[2.0037,48.8153],[1.9996,48.8138],[1.9963,48.801],[1.9998,48.8005],[2.0018,48.81],[2.0109,48.8082],[2.0116,48.8099],[2.0144,48.81],[2.0202,48.808],[2.02,48.8071],[2.0267,48.8046],[2.0293,48.8086]]]},"properties":{"id_ffco":"4269","nom":"Stade Jean Moulin","_dept":"78","numero":"2005-D78-100","commune":"Bois D'Arcy","echelle":"1/10000","surface":"1.49 km²","format":"A4","annee":"2005","cartographes":"R Ondracek","proprietaire":"7807 - GUYANCOURT ORIENTATION 78","niveau":"Régional","specialite":"CO à pied","latitude":"48.8100751256","longitude":"2.01077897438","date_saisie":"01/12/2006","date_depot":"28/12/2006","valide":"Oui","ppo":"Non","type_carte":"Nouvelle carte","fond":"IGN","obsolete":false}}]}