{"type":"FeatureCollection","features":[{"type":"Feature","geometry":{"type":"Polygon","coordinates":[[[1.9871,48.8003],[1.9871,48.8017],[1.9841,48.8047],[1.9819,48.8047],[1.9799,48.8072],[1.9768,48.8091],[1.9745,48.8091],[1.9737,48.8071],[1.9711,48.8071],[1.9706,48.8091],[1.9699,48.8107],[1.967,48.8106],[1.9622,48.8109],[1.9603,48.8135],[1.9644,48.8136],[1.968,48.8143],[1.9692,48.8156],[1.978,48.8152],[1.9824,48.8155],[1.9857,48.8155],[1.9869,48.8153],[1.9867,48.8146],[1.9893,48.8141],[1.9907,48.8155],[1.9924,48.8152],[1.9944,48.8142],[1.9963,48.8151],[2.0018,48.8141],[2.0092,48.8166],[2.0295,48.8087],[2.0267,48.8046],[2.0216,48.8065],[2.0156,48.8089],[2.0137,48.8101],[2.0114,48.8097],[2.0092,48.8088],[2.002,48.81],[2.0005,48.8005],[1.9932,48.8013],[1.9914,48.8011],[1.9898,48.8004],[1.9871,48.8003]]]},"properties":{"id_ffco":"4268","nom":"Bois D'Arcy","_dept":"78","numero":"2005-D78-98","commune":"Bois D'Arcy","echelle":"1/10000","surface":"4.28 km²","format":"A3","annee":"2005","cartographes":"R Ondracek","proprietaire":"7807 - GUYANCOURT ORIENTATION 78","niveau":"Régional","specialite":"CO à pied","latitude":"48.8098124562","longitude":"1.99409775987","date_saisie":"29/11/2006","date_depot":"28/12/2006","valide":"Oui","ppo":"Non","type_carte":"Nouvelle carte","fond":"IGN","obsolete":true}},{"type":"Feature","geometry":{"type":"Polygon","coordinates":[[[1.9929,48.784],[1.9911,48.7845],[1.9917,48.7885],[1.9902,48.7902],[1.9966,48.7961],[2.0079,48.7943],[2.0183,48.7932],[2.0282,48.7913],[2.0306,48.7898],[2.0337,48.7881],[2.034,48.7866],[2.0323,48.7852],[2.0316,48.784],[2.0258,48.7829],[2.0229,48.784],[2.0215,48.7836],[2.0187,48.7819],[2.0112,48.7809],[2.0077,48.7807],[1.9929,48.784]]]},"properties":{"id_ffco":"451","nom":"Base de Loisirs de St. Quentin en Yvelines","_dept":"78","numero":"2003-D78-97","commune":"Trappes","echelle":"1/12500","surface":"3.71 km²","format":"A4","annee":"2003","cartographes":"Franz Mareigner,Mareigner Yann","proprietaire":"78 - Yvelines","niveau":"Initiation, Scolaire","specialite":"CO à pied","latitude":"48.7880003078","longitude":"2.01035985115","valide":"Non","ppo":"Oui (60 postes)","type_carte":"Nouvelle carte","fond":"Cadastre","obsolete":true}},{"type":"Feature","geometry":null,"properties":{"id_ffco":"4027","nom":"Taillis d'Epernon L'étang neuf","_dept":"78","numero":"2005-D78-96","commune":"Poigny la Forêt","echelle":"1/5000","surface":"1.0 km²","format":"A4","annee":"2005","cartographes":"Radovan Cech-Jan Drbal-Radim Ondracek","proprietaire":"IF - Île de France","niveau":"Départemental","specialite":"CO à pied","latitude":"48.6790321","longitude":"1.7541227","date_saisie":"13/09/2005","date_depot":"20/09/2005","valide":"Non","ppo":"Non","type_carte":"Extrait","fond":"Ortho","obsolete":true}},{"type":"Feature","geometry":null,"properties":{"id_ffco":"4139","nom":"Bois d'Aigrefoin","_dept":"78","numero":"2005-D78-94","commune":"Gif sur Yvette","echelle":"1/4000","surface":"0.4 km²","format":"A4","annee":"2005","cartographes":"M Franquet","proprietaire":"7808 - ASSOCIATION SPORTIVE DE MONTIGNY-LE-BRETONNEUX","niveau":"Initiation, Scolaire","specialite":"CO à pied","latitude":"48.7023826","longitude":"2.1351917","date_saisie":"25/11/2005","date_depot":"16/01/2006","valide":"Non","ppo":"Non","type_carte":"Nouvelle carte","fond":"IGN","obsolete":true}},{"type":"Feature","geometry":null,"properties":{"id_ffco":"3901","nom":"Taillis d'Epernon","_dept":"78","numero":"2004-D78-91","commune":"Poigny la Forêt","echelle":"1/10000","surface":"6.0 km²","format":"A3","annee":"2004","cartographes":"Radovan Cech-Jan Drbal-Radim Ondracek","proprietaire":"7808 - ASSOCIATION SPORTIVE DE MONTIGNY-LE-BRETONNEUX","niveau":"Régional","specialite":"CO à pied","latitude":"48.6790321","longitude":"1.7541227","date_saisie":"13/04/2005","date_depot":"26/04/2005","valide":"Non","ppo":"Non","type_carte":"Nouvelle carte","fond":"IGN","obsolete":true}},{"type":"Feature","geometry":null,"properties":{"id_ffco":"3769","nom":"Champ Garnier","_dept":"78","numero":"2003-D78-87","commune":"St Quentin en Yvelynes","echelle":"1/7500","surface":"2.0 km²","annee":"2003","cartographes":"Radim Ondracek,Ivo Haban","proprietaire":"7807 - GUYANCOURT ORIENTATION 78","specialite":"CO à pied","latitude":"48.7875077","longitude":"2.0446643","date_saisie":"29/01/2004","date_depot":"02/02/2004","valide":"Non","ppo":"Non","obsolete":true}},{"type":"Feature","geometry":null,"properties":{"id_ffco":"3768","nom":"La sente des carrières","_dept":"78","numero":"2003-D78-86","commune":"St Quentin en Yvelynes","echelle":"1/5000","surface":"1.0 km²","annee":"2003","cartographes":"Radim Ondracek,Ivo Haban","proprietaire":"7807 - GUYANCOURT ORIENTATION 78","specialite":"CO à pied","latitude":"48.7875077","longitude":"2.0446643","date_saisie":"29/01/2004","date_depot":"02/02/2004","valide":"Non","ppo":"Non","obsolete":true}},{"type":"Feature","geometry":{"type":"Polygon","coordinates":[[[2.0409,48.7543],[2.0377,48.7539],[2.0402,48.7506],[2.0411,48.7487],[2.0421,48.7484],[2.0444,48.7492],[2.0467,48.7484],[2.0493,48.7485],[2.0506,48.7492],[2.0508,48.7513],[2.0511,48.7529],[2.0454,48.7526],[2.0409,48.7543]]]},"properties":{"id_ffco":"3767","nom":"Le saut du loup","_dept":"78","numero":"2003-D78-85","commune":"Montigny-le-Bretonneux","echelle":"1/5000","surface":"0.41 km²","format":"A5","annee":"2003","cartographes":"Radim Ondracek,Ivo Haban","proprietaire":"7807 - GUYANCOURT ORIENTATION 78","niveau":"Initiation, Scolaire","specialite":"CO à pied","latitude":"48.7511575922","longitude":"2.04473536579","date_saisie":"29/01/2004","date_depot":"02/02/2004","valide":"Oui","ppo":"Non","type_carte":"Nouvelle carte","fond":"IGN","obsolete":true}},{"type":"Feature","geometry":{"type":"Polygon","coordinates":[[[1.9725,48.7606],[1.9684,48.7583],[1.9684,48.7561],[1.9694,48.7549],[1.9714,48.7534],[1.9737,48.7534],[1.978,48.7526],[1.9835,48.7522],[1.9919,48.7478],[1.9969,48.7472],[1.9962,48.7458],[2.0049,48.7437],[2.009,48.7486],[2.0056,48.7502],[2.0085,48.7534],[2.0161,48.7536],[2.018,48.7554],[2.0183,48.7574],[2.0211,48.7583],[2.0209,48.7606],[2.0204,48.7618],[2.0217,48.7629],[2.019,48.7641],[2.0144,48.765],[2.007,48.7664],[1.9847,48.7566],[1.9781,48.7562],[1.9725,48.7606]]]},"properties":{"id_ffco":"3726","nom":"Le Manet","_dept":"78","numero":"2003-D78-83","commune":"Montigny-le-Bretonneux","echelle":"1/10000","surface":"4.53 km²","format":"A4","annee":"2003","cartographes":"Radim Ondatreck","proprietaire":"7807 - GUYANCOURT ORIENTATION 78","niveau":"Régional","specialite":"CO à pied","latitude":"48.7558826109","longitude":"1.99898626174","date_saisie":"11/12/2003","date_depot":"15/12/2003","valide":"Oui","ppo":"Non","type_carte":"Nouvelle carte","fond":"IGN","obsolete":true}},{"type":"Feature","geometry":{"type":"Polygon","coordinates":[[[2.0597,48.7766],[2.058,48.7766],[2.0573,48.7764],[2.0566,48.776],[2.0531,48.777],[2.052,48.7761],[2.0515,48.7762],[2.0504,48.7768],[2.0472,48.7774],[2.0469,48.7772],[2.0434,48.7802],[2.0465,48.7817],[2.0468,48.7831],[2.0451,48.7847],[2.0559,48.7837],[2.0565,48.7833],[2.0563,48.7831],[2.0557,48.7828],[2.0569,48.7817],[2.0604,48.7812],[2.0602,48.7805],[2.0603,48.7797],[2.0603,48.7784],[2.0597,48.7766]]]},"properties":{"id_ffco":"3727","nom":"Parc des Sources de la Bièvre 2","_dept":"78","numero":"2003-D78-82","commune":"Guyancourt","echelle":"1/5000","surface":"0.8 km²","format":"A4","annee":"2003","cartographes":"Thierry CHARLÈS","proprietaire":"7807 - GUYANCOURT ORIENTATION 78","niveau":"Régional","specialite":"CO à pied","latitude":"48.7801029847","longitude":"2.05235574635","date_saisie":"11/12/2003","date_depot":"15/12/2003","valide":"Oui","ppo":"Non","type_carte":"Nouvelle carte","fond":"Cadastre","obsolete":true}},{"type":"Feature","geometry":null,"properties":{"id_ffco":"3774","nom":"Les Grés de Cernay","_dept":"78","numero":"2003-D78-81","commune":"Senlisse","echelle":"1/10000","surface":"4.0 km²","annee":"2003","cartographes":"Alain Godet","proprietaire":"7807 - GUYANCOURT ORIENTATION 78","specialite":"CO à pied","latitude":"48.7875077","longitude":"2.0446643","date_saisie":"13/02/2004","date_depot":"16/02/2004","valide":"Non","ppo":"Non","obsolete":true}},{"type":"Feature","geometry":null,"properties":{"id_ffco":"3680","nom":"Les Vaux de Cernay","_dept":"78","numero":"2003-D78-80","commune":"Rambouillet","echelle":"1/10000","surface":"10.0 km²","format":"A3","annee":"2003","cartographes":"A Godet","proprietaire":"78 - Yvelines","specialite":"CO à pied","latitude":"48.6429629","longitude":"1.8257979","date_saisie":"04/09/2003","date_depot":"05/09/2003","valide":"Non","ppo":"Non","obsolete":true}},{"type":"Feature","geometry":null,"properties":{"id_ffco":"3665","nom":"La Rigole du Manet","_dept":"78","numero":"2002-D78-79","commune":"Voisins le Bretonneux","echelle":"1/2500","surface":"0.3 km²","format":"A4","annee":"2002","proprietaire":"7807 - GUYANCOURT ORIENTATION 78","specialite":"CO à pied","latitude":"48.759536","longitude":"2.0390198","date_saisie":"19/05/2003","date_depot":"20/05/2003","valide":"Non","ppo":"Non","type_carte":"Nouvelle carte","fond":"IGN","obsolete":true}},{"type":"Feature","geometry":{"type":"Polygon","coordinates":[[[2.0423,48.7576],[2.0398,48.758],[2.0402,48.7617],[2.0349,48.7617],[2.0325,48.7638],[2.032,48.7639],[2.0277,48.7642],[2.0271,48.7595],[2.0208,48.7603],[2.0215,48.7573],[2.0234,48.756],[2.0264,48.7556],[2.0308,48.7556],[2.0333,48.7546],[2.0371,48.7539],[2.0384,48.7544],[2.0398,48.7541],[2.0414,48.7546],[2.041,48.7562],[2.0415,48.757],[2.0423,48.7576]]]},"properties":{"id_ffco":"3666","nom":"Bois de la Garenne","_dept":"78","numero":"2002-D78-78","commune":"Voisins le Bretonneux","echelle":"1/5000","surface":"1.07 km²","format":"A4","annee":"2002","proprietaire":"7807 - GUYANCOURT ORIENTATION 78","niveau":"Initiation, Scolaire","specialite":"CO à pied","latitude":"48.7585985183","longitude":"2.03212580393","date_saisie":"19/05/2003","date_depot":"20/05/2003","valide":"Oui","ppo":"Non","type_carte":"Nouvelle carte","fond":"Cadastre","obsolete":true}},{"type":"Feature","geometry":null,"properties":{"id_ffco":"3662","nom":"Haute vallée de la Bièvre","_dept":"78","numero":"2002-D78-77","commune":"Guyancourt","echelle":"1/10000","surface":"10.0 km²","format":"A3","annee":"2002","cartographes":"Charles T","proprietaire":"7807 - GUYANCOURT ORIENTATION 78","specialite":"CO à pied","latitude":"48.771725","longitude":"2.0701467","date_saisie":"19/05/2003","date_depot":"20/05/2003","valide":"Non","ppo":"Non","obsolete":true}},{"type":"Feature","geometry":{"type":"Polygon","coordinates":[[[2.095,48.7771],[2.096,48.7785],[2.0965,48.7815],[2.0937,48.781],[2.0918,48.7811],[2.0904,48.7821],[2.0901,48.785],[2.0832,48.7903],[2.0813,48.7909],[2.0747,48.7918],[2.0684,48.7921],[2.067,48.7915],[2.0655,48.7925],[2.0638,48.7929],[2.0617,48.7899],[2.0682,48.7876],[2.0773,48.7861],[2.0766,48.785],[2.0704,48.7829],[2.0685,48.7811],[2.0674,48.7792],[2.0644,48.7787],[2.0613,48.7783],[2.0603,48.7767],[2.0643,48.7748],[2.0687,48.7732],[2.069,48.7747],[2.0686,48.7758],[2.066,48.7763],[2.0691,48.7782],[2.071,48.7778],[2.0736,48.7796],[2.0755,48.7793],[2.0765,48.7786],[2.0789,48.7774],[2.08,48.7779],[2.0811,48.7772],[2.0803,48.7768],[2.0836,48.7741],[2.0862,48.7745],[2.0862,48.7759],[2.0876,48.7774],[2.091,48.7771],[2.0941,48.7777],[2.095,48.7771]]]},"properties":{"id_ffco":"3663","nom":"Le Moulin à Renard","_dept":"78","numero":"2002-D78-76","commune":"Guyancourt","echelle":"1/10000","surface":"2.69 km²","format":"A4","annee":"2002","proprietaire":"7807 - GUYANCOURT ORIENTATION 78","niveau":"Régional","specialite":"CO à pied","latitude":"48.7831661174","longitude":"2.07843000006","date_saisie":"19/05/2003","date_depot":"20/05/2003","valide":"Oui","ppo":"Non","type_carte":"Nouvelle carte","fond":"IGN","obsolete":true}},{"type":"Feature","geometry":{"type":"Polygon","coordinates":[[[2.0989,48.7736],[2.096,48.7757],[2.097,48.777],[2.0977,48.7786],[2.0979,48.7803],[2.0999,48.7804],[2.1007,48.7791],[2.1028,48.7783],[2.1053,48.7785],[2.1069,48.7796],[2.111,48.7805],[2.1127,48.7803],[2.1159,48.7794],[2.1178,48.7806],[2.1233,48.7842],[2.1255,48.7879],[2.1282,48.7875],[2.1322,48.787],[2.1296,48.7838],[2.1298,48.781],[2.1286,48.78],[2.1286,48.7788],[2.1271,48.7773],[2.1254,48.7767],[2.1233,48.7773],[2.1207,48.7776],[2.1192,48.7777],[2.1183,48.7763],[2.1193,48.775],[2.1188,48.7727],[2.1173,48.7729],[2.1151,48.772],[2.1125,48.7726],[2.1113,48.7729],[2.109,48.7727],[2.1072,48.7715],[2.1049,48.7717],[2.104,48.7712],[2.1019,48.7716],[2.1001,48.772],[2.0983,48.7726],[2.0989,48.7736]]]},"properties":{"id_ffco":"3664","nom":"La Geneste","_dept":"78","numero":"2002-D78-75","commune":"Guyancourt","echelle":"1/10000","surface":"2.03 km²","format":"A4","annee":"2002","proprietaire":"7807 - GUYANCOURT ORIENTATION 78","niveau":"Régional","specialite":"CO à pied","latitude":"48.7780739361","longitude":"2.11416079945","date_saisie":"19/05/2003","date_depot":"20/05/2003","valide":"Oui","ppo":"Non","type_carte":"Nouvelle carte","fond":"IGN","obsolete":true}},{"type":"Feature","geometry":{"type":"Polygon","coordinates":[[[2.0215,48.7575],[2.0015,48.7399],[1.9678,48.7558],[1.9678,48.759],[1.9721,48.7609],[1.9785,48.7565],[1.9832,48.7567],[2.0073,48.7675],[2.0093,48.7668],[2.0086,48.7656],[2.0123,48.7649],[2.0153,48.764],[2.018,48.7644],[2.0193,48.765],[2.0223,48.7642],[2.0215,48.7627],[2.0212,48.7609],[2.0215,48.7575]]]},"properties":{"id_ffco":"3429","nom":"Port Royal","_dept":"78","numero":"2001-D78-73","commune":"Montigny-le-Bretonneux","echelle":"1/10000","surface":"5.98 km²","format":"A3","annee":"2001","cartographes":"Thierry CHARLÈS","proprietaire":"7807 - GUYANCOURT ORIENTATION 78","niveau":"Régional","specialite":"CO à pied","latitude":"48.7545403418","longitude":"1.99867348662","date_saisie":"15/01/2002","date_depot":"11/03/2002","valide":"Oui","ppo":"Non","type_carte":"Nouvelle carte","fond":"IGN","obsolete":true}},{"type":"Feature","geometry":null,"properties":{"id_ffco":"3401","nom":"LA LEGION D'HONNEUR 2","_dept":"78","numero":"1999-D78-61","commune":"SAINT GERMAIN EN LAYE","echelle":"1/15000","surface":"8.0 km²","annee":"1999","proprietaire":"78 - Yvelines","specialite":"CO à pied","latitude":"48.8987307","longitude":"2.093595","date_saisie":"23/11/2001","date_depot":"06/12/2001","valide":"Non","ppo":"Non","obsolete":true}},{"type":"Feature","geometry":null,"properties":{"id_ffco":"3346","nom":"Gymnase des Droits de l'Homme","_dept":"78","numero":"1999-D78-59","commune":"Guyancourt","echelle":"1/2500","surface":"0.1 km²","format":"A4","annee":"1999","proprietaire":"7807 - GUYANCOURT ORIENTATION 78","specialite":"CO à pied","latitude":"48.771725","longitude":"2.0701467","valide":"Non","ppo":"Non","obsolete":true}},{"type":"Feature","geometry":null,"properties":{"id_ffco":"3350","nom":"Groupe scolaire Cocteau Desnos","_dept":"78","numero":"1999-D78-58","commune":"Guyancourt","echelle":"1/500","surface":"0.1 km²","format":"A4","annee":"1999","proprietaire":"7807 - GUYANCOURT ORIENTATION 78","specialite":"CO à pied","latitude":"48.771725","longitude":"2.0701467","valide":"Non","ppo":"Non","fond":"Cadastre","obsolete":true}},{"type":"Feature","geometry":null,"properties":{"id_ffco":"3069","nom":"Parc du château de Plaisir","_dept":"78","numero":"1998-D78-54","commune":"PLAISIR","echelle":"1/5000","surface":"1.0 km²","format":"A4","annee":"1998","proprietaire":"7806","specialite":"CO à pied","latitude":"48.8166969","longitude":"1.9485514","valide":"Non","ppo":"Non","type_carte":"Nouvelle carte","fond":"IGN","obsolete":true}},{"type":"Feature","geometry":null,"properties":{"id_ffco":"2898","nom":"La Pommeraie - 2","_dept":"78","numero":"1997-D78-51","commune":"RAMBOUILLET","echelle":"1/15000","surface":"8.0 km²","format":"A4","annee":"1997","proprietaire":"7806","niveau":"Interrégional","specialite":"CO à pied","latitude":"48.6429629","longitude":"1.8257979","valide":"Non","ppo":"Non","type_carte":"Nouvelle carte","obsolete":true}},{"type":"Feature","geometry":null,"properties":{"id_ffco":"3034","nom":"La Terrasse de St-Germain","_dept":"78","numero":"1998-D78-50","commune":"ST GERMAIN EN LAYE","echelle":"1/15000","surface":"6.5 km²","annee":"1998","cartographes":"Saint-Upéry","niveau":"Interrégional","specialite":"CO à pied","latitude":"48.8987307","longitude":"2.093595","valide":"Non","ppo":"Non","obsolete":true}},{"type":"Feature","geometry":null,"properties":{"id_ffco":"2257","nom":"T.E.C.O.M.A.H. - DOMAINE DE JOUY EN JOSAS","_dept":"78","numero":"1990-D78-49","commune":"JOUY EN JOSAS","echelle":"1/10000","surface":"1.5 km²","annee":"1990","proprietaire":"7801 - LYCEE MILITAIRE DE SAINT CYR","specialite":"CO à pied","latitude":"48.7632963","longitude":"2.1683026","valide":"Non","ppo":"Non","obsolete":true}},{"type":"Feature","geometry":null,"properties":{"id_ffco":"2821","nom":"MARAIS DU CERISAIE","_dept":"78","numero":"1995-D78-48","commune":"POIGNY","surface":"0.0 km²","annee":"1995","proprietaire":"7505","specialite":"CO à pied","latitude":"48.6790321","longitude":"1.7541227","valide":"Non","ppo":"Non","obsolete":true}},{"type":"Feature","geometry":null,"properties":{"id_ffco":"1278","nom":"MARLY LE ROY 2","_dept":"78","numero":"1983-D78-47","commune":"ST NOM LA BRETECHE","echelle":"1/15000","surface":"7.0 km²","annee":"1983","proprietaire":"7802","niveau":"Interrégional","specialite":"CO à pied","latitude":"48.8557745","longitude":"2.0189758","valide":"Non","ppo":"Non","obsolete":true}},{"type":"Feature","geometry":null,"properties":{"id_ffco":"1277","nom":"VERSAILLES - SATORY","_dept":"78","numero":"1983-D78-46","commune":"VERSAILLES","echelle":"1/15000","surface":"6.6 km²","annee":"1983","proprietaire":"7802","niveau":"Interrégional","specialite":"CO à pied","latitude":"48.80233","longitude":"2.1298227","valide":"Non","ppo":"Non","obsolete":true}},{"type":"Feature","geometry":null,"properties":{"id_ffco":"727","nom":"NEUVILLE 2 - RAMBOUILLET","_dept":"78","numero":"1977-D78-45","commune":"GARBAISEUIL","echelle":"1/15000","surface":"16.0 km²","annee":"1977","proprietaire":"7509 - PARIS ORIENTSPORT","specialite":"CO à pied","latitude":"48.847586","longitude":"2.1453582","valide":"Non","ppo":"Non","obsolete":true}},{"type":"Feature","geometry":null,"properties":{"id_ffco":"1276","nom":"FORET DLE MEUDON PORCHEFONTAINE","_dept":"78","numero":"1983-D78-44","commune":"VERSAILLES","echelle":"1/15000","surface":"8.0 km²","annee":"1983","niveau":"Interrégional","specialite":"CO à pied","latitude":"48.80233","longitude":"2.1298227","valide":"Non","ppo":"Non","obsolete":true}},{"type":"Feature","geometry":null,"properties":{"id_ffco":"726","nom":"RAMBOUILLET NEUVILLE","_dept":"78","numero":"1977-D78-42","commune":"RAMBOUILLET","echelle":"1/15000","surface":"9.0 km²","annee":"1977","specialite":"CO à pied","latitude":"48.6429629","longitude":"1.8257979","valide":"Non","ppo":"Non","obsolete":true}},{"type":"Feature","geometry":null,"properties":{"id_ffco":"2255","nom":"BOIS DE MAUREPAS","_dept":"78","numero":"1990-D78-41","commune":"MAUREPAS","echelle":"1/10000","surface":"1.5 km²","annee":"1990","proprietaire":"7806","specialite":"CO à pied","latitude":"48.7628658","longitude":"1.9476079","valide":"Non","ppo":"Non","obsolete":true}},{"type":"Feature","geometry":null,"properties":{"id_ffco":"2254","nom":"PARC FOREST.BOIS CASSE","_dept":"78","numero":"1990-D78-33","commune":"ST CYR l'ECOLE","echelle":"1/5000","surface":"0.5 km²","annee":"1990","proprietaire":"7806","specialite":"CO à pied","latitude":"48.803387","longitude":"2.0727503","valide":"Non","ppo":"Non","obsolete":true}},{"type":"Feature","geometry":null,"properties":{"id_ffco":"725","nom":"LEGION D'HONNEUR","_dept":"78","numero":"1977-D78-32","commune":"ST GERMAIN en L.","echelle":"1/15000","surface":"8.0 km²","annee":"1977","specialite":"CO à pied","latitude":"48.8987307","longitude":"2.093595","valide":"Non","ppo":"Non","obsolete":true}},{"type":"Feature","geometry":null,"properties":{"id_ffco":"2253","nom":"PISCINE ST GERMAIN","_dept":"78","numero":"1990-D78-30","commune":"ST GERMAIN EN LAYE","echelle":"1/5000","surface":"1.7 km²","annee":"1990","specialite":"CO à pied","latitude":"48.8987307","longitude":"2.093595","valide":"Non","ppo":"Non","obsolete":true}},{"type":"Feature","geometry":null,"properties":{"id_ffco":"2252","nom":"PARC RAMBOUILLET","_dept":"78","numero":"1990-D78-29","commune":"RAMBOUILLET","echelle":"1/7500","surface":"0.5 km²","annee":"1990","specialite":"CO à pied","latitude":"48.6429629","longitude":"1.8257979","valide":"Non","ppo":"Non","obsolete":true}},{"type":"Feature","geometry":null,"properties":{"id_ffco":"724","nom":"VAUX DE CERNAY 2","_dept":"78","numero":"1977-D78-28","commune":"AUFFARGIS","echelle":"1/15000","surface":"15.0 km²","annee":"1977","specialite":"CO à pied","latitude":"48.7024012","longitude":"1.8850526","valide":"Non","ppo":"Non","obsolete":true}},{"type":"Feature","geometry":null,"properties":{"id_ffco":"2251","nom":"ETANG GENESTE","_dept":"78","numero":"1990-D78-27","commune":"VERSAILLES","echelle":"1/15000","surface":"2.7 km²","annee":"1990","proprietaire":"78 - Yvelines","specialite":"CO à pied","latitude":"48.80233","longitude":"2.1298227","valide":"Non","ppo":"Non","obsolete":true}},{"type":"Feature","geometry":null,"properties":{"id_ffco":"2250","nom":"YVES LE COZ","_dept":"78","numero":"1990-D78-26","commune":"VERSAILLES","echelle":"1/4000","surface":"0.2 km²","annee":"1990","proprietaire":"7806","specialite":"CO à pied","latitude":"48.80233","longitude":"2.1298227","valide":"Non","ppo":"Non","obsolete":true}},{"type":"Feature","geometry":null,"properties":{"id_ffco":"2249","nom":"BRETECHELLE","_dept":"78","numero":"1990-D78-25","commune":"CLAYE/BOIS","echelle":"1/10000","surface":"2.2 km²","annee":"1990","specialite":"CO à pied","latitude":"48.7850939","longitude":"1.8256572","valide":"Non","ppo":"Non","obsolete":true}},{"type":"Feature","geometry":null,"properties":{"id_ffco":"2248","nom":"PETIT PARC","_dept":"78","numero":"1990-D78-23","commune":"RAMBOUILLET","echelle":"1/10000","surface":"3.3 km²","annee":"1990","proprietaire":"7806","specialite":"CO à pied","latitude":"48.6429629","longitude":"1.8257979","valide":"Non","ppo":"Non","obsolete":true}},{"type":"Feature","geometry":null,"properties":{"id_ffco":"1275","nom":"POMMERAIE","_dept":"78","numero":"1983-D78-22","commune":"RAMBOUILLET","echelle":"1/15000","surface":"9.9 km²","annee":"1983","proprietaire":"7806","niveau":"Interrégional","specialite":"CO à pied","latitude":"48.6429629","longitude":"1.8257979","valide":"Non","ppo":"Non","obsolete":true}},{"type":"Feature","geometry":null,"properties":{"id_ffco":"2247","nom":"BEAUREGARD","_dept":"78","numero":"1990-D78-21","commune":"CELLE ST CLOUD","echelle":"1/10000","surface":"4.0 km²","annee":"1990","specialite":"CO à pied","latitude":"48.852546","longitude":"2.1434103","valide":"Non","ppo":"Non","obsolete":true}},{"type":"Feature","geometry":null,"properties":{"id_ffco":"2246","nom":"MAUREPAS","_dept":"78","numero":"1990-D78-20","commune":"MAUREPAS","echelle":"1/10000","surface":"5.0 km²","annee":"1990","specialite":"CO à pied","latitude":"48.7628658","longitude":"1.9476079","valide":"Non","ppo":"Non","obsolete":true}},{"type":"Feature","geometry":null,"properties":{"id_ffco":"2245","nom":"Les Ambassadeurs","_dept":"78","numero":"1990-D78-19","commune":"Achères","echelle":"1/10000","surface":"2.2 km²","annee":"1990","specialite":"CO à pied","latitude":"48.9601584","longitude":"2.068435","valide":"Non","ppo":"Non","obsolete":true}},{"type":"Feature","geometry":null,"properties":{"id_ffco":"2244","nom":"PONT COLBERT","_dept":"78","numero":"1990-D78-18","commune":"VERSAILLES","echelle":"1/10000","surface":"2.0 km²","annee":"1990","proprietaire":"7806","specialite":"CO à pied","latitude":"48.80233","longitude":"2.1298227","valide":"Non","ppo":"Non","obsolete":true}},{"type":"Feature","geometry":null,"properties":{"id_ffco":"2243","nom":"COUR ROLAND","_dept":"78","numero":"1990-D78-17","commune":"VERSAILLES","echelle":"1/15000","surface":"3.0 km²","annee":"1990","proprietaire":"7806","specialite":"CO à pied","latitude":"48.80233","longitude":"2.1298227","valide":"Non","ppo":"Non","obsolete":true}},{"type":"Feature","geometry":null,"properties":{"id_ffco":"1274","nom":"TERRASSE ST GERMAIN","_dept":"78","numero":"1983-D78-16","commune":"ST GERMAIN LAYE","echelle":"1/15000","surface":"6.0 km²","annee":"1983","niveau":"Interrégional","specialite":"CO à pied","latitude":"48.8969476","longitude":"2.0926942","valide":"Non","ppo":"Non","obsolete":true}},{"type":"Feature","geometry":null,"properties":{"id_ffco":"2242","nom":"TERRASSE ST GERMAIN","_dept":"78","numero":"1990-D78-16","commune":"SAINT GERMAIN","echelle":"1/10000","surface":"2.8 km²","annee":"1990","proprietaire":"78 - Yvelines","specialite":"CO à pied","latitude":"48.8987307","longitude":"2.093595","valide":"Non","ppo":"Non","obsolete":true}},{"type":"Feature","geometry":null,"properties":{"id_ffco":"1273","nom":"MARLY LE ROI","_dept":"78","numero":"1983-D78-15","commune":"MARLY ROI","echelle":"1/15000","surface":"6.0 km²","annee":"1983","niveau":"Interrégional","specialite":"CO à pied","latitude":"48.8667225","longitude":"2.0933641","valide":"Non","ppo":"Non","obsolete":true}},{"type":"Feature","geometry":null,"properties":{"id_ffco":"2241","nom":"ST GERMAIN","_dept":"78","numero":"1990-D78-14","commune":"ST GERMAIN","echelle":"1/10000","surface":"3.0 km²","annee":"1990","specialite":"CO à pied","latitude":"48.9034","longitude":"2.034895","valide":"Non","ppo":"Non","obsolete":true}},{"type":"Feature","geometry":{"type":"Polygon","coordinates":[[[2.0071,48.7672],[1.9945,48.7612],[1.9957,48.76],[1.9875,48.7568],[1.9782,48.7565],[1.9719,48.7609],[1.9684,48.7588],[1.9679,48.7578],[1.9684,48.7558],[1.9711,48.7538],[1.9731,48.7533],[1.9738,48.7527],[1.9777,48.7523],[1.9802,48.7524],[1.9844,48.7514],[1.9862,48.7498],[1.9848,48.7484],[1.9871,48.7466],[1.9937,48.7474],[2.0132,48.7452],[2.0141,48.7484],[2.0061,48.7516],[2.0096,48.7538],[2.0144,48.7539],[2.0178,48.7551],[2.0177,48.7558],[2.019,48.7564],[2.0171,48.7576],[2.0178,48.759],[2.0197,48.7592],[2.0209,48.7587],[2.0208,48.7616],[2.0216,48.7626],[2.0184,48.7643],[2.0147,48.764],[2.0087,48.7656],[2.0089,48.7664],[2.0071,48.7672]]]},"properties":{"id_ffco":"9510","nom":"Le Manet 2","_dept":"78","numero":"2010-D78-136","commune":"Montigny-le-Bretonneux","echelle":"1/10000","surface":"4.67 km²","format":"A3","annee":"2010","cartographes":"Frédéric Fischer","proprietaire":"7807 - GUYANCOURT ORIENTATION 78","niveau":"National, International","specialite":"CO à pied","contacts":"Cartographe GO78, carto@go78.org","latitude":"48.7555689276","longitude":"1.99857030683","date_saisie":"28/03/2016","date_depot":"01/07/2011","valide":"Oui","ppo":"Non","type_carte":"Reprise","base":"2003-D78-83 Le Manet","fond":"IGN","obsolete":true}},{"type":"Feature","geometry":{"type":"Polygon","coordinates":[[[2.0446,48.799],[2.0471,48.8018],[2.0495,48.8043],[2.0519,48.8023],[2.0538,48.8009],[2.0557,48.7996],[2.0551,48.7977],[2.0446,48.799]]]},"properties":{"id_ffco":"9416","nom":"Bois Gazé 2","_dept":"78","numero":"2010-D78-135","commune":"Saint-Cyr-l'Ecole","echelle":"1/5000","surface":"0.31 km²","format":"A4","annee":"2010","cartographes":"Frédéric Fischer","proprietaire":"7807 - GUYANCOURT ORIENTATION 78","niveau":"Départemental","specialite":"CO à pied","latitude":"48.8003586809","longitude":"2.05037150976","date_saisie":"06/03/2016","date_depot":"01/07/2011","valide":"Oui","ppo":"Non","type_carte":"Nouvelle carte","fond":"IGN","obsolete":true}},{"type":"Feature","geometry":{"type":"Polygon","coordinates":[[[1.9263,48.7044],[1.9151,48.7081],[1.9134,48.7053],[1.9135,48.7044],[1.9123,48.7038],[1.9113,48.7025],[1.9127,48.7021],[1.9111,48.7016],[1.9003,48.7046],[1.8962,48.7001],[1.8968,48.6962],[1.8979,48.6963],[1.8989,48.6928],[1.8951,48.6905],[1.8942,48.6884],[1.8929,48.6864],[1.8889,48.6852],[1.8941,48.6806],[1.8983,48.6808],[1.9008,48.6787],[1.9107,48.6775],[1.9229,48.6903],[1.9273,48.6884],[1.9303,48.6942],[1.9315,48.6979],[1.9271,48.6996],[1.9248,48.7019],[1.9263,48.7044]]]},"properties":{"id_ffco":"8943","nom":"Auffargis - La Sablière","_dept":"78","numero":"2009-D78-128","commune":"Auffargis","echelle":"1/10000","surface":"5.98 km²","format":"A3","annee":"2009","cartographes":"Taillebois Roger,Liviu Tintar","proprietaire":"78 - Yvelines","niveau":"National, International","specialite":"CO à pied","contacts":"TAISSON Sandrine, cd.yvelines@ffcorientation.fr","latitude":"48.6925189636","longitude":"1.91056884926","date_saisie":"28/11/2015","date_depot":"05/07/2017","valide":"Oui","ppo":"Non","type_carte":"Reprise","base":"2003-D78-80 Les Vaux de Cernay","fond":"IGN","obsolete":true}},{"type":"Feature","geometry":{"type":"Polygon","coordinates":[[[1.9618,48.6742],[1.9636,48.6767],[1.9661,48.6799],[1.9651,48.6807],[1.9658,48.6827],[1.9677,48.6832],[1.9671,48.6839],[1.9663,48.6842],[1.9681,48.6849],[1.9679,48.6855],[1.965,48.6847],[1.9645,48.6853],[1.9654,48.6857],[1.9648,48.6861],[1.9654,48.6872],[1.9651,48.6879],[1.9654,48.6881],[1.9676,48.6881],[1.9679,48.689],[1.967,48.6908],[1.9684,48.6926],[1.97,48.6922],[1.9724,48.6966],[1.971,48.7001],[1.9729,48.7022],[1.9689,48.7033],[1.966,48.7028],[1.9646,48.7031],[1.9628,48.7026],[1.9617,48.7026],[1.9594,48.7003],[1.9635,48.6985],[1.954,48.6928],[1.9487,48.6913],[1.9469,48.69],[1.9415,48.6914],[1.9405,48.6899],[1.9356,48.6918],[1.9335,48.6816],[1.9311,48.6796],[1.9375,48.6783],[1.9411,48.6763],[1.9511,48.6738],[1.9548,48.6702],[1.9564,48.6702],[1.957,48.6719],[1.9586,48.6714],[1.9593,48.6714],[1.9611,48.6736],[1.9618,48.6742]]]},"properties":{"id_ffco":"8936","nom":"Les Grès de Cernay 2","_dept":"78","numero":"2009-D78-127","commune":"Senlisse","echelle":"1/10000","surface":"5.47 km²","format":"A3","annee":"2009","cartographes":"OVER 4,R Taillebois","proprietaire":"7807 - GUYANCOURT ORIENTATION 78","niveau":"National, International","specialite":"CO à pied","latitude":"48.6857602515","longitude":"1.95391369862","date_saisie":"26/11/2015","valide":"Oui","ppo":"Non","type_carte":"Nouvelle carte","base":"2003-D78-81 Les Grés de Cernay","fond":"IGN","obsolete":true}},{"type":"Feature","geometry":{"type":"Polygon","coordinates":[[[1.8202,48.7189],[1.8064,48.7237],[1.7999,48.7174],[1.7939,48.7147],[1.7929,48.7113],[1.7874,48.7137],[1.7747,48.7147],[1.7721,48.7181],[1.773,48.72],[1.768,48.7223],[1.7669,48.7247],[1.764,48.7258],[1.7675,48.7281],[1.7688,48.7329],[1.7774,48.737],[1.7764,48.7386],[1.779,48.7418],[1.7893,48.7376],[1.7882,48.7365],[1.8233,48.7272],[1.8231,48.7228],[1.8202,48.7189]]]},"properties":{"id_ffco":"5389","nom":"Les Etangs de Hollande","_dept":"78","numero":"2008-D78-125","commune":"Les Bréviaires","echelle":"1/10000","surface":"7.4 km²","format":"A3","annee":"2008","cartographes":"M Franquet","proprietaire":"78 - Yvelines","niveau":"Départemental","specialite":"CO à pied","latitude":"48.7259279209","longitude":"1.79043150327","date_saisie":"24/03/2012","valide":"Non","ppo":"Non","obsolete":true}},{"type":"Feature","geometry":{"type":"Polygon","coordinates":[[[2.0514,48.7546],[2.0468,48.7549],[2.0464,48.7546],[2.0448,48.7551],[2.0443,48.7556],[2.0431,48.7551],[2.0418,48.7547],[2.0411,48.7542],[2.0404,48.754],[2.0397,48.7541],[2.0383,48.7542],[2.0373,48.7538],[2.0394,48.7523],[2.0398,48.7512],[2.0407,48.7494],[2.0417,48.7482],[2.0435,48.7488],[2.0444,48.749],[2.0453,48.749],[2.0459,48.7485],[2.0468,48.7479],[2.0498,48.7482],[2.0491,48.7486],[2.0496,48.7493],[2.0508,48.7497],[2.0515,48.7505],[2.0506,48.7507],[2.0514,48.7546]]]},"properties":{"id_ffco":"4534","nom":"Le Saut du Loup 2","_dept":"78","numero":"2008-D78-123","commune":"Voisins-le-Bretonneux","echelle":"1/5000","surface":"0.58 km²","format":"A4","annee":"2008","cartographes":"F Fischer","proprietaire":"7807 - GUYANCOURT ORIENTATION 78","niveau":"Départemental","specialite":"CO à pied","contacts":"Cartographe GO78, carto@go78.org","latitude":"48.751837105","longitude":"2.04522831873","date_saisie":"10/11/2009","date_depot":"17/11/2009","valide":"Oui","ppo":"Non","type_carte":"Reprise","base":"2003-D78-85 Le saut du loup","fond":"IGN","ref_ign":"TOP 25 2214 ET + Photo Aeriennes","obsolete":true}},{"type":"Feature","geometry":{"type":"Polygon","coordinates":[[[2.0512,48.7532],[2.0505,48.7508],[2.0515,48.7507],[2.0509,48.7498],[2.0498,48.7494],[2.0496,48.7492],[2.0509,48.7494],[2.053,48.7489],[2.0555,48.7489],[2.0564,48.7487],[2.0593,48.7476],[2.0609,48.7471],[2.0635,48.7464],[2.0629,48.7459],[2.0649,48.7456],[2.0653,48.746],[2.0668,48.7448],[2.0678,48.7445],[2.0677,48.7451],[2.0688,48.7454],[2.0698,48.7453],[2.0703,48.7454],[2.0699,48.7457],[2.0706,48.7458],[2.0686,48.7463],[2.0697,48.7476],[2.0662,48.7482],[2.0655,48.7487],[2.0655,48.749],[2.0633,48.7499],[2.0628,48.75],[2.0619,48.7505],[2.0606,48.751],[2.0576,48.7517],[2.0548,48.7526],[2.0543,48.7529],[2.0512,48.7532]]]},"properties":{"id_ffco":"4533","nom":"La Sente des carrières 3","_dept":"78","numero":"2008-D78-121","commune":"Voisins-le-Bretonneux","echelle":"1/5000","surface":"0.54 km²","format":"A4","annee":"2008","cartographes":"F Fischer","proprietaire":"7807 - GUYANCOURT ORIENTATION 78","niveau":"Régional","specialite":"CO à pied","latitude":"48.7491313107","longitude":"2.05967522884","date_saisie":"10/11/2009","date_depot":"17/11/2009","valide":"Oui","ppo":"Non","type_carte":"Reprise","base":"2003-D78-86 La sente des carrières","fond":"IGN","obsolete":true}},{"type":"Feature","geometry":null,"properties":{"id_ffco":"8482","nom":"Porchefontaine","_dept":"78","numero":"2006-D78-114","commune":"Versailles","surface":"None km²","annee":"2006","date_saisie":"21/06/2015","valide":"Non","ppo":"Non","obsolete":true}},{"type":"Feature","geometry":{"type":"Polygon","coordinates":[[[2.0502,48.804],[2.0533,48.8011],[2.0557,48.7994],[2.055,48.7978],[2.0464,48.7989],[2.046,48.7992],[2.0463,48.8004],[2.0482,48.8026],[2.0493,48.8036],[2.0502,48.804]]]},"properties":{"id_ffco":"9500","nom":"Bois Gazé","_dept":"78","numero":"2006-D78-113","commune":"Saint Cyr l'école","echelle":"1/5000","surface":"0.27 km²","format":"A4","annee":"2006","cartographes":"Philippe BOULESTREAU","proprietaire":"7807 - GUYANCOURT ORIENTATION 78","niveau":"Initiation, Scolaire","specialite":"CO à pied","contacts":"Cartographe GO78, carto@go78.org","latitude":"48.8003852743","longitude":"2.05063686187","date_saisie":"28/03/2016","valide":"Non","ppo":"Non","type_carte":"Nouvelle carte","fond":"IGN","ref_ign":"IGn TOP 25 2214 ET","obsolete":true}},{"type":"Feature","geometry":{"type":"Polygon","coordinates":[[[1.9416,48.8035],[1.939,48.8031],[1.9381,48.8022],[1.9372,48.8023],[1.9344,48.7995],[1.9311,48.7999],[1.9276,48.8],[1.9227,48.7999],[1.9202,48.8006],[1.9147,48.8025],[1.9127,48.8043],[1.9096,48.8078],[1.9124,48.8086],[1.9159,48.8057],[1.9206,48.8074],[1.9202,48.8083],[1.9227,48.8113],[1.9252,48.812],[1.9252,48.8128],[1.9208,48.8164],[1.9228,48.8168],[1.9243,48.817],[1.9257,48.8159],[1.9272,48.816],[1.9281,48.817],[1.9293,48.8172],[1.9311,48.8156],[1.9352,48.8147],[1.9371,48.8147],[1.9397,48.8148],[1.941,48.8128],[1.9428,48.8126],[1.9447,48.8116],[1.9451,48.8105],[1.9425,48.8096],[1.9416,48.8035]]]},"properties":{"id_ffco":"4275","nom":"Sainte Apolline 2","_dept":"78","numero":"2005-D78-106","commune":"Plaisir","echelle":"1/7500","surface":"2.86 km²","format":"A3","annee":"2005","cartographes":"M Franquet","proprietaire":"7808 - ASSOCIATION SPORTIVE DE MONTIGNY-LE-BRETONNEUX","niveau":"Régional","specialite":"CO à pied","latitude":"48.8075186109","longitude":"1.92933743922","date_saisie":"01/12/2006","date_depot":"28/12/2006","valide":"Non","ppo":"Non","type_carte":"Nouvelle carte","fond":"IGN","obsolete":true}},{"type":"Feature","geometry":{"type":"Polygon","coordinates":[[[2.0584,48.786],[2.0537,48.7844],[2.0519,48.7758],[2.0593,48.7764],[2.0645,48.7743],[2.065,48.7762],[2.0667,48.7769],[2.0687,48.7773],[2.0702,48.777],[2.0826,48.7707],[2.0836,48.7728],[2.0904,48.7746],[2.1035,48.7712],[2.1041,48.7718],[2.1072,48.7719],[2.1112,48.7729],[2.1154,48.7721],[2.1169,48.7731],[2.1237,48.7714],[2.1242,48.7714],[2.1289,48.7689],[2.1293,48.7678],[2.1404,48.7647],[2.1418,48.7669],[2.1453,48.7697],[2.1465,48.7912],[2.1376,48.7935],[2.1355,48.7904],[2.1361,48.7934],[2.1332,48.7942],[2.1285,48.7923],[2.1244,48.7919],[2.115,48.7927],[2.1077,48.7953],[2.1038,48.7956],[2.0988,48.795],[2.0904,48.7945],[2.0872,48.7949],[2.0848,48.7955],[2.0777,48.7982],[2.0719,48.7986],[2.0651,48.7972],[2.0644,48.7951],[2.0584,48.786]]]},"properties":{"id_ffco":"4274","nom":"Haute Vallée de la Bièvre 2","_dept":"78","numero":"2005-D78-105","commune":"Guyancourt","echelle":"1/15000","surface":"16.39 km²","format":"+","annee":"2005","cartographes":"R Ondracek,I Haban","proprietaire":"7807 - GUYANCOURT ORIENTATION 78","niveau":"Régional","specialite":"CO à pied","contacts":"Cartographe GO78, carto@go78.org","latitude":"48.78306973","longitude":"2.10269460303","date_saisie":"01/12/2006","date_depot":"28/12/2006","valide":"Oui","ppo":"Non","type_carte":"Reprise","base":"2002-D78-77 Haute vallée de la Bièvre","fond":"IGN","obsolete":true}},{"type":"Feature","geometry":{"type":"Polygon","coordinates":[[[2.132,48.787],[2.1253,48.7883],[2.1201,48.7811],[2.1153,48.7801],[2.1121,48.7814],[2.1092,48.7811],[2.1079,48.7816],[2.1072,48.7797],[2.1053,48.7788],[2.1033,48.7783],[2.1013,48.7785],[2.1002,48.7793],[2.0999,48.7798],[2.0992,48.7794],[2.0971,48.7747],[2.0988,48.7736],[2.0984,48.7726],[2.1037,48.7713],[2.1047,48.7718],[2.1068,48.7715],[2.1087,48.7725],[2.1113,48.7728],[2.1141,48.772],[2.1159,48.7723],[2.1172,48.7728],[2.1193,48.7725],[2.1213,48.7721],[2.1221,48.7726],[2.1236,48.7725],[2.1249,48.7729],[2.1248,48.7738],[2.119,48.7749],[2.1182,48.7762],[2.1189,48.7776],[2.122,48.7775],[2.1254,48.7768],[2.1274,48.7779],[2.1296,48.7808],[2.1294,48.7836],[2.132,48.787]]]},"properties":{"id_ffco":"4273","nom":"Geneste 2","_dept":"78","numero":"2005-D78-104","commune":"Saint Quentin En Yvelines","echelle":"1/10000","surface":"2.13 km²","format":"A4","annee":"2005","cartographes":"R Ondracek,I Haban","proprietaire":"7807 - GUYANCOURT ORIENTATION 78","niveau":"Régional","specialite":"CO à pied","latitude":"48.7780680037","longitude":"2.11492133426","date_saisie":"01/12/2006","date_depot":"28/12/2006","valide":"Oui","ppo":"Non","type_carte":"Reprise","base":"2002-D78-75 La Geneste","fond":"IGN","obsolete":true}},{"type":"Feature","geometry":null,"properties":{"id_ffco":"4272","nom":"La Sente des Carrières 2","_dept":"78","numero":"2005-D78-103","commune":"Voisins-le-Bretonneux","echelle":"1/5000","surface":"1.0 km²","format":"A4","annee":"2005","cartographes":"T Vermeersch,R Ondracek,I Haban","proprietaire":"7807 - GUYANCOURT ORIENTATION 78","niveau":"Départemental","specialite":"CO à pied","latitude":"48.7875077","longitude":"2.0446643","date_saisie":"01/12/2006","valide":"Non","ppo":"Non","obsolete":true}},{"type":"Feature","geometry":null,"properties":{"id_ffco":"4271","nom":"Château De Buc","_dept":"78","numero":"2005-D78-102","commune":"Guyancourt","echelle":"1/2500","surface":"0.25 km²","annee":"2005","cartographes":"Charles T","proprietaire":"78 - Yvelines","specialite":"CO à pied","latitude":"48.771725","longitude":"2.0701467","date_saisie":"01/12/2006","date_depot":"28/12/2006","valide":"Non","ppo":"Non","obsolete":true}},{"type":"Feature","geometry":null,"properties":{"id_ffco":"2240","nom":"MAINTENON","_dept":"78","numero":"1990-D78-10","commune":"SAINT CYR","echelle":"1/6000","surface":"0.8 km²","annee":"1990","proprietaire":"78 - Yvelines","specialite":"CO à pied","latitude":"48.5688504","longitude":"2.0350838","valide":"Non","ppo":"Non","obsolete":true}},{"type":"Feature","geometry":null,"properties":{"id_ffco":"2239","nom":"FRILEUSE","_dept":"78","numero":"1990-D78-09","commune":"NEAUPHLE","echelle":"1/10000","surface":"3.7 km²","annee":"1990","proprietaire":"78 - Yvelines","specialite":"CO à pied","latitude":"48.8149779","longitude":"1.8631481","valide":"Non","ppo":"Non","obsolete":true}},{"type":"Feature","geometry":null,"properties":{"id_ffco":"1272","nom":"Les Vaux de Cernay","_dept":"78","numero":"1983-D78-08","commune":"AUFFARGIS","echelle":"1/15000","surface":"10.0 km²","annee":"1983","niveau":"Interrégional","specialite":"CO à pied","latitude":"48.7024012","longitude":"1.8850526","valide":"Non","ppo":"Non","obsolete":true}},{"type":"Feature","geometry":null,"properties":{"id_ffco":"2238","nom":"FORET DE FAUSSE REPOSE","_dept":"78","numero":"1990-D78-07","commune":"VERSAILLES","echelle":"1/15000","surface":"3.0 km²","annee":"1990","specialite":"CO à pied","latitude":"48.80233","longitude":"2.1298227","valide":"Non","ppo":"Non","obsolete":true}},{"type":"Feature","geometry":null,"properties":{"id_ffco":"2237","nom":"FORET DE BOIS ARCY","_dept":"78","numero":"1990-D78-06","commune":"BOIS ARCY","echelle":"1/10000","surface":"1.6 km²","annee":"1990","specialite":"CO à pied","latitude":"48.801668","longitude":"2.0187948","valide":"Non","ppo":"Non","obsolete":true}},{"type":"Feature","geometry":null,"properties":{"id_ffco":"1271","nom":"FORET DE MEUDON","_dept":"78","numero":"1983-D78-05","commune":"VIROFLAY","echelle":"1/30000","surface":"12.5 km²","annee":"1983","niveau":"Interrégional","specialite":"CO à pied","latitude":"48.8023176","longitude":"2.1708093","valide":"Non","ppo":"Non","obsolete":true}},{"type":"Feature","geometry":null,"properties":{"id_ffco":"2236","nom":"BOIS SATORY","_dept":"78","numero":"1990-D78-02","commune":"VERSAILLES","echelle":"1/15000","surface":"1.3 km²","annee":"1990","specialite":"CO à pied","latitude":"48.80233","longitude":"2.1298227","valide":"Non","ppo":"Non","obsolete":true}},{"type":"Feature","geometry":null,"properties":{"id_ffco":"1270","nom":"MAISONS LAFFITTE","_dept":"78","numero":"1983-D78-00","commune":"MAISONS LAFFITTE","echelle":"1/20000","surface":"8.0 km²","annee":"1983","proprietaire":"78 - Yvelines","niveau":"Interrégional","specialite":"CO à pied","latitude":"48.9474161","longitude":"2.1468387","valide":"Non","ppo":"Non","obsolete":true}},{"type":"Feature","geometry":null,"properties":{"id_ffco":"1270","nom":"FORET RAMBOUILLET","_dept":"78","numero":"1983-D78-00","commune":"SAINT LEGER","echelle":"1/20000","surface":"18.0 km²","annee":"1983","proprietaire":"78 - Yvelines","niveau":"Interrégional","specialite":"CO à pied","latitude":"48.721884","longitude":"1.7647888","valide":"Non","ppo":"Non","obsolete":true}}]}