{"type":"FeatureCollection","features":[{"type":"Feature","geometry":{"type":"Polygon","coordinates":[[[-0.1238,46.32],[-0.1234,46.3171],[-0.1268,46.3141],[-0.1303,46.312],[-0.137,46.3132],[-0.1393,46.3143],[-0.1403,46.3163],[-0.1452,46.316],[-0.1469,46.3168],[-0.1499,46.3173],[-0.1448,46.3271],[-0.1451,46.3279],[-0.1478,46.3307],[-0.1433,46.333],[-0.1423,46.3321],[-0.1399,46.3329],[-0.138,46.332],[-0.1343,46.3291],[-0.1355,46.3264],[-0.1353,46.3253],[-0.1343,46.3236],[-0.1306,46.3203],[-0.132,46.3195],[-0.1301,46.3176],[-0.1254,46.3199],[-0.1238,46.32]]]},"properties":{"id_ffco":"14803","nom":"Fontmorte","_dept":"79","numero":"2024-D79-99","commune":"La Couarde","echelle":"1/15000","surface":"2.39 km²","format":"A4","annee":"2024","cartographes":"Rui Antunes","proprietaire":"7906 - ASSOCIATION NIORT AZIMUT COURSE D'ORIENTATION 79 N.A.C.O 79","niveau":"Régional","specialite":"CO à pied","latitude":"46.3215111967","longitude":"-0.138073048533","date_saisie":"06/12/2024","date_depot":"05/03/2025","valide":"Oui","ppo":"Non","type_carte":"Nouvelle carte","fond":"IGN","obsolete":false}},{"type":"Feature","geometry":{"type":"Polygon","coordinates":[[[-0.4471,46.5934],[-0.4431,46.5915],[-0.4415,46.5922],[-0.4414,46.5905],[-0.4384,46.5899],[-0.4398,46.5878],[-0.4384,46.5864],[-0.4415,46.5821],[-0.4392,46.5782],[-0.432,46.5723],[-0.4299,46.5696],[-0.4285,46.5696],[-0.4294,46.5686],[-0.4347,46.566],[-0.435,46.5646],[-0.4427,46.5673],[-0.4457,46.568],[-0.445,46.5693],[-0.4474,46.5704],[-0.4493,46.5708],[-0.4532,46.5734],[-0.4587,46.572],[-0.4591,46.5729],[-0.4625,46.5736],[-0.4601,46.5758],[-0.4588,46.5779],[-0.459,46.5791],[-0.4578,46.585],[-0.4566,46.5865],[-0.4538,46.5885],[-0.4524,46.5891],[-0.4521,46.5905],[-0.4497,46.5923],[-0.4471,46.5934]]]},"properties":{"id_ffco":"14802","nom":"Forêt domaniale Secondigny - Le Retail","_dept":"79","numero":"2024-D79-98","commune":"Le Retail","echelle":"1/15000","surface":"3.97 km²","format":"A4","annee":"2024","cartographes":"Rui Antunes","proprietaire":"7906 - ASSOCIATION NIORT AZIMUT COURSE D'ORIENTATION 79 N.A.C.O 79","niveau":"Régional","specialite":"CO à pied","latitude":"46.5785896657","longitude":"-0.446128135015","date_saisie":"06/12/2024","date_depot":"05/03/2025","valide":"Oui","ppo":"Non","type_carte":"Nouvelle carte","fond":"IGN","obsolete":false}},{"type":"Feature","geometry":null,"properties":{"id_ffco":"8229","nom":"fg","_dept":"79","numero":"2015-D79-97","surface":"None km²","annee":"2015","date_saisie":"18/03/2015","valide":"Non","ppo":"Non","obsolete":false}},{"type":"Feature","geometry":{"type":"Polygon","coordinates":[[[-0.1581,46.3403],[-0.1665,46.3405],[-0.19,46.3365],[-0.1977,46.3383],[-0.2051,46.3395],[-0.2075,46.3395],[-0.2104,46.341],[-0.2104,46.3426],[-0.2082,46.3465],[-0.2032,46.3465],[-0.1975,46.3443],[-0.1922,46.344],[-0.1912,46.3434],[-0.1909,46.3422],[-0.183,46.3421],[-0.1816,46.3433],[-0.1781,46.3434],[-0.1749,46.3435],[-0.1732,46.345],[-0.1715,46.3471],[-0.1692,46.348],[-0.1636,46.3474],[-0.1618,46.3442],[-0.1577,46.3403],[-0.1581,46.3403]]]},"properties":{"id_ffco":"5668","nom":"FORET DOMANIALE DE L'HERMITAIN","_dept":"79","numero":"2013-D79-22","commune":"La Mothe-Saint-Héray","echelle":"1/10000","surface":"2.57 km²","format":"A3","annee":"2013","cartographes":"BARRANGER","proprietaire":"Association Flying Avent'Hure","specialite":"CO à pied","latitude":"46.3419189079","longitude":"-0.185409809246","date_saisie":"23/03/2013","valide":"Non","ppo":"Non","obsolete":false}},{"type":"Feature","geometry":{"type":"Polygon","coordinates":[[[-0.4681,46.3261],[-0.4673,46.3269],[-0.4666,46.3276],[-0.4653,46.3276],[-0.4645,46.3287],[-0.4641,46.3301],[-0.464,46.3314],[-0.4639,46.3321],[-0.463,46.3321],[-0.4622,46.332],[-0.4615,46.3321],[-0.4612,46.3313],[-0.4613,46.3298],[-0.4614,46.329],[-0.4623,46.3291],[-0.4627,46.3292],[-0.4634,46.328],[-0.4641,46.3272],[-0.4645,46.3268],[-0.4654,46.326],[-0.4662,46.3254],[-0.4676,46.3246],[-0.4681,46.3261]]]},"properties":{"id_ffco":"5527","nom":"PRE LEROY","_dept":"79","numero":"2011-D79-21","commune":"Niort","echelle":"1/4000","surface":"0.15 km²","format":"A4","annee":"2011","cartographes":"BARRANGER","proprietaire":"7905 - ASSOCIATION NIORT AZIMUT COURSE D'ORIENTATION 79","niveau":"Initiation, Scolaire","specialite":"CO à pied","latitude":"46.3286874471","longitude":"-0.46420915115","date_saisie":"30/09/2012","date_depot":"15/11/2012","valide":"Oui","ppo":"Oui (51 postes)","type_carte":"Nouvelle carte","fond":"Cadastre","obsolete":false}},{"type":"Feature","geometry":{"type":"Polygon","coordinates":[[[-0.4424,46.5864],[-0.4504,46.5911],[-0.4531,46.5887],[-0.4566,46.586],[-0.4575,46.5841],[-0.4586,46.5801],[-0.4588,46.5776],[-0.4597,46.5758],[-0.4618,46.5739],[-0.4586,46.5725],[-0.4582,46.571],[-0.4565,46.5701],[-0.4547,46.5693],[-0.4514,46.5694],[-0.4488,46.57],[-0.4459,46.5697],[-0.4441,46.5687],[-0.4406,46.5675],[-0.4386,46.5661],[-0.4356,46.5645],[-0.4345,46.566],[-0.4307,46.5676],[-0.4281,46.5694],[-0.433,46.5727],[-0.4342,46.575],[-0.4389,46.5774],[-0.4421,46.5786],[-0.4444,46.5791],[-0.4461,46.5804],[-0.4458,46.5828],[-0.4444,46.5838],[-0.4416,46.5833],[-0.4396,46.585],[-0.4424,46.5864]]]},"properties":{"id_ffco":"5526","nom":"FORET DOMANIALE DE SECONDIGNY","_dept":"79","numero":"2011-D79-20","commune":"Secondigny","echelle":"1/10000","surface":"3.48 km²","format":"A4","annee":"2011","cartographes":"BARRANGER","proprietaire":"PC - Poitou-Charentes","niveau":"Régional","specialite":"CO à pied","latitude":"46.5766891239","longitude":"-0.446795882636","date_saisie":"30/09/2012","date_depot":"15/11/2012","valide":"Oui","ppo":"Non","type_carte":"Nouvelle carte","fond":"Ortho","obsolete":false}},{"type":"Feature","geometry":{"type":"Polygon","coordinates":[[[-0.4932,46.3178],[-0.486,46.3194],[-0.4851,46.318],[-0.4837,46.3173],[-0.4779,46.3163],[-0.4756,46.3159],[-0.4746,46.3151],[-0.4789,46.3122],[-0.4811,46.3134],[-0.4916,46.3158],[-0.493,46.3169],[-0.4932,46.3178]]]},"properties":{"id_ffco":"5528","nom":"LE CLOU BOUCHET","_dept":"79","numero":"2010-D79-19","commune":"Niort","echelle":"1/5000","surface":"0.51 km²","format":"A4","annee":"2010","cartographes":"BARRANGER","proprietaire":"7905 - ASSOCIATION NIORT AZIMUT COURSE D'ORIENTATION 79","niveau":"Départemental","specialite":"CO à pied","latitude":"46.3159283846","longitude":"-0.48408139169","date_saisie":"30/09/2012","date_depot":"15/11/2012","valide":"Oui","ppo":"Non","type_carte":"Nouvelle carte","fond":"Cadastre","obsolete":false}},{"type":"Feature","geometry":{"type":"Polygon","coordinates":[[[-0.6742,46.8277],[-0.6791,46.8265],[-0.679,46.8249],[-0.6755,46.8227],[-0.6741,46.8219],[-0.672,46.8207],[-0.6679,46.8209],[-0.6692,46.8235],[-0.6742,46.8277]]]},"properties":{"id_ffco":"15206","nom":"Parc du Puy Genest","_dept":"79","numero":"2025-D79-100","commune":"Cerizay","echelle":"1/4000","surface":"0.36 km²","format":"A4","annee":"2025","cartographes":"Nicolas TALON","proprietaire":"collège","niveau":"Initiation, Scolaire","specialite":"CO à pied","latitude":"46.8241142523","longitude":"-0.673595509801","date_saisie":"03/10/2025","valide":"Non","ppo":"Non","type_carte":"Nouvelle carte","fond":"IGN","obsolete":false}}]}