{"type":"FeatureCollection","features":[{"type":"Feature","geometry":null,"properties":{"id_ffco":"2865","nom":"DOMAINE DE L'ARCHE ET EPAU","_dept":"79","numero":"1995-D79-16","commune":"LE MANS","echelle":"1/15000","surface":"4.8 km²","annee":"1995","specialite":"CO à pied","latitude":"47.0750395","longitude":"-0.8621264","valide":"Non","ppo":"Non","obsolete":true}},{"type":"Feature","geometry":null,"properties":{"id_ffco":"2492","nom":"LA FOLIE","_dept":"79","numero":"1984-D79-12","commune":"La Mothe-Saint-Héray","echelle":"1/10000","surface":"2.2 km²","format":"A4","annee":"1984","cartographes":"BOUFFARTIGUE","proprietaire":"7901 - CSA CLUB RECREATIF ECOLE NATIONALE S/O D'ACTIVE","specialite":"CO à pied","latitude":"46.5926541","longitude":"-0.3962844","valide":"Non","ppo":"Non","obsolete":true}},{"type":"Feature","geometry":null,"properties":{"id_ffco":"2839","nom":"HERMITAIN","_dept":"79","numero":"1995-D79-11","commune":"MOTHE ST HERAY","surface":"0.0 km²","annee":"1995","proprietaire":"7901 - CSA CLUB RECREATIF ECOLE NATIONALE S/O D'ACTIVE","specialite":"CO à pied","latitude":"46.3611037","longitude":"-0.1109849","valide":"Non","ppo":"Non","obsolete":true}},{"type":"Feature","geometry":null,"properties":{"id_ffco":"2838","nom":"FONTMORTE","_dept":"79","numero":"1983-D79-10","commune":"MOTHE ST HERAY","echelle":"1/10000","surface":"0.0 km²","format":"A4","annee":"1983","cartographes":"BOUFFARTIGUE","proprietaire":"7901 - CSA CLUB RECREATIF ECOLE NATIONALE S/O D'ACTIVE","specialite":"CO à pied","latitude":"46.3611037","longitude":"-0.1109849","valide":"Non","ppo":"Non","obsolete":true}},{"type":"Feature","geometry":null,"properties":{"id_ffco":"2837","nom":"CHAMBRILLE","_dept":"79","numero":"1995-D79-09","commune":"La Mothe-Saint-Héray","echelle":"1/10000","surface":"0.0 km²","format":"A4","annee":"1995","cartographes":"BOUFFARTIGUE","proprietaire":"7901 - CSA CLUB RECREATIF ECOLE NATIONALE S/O D'ACTIVE","specialite":"CO à pied","latitude":"46.3201952","longitude":"-0.1597541","valide":"Non","ppo":"Non","obsolete":true}},{"type":"Feature","geometry":null,"properties":{"id_ffco":"2836","nom":"MONTBEIL","_dept":"79","numero":"1995-D79-08","commune":"MENIGOUTE","surface":"0.0 km²","annee":"1995","proprietaire":"7901 - CSA CLUB RECREATIF ECOLE NATIONALE S/O D'ACTIVE","specialite":"CO à pied","latitude":"46.4963302","longitude":"-0.0592239","valide":"Non","ppo":"Non","obsolete":true}},{"type":"Feature","geometry":null,"properties":{"id_ffco":"2835","nom":"AVON SUD","_dept":"79","numero":"1995-D79-07","commune":"ST MAIXENT","surface":"0.0 km²","annee":"1995","proprietaire":"7901 - CSA CLUB RECREATIF ECOLE NATIONALE S/O D'ACTIVE","specialite":"CO à pied","latitude":"46.3673721","longitude":"-0.1168708","valide":"Non","ppo":"Non","obsolete":true}},{"type":"Feature","geometry":null,"properties":{"id_ffco":"2834","nom":"PIE ST MORIN","_dept":"79","numero":"1995-D79-06","commune":"ST MAIXENT","surface":"0.0 km²","annee":"1995","proprietaire":"7901 - CSA CLUB RECREATIF ECOLE NATIONALE S/O D'ACTIVE","specialite":"CO à pied","latitude":"46.3673721","longitude":"-0.1168708","valide":"Non","ppo":"Non","obsolete":true}},{"type":"Feature","geometry":null,"properties":{"id_ffco":"2833","nom":"PANIER FLEURI","_dept":"79","numero":"1995-D79-04","commune":"ST MAIXENT","surface":"0.0 km²","annee":"1995","proprietaire":"7901 - CSA CLUB RECREATIF ECOLE NATIONALE S/O D'ACTIVE","specialite":"CO à pied","latitude":"46.3673721","longitude":"-0.1168708","valide":"Non","ppo":"Non","obsolete":true}},{"type":"Feature","geometry":null,"properties":{"id_ffco":"2832","nom":"BOIS ST PIERRE","_dept":"79","numero":"1995-D79-03","commune":"POITIERS","surface":"0.0 km²","annee":"1995","proprietaire":"7901 - CSA CLUB RECREATIF ECOLE NATIONALE S/O D'ACTIVE","specialite":"CO à pied","latitude":"46.147916","longitude":"-0.2146972","valide":"Non","ppo":"Non","obsolete":true}},{"type":"Feature","geometry":null,"properties":{"id_ffco":"2491","nom":"SECONDIGNY","_dept":"79","numero":"1992-D79-02","commune":"SECONDIGNY","echelle":"1/10000","surface":"2.0 km²","annee":"1992","proprietaire":"7901 - CSA CLUB RECREATIF ECOLE NATIONALE S/O D'ACTIVE","specialite":"CO à pied","latitude":"46.609595","longitude":"-0.4184925","valide":"Non","ppo":"Non","obsolete":true}},{"type":"Feature","geometry":null,"properties":{"id_ffco":"2490","nom":"FORET FOUILLOUX","_dept":"79","numero":"1992-D79-01","commune":"MOTHE ST HERAY","echelle":"1/7500","surface":"1.4 km²","annee":"1992","proprietaire":"7901 - CSA CLUB RECREATIF ECOLE NATIONALE S/O D'ACTIVE","specialite":"CO à pied","latitude":"46.3611037","longitude":"-0.1109849","valide":"Non","ppo":"Non","obsolete":true}},{"type":"Feature","geometry":null,"properties":{"id_ffco":"2489","nom":"FORET FOUILLOUX","_dept":"79","numero":"1992-D79-00","commune":"MOTHE ST HERAY","echelle":"1/25000","surface":"2.0 km²","annee":"1992","proprietaire":"7901 - CSA CLUB RECREATIF ECOLE NATIONALE S/O D'ACTIVE","specialite":"CO à pied","latitude":"46.3611037","longitude":"-0.1109849","valide":"Non","ppo":"Non","obsolete":true}},{"type":"Feature","geometry":null,"properties":{"id_ffco":"452","nom":"Le Puits d'Enfer","_dept":"79","numero":"????-D79-","commune":"Exireuil","surface":"None km²","latitude":"46.4329513","longitude":"-0.1918955","valide":"Non","ppo":"Oui","obsolete":true}},{"type":"Feature","geometry":null,"properties":{"id_ffco":"452","nom":"Base de loisirs et de plain air du Lambon","_dept":"79","numero":"????-D79-","commune":"Prailles","surface":"None km²","latitude":"46.3244754","longitude":"-0.2175324","valide":"Non","ppo":"Oui","obsolete":true}}]}