{"type":"FeatureCollection","features":[{"type":"Feature","geometry":{"type":"Polygon","coordinates":[[[2.5247,49.8648],[2.5242,49.866],[2.5249,49.8661],[2.5246,49.8667],[2.5266,49.8663],[2.527,49.8655],[2.5276,49.8653],[2.5273,49.865],[2.5268,49.865],[2.5258,49.8651],[2.5252,49.8649],[2.5247,49.8648]]]},"properties":{"id_ffco":"2019-D80-99","nom":"Collège Jacques Brel","_dept":"80","numero":"2019-D80-99","commune":"Villers Bretonneux","echelle":"1/1250","surface":"0.03 km²","format":"A4","annee":"2019","cartographes":"Bertrand PATURET","proprietaire":"60 - Oise","niveau":"Initiation, Scolaire","specialite":"CO à pied","latitude":"49.8656572509","longitude":"2.52568077336","date_saisie":"12/12/2020","valide":"Non","ppo":"Non","type_carte":"Nouvelle carte","fond":"Ortho","obsolete":false}},{"type":"Feature","geometry":{"type":"Polygon","coordinates":[[[2.3571,49.7474],[2.3534,49.7462],[2.3522,49.7463],[2.3517,49.7452],[2.3521,49.7445],[2.3512,49.7438],[2.3504,49.7431],[2.3497,49.7418],[2.3505,49.7412],[2.3525,49.7401],[2.3542,49.7423],[2.356,49.7446],[2.3578,49.7443],[2.3592,49.747],[2.3571,49.7474]]]},"properties":{"id_ffco":"2019-D80-98","nom":"Plan d'eau Ailly sur Noye","_dept":"80","numero":"2019-D80-98","commune":"Ailly sur Noye","echelle":"1/3000","surface":"0.24 km²","format":"A4","annee":"2019","cartographes":"Bertrand PATURET","proprietaire":"60 - Oise","niveau":"Initiation, Scolaire","specialite":"CO à pied","latitude":"49.7442009698","longitude":"2.35408792546","date_saisie":"12/12/2020","valide":"Non","ppo":"Non","type_carte":"Nouvelle carte","fond":"Ortho","obsolete":false}},{"type":"Feature","geometry":{"type":"Polygon","coordinates":[[[2.4925,49.7675],[2.4916,49.7671],[2.4924,49.7662],[2.4917,49.7659],[2.4919,49.7653],[2.4911,49.7651],[2.4899,49.7669],[2.4885,49.7679],[2.4889,49.7682],[2.4881,49.7688],[2.4886,49.7692],[2.4879,49.7703],[2.4883,49.7704],[2.4888,49.7705],[2.4898,49.7705],[2.4911,49.7692],[2.4925,49.7675]]]},"properties":{"id_ffco":"2019-D80-97","nom":"Parc de Moreuil","_dept":"80","numero":"2019-D80-97","commune":"Moreuil","echelle":"1/2000","surface":"0.1 km²","format":"A4","annee":"2019","cartographes":"Bertrand PATURET","proprietaire":"60 - Oise","niveau":"Initiation, Scolaire","specialite":"CO à pied","latitude":"49.7680686957","longitude":"2.49027779334","date_saisie":"12/12/2020","valide":"Non","ppo":"Non","type_carte":"Nouvelle carte","fond":"Ortho","obsolete":false}},{"type":"Feature","geometry":{"type":"Polygon","coordinates":[[[2.3258,49.9055],[2.3248,49.9042],[2.3245,49.904],[2.3238,49.9041],[2.3234,49.9039],[2.3232,49.9037],[2.323,49.9036],[2.3226,49.904],[2.3223,49.9048],[2.3221,49.9053],[2.3221,49.9056],[2.3241,49.9053],[2.3242,49.9059],[2.3256,49.9056],[2.3258,49.9055]]]},"properties":{"id_ffco":"2019-D80-96","nom":"Collège Jules Verne","_dept":"80","numero":"2019-D80-96","commune":"Rivery","echelle":"1/1500","surface":"0.04 km²","format":"A4","annee":"2019","cartographes":"Bertrand PATURET","proprietaire":"60 - Oise","niveau":"Initiation, Scolaire","specialite":"CO à pied","latitude":"49.9048423751","longitude":"2.32383775421","date_saisie":"12/12/2020","valide":"Non","ppo":"Non","type_carte":"Nouvelle carte","fond":"Ortho","obsolete":false}},{"type":"Feature","geometry":{"type":"Polygon","coordinates":[[[2.1973,49.924],[2.1957,49.9228],[2.1951,49.9227],[2.1948,49.9227],[2.1948,49.9229],[2.1932,49.9233],[2.1917,49.9238],[2.1923,49.9246],[2.1928,49.9244],[2.1934,49.9251],[2.1937,49.9251],[2.1975,49.9241],[2.1973,49.924]]]},"properties":{"id_ffco":"2019-D80-95","nom":"Collège du Val de Somme","_dept":"80","numero":"2019-D80-95","commune":"Ailly sur Somme","echelle":"1/1500","surface":"0.06 km²","format":"A4","annee":"2019","cartographes":"Bertrand PATURET","proprietaire":"60 - Oise","niveau":"Initiation, Scolaire","specialite":"CO à pied","latitude":"49.9239228071","longitude":"2.19455984927","date_saisie":"12/12/2020","valide":"Non","ppo":"Non","type_carte":"Nouvelle carte","fond":"Ortho","obsolete":false}},{"type":"Feature","geometry":null,"properties":{"id_ffco":"2019-D80-94","nom":"Lycée Saint Pierre collège Notre Dame","_dept":"80","numero":"2019-D80-94","commune":"Abbeville","echelle":"1/1000","surface":"None km²","format":"A4","annee":"2019","cartographes":"Bertrand PATURET","proprietaire":"60 - Oise","niveau":"Initiation, Scolaire","specialite":"CO à pied","date_saisie":"12/12/2020","valide":"Non","ppo":"Non","type_carte":"Nouvelle carte","fond":"Ortho","obsolete":false}},{"type":"Feature","geometry":{"type":"Polygon","coordinates":[[[2.3685,49.7564],[2.3691,49.7562],[2.3694,49.7564],[2.3711,49.7561],[2.3717,49.7578],[2.3718,49.7582],[2.3684,49.7581],[2.3675,49.7581],[2.3669,49.7579],[2.3678,49.7574],[2.3683,49.757],[2.3685,49.7564]]]},"properties":{"id_ffco":"2019-D80-93","nom":"Collège William Henri Claessen","_dept":"80","numero":"2019-D80-93","commune":"Ailly sur Noye","echelle":"1/1500","surface":"0.05 km²","format":"A4","annee":"2019","cartographes":"Bertrand PATURET","proprietaire":"60 - Oise","niveau":"Initiation, Scolaire","specialite":"CO à pied","latitude":"49.7572973569","longitude":"2.36966592642","date_saisie":"12/12/2020","valide":"Non","ppo":"Non","type_carte":"Nouvelle carte","fond":"Ortho","obsolete":false}},{"type":"Feature","geometry":{"type":"Polygon","coordinates":[[[1.9877,49.774],[1.9877,49.7736],[1.988,49.7731],[1.9875,49.7726],[1.9875,49.7718],[1.9902,49.772],[1.9907,49.7717],[1.9907,49.7712],[1.9894,49.7714],[1.9868,49.7713],[1.9852,49.7714],[1.9847,49.7714],[1.9843,49.7714],[1.9825,49.7721],[1.9815,49.7724],[1.9811,49.7729],[1.9813,49.7734],[1.9808,49.7738],[1.9827,49.7745],[1.9833,49.7742],[1.9847,49.7749],[1.9853,49.7747],[1.9866,49.7742],[1.9874,49.774],[1.9877,49.774]]]},"properties":{"id_ffco":"2019-D80-92","nom":"Collèges des Fontaines","_dept":"80","numero":"2019-D80-92","commune":"Poix de Picardie","echelle":"1/2500","surface":"0.16 km²","format":"A4","annee":"2019","cartographes":"Bertrand PATURET","proprietaire":"60 - Oise","niveau":"Initiation, Scolaire","specialite":"CO à pied","latitude":"49.7728990673","longitude":"1.98508365913","date_saisie":"12/12/2020","valide":"Non","ppo":"Non","type_carte":"Nouvelle carte","fond":"Ortho","obsolete":false}},{"type":"Feature","geometry":{"type":"Polygon","coordinates":[[[1.5872,50.0596],[1.587,50.0601],[1.5869,50.0604],[1.587,50.0612],[1.5882,50.0611],[1.5912,50.061],[1.59,50.0598],[1.5884,50.0597],[1.5872,50.0596],[1.5872,50.0596]]]},"properties":{"id_ffco":"2018-D80-91","nom":"Collège Gaston Vasseur","_dept":"80","numero":"2018-D80-91","commune":"Feuquières","echelle":"1/1250","surface":"0.04 km²","format":"A4","annee":"2018","cartographes":"Bertrand PATURET","proprietaire":"60 - Oise","niveau":"Initiation, Scolaire","specialite":"CO à pied","latitude":"50.0604304353","longitude":"1.5887355577","date_saisie":"12/12/2020","valide":"Non","ppo":"Non","type_carte":"Nouvelle carte","fond":"Ortho","obsolete":false}},{"type":"Feature","geometry":{"type":"Polygon","coordinates":[[[1.5521,50.0876],[1.5547,50.086],[1.555,50.0858],[1.555,50.0855],[1.5545,50.0849],[1.554,50.0843],[1.5539,50.0838],[1.554,50.0831],[1.5542,50.0829],[1.5544,50.0826],[1.5542,50.0824],[1.5536,50.0823],[1.5527,50.0824],[1.5523,50.0823],[1.5517,50.083],[1.5505,50.0839],[1.5497,50.0836],[1.549,50.084],[1.5481,50.085],[1.5485,50.0853],[1.5491,50.0855],[1.5499,50.086],[1.5511,50.0867],[1.5521,50.0876]]]},"properties":{"id_ffco":"2019-D80-90","nom":"Collège La Rose des Vents","_dept":"80","numero":"2019-D80-90","commune":"Friville","echelle":"1/2500","surface":"0.16 km²","format":"A4","annee":"2019","cartographes":"Bertrand PATURET","proprietaire":"60 - Oise","niveau":"Initiation, Scolaire","specialite":"CO à pied","latitude":"50.0848712128","longitude":"1.55198807384","date_saisie":"12/12/2020","valide":"Non","ppo":"Non","type_carte":"Nouvelle carte","fond":"Ortho","obsolete":false}},{"type":"Feature","geometry":{"type":"Polygon","coordinates":[[[1.3925,50.0695],[1.3923,50.069],[1.3923,50.0686],[1.3923,50.0681],[1.3929,50.068],[1.394,50.068],[1.3942,50.0687],[1.3942,50.0693],[1.3936,50.0697],[1.3925,50.0695]]]},"properties":{"id_ffco":"2018-D80-89","nom":"Collège Joliot Curie","_dept":"80","numero":"2018-D80-89","commune":"Mers les Bains","echelle":"1/1000","surface":"0.02 km²","format":"A4","annee":"2018","cartographes":"Bertrand PATURET","proprietaire":"60 - Oise","niveau":"Initiation, Scolaire","specialite":"CO à pied","latitude":"50.0688000647","longitude":"1.39324556026","date_saisie":"12/12/2020","valide":"Non","ppo":"Non","type_carte":"Nouvelle carte","fond":"Ortho","obsolete":false}},{"type":"Feature","geometry":{"type":"Polygon","coordinates":[[[1.9913,50.0119],[1.9911,50.011],[1.9904,50.0092],[1.9902,50.0087],[1.9937,50.008],[1.9943,50.0089],[1.9933,50.0101],[1.9918,50.0118],[1.9913,50.0119]]]},"properties":{"id_ffco":"2018-D80-88","nom":"City Stade Longpré les Corps Saints","_dept":"80","numero":"2018-D80-88","commune":"Longpré les Corps Saints","echelle":"1/1250","surface":"0.07 km²","format":"A4","annee":"2018","cartographes":"Bertrand PATURET","proprietaire":"60 - Oise","niveau":"Initiation, Scolaire","specialite":"CO à pied","latitude":"50.0096331232","longitude":"1.99216866784","date_saisie":"12/12/2020","valide":"Non","ppo":"Non","type_carte":"Nouvelle carte","fond":"Ortho","obsolete":false}},{"type":"Feature","geometry":{"type":"Polygon","coordinates":[[[1.9924,50.0123],[1.9931,50.0126],[1.9938,50.0129],[1.9943,50.0132],[1.9944,50.0132],[1.9943,50.0136],[1.9941,50.014],[1.9936,50.0139],[1.9934,50.0138],[1.9931,50.0136],[1.9927,50.0133],[1.9925,50.013],[1.9923,50.0128],[1.9919,50.0125],[1.9924,50.0123]]]},"properties":{"id_ffco":"2018-D80-87","nom":"Collège Les Cygnes","_dept":"80","numero":"2018-D80-87","commune":"Longpré les Corps Saints","echelle":"1/1000","surface":"0.02 km²","format":"A4","annee":"2018","cartographes":"Bertrand PATURET","proprietaire":"60 - Oise","latitude":"50.0131602243","longitude":"1.99330432593","date_saisie":"12/12/2020","valide":"Non","ppo":"Non","type_carte":"Nouvelle carte","fond":"Ortho","obsolete":false}},{"type":"Feature","geometry":{"type":"Polygon","coordinates":[[[1.8854,50.2538],[1.8868,50.2537],[1.8879,50.2537],[1.891,50.2537],[1.8911,50.2541],[1.8904,50.2542],[1.8905,50.2549],[1.8867,50.255],[1.886,50.255],[1.8858,50.2546],[1.8851,50.2545],[1.8852,50.2539],[1.8854,50.2538]]]},"properties":{"id_ffco":"2018-D80-86","nom":"Collège","_dept":"80","numero":"2018-D80-86","commune":"Crécy en Ponthieu","echelle":"1/1500","surface":"0.05 km²","format":"A4","annee":"2018","cartographes":"Bertrand PATURET","proprietaire":"60 - Oise","niveau":"Initiation, Scolaire","specialite":"CO à pied","latitude":"50.2543133086","longitude":"1.88801120279","date_saisie":"12/12/2020","valide":"Non","ppo":"Non","type_carte":"Nouvelle carte","fond":"Ortho","obsolete":false}},{"type":"Feature","geometry":{"type":"Polygon","coordinates":[[[1.995,50.0793],[1.996,50.0799],[1.9955,50.0803],[1.9978,50.0817],[1.9983,50.0811],[1.9986,50.081],[1.9991,50.0804],[1.9972,50.0792],[1.9967,50.0796],[1.996,50.0793],[1.9957,50.0795],[1.9952,50.0792],[1.995,50.0793]]]},"properties":{"id_ffco":"2018-D80-85","nom":"Collège Alain Jacques","_dept":"80","numero":"2018-D80-85","commune":"Ailly le Haut Clocher","echelle":"1/1250","surface":"0.04 km²","format":"A4","annee":"2018","cartographes":"Bertrand PATURET","proprietaire":"60 - Oise","niveau":"Initiation, Scolaire","specialite":"CO à pied","latitude":"50.0803162069","longitude":"1.99721583586","date_saisie":"11/12/2020","valide":"Non","ppo":"Non","type_carte":"Nouvelle carte","fond":"Ortho","obsolete":false}},{"type":"Feature","geometry":{"type":"Polygon","coordinates":[[[2.5077,49.9133],[2.5088,49.9136],[2.5109,49.9134],[2.5122,49.9133],[2.5146,49.9133],[2.5154,49.9133],[2.5147,49.9107],[2.5139,49.9105],[2.5123,49.9102],[2.5101,49.9102],[2.5099,49.9112],[2.5076,49.9112],[2.5077,49.9118],[2.5073,49.913],[2.5077,49.9133]]]},"properties":{"id_ffco":"2018-D80-84","nom":"Collège Eugène Lefevre","_dept":"80","numero":"2018-D80-84","commune":"Corbie","echelle":"1/2500","surface":"0.17 km²","format":"A4","annee":"2018","cartographes":"Bertrand PATURET","proprietaire":"60 - Oise","niveau":"Initiation, Scolaire","specialite":"CO à pied","latitude":"49.9119966117","longitude":"2.51144716291","date_saisie":"12/12/2020","valide":"Non","ppo":"Non","type_carte":"Nouvelle carte","fond":"Ortho","obsolete":false}},{"type":"Feature","geometry":{"type":"Polygon","coordinates":[[[2.1459,49.7351],[2.1457,49.7356],[2.1461,49.7359],[2.1474,49.7362],[2.1476,49.736],[2.148,49.736],[2.1498,49.7363],[2.1497,49.7347],[2.148,49.7346],[2.1475,49.7344],[2.146,49.7343],[2.1459,49.7351]]]},"properties":{"id_ffco":"2018-D80-83","nom":"Collège Jules Ferry","_dept":"80","numero":"2018-D80-83","commune":"CONTY","echelle":"1/1250","surface":"0.05 km²","format":"A4","annee":"2018","cartographes":"Bertrand PATURET","proprietaire":"60 - Oise","niveau":"Initiation, Scolaire","specialite":"CO à pied","latitude":"49.7352998495","longitude":"2.14777482138","date_saisie":"11/12/2020","valide":"Non","ppo":"Non","type_carte":"Nouvelle carte","fond":"Ortho","obsolete":false}},{"type":"Feature","geometry":{"type":"Polygon","coordinates":[[[1.677,50.2674],[1.6765,50.2673],[1.6756,50.2672],[1.6736,50.2669],[1.6724,50.2668],[1.6718,50.2696],[1.6728,50.2702],[1.6737,50.2706],[1.675,50.2711],[1.6764,50.2685],[1.6767,50.2679],[1.677,50.2675],[1.677,50.2674]]]},"properties":{"id_ffco":"2018-D80-82","nom":"Collège du Marquenterre","_dept":"80","numero":"2018-D80-82","commune":"Rue","echelle":"1/2000","surface":"0.11 km²","format":"A4","annee":"2018","cartographes":"Bertrand PATURET","proprietaire":"60 - Oise","niveau":"Initiation, Scolaire","specialite":"CO à pied","latitude":"50.2687082098","longitude":"1.67421714139","date_saisie":"12/12/2020","valide":"Non","ppo":"Non","type_carte":"Nouvelle carte","fond":"Ortho","obsolete":false}},{"type":"Feature","geometry":{"type":"Polygon","coordinates":[[[1.947,50.1342],[1.9506,50.1349],[1.951,50.135],[1.9512,50.1334],[1.9509,50.1331],[1.9491,50.1332],[1.948,50.1329],[1.9475,50.1334],[1.9474,50.1336],[1.947,50.1342]]]},"properties":{"id_ffco":"2018-D80-81","nom":"Abbaye de Saint Riquier","_dept":"80","numero":"2018-D80-81","commune":"Saint Riquier","echelle":"1/1250","surface":"0.05 km²","format":"A4","annee":"2018","cartographes":"Bertrand PATURET","proprietaire":"60 - Oise","niveau":"Initiation, Scolaire","specialite":"CO à pied","latitude":"50.1339014614","longitude":"1.94932410904","date_saisie":"11/12/2020","valide":"Non","ppo":"Non","type_carte":"Nouvelle carte","fond":"Ortho","obsolete":false}},{"type":"Feature","geometry":{"type":"Polygon","coordinates":[[[2.7788,49.7054],[2.7779,49.704],[2.7774,49.7043],[2.7769,49.7047],[2.7766,49.7054],[2.7765,49.7058],[2.7766,49.7065],[2.7766,49.7067],[2.7769,49.7069],[2.7772,49.7068],[2.7788,49.7054]]]},"properties":{"id_ffco":"2018-D80-80","nom":"Collège Louise Michel","_dept":"80","numero":"2018-D80-80","commune":"Roye","echelle":"1/1200","surface":"0.03 km²","format":"A4","annee":"2018","cartographes":"Bertrand PATURET","proprietaire":"60 - Oise","niveau":"Initiation, Scolaire","specialite":"CO à pied","latitude":"49.7054461868","longitude":"2.77749465562","date_saisie":"12/12/2020","valide":"Non","ppo":"Non","type_carte":"Nouvelle carte","fond":"Ortho","obsolete":false}},{"type":"Feature","geometry":{"type":"Polygon","coordinates":[[[2.7194,49.9443],[2.7211,49.9454],[2.7213,49.9455],[2.7235,49.9433],[2.7236,49.9431],[2.7239,49.9422],[2.7227,49.9423],[2.722,49.9422],[2.7215,49.9421],[2.7209,49.9431],[2.7194,49.9443]]]},"properties":{"id_ffco":"2018-D80-79","nom":"Collège Saint Exupéry","_dept":"80","numero":"2018-D80-79","commune":"Bray sur Somme","echelle":"1/1500","surface":"0.06 km²","format":"A4","annee":"2018","cartographes":"Bertrand PATURET","proprietaire":"60 - Oise","niveau":"Initiation, Scolaire","specialite":"CO à pied","latitude":"49.943662784","longitude":"2.72171630779","date_saisie":"12/12/2020","valide":"Non","ppo":"Non","type_carte":"Nouvelle carte","fond":"Ortho","obsolete":false}},{"type":"Feature","geometry":{"type":"Polygon","coordinates":[[[2.5249,50.0704],[2.5262,50.0708],[2.5266,50.07],[2.5276,50.0701],[2.5273,50.0697],[2.5253,50.0692],[2.5249,50.0704]]]},"properties":{"id_ffco":"2018-D80-78","nom":"Collège Edmée Jarlaud","_dept":"80","numero":"2018-D80-78","commune":"Acheux en Amiénois","echelle":"1/1000","surface":"0.02 km²","format":"A4","annee":"2018","cartographes":"Bertrand PATURET","proprietaire":"60 - Oise","niveau":"Initiation, Scolaire","specialite":"CO à pied","latitude":"50.0699560707","longitude":"2.52598293246","date_saisie":"11/12/2020","valide":"Non","ppo":"Non","type_carte":"Nouvelle carte","fond":"Ortho","obsolete":false}},{"type":"Feature","geometry":{"type":"Polygon","coordinates":[[[2.8005,49.8106],[2.8028,49.8101],[2.8023,49.8092],[2.8018,49.8084],[2.8005,49.809],[2.8002,49.8084],[2.7995,49.809],[2.8002,49.8101],[2.8005,49.8106]]]},"properties":{"id_ffco":"2018-D80-77","nom":"Collège Aristide Briant","_dept":"80","numero":"2018-D80-77","commune":"Chaulnes","echelle":"1/1000","surface":"0.03 km²","format":"A4","annee":"2018","cartographes":"Bertrand PATURET","proprietaire":"60 - Oise","niveau":"Initiation, Scolaire","specialite":"CO à pied","latitude":"49.8095246194","longitude":"2.80113290839","date_saisie":"12/12/2020","valide":"Non","ppo":"Non","type_carte":"Nouvelle carte","fond":"Ortho","obsolete":false}},{"type":"Feature","geometry":{"type":"Polygon","coordinates":[[[3.1043,49.9526],[3.1023,49.9539],[3.101,49.9525],[3.1034,49.951],[3.1043,49.9526]]]},"properties":{"id_ffco":"2018-D80-76","nom":"Collège Gaston Boucourt","_dept":"80","numero":"2018-D80-76","commune":"Roisel","echelle":"1/1500","surface":"0.04 km²","format":"A4","annee":"2018","cartographes":"Bertrand PATURET","proprietaire":"60 - Oise","niveau":"Initiation, Scolaire","specialite":"CO à pied","latitude":"49.9524657148","longitude":"3.10274088597","date_saisie":"12/12/2020","valide":"Non","ppo":"Non","type_carte":"Nouvelle carte","fond":"Ortho","obsolete":false}},{"type":"Feature","geometry":{"type":"Polygon","coordinates":[[[2.914,49.7603],[2.913,49.7592],[2.912,49.7597],[2.9122,49.7599],[2.9101,49.7607],[2.911,49.7615],[2.9127,49.7608],[2.914,49.7603]]]},"properties":{"id_ffco":"2018-D80-75","nom":"Collège Louis Pasteur","_dept":"80","numero":"2018-D80-75","commune":"Nesle","echelle":"1/1250","surface":"0.03 km²","format":"A4","annee":"2018","cartographes":"Bertrand PATURET","proprietaire":"60 - Oise","niveau":"Initiation, Scolaire","specialite":"CO à pied","latitude":"49.7604333771","longitude":"2.91212275613","date_saisie":"12/12/2020","valide":"Non","ppo":"Non","type_carte":"Nouvelle carte","fond":"Ortho","obsolete":false}},{"type":"Feature","geometry":{"type":"Polygon","coordinates":[[[2.9258,49.9305],[2.9246,49.9311],[2.9246,49.9313],[2.9251,49.9317],[2.9252,49.9322],[2.9246,49.9329],[2.9262,49.9337],[2.9265,49.9335],[2.9269,49.9336],[2.9287,49.9326],[2.9282,49.9323],[2.9294,49.9318],[2.929,49.9315],[2.9284,49.9318],[2.9278,49.9313],[2.9271,49.9316],[2.9261,49.9309],[2.9258,49.9305]]]},"properties":{"id_ffco":"2018-D80-74","nom":"Collège Béranger","_dept":"80","numero":"2018-D80-74","commune":"Peronne","echelle":"1/1500","surface":"0.06 km²","format":"A4","annee":"2018","cartographes":"Bertrand PATURET","proprietaire":"60 - Oise","niveau":"Initiation, Scolaire","specialite":"CO à pied","latitude":"49.932210806","longitude":"2.92656269864","date_saisie":"13/12/2020","valide":"Non","ppo":"Non","type_carte":"Nouvelle carte","fond":"Ortho","obsolete":false}},{"type":"Feature","geometry":{"type":"Polygon","coordinates":[[[2.257,49.918],[2.2568,49.9176],[2.2571,49.9172],[2.2577,49.9165],[2.2578,49.916],[2.2582,49.916],[2.2587,49.9159],[2.2581,49.9147],[2.2581,49.9146],[2.2588,49.9143],[2.2599,49.9138],[2.2609,49.9139],[2.261,49.9142],[2.2608,49.9148],[2.2615,49.9157],[2.2607,49.9157],[2.2598,49.9162],[2.2592,49.9167],[2.2585,49.9172],[2.257,49.918]]]},"properties":{"id_ffco":"2015-D80-72","nom":"Parc de Montieres","_dept":"80","numero":"2015-D80-72","commune":"Amiens Etouvie","echelle":"1/2000","surface":"0.06 km²","format":"A4","annee":"2015","cartographes":"Bertrand PATURET","proprietaire":"60 - Oise","niveau":"Initiation, Scolaire","specialite":"CO à pied","latitude":"49.9156029258","longitude":"2.25919826812","date_saisie":"13/12/2020","valide":"Non","ppo":"Non","type_carte":"Nouvelle carte","fond":"Ortho","obsolete":false}},{"type":"Feature","geometry":{"type":"Polygon","coordinates":[[[2.6486,50.0001],[2.6438,50.0024],[2.6404,50.0035],[2.6437,50.0058],[2.6469,50.0077],[2.6484,50.0083],[2.6504,50.0098],[2.6544,50.008],[2.6558,50.0064],[2.6565,50.0053],[2.6572,50.0043],[2.652,50.003],[2.6503,50.0025],[2.6497,50.0018],[2.6505,50.0024],[2.6486,50.0001]]]},"properties":{"id_ffco":"2014-D80-71","nom":"Ville Albert","_dept":"80","numero":"2014-D80-71","commune":"Albert","echelle":"1/4000","surface":"0.62 km²","format":"A4","annee":"2014","cartographes":"Bertrand PATURET","proprietaire":"60 - Oise","niveau":"Initiation, Scolaire","specialite":"CO à pied","latitude":"50.0050072618","longitude":"2.64918611841","date_saisie":"13/12/2020","valide":"Non","ppo":"Non","type_carte":"Nouvelle carte","fond":"Ortho","obsolete":false}},{"type":"Feature","geometry":{"type":"Polygon","coordinates":[[[2.6456,50.0019],[2.6458,50.0021],[2.6455,50.0023],[2.6459,50.0027],[2.6456,50.0029],[2.6461,50.003],[2.647,50.0025],[2.6472,50.0028],[2.6474,50.0027],[2.6471,50.0024],[2.6477,50.0021],[2.6479,50.0018],[2.6481,50.0014],[2.6481,50.0013],[2.6477,50.0011],[2.6474,50.001],[2.6468,50.0014],[2.6456,50.0019]]]},"properties":{"id_ffco":"2014-D80-70","nom":"Jardin Public Albert","_dept":"80","numero":"2014-D80-70","commune":"Albert","echelle":"1/1000","surface":"0.02 km²","format":"A4","annee":"2014","cartographes":"Bertrand PATURET","proprietaire":"60 - Oise","niveau":"Initiation, Scolaire","specialite":"CO à pied","latitude":"50.0019828749","longitude":"2.64678188995","date_saisie":"13/12/2020","valide":"Non","ppo":"Non","type_carte":"Nouvelle carte","fond":"Ortho","obsolete":false}},{"type":"Feature","geometry":{"type":"Polygon","coordinates":[[[2.6458,49.9968],[2.647,49.9979],[2.6484,49.9974],[2.6477,49.9965],[2.6474,49.9964],[2.6469,49.9961],[2.6459,49.9953],[2.6453,49.9947],[2.645,49.996],[2.6451,49.9964],[2.6458,49.9968]]]},"properties":{"id_ffco":"2014-D80-69","nom":"Stade Potez Albert","_dept":"80","numero":"2014-D80-69","commune":"Albert","echelle":"1/1500","surface":"0.04 km²","format":"A4","annee":"2014","cartographes":"Bertrand PATURET","proprietaire":"60 - Oise","niveau":"Initiation, Scolaire","specialite":"CO à pied","latitude":"49.9965099091","longitude":"2.64650116025","date_saisie":"13/12/2020","valide":"Non","ppo":"Non","type_carte":"Nouvelle carte","fond":"Ortho","obsolete":false}},{"type":"Feature","geometry":{"type":"Polygon","coordinates":[[[2.4727,49.7808],[2.4749,49.7782],[2.475,49.7781],[2.4772,49.7788],[2.477,49.7791],[2.4784,49.7797],[2.4778,49.7815],[2.4727,49.7808]]]},"properties":{"id_ffco":"2013-D80-68","nom":"Collège Jean Moulin","_dept":"80","numero":"2013-D80-68","commune":"Moreuil","echelle":"1/2000","surface":"0.09 km²","format":"A4","annee":"2013","cartographes":"Bertrand PATURET","proprietaire":"60 - Oise","niveau":"Initiation, Scolaire","specialite":"CO à pied","latitude":"49.7799921852","longitude":"2.47580220891","date_saisie":"13/12/2020","valide":"Non","ppo":"Non","type_carte":"Nouvelle carte","fond":"Ortho","obsolete":false}},{"type":"Feature","geometry":{"type":"Polygon","coordinates":[[[2.2575,49.9186],[2.2609,49.9219],[2.2674,49.9204],[2.2658,49.9162],[2.2607,49.9175],[2.2575,49.9186]]]},"properties":{"id_ffco":"2013-D80-67","nom":"Amiens Le Grand Marais","_dept":"80","numero":"2013-D80-67","commune":"Amiens","echelle":"1/3000","surface":"0.27 km²","format":"A4","annee":"2013","cartographes":"Bertrand PATURET","proprietaire":"Amiens Metropole BP 2720 80027 Amiens cedex","niveau":"Initiation, Scolaire","specialite":"CO à pied","latitude":"49.9191008822","longitude":"2.26288661311","date_saisie":"25/03/2015","valide":"Non","ppo":"Oui","type_carte":"Nouvelle carte","fond":"Ortho","obsolete":false}},{"type":"Feature","geometry":{"type":"Polygon","coordinates":[[[2.1721,49.949],[2.1731,49.9487],[2.1741,49.9487],[2.1747,49.9491],[2.1753,49.9493],[2.1807,49.9483],[2.1805,49.9478],[2.181,49.9472],[2.1819,49.9468],[2.182,49.9464],[2.182,49.946],[2.1848,49.9454],[2.1838,49.9445],[2.1827,49.9437],[2.1818,49.9435],[2.1808,49.9435],[2.1799,49.944],[2.1782,49.9458],[2.175,49.9465],[2.1723,49.9474],[2.1708,49.9485],[2.1696,49.9489],[2.1706,49.9495],[2.1721,49.949]]]},"properties":{"id_ffco":"2012-D80-66","nom":"Parc Samara","_dept":"80","numero":"2012-D80-66","commune":"La Chaussée Tirancourt","echelle":"1/4000","surface":"0.28 km²","format":"A4","annee":"2012","cartographes":"Bertrand PATURET","proprietaire":"60 - Oise","niveau":"Départemental","specialite":"CO à pied","latitude":"49.9467968323","longitude":"2.17795362824","date_saisie":"13/12/2020","valide":"Non","ppo":"Oui (40 postes)","type_carte":"Nouvelle carte","fond":"Ortho","obsolete":false}},{"type":"Feature","geometry":{"type":"Polygon","coordinates":[[[2.5598,49.6384],[2.5579,49.6359],[2.5573,49.6337],[2.557,49.6309],[2.5574,49.6278],[2.5564,49.6276],[2.5555,49.6284],[2.554,49.6289],[2.5525,49.6284],[2.5519,49.6289],[2.5525,49.6342],[2.5542,49.6374],[2.5563,49.6388],[2.5598,49.6384]]]},"properties":{"id_ffco":"2013-D80-64","nom":"Les Trois Doms","_dept":"80","numero":"2013-D80-64","commune":"Montdidier","echelle":"1/4000","surface":"0.4 km²","format":"A4","annee":"2013","cartographes":"Bertrand PATURET","proprietaire":"60 - Oise","niveau":"Régional","specialite":"CO à pied","latitude":"49.6333414023","longitude":"2.55532069581","date_saisie":"13/12/2020","valide":"Non","ppo":"Non","type_carte":"Nouvelle carte","fond":"Ortho","obsolete":false}},{"type":"Feature","geometry":{"type":"Polygon","coordinates":[[[2.1367,49.7322],[2.1374,49.7334],[2.1368,49.7354],[2.1369,49.7371],[2.1375,49.739],[2.144,49.7404],[2.1472,49.7409],[2.1494,49.741],[2.1504,49.7409],[2.1507,49.7403],[2.1508,49.7385],[2.1509,49.737],[2.1514,49.7348],[2.151,49.7324],[2.1479,49.7324],[2.1474,49.7343],[2.1461,49.7342],[2.146,49.735],[2.1433,49.7339],[2.1421,49.7331],[2.1423,49.7322],[2.1418,49.7314],[2.1391,49.7315],[2.1367,49.7322]]]},"properties":{"id_ffco":"2020-D80-109","nom":"Bois de Conty","_dept":"80","numero":"2020-D80-109","commune":"CONTY","echelle":"1/5000","surface":"0.83 km²","format":"A4","annee":"2020","cartographes":"Franz MAREIGNER","proprietaire":"60 - Oise","niveau":"Départemental","specialite":"CO à pied","latitude":"49.7364143401","longitude":"2.14409005029","date_saisie":"11/12/2020","valide":"Non","ppo":"Non","type_carte":"Nouvelle carte","fond":"Ortho","obsolete":false}},{"type":"Feature","geometry":{"type":"Polygon","coordinates":[[[1.8355,50.1119],[1.8359,50.1125],[1.831,50.1143],[1.8318,50.1151],[1.8379,50.1165],[1.839,50.1167],[1.8389,50.1173],[1.8426,50.1184],[1.8442,50.1186],[1.8477,50.1183],[1.8493,50.1186],[1.8503,50.118],[1.8504,50.1173],[1.8498,50.1167],[1.8489,50.1169],[1.8449,50.1164],[1.844,50.1162],[1.8442,50.1156],[1.8447,50.1155],[1.8449,50.1149],[1.8436,50.1134],[1.8409,50.1117],[1.84,50.1122],[1.8366,50.1124],[1.8361,50.1116],[1.8355,50.1119]]]},"properties":{"id_ffco":"2020-D80-108","nom":"Abbeville Parc de la Bouvaque","_dept":"80","numero":"2020-D80-108","commune":"Abbeville","echelle":"1/5000","surface":"0.5 km²","format":"A4","annee":"2020","cartographes":"Bertrand PATURET","proprietaire":"60 - Oise","niveau":"Initiation, Scolaire","specialite":"CO à pied","contacts":"Ville Abbeville","latitude":"50.1153112847","longitude":"1.8404968845","date_saisie":"02/12/2020","valide":"Non","ppo":"Non","type_carte":"Nouvelle carte","fond":"Ortho","obsolete":false}},{"type":"Feature","geometry":{"type":"Polygon","coordinates":[[[2.9293,49.9317],[2.9266,49.9291],[2.9246,49.9281],[2.9261,49.9266],[2.9255,49.926],[2.9248,49.9257],[2.9253,49.925],[2.9265,49.925],[2.9273,49.9253],[2.9288,49.9248],[2.9291,49.9258],[2.9298,49.9257],[2.9303,49.9267],[2.93,49.9268],[2.9308,49.9281],[2.9315,49.9285],[2.932,49.9288],[2.9326,49.9293],[2.9321,49.9303],[2.932,49.9307],[2.9298,49.9302],[2.9297,49.9305],[2.93,49.9312],[2.9293,49.9317]]]},"properties":{"id_ffco":"2019-D80-107","nom":"Parc Familial du CAM","_dept":"80","numero":"2019-D80-107","commune":"Péronne","echelle":"1/2500","surface":"0.23 km²","format":"A4","annee":"2019","cartographes":"Bertrand PATURET","proprietaire":"60 - Oise","niveau":"Initiation, Scolaire","specialite":"CO à pied","latitude":"49.9280305706","longitude":"2.92845744785","date_saisie":"11/12/2020","valide":"Non","ppo":"Non","type_carte":"Nouvelle carte","fond":"Ortho","obsolete":false}},{"type":"Feature","geometry":{"type":"Polygon","coordinates":[[[2.6982,49.8163],[2.6977,49.8155],[2.6973,49.8157],[2.6971,49.8154],[2.6976,49.8152],[2.6971,49.8149],[2.699,49.8147],[2.6997,49.8163],[2.6982,49.8163]]]},"properties":{"id_ffco":"2019-D80-106","nom":"Collège Jules Verne","_dept":"80","numero":"2019-D80-106","commune":"Rosières en Santerre","echelle":"1/1000","surface":"0.02 km²","format":"A4","annee":"2019","cartographes":"Bertrand PATURET","proprietaire":"60 - Oise","niveau":"Initiation, Scolaire","specialite":"CO à pied","latitude":"49.815491642","longitude":"2.69846392277","date_saisie":"11/12/2020","valide":"Non","ppo":"Non","type_carte":"Nouvelle carte","fond":"Ortho","obsolete":false}},{"type":"Feature","geometry":{"type":"Polygon","coordinates":[[[1.6407,50.1796],[1.6422,50.1797],[1.6431,50.1795],[1.6437,50.1793],[1.6437,50.1798],[1.6436,50.1807],[1.6436,50.1814],[1.6429,50.1825],[1.6426,50.1835],[1.6426,50.1841],[1.6426,50.1847],[1.6423,50.1849],[1.6418,50.1848],[1.6419,50.1844],[1.6415,50.1845],[1.6413,50.1852],[1.641,50.1853],[1.6405,50.1854],[1.6398,50.1853],[1.6394,50.1853],[1.6392,50.1852],[1.6379,50.1848],[1.6367,50.1844],[1.636,50.1841],[1.6358,50.184],[1.6357,50.1833],[1.6359,50.1832],[1.6359,50.1826],[1.6367,50.1813],[1.6369,50.181],[1.6374,50.1804],[1.6386,50.1802],[1.6407,50.1796]]]},"properties":{"id_ffco":"2019-D80-105","nom":"Collège Saint Valéry sur Somme","_dept":"80","numero":"2019-D80-105","commune":"Saint Valéry sur Somme","echelle":"1/3000","surface":"0.27 km²","format":"A4","annee":"2019","cartographes":"Bertrand PATURET","proprietaire":"60 - Oise","niveau":"Initiation, Scolaire","specialite":"CO à pied","latitude":"50.1823751934","longitude":"1.63988862197","date_saisie":"11/12/2020","valide":"Non","ppo":"Non","type_carte":"Nouvelle carte","fond":"Ortho","obsolete":false}},{"type":"Feature","geometry":{"type":"Polygon","coordinates":[[[1.5529,49.9892],[1.5494,49.9883],[1.5474,49.9894],[1.5456,49.9898],[1.5456,49.9905],[1.5459,49.9909],[1.5467,49.9914],[1.5472,49.9917],[1.5488,49.9909],[1.5483,49.9906],[1.5491,49.9902],[1.5509,49.9908],[1.5524,49.9898],[1.5529,49.9892]]]},"properties":{"id_ffco":"2019-D80-104","nom":"Collège Gamache","_dept":"80","numero":"2019-D80-104","commune":"Gamache","echelle":"1/2000","surface":"0.1 km²","format":"A4","annee":"2019","cartographes":"Bertrand PATURET","proprietaire":"60 - Oise","niveau":"Initiation, Scolaire","specialite":"CO à pied","latitude":"49.9898824843","longitude":"1.54899926128","date_saisie":"11/12/2020","valide":"Non","ppo":"Non","type_carte":"Nouvelle carte","fond":"Ortho","obsolete":false}},{"type":"Feature","geometry":{"type":"Polygon","coordinates":[[[2.3046,49.9018],[2.3047,49.9014],[2.3059,49.9011],[2.3064,49.9017],[2.3068,49.9016],[2.3067,49.9014],[2.307,49.9014],[2.3067,49.901],[2.308,49.9006],[2.3081,49.9008],[2.3083,49.9009],[2.311,49.9002],[2.3117,49.9003],[2.3119,49.9001],[2.3117,49.8999],[2.312,49.8987],[2.312,49.8985],[2.3096,49.8953],[2.3073,49.8958],[2.307,49.8961],[2.3065,49.8983],[2.304,49.9007],[2.3036,49.9012],[2.3027,49.9015],[2.3028,49.9018],[2.3037,49.9018],[2.3046,49.9018]]]},"properties":{"id_ffco":"2019-D80-103","nom":"Parc Saint Pierre 2","_dept":"80","numero":"2019-D80-103","commune":"Amiens","echelle":"1/3500","surface":"0.23 km²","format":"A4","annee":"2019","cartographes":"Bertrand PATURET","proprietaire":"60 - Oise","latitude":"49.8987955361","longitude":"2.30818563155","date_saisie":"11/12/2020","valide":"Non","ppo":"Non","type_carte":"Reprise","base":"1998-D80-006 PARC ST PIERRE","fond":"Ortho","obsolete":false}},{"type":"Feature","geometry":{"type":"Polygon","coordinates":[[[2.3344,50.1568],[2.3367,50.1565],[2.3361,50.155],[2.3366,50.1545],[2.3343,50.1545],[2.334,50.1545],[2.3339,50.1547],[2.3322,50.1557],[2.3319,50.1567],[2.332,50.1572],[2.3344,50.1568]]]},"properties":{"id_ffco":"2019-D80-102","nom":"collège Jean Rostand","_dept":"80","numero":"2019-D80-102","commune":"DOULLENS","echelle":"1/1500","surface":"0.07 km²","format":"A4","annee":"2019","cartographes":"Bertrand PATURET","proprietaire":"60 - Oise","niveau":"Initiation, Scolaire","specialite":"CO à pied","latitude":"50.1558000763","longitude":"2.33432573902","date_saisie":"11/12/2020","valide":"Non","ppo":"Non","type_carte":"Nouvelle carte","fond":"Ortho","obsolete":false}},{"type":"Feature","geometry":{"type":"Polygon","coordinates":[[[2.1554,50.13],[2.1578,50.1304],[2.1583,50.1304],[2.1584,50.1291],[2.1566,50.129],[2.1558,50.1293],[2.1554,50.1294],[2.1554,50.13]]]},"properties":{"id_ffco":"2019-D80-101","nom":"Collège du Bois l'Eau","_dept":"80","numero":"2019-D80-101","commune":"Bernaville","echelle":"1/1250","surface":"0.03 km²","format":"A4","annee":"2019","cartographes":"Bertrand PATURET","proprietaire":"60 - Oise","niveau":"Initiation, Scolaire","specialite":"CO à pied","latitude":"50.1296699158","longitude":"2.15706168734","date_saisie":"12/12/2020","valide":"Non","ppo":"Non","type_carte":"Nouvelle carte","fond":"Ortho","obsolete":false}},{"type":"Feature","geometry":{"type":"Polygon","coordinates":[[[2.581,49.6533],[2.5808,49.6537],[2.5799,49.6536],[2.5787,49.6558],[2.5748,49.6538],[2.5749,49.6521],[2.581,49.6533]]]},"properties":{"id_ffco":"2019-D80-100","nom":"Collège Antoine Augustin Parmentier","_dept":"80","numero":"2019-D80-100","commune":"Montdidier","echelle":"1/2000","surface":"0.09 km²","format":"A4","annee":"2019","cartographes":"Bertrand PATURET","proprietaire":"60 - Oise","niveau":"Initiation, Scolaire","specialite":"CO à pied","latitude":"49.6537349675","longitude":"2.57749655937","date_saisie":"12/12/2020","valide":"Non","ppo":"Non","type_carte":"Nouvelle carte","fond":"Ortho","obsolete":false}},{"type":"Feature","geometry":null,"properties":{"id_ffco":"1992-D80-05","nom":"MARE HANNETIN","_dept":"80","numero":"1992-D80-05","commune":"AMIENS","echelle":"1/10000","surface":"2.5 km²","annee":"1992","proprietaire":"PI - Picardie","specialite":"CO à pied","latitude":"49.8939183","longitude":"2.2942436","valide":"Non","ppo":"Non","obsolete":false}},{"type":"Feature","geometry":null,"properties":{"id_ffco":"1984-D80-03","nom":"BOIS D'EN HAUT","_dept":"80","numero":"1984-D80-03","commune":"QUEVAUVILLIERS","echelle":"1/15000","surface":"6.0 km²","annee":"1984","proprietaire":"PI - Picardie","niveau":"Interrégional","specialite":"CO à pied","latitude":"49.8232976","longitude":"2.0872816","valide":"Non","ppo":"Non","obsolete":false}},{"type":"Feature","geometry":null,"properties":{"id_ffco":"1992-D80-02","nom":"MARE HANNETIN","_dept":"80","numero":"1992-D80-02","commune":"AMIENS","echelle":"1/10000","surface":"2.5 km²","annee":"1992","proprietaire":"PI - Picardie","specialite":"CO à pied","latitude":"49.8939183","longitude":"2.2942436","valide":"Non","ppo":"Non","obsolete":false}},{"type":"Feature","geometry":null,"properties":{"id_ffco":"1992-D80-01","nom":"MONT A VA - FORET DE CREUSE","_dept":"80","numero":"1992-D80-01","commune":"AMIENS","surface":"1.4 km²","annee":"1992","proprietaire":"PI - Picardie","specialite":"CO à pied","latitude":"49.8939183","longitude":"2.2942436","valide":"Non","ppo":"Non","obsolete":false}},{"type":"Feature","geometry":null,"properties":{"id_ffco":"1998-D80-006","nom":"PARC ST PIERRE","_dept":"80","numero":"1998-D80-006","commune":"AMIENS","echelle":"1/5000","surface":"1.0 km²","annee":"1998","proprietaire":"PI - Picardie","specialite":"CO à pied","latitude":"49.8939183","longitude":"2.2942436","valide":"Non","ppo":"Non","obsolete":false}},{"type":"Feature","geometry":null,"properties":{"id_ffco":"????-D80-","nom":"Forêt Domaniale de Crécy en Ponthieu","_dept":"80","numero":"????-D80-","commune":"Crécy en Ponthieu","surface":"None km²","latitude":"50.251965","longitude":"1.8813251","valide":"Non","ppo":"Oui","obsolete":false}}]}