{"type":"FeatureCollection","features":[{"type":"Feature","geometry":{"type":"Polygon","coordinates":[[[2.1519,44.0577],[2.1526,44.0579],[2.1533,44.0578],[2.1539,44.0576],[2.1543,44.0575],[2.1553,44.0572],[2.1559,44.0567],[2.1565,44.0563],[2.157,44.0559],[2.1577,44.0554],[2.1585,44.0548],[2.159,44.0545],[2.1601,44.0537],[2.1585,44.0528],[2.1548,44.0548],[2.1548,44.055],[2.1547,44.0551],[2.1531,44.0553],[2.1521,44.0555],[2.1515,44.0556],[2.1519,44.0577]]]},"properties":{"id_ffco":"7507","nom":"STADE JEAN VAREILLES - 2","_dept":"81","numero":"2013-D81-225","commune":"Carmaux","echelle":"1/3000","surface":"0.16 km²","format":"A4","annee":"2013","cartographes":"ESCUDIE Christian","proprietaire":"8105 - BALISE ORIENTATION ALBIGEOISE","niveau":"Initiation, Scolaire","specialite":"CO à pied","contacts":"BOA, 05 63 40 69 98, cd.co.81@voila.fr","latitude":"44.0555062832","longitude":"2.15542874095","date_saisie":"24/10/2014","date_depot":"05/12/2014","valide":"Oui","ppo":"Non","type_carte":"Reprise","base":"2009-D81-104 STADE JEAN VAREILLES","fond":"Cadastre","obsolete":true}}]}