{"type":"FeatureCollection","features":[{"type":"Feature","geometry":{"type":"Polygon","coordinates":[[[1.241,44.1281],[1.2604,44.1364],[1.2752,44.1225],[1.2817,44.1158],[1.2822,44.114],[1.2585,44.1188],[1.2431,44.1243],[1.241,44.1281]]]},"properties":{"id_ffco":"15174","nom":"Lafrançaise","_dept":"82","numero":"2023-D82-72","commune":"Lafrançaise","echelle":"1/10000","surface":"3.72 km²","format":"A4","annee":"2023","cartographes":"Sébastien Cazelle","proprietaire":"82 - Tarn-et-Garonne","niveau":"Régional","specialite":"CO à pied","latitude":"44.1249075293","longitude":"1.2609086865","date_saisie":"13/09/2025","date_depot":"15/01/2026","valide":"Oui","ppo":"Non","type_carte":"Reprise","base":"2010-D82-045 LAFRANCAISE  LA VALLEE DES LOISIRS","fond":"Ortho","obsolete":false}},{"type":"Feature","geometry":{"type":"Polygon","coordinates":[[[1.6333,44.0835],[1.6496,44.0946],[1.6698,44.0887],[1.6616,44.0708],[1.6657,44.0697],[1.6642,44.0674],[1.6697,44.059],[1.6583,44.069],[1.6337,44.0757],[1.6333,44.0835]]]},"properties":{"id_ffco":"15173","nom":"Montricoux","_dept":"82","numero":"2025-D82-71","commune":"Bruniquel","echelle":"1/10000","surface":"5.68 km²","format":"A3","annee":"2025","cartographes":"Sébastien Cazelle","proprietaire":"82 - Tarn-et-Garonne","niveau":"Régional","specialite":"Raid'O","latitude":"44.0810049642","longitude":"1.65212718355","date_saisie":"13/09/2025","date_depot":"21/01/2026","valide":"Oui","ppo":"Non","type_carte":"Nouvelle carte","fond":"IGN","ref_ign":"2141","obsolete":false}},{"type":"Feature","geometry":{"type":"Polygon","coordinates":[[[1.2685,43.9682],[1.2881,43.9514],[1.2632,43.9231],[1.2585,43.9249],[1.2537,43.9483],[1.2592,43.9654],[1.2685,43.9682]]]},"properties":{"id_ffco":"15017","nom":"Montech VTT O","_dept":"82","numero":"2025-D82-70","commune":"MONTECH","echelle":"1/12500","surface":"7.92 km²","format":"A3","annee":"2025","cartographes":"Pierre Roch","proprietaire":"82 - Tarn-et-Garonne","niveau":"Régional","specialite":"CO à VTT","latitude":"43.9474400822","longitude":"1.26777054508","date_saisie":"04/05/2025","date_depot":"21/01/2026","valide":"Oui","ppo":"Non","type_carte":"Nouvelle carte","fond":"IGN","ref_ign":"2041","obsolete":false}},{"type":"Feature","geometry":{"type":"Polygon","coordinates":[[[1.7044,44.2509],[1.6722,44.2041],[1.6131,44.2164],[1.6148,44.245],[1.7044,44.2509]]]},"properties":{"id_ffco":"14507","nom":"St Symphorien VTT","_dept":"82","numero":"2024-D82-69","commune":"Cayriech et  Puylaroque","echelle":"1/15000","surface":"25.32 km²","format":"A3","annee":"2024","cartographes":"Pierre Roch,FRAYSSINET Laurent","proprietaire":"82 - Tarn-et-Garonne","niveau":"Régional","specialite":"CO à VTT","contacts":"Pierre Roch, 121 Impasse Labastiolle, 121, 82000, Montauban, 0608062813, roch.pierre@wanadoo.fr","latitude":"44.2298730546","longitude":"1.65469395005","date_saisie":"11/06/2024","date_depot":"18/07/2024","valide":"Oui","ppo":"Non","type_carte":"Nouvelle carte","fond":"IGN","ref_ign":"2140","obsolete":false}},{"type":"Feature","geometry":{"type":"Polygon","coordinates":[[[1.5874,43.9709],[1.5973,43.9718],[1.5974,43.9646],[1.5875,43.9641],[1.5858,43.9673],[1.5876,43.9709],[1.5874,43.9709]]]},"properties":{"id_ffco":"14161","nom":"Les trois lacs","_dept":"82","numero":"2023-D82-68","commune":"Monclar de Quercy","echelle":"1/7500","surface":"0.67 km²","format":"A4","annee":"2023","cartographes":"ESCUDIE Christian","niveau":"Départemental","specialite":"CO à pied","latitude":"43.9678192037","longitude":"1.59206048263","date_saisie":"27/11/2023","date_depot":"26/06/2024","valide":"Oui","ppo":"Non","type_carte":"Reprise","base":"2007-D82-031 Monclar De Quercy : les trois lacs","fond":"IGN","ref_ign":"2141","obsolete":false}},{"type":"Feature","geometry":{"type":"Polygon","coordinates":[[[1.3432,44.0235],[1.3675,44.0228],[1.3669,44.0082],[1.3437,44.0087],[1.3432,44.0235]]]},"properties":{"id_ffco":"14160","nom":"Montauban","_dept":"82","numero":"2023-D82-67","commune":"Montauban","echelle":"1/4000","surface":"3.1 km²","format":"A3","annee":"2023","cartographes":"ESCUDIE Christian","niveau":"Départemental","specialite":"CO à pied","latitude":"44.0158844739","longitude":"1.35530987138","date_saisie":"27/11/2023","date_depot":"21/01/2026","valide":"Oui","ppo":"Non","type_carte":"Nouvelle carte","fond":"IGN","ref_ign":"2041","obsolete":false}},{"type":"Feature","geometry":{"type":"Polygon","coordinates":[[[1.2467,43.9786],[1.2688,43.9824],[1.3037,43.9318],[1.2582,43.9203],[1.2467,43.9786]]]},"properties":{"id_ffco":"14157","nom":"Foret d'Agre","_dept":"82","numero":"2023-D82-66","commune":"Montech","echelle":"1/10000","surface":"18.02 km²","format":"A3","annee":"2023","cartographes":"Alain Pelligry,Pierre Roch","proprietaire":"82 - Tarn-et-Garonne","niveau":"Régional","specialite":"CO à pied","latitude":"43.9499910319","longitude":"1.27062376494","date_saisie":"27/11/2023","date_depot":"26/06/2024","valide":"Oui","ppo":"Non","type_carte":"Reprise","base":"2021-D82-060 FORET D'AGRE Complète","fond":"IGN","ref_ign":"2041","obsolete":false}},{"type":"Feature","geometry":{"type":"Polygon","coordinates":[[[1.5354,44.157],[1.5384,44.1573],[1.5404,44.1545],[1.5353,44.1556],[1.5354,44.157]]]},"properties":{"id_ffco":"14156","nom":"Collège Pierre Darasse","_dept":"82","numero":"2023-D82-65","commune":"Caussade","echelle":"1/2000","surface":"0.07 km²","format":"A4","annee":"2023","cartographes":"Alain PELIGRY","proprietaire":"82 - Tarn-et-Garonne","niveau":"Initiation, Scolaire","specialite":"CO à pied","latitude":"44.1560141913","longitude":"1.53758978248","date_saisie":"27/11/2023","date_depot":"26/06/2024","valide":"Oui","ppo":"Non","type_carte":"Nouvelle carte","fond":"IGN","ref_ign":"2140","obsolete":false}},{"type":"Feature","geometry":{"type":"Polygon","coordinates":[[[1.3584,44.1938],[1.371,44.1938],[1.3713,44.176],[1.3569,44.1783],[1.3583,44.193],[1.3584,44.1938]]]},"properties":{"id_ffco":"14155","nom":"Orient O'Lac","_dept":"82","numero":"2023-D82-64","commune":"Molières","echelle":"1/10000","surface":"2.0 km²","format":"A4","annee":"2023","cartographes":"Pierre Roch","niveau":"Départemental","specialite":"CO à pied","latitude":"44.1852692782","longitude":"1.36454598906","date_saisie":"27/11/2023","date_depot":"26/06/2024","valide":"Oui","ppo":"Non","type_carte":"Nouvelle carte","fond":"IGN","ref_ign":"2040","obsolete":false}},{"type":"Feature","geometry":{"type":"Polygon","coordinates":[[[1.6433,44.0649],[1.7144,44.06],[1.702,44.0145],[1.6495,44.0215],[1.6433,44.0649]]]},"properties":{"id_ffco":"14153","nom":"Bruniquel","_dept":"82","numero":"2023-D82-63","commune":"Bruniquel","echelle":"1/10000","surface":"24.61 km²","format":"A3","annee":"2023","cartographes":"Pierre Roch","niveau":"Régional","specialite":"CO à pied","latitude":"44.0412680628","longitude":"1.67781199961","date_saisie":"27/11/2023","date_depot":"21/01/2026","valide":"Oui","ppo":"Non","type_carte":"Reprise","base":"2016-D82-054 BRUNIQUEL BRIAN DU CAUSSE","fond":"IGN","ref_ign":"2141","obsolete":false}},{"type":"Feature","geometry":{"type":"Polygon","coordinates":[[[1.2871,43.9512],[1.2977,43.9367],[1.2818,43.9262],[1.2655,43.9278],[1.2723,43.9365],[1.287,43.9506],[1.2871,43.9512]]]},"properties":{"id_ffco":"13751","nom":"Montech Montbartier","_dept":"82","numero":"2022-D82-062","commune":"Montbartier","echelle":"1/12500","surface":"3.47 km²","format":"A4","annee":"2022","cartographes":"Pierre Roch","proprietaire":"82 - Tarn-et-Garonne","niveau":"Régional","specialite":"CO à VTT","latitude":"43.936394743","longitude":"1.28269245285","date_saisie":"16/12/2022","date_depot":"15/02/2023","valide":"Oui","ppo":"Non","type_carte":"Nouvelle carte","fond":"Laser","obsolete":false}},{"type":"Feature","geometry":{"type":"Polygon","coordinates":[[[1.2876,43.9518],[1.3,43.9338],[1.2784,43.9236],[1.2663,43.9258],[1.279,43.9417],[1.2876,43.9518]]]},"properties":{"id_ffco":"13750","nom":"Foret d'Agre : La Croix de Cancelle","_dept":"82","numero":"2022-D82-061","commune":"Montbartier","echelle":"1/10000","surface":"3.93 km²","format":"A4","annee":"2022","cartographes":"Pierre Roch","proprietaire":"82 - Tarn-et-Garonne","niveau":"Régional","specialite":"CO à pied","latitude":"43.9353419251","longitude":"1.28400512779","date_saisie":"16/12/2022","date_depot":"15/02/2023","valide":"Oui","ppo":"Non","type_carte":"Reprise","base":"2019-D82-059 FORET D'AGRE Complète","fond":"Laser","obsolete":false}},{"type":"Feature","geometry":{"type":"Polygon","coordinates":[[[1.2533,43.981],[1.2636,43.9764],[1.2751,43.9645],[1.2868,43.9561],[1.2935,43.9481],[1.2991,43.9376],[1.2978,43.9355],[1.2966,43.9315],[1.2895,43.9278],[1.2818,43.9256],[1.278,43.9246],[1.2765,43.9246],[1.2718,43.9262],[1.2669,43.9276],[1.2638,43.9268],[1.259,43.9268],[1.2569,43.9284],[1.2538,43.9352],[1.2531,43.9389],[1.2531,43.9444],[1.2552,43.9475],[1.2555,43.9523],[1.253,43.9548],[1.2579,43.9558],[1.2583,43.9609],[1.2586,43.9633],[1.2566,43.9677],[1.2538,43.9696],[1.248,43.9727],[1.2499,43.9777],[1.2533,43.981]]]},"properties":{"id_ffco":"12923","nom":"FORET D'AGRE Complète","_dept":"82","numero":"2021-D82-060","commune":"MONTECH","echelle":"1/15000","surface":"14.26 km²","format":"A3","annee":"2021","cartographes":"Alain Pellegry,Pierre Roch","proprietaire":"82 - Tarn-et-Garonne","niveau":"Interrégional","specialite":"CO à pied","latitude":"43.9476897013","longitude":"1.27193560615","date_saisie":"04/10/2021","date_depot":"08/02/2022","valide":"Oui","ppo":"Non","type_carte":"Nouvelle carte","fond":"Ortho","obsolete":false}},{"type":"Feature","geometry":{"type":"Polygon","coordinates":[[[1.3379,44.0112],[1.3393,44.0107],[1.3387,44.0099],[1.3373,44.0106],[1.3379,44.0112]]]},"properties":{"id_ffco":"12490","nom":"STADE PORT CANAL","_dept":"82","numero":"2019-D82-058","commune":"MONTAUBAN","echelle":"1/1000","surface":"0.01 km²","format":"A5","annee":"2019","cartographes":"Pierre Roch","proprietaire":"82 - Tarn-et-Garonne","niveau":"Initiation, Scolaire","specialite":"CO à pied","latitude":"44.0106060465","longitude":"1.33829770961","date_saisie":"29/12/2020","date_depot":"21/01/2021","valide":"Oui","ppo":"Non","type_carte":"Nouvelle carte","fond":"Ortho","obsolete":false}},{"type":"Feature","geometry":{"type":"Polygon","coordinates":[[[1.7785,44.1769],[1.7756,44.1744],[1.7543,44.1769],[1.7549,44.1741],[1.755,44.1718],[1.7543,44.1698],[1.7545,44.168],[1.7554,44.167],[1.7561,44.1659],[1.7571,44.1652],[1.758,44.1648],[1.7603,44.1646],[1.7613,44.1647],[1.7618,44.1647],[1.7655,44.1655],[1.7682,44.1656],[1.7695,44.165],[1.7694,44.164],[1.7685,44.1626],[1.7675,44.1619],[1.7659,44.1612],[1.7651,44.1605],[1.7673,44.1578],[1.7691,44.1571],[1.7769,44.1608],[1.7806,44.1633],[1.7842,44.1656],[1.7863,44.1669],[1.782,44.1684],[1.7798,44.1701],[1.7794,44.1718],[1.779,44.1755],[1.7785,44.1769]]]},"properties":{"id_ffco":"11193","nom":"LE CLOT DE MERIGOT","_dept":"82","numero":"2018-D82-057","commune":"SAINT ANTONIN NOBLE VAL","echelle":"1/10000","surface":"3.12 km²","format":"A4","annee":"2018","cartographes":"Alain Pellegry","proprietaire":"82 - Tarn-et-Garonne","niveau":"Interrégional","specialite":"CO à pied","latitude":"44.1683973153","longitude":"1.76892314142","date_saisie":"20/11/2018","date_depot":"29/01/2019","valide":"Oui","ppo":"Non","type_carte":"Nouvelle carte","fond":"Ortho","obsolete":false}},{"type":"Feature","geometry":{"type":"Polygon","coordinates":[[[1.6444,44.2661],[1.6449,44.2658],[1.6447,44.2653],[1.6451,44.2649],[1.6441,44.2633],[1.6445,44.2629],[1.6451,44.2627],[1.6451,44.2624],[1.646,44.2622],[1.647,44.2617],[1.6482,44.2615],[1.6493,44.2612],[1.65,44.2604],[1.65,44.2594],[1.6515,44.2597],[1.6526,44.2604],[1.6531,44.2616],[1.6532,44.2632],[1.6533,44.2642],[1.6528,44.2648],[1.652,44.2663],[1.6518,44.2672],[1.6519,44.268],[1.652,44.2686],[1.6529,44.2687],[1.6543,44.2689],[1.6553,44.2694],[1.6558,44.2704],[1.6556,44.2715],[1.6558,44.272],[1.6575,44.2723],[1.6588,44.2729],[1.6606,44.2743],[1.6618,44.2753],[1.6624,44.2765],[1.6622,44.2772],[1.6615,44.2772],[1.6601,44.2774],[1.6596,44.2776],[1.6595,44.2778],[1.6603,44.2784],[1.6608,44.2792],[1.6607,44.2796],[1.6597,44.28],[1.6588,44.2802],[1.6579,44.2806],[1.6578,44.2815],[1.6583,44.2818],[1.6592,44.282],[1.6601,44.2833],[1.6601,44.2835],[1.6593,44.284],[1.6581,44.2844],[1.6571,44.2847],[1.656,44.2853],[1.6553,44.2858],[1.6557,44.2861],[1.6561,44.2867],[1.6561,44.2871],[1.656,44.2875],[1.6558,44.288],[1.6562,44.2886],[1.6567,44.2891],[1.6569,44.2899],[1.656,44.291],[1.6556,44.2919],[1.6555,44.2926],[1.6551,44.2933],[1.6552,44.294],[1.6549,44.2947],[1.6538,44.2955],[1.6517,44.2967],[1.6507,44.2967],[1.6483,44.2956],[1.6469,44.2952],[1.6455,44.2953],[1.6442,44.2957],[1.6423,44.2962],[1.6412,44.2966],[1.6404,44.2971],[1.6395,44.2971],[1.6376,44.2969],[1.6375,44.2952],[1.637,44.2939],[1.6361,44.2926],[1.6348,44.2914],[1.6339,44.2897],[1.6336,44.2888],[1.6334,44.2877],[1.6337,44.2856],[1.6335,44.2846],[1.6336,44.2834],[1.6336,44.2829],[1.635,44.2819],[1.6371,44.2811],[1.6386,44.2809],[1.64,44.2803],[1.642,44.2796],[1.6435,44.2792],[1.6456,44.2789],[1.6471,44.2785],[1.6482,44.278],[1.648,44.2772],[1.6466,44.276],[1.6455,44.2752],[1.6461,44.2745],[1.6465,44.2741],[1.644,44.2736],[1.6446,44.2732],[1.6444,44.2729],[1.6446,44.2726],[1.6452,44.2726],[1.6455,44.2723],[1.6452,44.2712],[1.6446,44.2711],[1.6449,44.2699],[1.645,44.2695],[1.6445,44.2686],[1.6444,44.2678],[1.6445,44.267],[1.6444,44.2661]]]},"properties":{"id_ffco":"8596","nom":"LA VIELLE LERE","_dept":"82","numero":"2014-D82-052","commune":"PYULOROQUE","echelle":"1/10000","surface":"4.97 km²","format":"A4","annee":"2014","cartographes":"A Pellegry","proprietaire":"82 - Tarn-et-Garonne","niveau":"Interrégional","specialite":"CO à pied","latitude":"44.2816751655","longitude":"1.64793684199","date_saisie":"03/09/2015","date_depot":"23/10/2015","valide":"Oui","ppo":"Non","type_carte":"Nouvelle carte","fond":"Ortho","obsolete":false}},{"type":"Feature","geometry":{"type":"Polygon","coordinates":[[[1.4774,44.0362],[1.4811,44.0368],[1.4836,44.0358],[1.4865,44.0345],[1.4905,44.0317],[1.4925,44.0304],[1.4933,44.0309],[1.4986,44.0302],[1.4985,44.0298],[1.4994,44.0295],[1.5037,44.0278],[1.503,44.0262],[1.5054,44.0258],[1.5062,44.0254],[1.505,44.0226],[1.5036,44.0208],[1.504,44.0203],[1.4999,44.0181],[1.4989,44.0183],[1.4973,44.0185],[1.4947,44.0192],[1.4922,44.0203],[1.4918,44.0207],[1.4893,44.0205],[1.4878,44.0214],[1.4866,44.0225],[1.4844,44.0243],[1.4826,44.026],[1.481,44.0274],[1.4798,44.0275],[1.4793,44.0281],[1.4789,44.0289],[1.4784,44.0293],[1.4784,44.0304],[1.4785,44.0309],[1.4782,44.032],[1.4779,44.033],[1.4771,44.0336],[1.4762,44.0343],[1.4781,44.0347],[1.4774,44.0362]]]},"properties":{"id_ffco":"8595","nom":"POUSINIE","_dept":"82","numero":"2013-D82-051","commune":"ST ETIENNE DE PLUMONT","echelle":"1/10000","surface":"2.51 km²","format":"A4","annee":"2013","cartographes":"A Pellegry","proprietaire":"82 - Tarn-et-Garonne","niveau":"Régional","specialite":"CO à pied","latitude":"44.0269376563","longitude":"1.49130994097","date_saisie":"03/09/2015","date_depot":"23/10/2015","valide":"Oui","ppo":"Non","type_carte":"Nouvelle carte","fond":"Ortho","obsolete":false}},{"type":"Feature","geometry":{"type":"Polygon","coordinates":[[[1.1003,44.0546],[1.101,44.0532],[1.1013,44.0525],[1.0996,44.0518],[1.0982,44.0511],[1.0975,44.0506],[1.0973,44.0503],[1.0959,44.0496],[1.095,44.0494],[1.0938,44.0511],[1.0936,44.0519],[1.0942,44.052],[1.0952,44.0519],[1.0958,44.0518],[1.0964,44.0518],[1.0967,44.0522],[1.0965,44.0529],[1.1003,44.0546]]]},"properties":{"id_ffco":"8594","nom":"PARC DE CLAIRFONT","_dept":"82","numero":"2011-D82-050","commune":"CASTELSARASIN","echelle":"1/2050","surface":"0.15 km²","format":"A4","annee":"2011","cartographes":"Pierre ROC","proprietaire":"82 - Tarn-et-Garonne","niveau":"Départemental","specialite":"CO à pied","latitude":"44.0519270708","longitude":"1.09748099249","date_saisie":"03/09/2015","date_depot":"23/10/2015","valide":"Oui","ppo":"Non","type_carte":"Nouvelle carte","fond":"Ortho","obsolete":false}},{"type":"Feature","geometry":{"type":"Polygon","coordinates":[[[1.8565,44.2715],[1.8583,44.2715],[1.8593,44.2713],[1.8601,44.27],[1.8608,44.2691],[1.8615,44.2687],[1.8627,44.2683],[1.8643,44.2678],[1.8648,44.2598],[1.8517,44.2592],[1.8513,44.2677],[1.8531,44.2678],[1.8553,44.2684],[1.8559,44.2694],[1.8565,44.2715]]]},"properties":{"id_ffco":"8592","nom":"PARISOT","_dept":"82","numero":"2012-D82-048","commune":"PARISOT 82","echelle":"1/2012","surface":"1.13 km²","format":"A4","annee":"2012","cartographes":"Pierre ROC","proprietaire":"82 - Tarn-et-Garonne","niveau":"Départemental","specialite":"CO à pied","latitude":"44.2644449341","longitude":"1.85802516936","date_saisie":"03/09/2015","date_depot":"23/10/2015","valide":"Oui","ppo":"Non","type_carte":"Nouvelle carte","fond":"Ortho","obsolete":false}},{"type":"Feature","geometry":{"type":"Polygon","coordinates":[[[1.4779,44.1148],[1.4757,44.1132],[1.4742,44.1117],[1.4749,44.1118],[1.4764,44.112],[1.4787,44.1119],[1.4807,44.1112],[1.4822,44.1108],[1.4826,44.1107],[1.4847,44.1121],[1.4845,44.1126],[1.4832,44.1129],[1.4824,44.1131],[1.4831,44.1142],[1.4828,44.1145],[1.4823,44.115],[1.4812,44.1155],[1.481,44.1156],[1.4816,44.1162],[1.4818,44.1164],[1.4807,44.1169],[1.4779,44.1148]]]},"properties":{"id_ffco":"8591","nom":"REALVILLE 82","_dept":"82","numero":"2011-D82-047","commune":"REALVILLE","echelle":"1/4000","surface":"0.26 km²","format":"A4","annee":"2011","cartographes":"Pierre ROC","proprietaire":"82 - Tarn-et-Garonne","niveau":"Régional","specialite":"CO à pied","latitude":"44.1133302992","longitude":"1.47999391028","date_saisie":"03/09/2015","date_depot":"23/10/2015","valide":"Oui","ppo":"Non","type_carte":"Nouvelle carte","fond":"Ortho","obsolete":false}},{"type":"Feature","geometry":{"type":"Polygon","coordinates":[[[1.3646,44.0109],[1.3642,44.0104],[1.3641,44.0104],[1.3639,44.01],[1.3643,44.0098],[1.3646,44.0103],[1.3649,44.0102],[1.3651,44.0107],[1.3646,44.0109],[1.3646,44.0109]]]},"properties":{"id_ffco":"8590","nom":"ECOLE PRIMAIRE MARCEL GUERET","_dept":"82","numero":"2011-D82-046","commune":"Montauban","echelle":"1/500","surface":"0.0 km²","format":"A4","annee":"2011","cartographes":"LARUE FABIEN,C. ESCUDIE","proprietaire":"82 - Tarn-et-Garonne","niveau":"Initiation, Scolaire","specialite":"CO à pied","latitude":"44.0103815986","longitude":"1.36451889589","date_saisie":"03/09/2015","date_depot":"23/10/2015","valide":"Oui","ppo":"Non","type_carte":"Nouvelle carte","fond":"Ortho","obsolete":false}},{"type":"Feature","geometry":{"type":"Polygon","coordinates":[[[1.3427,44.0235],[1.3416,44.0224],[1.3418,44.0222],[1.3479,44.0218],[1.3484,44.0226],[1.3427,44.0235]]]},"properties":{"id_ffco":"8587","nom":"COURS FOUCAULT","_dept":"82","numero":"2009-D82-043","commune":"Montauban","echelle":"1/2000","surface":"0.06 km²","format":"A4","annee":"2009","cartographes":"Pierre ROC","proprietaire":"82 - Tarn-et-Garonne","niveau":"Initiation, Scolaire","specialite":"CO à pied","latitude":"44.0225611278","longitude":"1.34484038092","date_saisie":"03/09/2015","date_depot":"23/10/2015","valide":"Oui","ppo":"Non","type_carte":"Nouvelle carte","fond":"Ortho","obsolete":false}},{"type":"Feature","geometry":{"type":"Polygon","coordinates":[[[1.0698,44.3181],[1.0688,44.3173],[1.0675,44.3164],[1.0673,44.3138],[1.0679,44.3121],[1.0674,44.3107],[1.0666,44.3098],[1.0664,44.3068],[1.0679,44.3026],[1.0696,44.3026],[1.0728,44.3025],[1.0758,44.3023],[1.0782,44.3024],[1.0795,44.302],[1.0816,44.3013],[1.0833,44.301],[1.0862,44.3003],[1.0876,44.2999],[1.0882,44.299],[1.089,44.2989],[1.0894,44.2998],[1.0904,44.2996],[1.0915,44.3005],[1.0927,44.3024],[1.0929,44.3036],[1.0933,44.3057],[1.0931,44.3067],[1.0928,44.3086],[1.0934,44.3103],[1.092,44.3112],[1.0882,44.3132],[1.0854,44.3144],[1.0812,44.3153],[1.0756,44.3166],[1.0698,44.3181]]]},"properties":{"id_ffco":"8586","nom":"BOULOC","_dept":"82","numero":"2009-D82-042","commune":"BOULOC","echelle":"1/10000","surface":"3.15 km²","format":"A4","annee":"2009","cartographes":"A Pellegry","proprietaire":"82 - Tarn-et-Garonne","niveau":"Départemental","specialite":"CO à pied","latitude":"44.3084342196","longitude":"1.07955009566","date_saisie":"03/09/2015","date_depot":"23/10/2015","valide":"Oui","ppo":"Non","type_carte":"Reprise","base":"1993-D82-09 BOULOC","fond":"Ortho","obsolete":false}},{"type":"Feature","geometry":{"type":"Polygon","coordinates":[[[1.5203,44.0814],[1.5196,44.0807],[1.5171,44.0793],[1.5157,44.0776],[1.5136,44.0744],[1.5137,44.0741],[1.5143,44.0742],[1.517,44.071],[1.5178,44.0709],[1.5206,44.0715],[1.5227,44.0716],[1.5242,44.0717],[1.5285,44.0719],[1.5311,44.072],[1.5303,44.0745],[1.531,44.0748],[1.5313,44.0751],[1.5305,44.0765],[1.5303,44.0771],[1.5304,44.0793],[1.5283,44.0796],[1.5265,44.0788],[1.5253,44.0782],[1.5237,44.079],[1.5207,44.0813],[1.5203,44.0814]]]},"properties":{"id_ffco":"8585","nom":"NEGREPELISSE","_dept":"82","numero":"2009-D82-041","commune":"NEGREPELISSE","echelle":"1/5000","surface":"1.1 km²","format":"A4","annee":"2009","cartographes":"A Pellegry","proprietaire":"82 - Tarn-et-Garonne","niveau":"Régional","specialite":"CO à pied","latitude":"44.0755603347","longitude":"1.52263385316","date_saisie":"03/09/2015","date_depot":"23/10/2015","valide":"Oui","ppo":"Non","type_carte":"Nouvelle carte","fond":"Ortho","obsolete":false}},{"type":"Feature","geometry":{"type":"Polygon","coordinates":[[[1.7372,44.3273],[1.737,44.3231],[1.7364,44.3183],[1.7364,44.3146],[1.7749,44.3144],[1.7755,44.3168],[1.7753,44.3223],[1.7722,44.323],[1.7709,44.3231],[1.7682,44.323],[1.7653,44.3238],[1.7621,44.3245],[1.7621,44.3258],[1.7612,44.3258],[1.7554,44.326],[1.7513,44.3241],[1.7483,44.3254],[1.7458,44.3265],[1.7407,44.3271],[1.7372,44.3273]]]},"properties":{"id_ffco":"8584","nom":"SAILLAGOL","_dept":"82","numero":"2009-D82-040","commune":"SAILLAGOL","echelle":"1/10000","surface":"3.63 km²","format":"A4","annee":"2009","cartographes":"A Pellegry","proprietaire":"82 - Tarn-et-Garonne","niveau":"Interrégional","specialite":"CO à pied","latitude":"44.3198722167","longitude":"1.75466142517","date_saisie":"03/09/2015","date_depot":"23/10/2015","valide":"Oui","ppo":"Non","type_carte":"Nouvelle carte","fond":"Ortho","obsolete":false}},{"type":"Feature","geometry":{"type":"Polygon","coordinates":[[[1.0289,44.3298],[1.0252,44.3337],[1.0278,44.3343],[1.0272,44.3361],[1.0231,44.3355],[1.0227,44.3368],[1.0236,44.3377],[1.0249,44.3386],[1.029,44.339],[1.0307,44.3391],[1.0328,44.3397],[1.0358,44.3403],[1.0366,44.3402],[1.038,44.3409],[1.0383,44.3406],[1.0396,44.3403],[1.041,44.3401],[1.0424,44.3397],[1.0441,44.3397],[1.0451,44.3396],[1.0466,44.3389],[1.0483,44.3375],[1.0496,44.3366],[1.0495,44.3353],[1.0515,44.3351],[1.0512,44.3346],[1.0535,44.3351],[1.0544,44.3348],[1.0557,44.3341],[1.0537,44.3326],[1.0527,44.3317],[1.0434,44.3301],[1.0379,44.3287],[1.0372,44.3274],[1.0341,44.3274],[1.0323,44.3278],[1.0316,44.329],[1.0289,44.3298]]]},"properties":{"id_ffco":"8583","nom":"BASE DE LOISIRS DE MONTEGUT DE  QUERCY","_dept":"82","numero":"2005-D82-039","commune":"MONTAIGUT DE QUERCY","echelle":"1/10000","surface":"2.27 km²","format":"A4","annee":"2005","cartographes":"Frédéric Jordan","proprietaire":"82 - Tarn-et-Garonne","niveau":"Interrégional","specialite":"CO à pied","latitude":"44.3344165655","longitude":"1.03813263829","date_saisie":"03/09/2015","date_depot":"23/10/2015","valide":"Oui","ppo":"Non","type_carte":"Nouvelle carte","fond":"Ortho","obsolete":false}},{"type":"Feature","geometry":{"type":"Polygon","coordinates":[[[1.162,44.2039],[1.1628,44.2029],[1.1645,44.2022],[1.1668,44.2017],[1.1683,44.2005],[1.1702,44.1991],[1.1731,44.1981],[1.1764,44.1971],[1.1781,44.1964],[1.182,44.1951],[1.1839,44.1949],[1.185,44.195],[1.1867,44.1957],[1.1879,44.1965],[1.1886,44.1984],[1.1892,44.2008],[1.1887,44.2023],[1.1877,44.2039],[1.1874,44.2046],[1.1875,44.2057],[1.1868,44.2051],[1.1862,44.2058],[1.1862,44.2069],[1.1863,44.2074],[1.1833,44.2074],[1.1829,44.2061],[1.1812,44.2065],[1.1802,44.2075],[1.1795,44.2079],[1.1764,44.2075],[1.1738,44.2076],[1.1745,44.2079],[1.1735,44.2081],[1.1723,44.2077],[1.1711,44.2076],[1.1693,44.2079],[1.1679,44.2089],[1.167,44.2096],[1.1659,44.2104],[1.1654,44.2105],[1.1651,44.2105],[1.16,44.2097],[1.1593,44.2077],[1.1593,44.2072],[1.1592,44.2069],[1.1601,44.206],[1.1606,44.2057],[1.1602,44.2052],[1.162,44.2039]]]},"properties":{"id_ffco":"4288","nom":"SAINT ROCH 2","_dept":"82","numero":"2008-D82-034","commune":"DURFORT LACAPELETTE","echelle":"1/10000","surface":"2.41 km²","format":"A4","annee":"2008","cartographes":"P Roch","proprietaire":"82 - Tarn-et-Garonne","niveau":"Régional","specialite":"CO à pied","latitude":"44.2029212782","longitude":"1.17552737766","date_saisie":"03/12/2006","date_depot":"05/12/2006","valide":"Oui","ppo":"Non","type_carte":"Reprise","base":"2006-D82-030 SAINT ROC","fond":"Ortho","obsolete":false}},{"type":"Feature","geometry":{"type":"Polygon","coordinates":[[[1.7214,44.3196],[1.7234,44.3174],[1.7246,44.3168],[1.7259,44.3168],[1.7276,44.3152],[1.7282,44.3144],[1.7296,44.3126],[1.7339,44.3097],[1.7339,44.3106],[1.7395,44.3097],[1.7533,44.3077],[1.7536,44.3094],[1.753,44.3105],[1.7495,44.3134],[1.7471,44.3149],[1.7484,44.316],[1.7494,44.3173],[1.7509,44.3174],[1.7516,44.3175],[1.7525,44.3203],[1.7531,44.3217],[1.7541,44.3232],[1.7503,44.3232],[1.751,44.324],[1.7498,44.325],[1.7475,44.3261],[1.743,44.3257],[1.7379,44.3255],[1.735,44.3254],[1.7322,44.3253],[1.7289,44.3238],[1.7257,44.3218],[1.7238,44.3205],[1.7214,44.3196]]]},"properties":{"id_ffco":"4438","nom":"Jamblusse","_dept":"82","numero":"2007-D82-033","commune":"Saint Projet","echelle":"1/10000","surface":"3.43 km²","format":"A4","annee":"2007","cartographes":"M Cotirta,J. VIGUIER,A Marius,R Dionisie","proprietaire":"MP - Midi-Pyrénées","niveau":"National, International","specialite":"CO à pied","latitude":"44.3176456411","longitude":"1.7394399686","date_saisie":"29/12/2007","date_depot":"22/10/2009","valide":"Oui","ppo":"Non","type_carte":"Nouvelle carte","fond":"Ortho","obsolete":false}},{"type":"Feature","geometry":{"type":"Polygon","coordinates":[[[1.8763,44.1448],[1.8903,44.1438],[1.8942,44.1438],[1.892,44.145],[1.8909,44.1466],[1.8923,44.1474],[1.8924,44.1486],[1.8918,44.1502],[1.8916,44.1522],[1.8914,44.1542],[1.8912,44.1557],[1.8907,44.1645],[1.8707,44.1644],[1.8706,44.1541],[1.8709,44.1491],[1.8713,44.1474],[1.8763,44.1448]]]},"properties":{"id_ffco":"4437","nom":"Varen","_dept":"82","numero":"2007-D82-032","commune":"Varen","echelle":"1/10000","surface":"3.63 km²","format":"A4","annee":"2007","cartographes":"M Cotirta,J. VIGUIER","proprietaire":"MP - Midi-Pyrénées","niveau":"Interrégional","specialite":"CO à pied","latitude":"44.1544777104","longitude":"1.88135657998","date_saisie":"29/12/2007","date_depot":"22/10/2009","valide":"Oui","ppo":"Non","type_carte":"Nouvelle carte","fond":"Ortho","obsolete":false}},{"type":"Feature","geometry":{"type":"Polygon","coordinates":[[[1.4037,44.0156],[1.4035,44.0125],[1.4016,44.0124],[1.3975,44.012],[1.3963,44.0115],[1.3944,44.0112],[1.3929,44.0117],[1.3911,44.0118],[1.3908,44.0107],[1.3907,44.0099],[1.3921,44.0087],[1.3901,44.0075],[1.3956,44.0046],[1.4005,44.0026],[1.4069,43.9999],[1.4124,43.998],[1.4152,43.9968],[1.4177,43.9964],[1.4194,43.9956],[1.4214,43.9945],[1.4232,43.9942],[1.4246,43.9934],[1.4295,43.9942],[1.4296,43.9962],[1.4304,43.9988],[1.4314,44.0],[1.4302,44.0023],[1.4289,44.0045],[1.4282,44.0063],[1.4279,44.0081],[1.4267,44.008],[1.4242,44.009],[1.4198,44.0108],[1.4159,44.0124],[1.4135,44.0133],[1.4106,44.0149],[1.4096,44.0154],[1.4094,44.0158],[1.4078,44.0161],[1.406,44.0162],[1.4043,44.016],[1.4037,44.0156]]]},"properties":{"id_ffco":"3941","nom":"Le Bois De La vieille","_dept":"82","numero":"2003-D82-027","commune":"Montauban","echelle":"1/15000","surface":"4.47 km²","format":"A4","annee":"2003","cartographes":"Pierre ROC","proprietaire":"82 - Tarn-et-Garonne","niveau":"Départemental","specialite":"CO à pied","latitude":"44.0051045031","longitude":"1.41277501679","date_saisie":"23/06/2005","date_depot":"22/07/2005","valide":"Oui","ppo":"Non","type_carte":"Nouvelle carte","fond":"Ortho","obsolete":false}},{"type":"Feature","geometry":{"type":"Polygon","coordinates":[[[1.5525,44.1661],[1.5512,44.1656],[1.5481,44.1648],[1.545,44.164],[1.5442,44.1661],[1.5448,44.167],[1.5458,44.1681],[1.546,44.1684],[1.5448,44.1695],[1.5445,44.17],[1.5446,44.1706],[1.5465,44.1719],[1.5464,44.1723],[1.5465,44.1728],[1.5466,44.1732],[1.5471,44.173],[1.5473,44.1727],[1.5475,44.1732],[1.5474,44.1736],[1.5477,44.1737],[1.5483,44.1737],[1.5486,44.174],[1.5486,44.1744],[1.5489,44.1747],[1.5494,44.1748],[1.5499,44.1749],[1.55,44.1754],[1.5502,44.1757],[1.5506,44.1757],[1.5511,44.1757],[1.5517,44.1763],[1.5521,44.1762],[1.5525,44.1759],[1.5536,44.1757],[1.5542,44.176],[1.5552,44.1763],[1.5559,44.1771],[1.5565,44.177],[1.5564,44.1767],[1.5565,44.1764],[1.5572,44.1762],[1.5581,44.1768],[1.5586,44.1768],[1.5586,44.1763],[1.5587,44.1759],[1.5589,44.1756],[1.5594,44.1755],[1.5603,44.1759],[1.5607,44.1757],[1.5606,44.1752],[1.5609,44.1748],[1.5617,44.175],[1.5624,44.1755],[1.5633,44.175],[1.5639,44.1746],[1.5639,44.1743],[1.5638,44.174],[1.5646,44.1738],[1.5656,44.1743],[1.5667,44.1735],[1.564,44.1724],[1.5607,44.1706],[1.5576,44.1691],[1.5532,44.1666],[1.5525,44.1661]]]},"properties":{"id_ffco":"3706","nom":"PARC DE LA LERE","_dept":"82","numero":"2003-D82-026","commune":"Caussade","echelle":"1/5000","surface":"1.3 km²","format":"A4","annee":"2003","cartographes":"A Pellegry","proprietaire":"82 - Tarn-et-Garonne","niveau":"Régional","specialite":"CO à pied","latitude":"44.1710943558","longitude":"1.5534221632","date_saisie":"21/11/2003","date_depot":"24/11/2003","valide":"Oui","ppo":"Non","type_carte":"Reprise","base":"2000-D82-021 BASE DE LOISIRS DU PARC DE LA LERE","fond":"Ortho","obsolete":false}},{"type":"Feature","geometry":{"type":"Polygon","coordinates":[[[1.7791,44.2388],[1.7797,44.2306],[1.7793,44.2296],[1.779,44.2272],[1.7773,44.2257],[1.7775,44.2224],[1.7772,44.2208],[1.7791,44.2188],[1.78,44.2175],[1.7814,44.2158],[1.7814,44.2122],[1.7804,44.2085],[1.7787,44.2064],[1.7762,44.2047],[1.7686,44.2042],[1.7658,44.2051],[1.7642,44.2061],[1.7633,44.2072],[1.7621,44.2075],[1.7568,44.2071],[1.7562,44.2071],[1.7545,44.2074],[1.7537,44.2083],[1.7535,44.2091],[1.7536,44.2102],[1.7542,44.2109],[1.7538,44.2121],[1.7529,44.2136],[1.7528,44.2149],[1.7512,44.2217],[1.7509,44.2234],[1.7492,44.2235],[1.748,44.2236],[1.7464,44.2244],[1.7489,44.2263],[1.7562,44.2291],[1.7642,44.2319],[1.7666,44.2322],[1.7668,44.2325],[1.7652,44.2347],[1.7645,44.2363],[1.7654,44.237],[1.7694,44.2371],[1.7719,44.2369],[1.7731,44.2395],[1.7791,44.2388]]]},"properties":{"id_ffco":"3705","nom":"CAYLUS - SAINT AMANS LE VIEUX","_dept":"82","numero":"2003-D82-025","commune":"Caylus","echelle":"1/10000","surface":"6.89 km²","format":"A4","annee":"2003","cartographes":"A Pellegry","proprietaire":"82 - Tarn-et-Garonne","niveau":"National, International","specialite":"CO à pied","latitude":"44.2203390798","longitude":"1.7670340789","date_saisie":"21/11/2003","date_depot":"24/11/2003","valide":"Oui","ppo":"Non","type_carte":"Nouvelle carte","fond":"Ortho","obsolete":false}},{"type":"Feature","geometry":{"type":"Polygon","coordinates":[[[1.7739,44.306],[1.7725,44.3061],[1.77,44.3059],[1.7683,44.3058],[1.7666,44.3057],[1.7658,44.3063],[1.7557,44.3059],[1.756,44.3011],[1.7566,44.2981],[1.7573,44.2965],[1.7563,44.297],[1.7568,44.296],[1.7577,44.2952],[1.7574,44.2938],[1.7561,44.2927],[1.7496,44.289],[1.7467,44.2857],[1.7443,44.2826],[1.7439,44.2796],[1.7439,44.2782],[1.7443,44.2756],[1.7441,44.2745],[1.7438,44.2732],[1.7455,44.2701],[1.7471,44.2673],[1.7517,44.264],[1.7528,44.2625],[1.7528,44.2608],[1.7541,44.2592],[1.7565,44.2577],[1.7599,44.256],[1.7629,44.2546],[1.7646,44.2535],[1.7655,44.2525],[1.7675,44.2523],[1.7697,44.2528],[1.7711,44.2545],[1.7715,44.2555],[1.7738,44.2576],[1.7756,44.2587],[1.7772,44.2598],[1.7781,44.2604],[1.777,44.2623],[1.7758,44.2629],[1.7742,44.2638],[1.7747,44.2648],[1.7769,44.2658],[1.7784,44.2661],[1.7799,44.266],[1.781,44.2661],[1.7837,44.2669],[1.7849,44.2678],[1.7817,44.2677],[1.7812,44.2687],[1.7814,44.2695],[1.7819,44.2696],[1.7821,44.2701],[1.7827,44.2711],[1.783,44.2719],[1.7831,44.2725],[1.7838,44.2733],[1.7848,44.2743],[1.7857,44.2754],[1.7867,44.2768],[1.7868,44.2781],[1.7865,44.2797],[1.7872,44.2801],[1.7857,44.2815],[1.7839,44.2827],[1.7821,44.2838],[1.78,44.2849],[1.7782,44.2859],[1.7773,44.2865],[1.7781,44.288],[1.7795,44.2902],[1.7802,44.2915],[1.7816,44.2918],[1.7811,44.2935],[1.7812,44.2953],[1.7793,44.2961],[1.778,44.2965],[1.7782,44.2977],[1.7788,44.2993],[1.7802,44.3009],[1.778,44.3016],[1.7772,44.3038],[1.7768,44.3045],[1.7747,44.3045],[1.7738,44.3046],[1.7739,44.306]]]},"properties":{"id_ffco":"3707","nom":"LE GABACH","_dept":"82","numero":"2003-D82-024","commune":"Caylus","echelle":"1/15000","surface":"13.38 km²","format":"A3","annee":"2003","cartographes":"A Pellegry","proprietaire":"82 - Tarn-et-Garonne","niveau":"National, International","specialite":"CO à pied","latitude":"44.2797258898","longitude":"1.76517378928","date_saisie":"21/11/2003","date_depot":"24/11/2003","valide":"Oui","ppo":"Non","type_carte":"Nouvelle carte","fond":"Ortho","obsolete":false}},{"type":"Feature","geometry":{"type":"Polygon","coordinates":[[[1.5352,44.1581],[1.5352,44.1569],[1.5352,44.1556],[1.5373,44.1547],[1.5376,44.1553],[1.5389,44.1548],[1.5403,44.1551],[1.54,44.1561],[1.5393,44.1569],[1.5381,44.1577],[1.5373,44.1581],[1.5361,44.1582],[1.5352,44.1581]]]},"properties":{"id_ffco":"3942","nom":"COLLEGE PIERRE DARASSE","_dept":"82","numero":"2000-D82-022","commune":"CAUSSADE","echelle":"1/2000","surface":"0.11 km²","format":"A4","annee":"2000","cartographes":"V Moresmau","proprietaire":"8202 - MONTAUBAN LOISIRS ORIENTATION","niveau":"Départemental","specialite":"CO à pied","latitude":"44.1564045849","longitude":"1.53742104231","date_saisie":"23/06/2005","date_depot":"22/07/2005","valide":"Oui","ppo":"Non","type_carte":"Nouvelle carte","fond":"Ortho","obsolete":false}},{"type":"Feature","geometry":{"type":"Polygon","coordinates":[[[1.545,44.164],[1.5441,44.1662],[1.546,44.1682],[1.5453,44.1691],[1.5445,44.1699],[1.5452,44.171],[1.5464,44.1719],[1.5462,44.1727],[1.5474,44.1729],[1.5474,44.1737],[1.5483,44.1738],[1.5486,44.1743],[1.5486,44.1747],[1.5497,44.175],[1.55,44.1754],[1.5506,44.1758],[1.5511,44.1759],[1.5518,44.1764],[1.5527,44.1761],[1.5537,44.1759],[1.5546,44.1762],[1.5553,44.1768],[1.5559,44.1771],[1.5566,44.1767],[1.5571,44.1765],[1.5583,44.1769],[1.5587,44.1765],[1.5587,44.176],[1.559,44.1756],[1.5599,44.1759],[1.5608,44.1758],[1.561,44.1751],[1.5614,44.1749],[1.5622,44.1753],[1.5629,44.1753],[1.5663,44.1734],[1.5527,44.1664],[1.545,44.164]]]},"properties":{"id_ffco":"3940","nom":"BASE DE LOISIRS DU PARC DE LA LERE","_dept":"82","numero":"2000-D82-021","commune":"Caussade","echelle":"1/7500","surface":"1.32 km²","format":"A4","annee":"2000","cartographes":"ESCUDIE Christian","proprietaire":"8203 - SPORT CAUSSADE ORIENTATION","niveau":"Régional","specialite":"CO à pied","latitude":"44.1712091641","longitude":"1.55354673549","date_saisie":"23/06/2005","date_depot":"22/07/2005","valide":"Oui","ppo":"Non","type_carte":"Nouvelle carte","fond":"Ortho","obsolete":false}},{"type":"Feature","geometry":{"type":"Polygon","coordinates":[[[1.6344,44.2575],[1.6353,44.2541],[1.6364,44.2489],[1.6376,44.2484],[1.6397,44.2484],[1.6417,44.2479],[1.6434,44.2483],[1.6436,44.2498],[1.6446,44.25],[1.6464,44.2505],[1.647,44.251],[1.6489,44.2502],[1.6512,44.2496],[1.6537,44.2493],[1.6608,44.2485],[1.6625,44.2505],[1.6625,44.2512],[1.6643,44.25],[1.6647,44.2526],[1.6649,44.2537],[1.6661,44.2548],[1.6669,44.256],[1.6653,44.2585],[1.6658,44.2595],[1.6666,44.2599],[1.6679,44.2603],[1.6692,44.2613],[1.6707,44.2626],[1.6716,44.2636],[1.6727,44.2645],[1.674,44.2649],[1.6758,44.2655],[1.6785,44.2658],[1.681,44.266],[1.6817,44.2671],[1.6816,44.2676],[1.6822,44.268],[1.6833,44.2682],[1.685,44.2698],[1.6872,44.2718],[1.6889,44.2732],[1.6895,44.2742],[1.6891,44.2753],[1.6859,44.2762],[1.6829,44.2774],[1.6794,44.2795],[1.6773,44.2803],[1.6754,44.2815],[1.6744,44.2827],[1.6727,44.2841],[1.6691,44.2853],[1.6672,44.2858],[1.6661,44.2853],[1.6641,44.2836],[1.6623,44.2827],[1.6613,44.2826],[1.6601,44.2819],[1.6581,44.2816],[1.6559,44.2812],[1.6529,44.2811],[1.6495,44.2806],[1.6482,44.2774],[1.6456,44.275],[1.6458,44.2742],[1.6464,44.2732],[1.6457,44.2718],[1.6449,44.2709],[1.6446,44.2701],[1.6449,44.2695],[1.6442,44.2681],[1.6443,44.2662],[1.6408,44.2659],[1.6386,44.2657],[1.6364,44.2651],[1.6358,44.2646],[1.6352,44.2636],[1.6335,44.261],[1.6352,44.2608],[1.6368,44.26],[1.6352,44.2583],[1.6344,44.2575]]]},"properties":{"id_ffco":"3094","nom":"LES SOURCES DE LA LERE","_dept":"82","numero":"1998-D82-014","commune":"PUYLAROQUE","echelle":"1/10000","surface":"10.24 km²","format":"+","annee":"1998","cartographes":"Gérard VENON","proprietaire":"82 - Tarn-et-Garonne","niveau":"National, International","specialite":"CO à pied","latitude":"44.2665782541","longitude":"1.65908568609","date_depot":"03/12/2015","valide":"Oui","ppo":"Non","type_carte":"Nouvelle carte","fond":"Ortho","obsolete":false}}]}