{"type":"FeatureCollection","features":[{"type":"Feature","geometry":{"type":"Polygon","coordinates":[[[1.07,44.3178],[1.0681,44.3168],[1.0675,44.3154],[1.0674,44.3137],[1.0677,44.3117],[1.0675,44.3107],[1.0665,44.31],[1.0682,44.3028],[1.0698,44.3027],[1.0736,44.3026],[1.0749,44.3024],[1.0783,44.3025],[1.0794,44.3023],[1.0808,44.3016],[1.082,44.3014],[1.0835,44.301],[1.0854,44.3006],[1.0869,44.3003],[1.0879,44.2998],[1.0883,44.2989],[1.0886,44.2987],[1.0891,44.2993],[1.0893,44.3],[1.0903,44.2998],[1.0909,44.2998],[1.0911,44.3006],[1.0927,44.3028],[1.0932,44.3058],[1.093,44.308],[1.0932,44.3106],[1.086,44.3142],[1.0841,44.3145],[1.0806,44.3154],[1.0752,44.3165],[1.07,44.3178]]]},"properties":{"id_ffco":"1405","nom":"BOULOC","_dept":"82","numero":"1993-D82-09","commune":"BOULOC","echelle":"1/10000","surface":"3.06 km²","format":"A4","annee":"1993","cartographes":"A Pellegry","proprietaire":"82 - Tarn-et-Garonne","niveau":"Interrégional","specialite":"CO à pied","latitude":"44.3084658656","longitude":"1.07968985317","date_depot":"23/10/2015","valide":"Oui","ppo":"Non","type_carte":"Nouvelle carte","fond":"Ortho","obsolete":true}},{"type":"Feature","geometry":{"type":"Polygon","coordinates":[[[1.7114,44.2816],[1.7106,44.2805],[1.7224,44.2685],[1.7246,44.2666],[1.7275,44.2665],[1.7287,44.2693],[1.73,44.2707],[1.73,44.2717],[1.7295,44.273],[1.7309,44.2733],[1.7324,44.2717],[1.7334,44.2703],[1.7352,44.2699],[1.7397,44.2708],[1.7442,44.2713],[1.7447,44.2732],[1.7449,44.2746],[1.745,44.276],[1.7444,44.2792],[1.7415,44.2794],[1.737,44.2796],[1.7332,44.2795],[1.7292,44.2801],[1.7277,44.281],[1.7226,44.2817],[1.7189,44.282],[1.7161,44.2821],[1.7114,44.2816]]]},"properties":{"id_ffco":"8572","nom":"JEAN COUSY","_dept":"82","numero":"1992-D82-08","commune":"CAYLUS","echelle":"1/10000","surface":"2.78 km²","format":"A4","annee":"1992","cartographes":"STAGE CARTO,C. ESCUDIE","niveau":"Interrégional","specialite":"CO à pied","latitude":"44.2755245344","longitude":"1.72838800908","date_saisie":"01/09/2015","date_depot":"23/10/2015","valide":"Oui","ppo":"Non","type_carte":"Nouvelle carte","fond":"Ortho","obsolete":true}},{"type":"Feature","geometry":{"type":"Polygon","coordinates":[[[1.7563,44.3093],[1.7666,44.3055],[1.7739,44.3057],[1.7736,44.3043],[1.777,44.3039],[1.7779,44.3023],[1.7789,44.3002],[1.7778,44.2977],[1.7775,44.2967],[1.778,44.2965],[1.7797,44.2942],[1.7798,44.2921],[1.7777,44.2879],[1.7777,44.2857],[1.7805,44.2805],[1.7819,44.2759],[1.7824,44.2727],[1.782,44.2708],[1.7787,44.2708],[1.7685,44.2711],[1.7672,44.2653],[1.7526,44.2633],[1.7473,44.2675],[1.7438,44.2736],[1.7447,44.2759],[1.7442,44.2822],[1.7481,44.2872],[1.7554,44.2922],[1.7571,44.2974],[1.756,44.3037],[1.7558,44.3071],[1.7563,44.3093]]]},"properties":{"id_ffco":"8571","nom":"LA TRIVIALE","_dept":"82","numero":"1992-D82-07","commune":"Caylus","echelle":"1/15000","surface":"10.24 km²","format":"A4","annee":"1992","cartographes":"STAGE CARTO,ESCUDIE","niveau":"Interrégional","specialite":"CO à pied","latitude":"44.2842370924","longitude":"1.763462748","date_saisie":"01/09/2015","date_depot":"23/10/2015","valide":"Oui","ppo":"Non","type_carte":"Nouvelle carte","fond":"Ortho","obsolete":true}},{"type":"Feature","geometry":{"type":"Polygon","coordinates":[[[1.7783,44.2877],[1.7733,44.2899],[1.7636,44.2887],[1.7627,44.2882],[1.7609,44.2894],[1.7576,44.2909],[1.7534,44.2909],[1.7476,44.287],[1.745,44.2827],[1.7443,44.2805],[1.7443,44.2757],[1.7438,44.2738],[1.7455,44.2696],[1.753,44.2628],[1.7529,44.2608],[1.7558,44.2582],[1.7592,44.257],[1.7633,44.2547],[1.7648,44.2533],[1.7662,44.2525],[1.7697,44.2529],[1.7715,44.2552],[1.7734,44.2575],[1.7694,44.2627],[1.7675,44.265],[1.7685,44.271],[1.7742,44.2709],[1.7743,44.2721],[1.7755,44.2726],[1.78,44.274],[1.7821,44.2752],[1.7821,44.2789],[1.7803,44.2819],[1.7783,44.2858],[1.7775,44.2863],[1.7783,44.2877]]]},"properties":{"id_ffco":"8570","nom":"LES ESPOGOTS 2","_dept":"82","numero":"1992-D82-06","commune":"CAYLUS","echelle":"1/15000","surface":"8.23 km²","format":"A4","annee":"1992","cartographes":"STAGE CARTO,C. ESCUDIE","niveau":"Interrégional","specialite":"CO à pied","latitude":"44.27472514","longitude":"1.76186869732","date_saisie":"01/09/2015","date_depot":"23/10/2015","valide":"Oui","ppo":"Non","type_carte":"Reprise","base":"1989-D82-05 ESPAGOTS","fond":"Ortho","obsolete":true}},{"type":"Feature","geometry":{"type":"Polygon","coordinates":[[[1.2588,43.9626],[1.258,43.9566],[1.2538,43.9557],[1.2553,43.9488],[1.2535,43.9464],[1.2537,43.9428],[1.2529,43.9392],[1.2534,43.9364],[1.2583,43.927],[1.262,43.9265],[1.2658,43.9275],[1.2678,43.927],[1.2736,43.9253],[1.2754,43.9244],[1.2819,43.9255],[1.294,43.931],[1.2979,43.936],[1.2994,43.9374],[1.2894,43.9538],[1.279,43.9623],[1.2701,43.9693],[1.2649,43.9755],[1.2582,43.9801],[1.2545,43.9815],[1.2508,43.9786],[1.2512,43.9766],[1.2531,43.9736],[1.2502,43.9716],[1.2527,43.9699],[1.2549,43.9685],[1.2568,43.9665],[1.2588,43.9626]]]},"properties":{"id_ffco":"12489","nom":"FORET D'AGRE Complète","_dept":"82","numero":"2019-D82-059","commune":"MONTECH","echelle":"1/25000","surface":"14.15 km²","format":"A4","annee":"2019","cartographes":"Alain Pellegry","proprietaire":"82 - Tarn-et-Garonne","niveau":"Interrégional","specialite":"CO à pied","latitude":"43.9477994203","longitude":"1.27186253458","date_saisie":"29/12/2020","date_depot":"21/01/2021","valide":"Oui","ppo":"Non","type_carte":"Nouvelle carte","fond":"Ortho","obsolete":true}},{"type":"Feature","geometry":{"type":"Polygon","coordinates":[[[1.276,43.941],[1.2713,43.9367],[1.2662,43.9276],[1.2772,43.9247],[1.2803,43.925],[1.2832,43.9266],[1.2911,43.9297],[1.2965,43.933],[1.2971,43.9345],[1.297,43.9359],[1.299,43.9374],[1.2927,43.9488],[1.2893,43.9528],[1.276,43.941]]]},"properties":{"id_ffco":"11192","nom":"LA CROIX DE CANCELLE","_dept":"82","numero":"2018-D82-056","commune":"MONTECH","echelle":"1/10000","surface":"4.39 km²","format":"A4","annee":"2018","cartographes":"Alain Pellegry","proprietaire":"82 - Tarn-et-Garonne","niveau":"Interrégional","specialite":"CO à pied","latitude":"43.9366595263","longitude":"1.28371661806","date_saisie":"20/11/2018","date_depot":"29/01/2019","valide":"Oui","ppo":"Non","type_carte":"Nouvelle carte","fond":"Ortho","obsolete":true}},{"type":"Feature","geometry":{"type":"Polygon","coordinates":[[[1.6685,44.0564],[1.6684,44.0545],[1.6684,44.0537],[1.6665,44.0534],[1.664,44.0532],[1.6616,44.0537],[1.6604,44.0545],[1.6592,44.056],[1.6584,44.0574],[1.6579,44.0582],[1.6572,44.0596],[1.6571,44.0599],[1.6571,44.0604],[1.6654,44.0603],[1.6662,44.0588],[1.6668,44.0576],[1.6685,44.0564]]]},"properties":{"id_ffco":"9744","nom":"BRUNIQUEL VILLAGE","_dept":"82","numero":"2016-D82-055","commune":"BRUNIQUEL","echelle":"1/4000","surface":"0.52 km²","format":"A4","annee":"2016","cartographes":"C. ESCUDIE","proprietaire":"82 - Tarn-et-Garonne","niveau":"Interrégional","specialite":"CO à pied","latitude":"44.0569496194","longitude":"1.66308436256","date_saisie":"22/10/2016","date_depot":"07/12/2016","valide":"Oui","ppo":"Non","type_carte":"Nouvelle carte","fond":"Ortho","obsolete":true}},{"type":"Feature","geometry":{"type":"Polygon","coordinates":[[[1.6663,44.0612],[1.6548,44.0614],[1.6534,44.0614],[1.6522,44.0613],[1.6524,44.0607],[1.6538,44.0597],[1.6542,44.0584],[1.654,44.0566],[1.6526,44.0547],[1.6513,44.0531],[1.6507,44.0517],[1.6514,44.0483],[1.6521,44.0478],[1.6521,44.0465],[1.6515,44.0458],[1.6507,44.045],[1.6509,44.0443],[1.6523,44.0414],[1.6517,44.0392],[1.6512,44.037],[1.6506,44.0345],[1.6498,44.0327],[1.6497,44.0303],[1.6494,44.0274],[1.6495,44.0261],[1.651,44.0254],[1.652,44.0258],[1.6539,44.0262],[1.6554,44.0261],[1.6594,44.0255],[1.6605,44.0253],[1.6625,44.0247],[1.6634,44.025],[1.6636,44.0261],[1.6643,44.027],[1.6644,44.0282],[1.6651,44.0285],[1.667,44.029],[1.6667,44.0309],[1.6661,44.0334],[1.6661,44.0351],[1.667,44.0369],[1.6679,44.0385],[1.669,44.0392],[1.6694,44.0401],[1.669,44.0412],[1.6683,44.0419],[1.6682,44.0429],[1.6685,44.0439],[1.6696,44.0449],[1.6717,44.0461],[1.6734,44.0472],[1.6738,44.0493],[1.673,44.0505],[1.673,44.0516],[1.6723,44.0539],[1.6719,44.0554],[1.6712,44.0565],[1.671,44.0571],[1.6688,44.0574],[1.6672,44.0582],[1.6663,44.0612]]]},"properties":{"id_ffco":"9729","nom":"BRUNIQUEL BRIAN DU CAUSSE","_dept":"82","numero":"2016-D82-054","commune":"BRUNIQUEL","echelle":"1/10000","surface":"5.56 km²","format":"A4","annee":"2016","cartographes":"Alain Pellegry,C. ESCUDIE","proprietaire":"82 - Tarn-et-Garonne","niveau":"Interrégional","specialite":"CO à pied","latitude":"44.0438581906","longitude":"1.66034928523","date_saisie":"11/10/2016","date_depot":"24/10/2016","valide":"Oui","ppo":"Non","type_carte":"Reprise","base":"2003-D82-028 Brian de Causse","fond":"Ortho","obsolete":true}},{"type":"Feature","geometry":{"type":"Polygon","coordinates":[[[1.7532,44.2138],[1.7525,44.2161],[1.7515,44.2209],[1.7511,44.2217],[1.7506,44.2233],[1.7493,44.2237],[1.7488,44.2245],[1.7484,44.2259],[1.7579,44.2299],[1.7651,44.2323],[1.7673,44.2323],[1.7659,44.2342],[1.7642,44.2358],[1.7643,44.2367],[1.7674,44.2371],[1.7705,44.2369],[1.7721,44.2371],[1.7739,44.2378],[1.775,44.2393],[1.7776,44.2394],[1.7786,44.2391],[1.7801,44.2335],[1.7794,44.2301],[1.7787,44.2271],[1.7776,44.226],[1.7774,44.2241],[1.777,44.2215],[1.7776,44.22],[1.7796,44.2181],[1.7815,44.2157],[1.7816,44.213],[1.7806,44.2089],[1.7786,44.2065],[1.777,44.2052],[1.7733,44.2035],[1.7701,44.2024],[1.7685,44.204],[1.767,44.2048],[1.7649,44.2057],[1.7636,44.207],[1.7623,44.2063],[1.7613,44.2048],[1.7608,44.2043],[1.7583,44.2051],[1.7577,44.2052],[1.7568,44.2043],[1.7552,44.2046],[1.7529,44.2053],[1.752,44.207],[1.7515,44.2077],[1.7516,44.2084],[1.7527,44.2097],[1.754,44.2103],[1.7537,44.2113],[1.7532,44.2138]]]},"properties":{"id_ffco":"9728","nom":"CAYLUS-SAINT AMANSLE VIEUX","_dept":"82","numero":"2016-D82-053","commune":"CAYLUS","echelle":"1/10000","surface":"7.16 km²","format":"A4","annee":"2016","cartographes":"Alain Pellegry","proprietaire":"82 - Tarn-et-Garonne","niveau":"Interrégional","specialite":"CO à pied","latitude":"44.2196258429","longitude":"1.76675199032","date_saisie":"11/10/2016","date_depot":"24/10/2016","valide":"Oui","ppo":"Non","type_carte":"Reprise","base":"2003-D82-025 CAYLUS - SAINT AMANS LE VIEUX","fond":"Ortho","obsolete":true}},{"type":"Feature","geometry":{"type":"Polygon","coordinates":[[[1.7732,44.2899],[1.763,44.2881],[1.7609,44.2895],[1.7585,44.2902],[1.7577,44.2909],[1.7543,44.2914],[1.75,44.2888],[1.747,44.2859],[1.7455,44.2828],[1.7441,44.2821],[1.7445,44.2762],[1.7448,44.2753],[1.744,44.2736],[1.7466,44.2686],[1.7521,44.2639],[1.7532,44.2618],[1.7531,44.2606],[1.7572,44.2576],[1.7638,44.255],[1.7652,44.2529],[1.7671,44.2514],[1.7712,44.2515],[1.7737,44.2531],[1.7715,44.2558],[1.7733,44.2572],[1.7732,44.2578],[1.767,44.2651],[1.7675,44.2675],[1.7686,44.2708],[1.7706,44.271],[1.7733,44.2708],[1.7746,44.2709],[1.7761,44.2707],[1.7768,44.2706],[1.7777,44.271],[1.7781,44.272],[1.7779,44.2712],[1.7784,44.2726],[1.7794,44.2742],[1.7808,44.2799],[1.7783,44.2861],[1.7731,44.2884],[1.7732,44.2899]]]},"properties":{"id_ffco":"1409","nom":"ESPAGOTS","_dept":"82","numero":"1989-D82-05","commune":"CAYLUS","echelle":"1/15000","surface":"8.15 km²","format":"A3","annee":"1989","cartographes":"VILLET,BAUMANN","proprietaire":"8201","niveau":"Interrégional","specialite":"CO à pied","latitude":"44.2742843389","longitude":"1.76179426205","valide":"Oui","ppo":"Non","type_carte":"Nouvelle carte","fond":"Ortho","obsolete":true}},{"type":"Feature","geometry":{"type":"Polygon","coordinates":[[[0.9999,43.8873],[1.0008,43.8865],[1.0037,43.8874],[1.0042,43.8875],[1.0049,43.8868],[1.0068,43.8876],[1.0085,43.886],[1.0086,43.8854],[1.0089,43.8848],[1.0089,43.8842],[1.0087,43.8834],[1.0085,43.8832],[1.0066,43.8828],[1.0049,43.8826],[1.0038,43.8824],[1.0026,43.8823],[1.0022,43.8828],[1.0018,43.8834],[1.0012,43.8836],[1.0008,43.884],[1.0,43.884],[0.9991,43.8834],[0.9984,43.8834],[0.9976,43.8835],[0.9971,43.8834],[0.9969,43.8827],[0.9965,43.8824],[0.9956,43.8823],[0.9947,43.8829],[0.9942,43.8832],[0.9948,43.8843],[0.9968,43.8854],[0.9999,43.8873]]]},"properties":{"id_ffco":"8593","nom":"BEAUMONT DE LOMAGNE LAC","_dept":"82","numero":"2012-D82-049","commune":"BEAUMONT DE LOMAGE","echelle":"1/5000","surface":"0.45 km²","format":"A4","annee":"2012","cartographes":"Pierre ROC","proprietaire":"82 - Tarn-et-Garonne","niveau":"Départemental","specialite":"CO à pied","latitude":"43.884813426","longitude":"1.00243893916","date_saisie":"03/09/2015","date_depot":"23/10/2015","valide":"Oui","ppo":"Non","type_carte":"Nouvelle carte","fond":"Ortho","obsolete":true}},{"type":"Feature","geometry":{"type":"Polygon","coordinates":[[[1.24,44.129],[1.2398,44.1284],[1.2398,44.1275],[1.24,44.1265],[1.24,44.126],[1.2396,44.1255],[1.2399,44.1252],[1.2407,44.1252],[1.2411,44.1254],[1.2427,44.1244],[1.2454,44.1231],[1.2467,44.123],[1.248,44.1229],[1.2487,44.1227],[1.25,44.1223],[1.2516,44.1218],[1.2526,44.1215],[1.2535,44.1213],[1.2538,44.1206],[1.2542,44.12],[1.2549,44.1198],[1.2561,44.1194],[1.2567,44.119],[1.2576,44.1188],[1.2591,44.1188],[1.2598,44.1189],[1.2612,44.1186],[1.2625,44.1183],[1.2645,44.1181],[1.2656,44.1181],[1.2668,44.1179],[1.2676,44.1174],[1.2681,44.1166],[1.2688,44.1161],[1.2706,44.1155],[1.2714,44.1156],[1.2726,44.1163],[1.2736,44.1162],[1.2762,44.1154],[1.2772,44.1152],[1.2779,44.1156],[1.2782,44.1163],[1.2786,44.1168],[1.2787,44.1175],[1.279,44.1186],[1.2784,44.1196],[1.2775,44.1208],[1.2752,44.1218],[1.2745,44.1225],[1.2739,44.1232],[1.273,44.1237],[1.2712,44.125],[1.2703,44.126],[1.2689,44.1266],[1.2685,44.1267],[1.267,44.1261],[1.2659,44.1257],[1.2639,44.127],[1.2616,44.1282],[1.2602,44.129],[1.2605,44.1293],[1.26,44.1299],[1.2594,44.1301],[1.2591,44.1306],[1.2586,44.1308],[1.2583,44.1317],[1.2577,44.1325],[1.2573,44.1335],[1.257,44.1343],[1.257,44.1346],[1.2544,44.1345],[1.2524,44.1343],[1.2504,44.1337],[1.2488,44.1328],[1.2472,44.1319],[1.2457,44.1312],[1.2454,44.1311],[1.2438,44.1311],[1.2427,44.131],[1.2419,44.1307],[1.2413,44.1308],[1.2408,44.1306],[1.2406,44.1292],[1.24,44.129]]]},"properties":{"id_ffco":"8589","nom":"LAFRANCAISE  LA VALLEE DES LOISIRS","_dept":"82","numero":"2010-D82-045","commune":"LA FRANCAISE","echelle":"1/10000","surface":"3.23 km²","format":"A4","annee":"2010","cartographes":"A Pellegry","proprietaire":"82 - Tarn-et-Garonne","niveau":"Interrégional","specialite":"CO à pied","latitude":"44.124636783","longitude":"1.25867651819","date_saisie":"03/09/2015","date_depot":"23/10/2015","valide":"Oui","ppo":"Non","type_carte":"Nouvelle carte","fond":"Ortho","obsolete":true}},{"type":"Feature","geometry":{"type":"Polygon","coordinates":[[[1.7792,44.2307],[1.78,44.2373],[1.7786,44.239],[1.7756,44.2393],[1.7739,44.2378],[1.7718,44.2367],[1.7689,44.2368],[1.7652,44.2368],[1.7644,44.2363],[1.765,44.235],[1.7667,44.2332],[1.7673,44.2324],[1.764,44.2319],[1.7575,44.2294],[1.7494,44.2265],[1.7483,44.2258],[1.7488,44.2249],[1.7494,44.2244],[1.7505,44.2243],[1.7507,44.2229],[1.7514,44.2226],[1.7515,44.2198],[1.7525,44.2167],[1.754,44.2148],[1.7545,44.214],[1.7528,44.2139],[1.7528,44.2129],[1.754,44.2116],[1.7543,44.2102],[1.7526,44.2102],[1.753,44.2085],[1.7521,44.208],[1.7515,44.208],[1.7527,44.2067],[1.7539,44.2046],[1.7549,44.2047],[1.756,44.2046],[1.7575,44.2052],[1.7591,44.205],[1.7604,44.2047],[1.762,44.2062],[1.7627,44.2078],[1.7633,44.2069],[1.7644,44.206],[1.7655,44.2054],[1.7679,44.2046],[1.769,44.2027],[1.7718,44.2033],[1.7751,44.2039],[1.7775,44.206],[1.7797,44.2078],[1.7812,44.2109],[1.7815,44.2139],[1.7809,44.2165],[1.7797,44.2178],[1.7774,44.2205],[1.777,44.222],[1.7773,44.223],[1.7772,44.2255],[1.7784,44.2269],[1.7792,44.2281],[1.7792,44.2307]]]},"properties":{"id_ffco":"8588","nom":"CAYLUS VILLAGE","_dept":"82","numero":"2010-D82-044","commune":"CAYLUS","echelle":"1/10000","surface":"7.03 km²","format":"A4","annee":"2010","cartographes":"A Pellegry","proprietaire":"82 - Tarn-et-Garonne","niveau":"Interrégional","specialite":"CO à pied","latitude":"44.2196611599","longitude":"1.76684843291","date_saisie":"03/09/2015","date_depot":"23/10/2015","valide":"Oui","ppo":"Non","type_carte":"Reprise","base":"2003-D82-025 CAYLUS - SAINT AMANS LE VIEUX","fond":"Ortho","obsolete":true}},{"type":"Feature","geometry":{"type":"Polygon","coordinates":[[[1.2682,43.9696],[1.2571,43.9661],[1.2581,43.9564],[1.2548,43.9555],[1.2543,43.9466],[1.2538,43.9356],[1.2571,43.9274],[1.266,43.9265],[1.2753,43.9403],[1.2885,43.9527],[1.2682,43.9696]]]},"properties":{"id_ffco":"1408","nom":"FORET AGRE","_dept":"82","numero":"1984-D82-04","commune":"Montech","echelle":"1/15000","surface":"7.98 km²","format":"A4","annee":"1984","cartographes":"RENARD,PETIT,REMY,VILLET","proprietaire":"8201","niveau":"Interrégional","specialite":"CO à pied","latitude":"43.9487025137","longitude":"1.26731186898","valide":"Oui","ppo":"Non","type_carte":"Nouvelle carte","fond":"Ortho","obsolete":true}},{"type":"Feature","geometry":{"type":"Polygon","coordinates":[[[1.2679,43.97],[1.2572,43.9664],[1.2547,43.9647],[1.2544,43.9461],[1.2601,43.9257],[1.2639,43.9232],[1.2713,43.9357],[1.279,43.944],[1.2885,43.9526],[1.2843,43.9569],[1.2756,43.964],[1.2679,43.97]]]},"properties":{"id_ffco":"8582","nom":"LE GRAND ROND  Forêt de Montech","_dept":"82","numero":"2009-D82-038","commune":"MONTECH","echelle":"1/10000","surface":"8.04 km²","format":"A4","annee":"2009","cartographes":"A Pellegry","proprietaire":"82 - Tarn-et-Garonne","niveau":"Interrégional","specialite":"CO à pied","latitude":"43.9497457133","longitude":"1.26750190985","date_saisie":"02/09/2015","valide":"Oui","ppo":"Non","type_carte":"Reprise","base":"1983-D82-01 FORET MONTECH","fond":"Ortho","obsolete":true}},{"type":"Feature","geometry":{"type":"Polygon","coordinates":[[[1.79,44.2935],[1.7847,44.2942],[1.7814,44.2948],[1.7772,44.2961],[1.7733,44.2977],[1.7728,44.3002],[1.7729,44.3025],[1.7734,44.3033],[1.7734,44.3037],[1.7734,44.3049],[1.7736,44.3053],[1.7736,44.3062],[1.774,44.3076],[1.7748,44.3085],[1.7753,44.3099],[1.7751,44.311],[1.7767,44.3112],[1.7941,44.3107],[1.7959,44.3086],[1.7967,44.3087],[1.7976,44.3075],[1.7984,44.307],[1.7979,44.3055],[1.7975,44.3039],[1.7965,44.3024],[1.7956,44.3017],[1.7964,44.3007],[1.797,44.3001],[1.7979,44.2996],[1.7976,44.2977],[1.7984,44.2937],[1.795,44.2923],[1.7936,44.2921],[1.7916,44.292],[1.7902,44.2934],[1.79,44.2935]]]},"properties":{"id_ffco":"8581","nom":"SAINT PROJET","_dept":"82","numero":"2008-D82-037","commune":"SAINT PROJET","echelle":"1/10000","surface":"3.48 km²","format":"A4","annee":"2008","cartographes":"A Pellegry","proprietaire":"82 - Tarn-et-Garonne","niveau":"Interrégional","specialite":"CO à pied","latitude":"44.3023067506","longitude":"1.78600549307","date_saisie":"02/09/2015","date_depot":"23/10/2015","valide":"Oui","ppo":"Non","type_carte":"Nouvelle carte","fond":"Ortho","obsolete":true}},{"type":"Feature","geometry":{"type":"Polygon","coordinates":[[[1.7692,44.1567],[1.7685,44.1574],[1.7653,44.1597],[1.7642,44.1599],[1.7652,44.1606],[1.7663,44.1615],[1.7674,44.162],[1.7687,44.1626],[1.77,44.1651],[1.7726,44.1651],[1.7775,44.1653],[1.7791,44.1641],[1.7797,44.1634],[1.7803,44.1629],[1.7788,44.1616],[1.7767,44.16],[1.7757,44.1596],[1.7749,44.159],[1.7742,44.1584],[1.7726,44.1578],[1.7707,44.1571],[1.7693,44.1565],[1.7692,44.1567]]]},"properties":{"id_ffco":"8580","nom":"LE CLOT DE MERIGOT Saint Antonin","_dept":"82","numero":"2008-D82-036","commune":"SAINT ANTONIN","echelle":"1/5000","surface":"0.69 km²","format":"A4","annee":"2008","cartographes":"A Pellegry","proprietaire":"82 - Tarn-et-Garonne","niveau":"Départemental","specialite":"CO à pied","latitude":"44.1614133247","longitude":"1.77245145973","date_saisie":"02/09/2015","date_depot":"23/10/2015","valide":"Oui","ppo":"Non","type_carte":"Nouvelle carte","fond":"Ortho","obsolete":true}},{"type":"Feature","geometry":{"type":"Polygon","coordinates":[[[1.7502,44.1508],[1.7503,44.1514],[1.7506,44.1514],[1.7504,44.152],[1.7507,44.1521],[1.7501,44.1527],[1.7502,44.1528],[1.7507,44.1528],[1.7504,44.1533],[1.7511,44.1536],[1.7518,44.1536],[1.7527,44.1536],[1.7537,44.1535],[1.7548,44.1535],[1.7553,44.1542],[1.7571,44.154],[1.7574,44.1533],[1.7579,44.1525],[1.7582,44.1521],[1.7577,44.1519],[1.7577,44.1516],[1.7578,44.1511],[1.758,44.1508],[1.7582,44.1505],[1.758,44.1499],[1.7581,44.1497],[1.7549,44.1496],[1.7502,44.1508]]]},"properties":{"id_ffco":"460","nom":"ST ANTONIN centre Ville","_dept":"82","numero":"2008-D82-035","commune":"ST ANTONIN","echelle":"1/2500","surface":"0.25 km²","format":"A4","annee":"2008","cartographes":"A Pellegry","proprietaire":"82 - Tarn-et-Garonne","niveau":"Régional","specialite":"CO à pied","latitude":"44.1518060531","longitude":"1.75439836505","date_depot":"23/10/2015","valide":"Oui","ppo":"Oui (40 postes)","type_carte":"Nouvelle carte","fond":"Ortho","obsolete":true}},{"type":"Feature","geometry":{"type":"Polygon","coordinates":[[[1.5881,43.964],[1.592,43.9648],[1.5952,43.9657],[1.5973,43.9663],[1.5998,43.9673],[1.6006,43.968],[1.6014,43.9703],[1.6024,43.9715],[1.6036,43.9726],[1.601,43.9723],[1.5978,43.9737],[1.5961,43.9735],[1.5932,43.9728],[1.5908,43.9725],[1.5891,43.9715],[1.5874,43.9705],[1.5864,43.9692],[1.5859,43.9686],[1.5857,43.9683],[1.5849,43.9685],[1.5836,43.9687],[1.5825,43.9682],[1.5814,43.9679],[1.5808,43.9679],[1.5813,43.9672],[1.5804,43.9663],[1.5821,43.9652],[1.5838,43.9645],[1.5843,43.9634],[1.5879,43.9621],[1.5879,43.9637],[1.5881,43.964]]]},"properties":{"id_ffco":"4436","nom":"Monclar De Quercy : les trois lacs","_dept":"82","numero":"2007-D82-031","commune":"Monclar De Quercy","echelle":"1/7500","surface":"1.17 km²","format":"A4","annee":"2007","cartographes":"M Cotirta,J. VIGUIER","proprietaire":"MP - Midi-Pyrénées","niveau":"Régional","specialite":"CO à pied","latitude":"43.9684125631","longitude":"1.59193873494","date_saisie":"29/12/2007","date_depot":"22/10/2009","valide":"Oui","ppo":"Non","type_carte":"Nouvelle carte","fond":"Ortho","obsolete":true}},{"type":"Feature","geometry":{"type":"Polygon","coordinates":[[[1.1845,44.1944],[1.1858,44.1955],[1.187,44.1959],[1.1877,44.1964],[1.1882,44.1974],[1.1888,44.1994],[1.1892,44.2012],[1.1882,44.2033],[1.1873,44.2047],[1.1872,44.2052],[1.1864,44.2055],[1.1863,44.2064],[1.1835,44.2065],[1.1833,44.2058],[1.1812,44.2064],[1.1802,44.2072],[1.1801,44.2079],[1.1762,44.2076],[1.1736,44.2075],[1.1724,44.2071],[1.1706,44.2076],[1.1691,44.2082],[1.1683,44.2089],[1.1672,44.2097],[1.1666,44.2102],[1.1601,44.2098],[1.1604,44.208],[1.1591,44.2076],[1.1589,44.2069],[1.1604,44.2062],[1.1598,44.205],[1.1617,44.204],[1.1627,44.2031],[1.1642,44.2022],[1.1667,44.2019],[1.1673,44.2014],[1.1688,44.1996],[1.1736,44.1979],[1.177,44.1967],[1.1791,44.196],[1.1817,44.1952],[1.1839,44.1948],[1.1845,44.1944]]]},"properties":{"id_ffco":"8578","nom":"SAINT ROC","_dept":"82","numero":"2006-D82-030","commune":"DURFORT LA CAPELETTE","echelle":"1/10000","surface":"2.38 km²","format":"A4","annee":"2006","cartographes":"A Pellegry","proprietaire":"82 - Tarn-et-Garonne","niveau":"Régional","specialite":"CO à pied","latitude":"44.2027878652","longitude":"1.17544531061","date_saisie":"02/09/2015","valide":"Oui","ppo":"Non","type_carte":"Nouvelle carte","fond":"Ortho","obsolete":true}},{"type":"Feature","geometry":{"type":"Polygon","coordinates":[[[1.7646,44.0202],[1.762,44.0265],[1.7611,44.0281],[1.7616,44.029],[1.7588,44.0318],[1.7579,44.0334],[1.7561,44.036],[1.7535,44.0373],[1.7524,44.0389],[1.7522,44.0416],[1.754,44.0437],[1.7554,44.0451],[1.7563,44.0467],[1.758,44.0488],[1.7565,44.05],[1.7355,44.0508],[1.7309,44.0489],[1.734,44.0451],[1.7342,44.044],[1.7342,44.043],[1.7326,44.0416],[1.7291,44.0394],[1.7285,44.0364],[1.7279,44.0331],[1.7288,44.0213],[1.7303,44.0175],[1.7317,44.0158],[1.733,44.0169],[1.734,44.0129],[1.7351,44.0086],[1.7355,44.0051],[1.7374,44.0015],[1.7414,43.9989],[1.7442,44.0042],[1.7451,44.0089],[1.7466,44.013],[1.7497,44.0168],[1.7545,44.0193],[1.7575,44.0199],[1.7638,44.0199],[1.7646,44.0202]]]},"properties":{"id_ffco":"1407","nom":"RO","_dept":"82","numero":"1984-D82-03","commune":"CASTELNAU DE MONT MIRAL","echelle":"1/15000","surface":"9.77 km²","format":"A4","annee":"1984","cartographes":"RENARD,PETIT,REMY,LAZAROWICZ VILLET","proprietaire":"8201","niveau":"Interrégional","specialite":"CO à pied","latitude":"44.0289572644","longitude":"1.74333808647","date_depot":"23/10/2015","valide":"Oui","ppo":"Non","type_carte":"Nouvelle carte","fond":"Ortho","obsolete":true}},{"type":"Feature","geometry":{"type":"Polygon","coordinates":[[[1.0836,43.961],[1.0775,43.9535],[1.079,43.9527],[1.0809,43.9513],[1.0819,43.9504],[1.0838,43.9499],[1.0854,43.9496],[1.087,43.9497],[1.0907,43.9495],[1.0918,43.9495],[1.0957,43.9556],[1.0942,43.9571],[1.0918,43.9582],[1.0879,43.9597],[1.0858,43.96],[1.0836,43.961]]]},"properties":{"id_ffco":"4289","nom":"Château De Terrides","_dept":"82","numero":"2006-D82-029","commune":"La Bourgade","echelle":"1/7500","surface":"1.2 km²","format":"A4","annee":"2006","cartographes":"F Jordan","proprietaire":"82 - Tarn-et-Garonne","niveau":"Régional","specialite":"CO à pied","latitude":"43.95465396","longitude":"1.08674667848","date_saisie":"03/12/2006","date_depot":"05/12/2006","valide":"Oui","ppo":"Non","type_carte":"Nouvelle carte","fond":"Ortho","obsolete":true}},{"type":"Feature","geometry":{"type":"Polygon","coordinates":[[[1.652,44.0613],[1.6646,44.0615],[1.6659,44.0585],[1.6682,44.0563],[1.6697,44.056],[1.6702,44.0538],[1.6713,44.0526],[1.6721,44.0508],[1.6732,44.05],[1.6741,44.0491],[1.6732,44.0472],[1.6704,44.0455],[1.6694,44.0445],[1.6686,44.044],[1.6689,44.0432],[1.6685,44.0423],[1.6687,44.0417],[1.6698,44.0407],[1.6696,44.0396],[1.6686,44.0374],[1.6725,44.0272],[1.66,44.0255],[1.649,44.0265],[1.6507,44.04],[1.6508,44.0417],[1.6515,44.0443],[1.6522,44.0471],[1.6515,44.0498],[1.6511,44.052],[1.651,44.0531],[1.6528,44.0547],[1.6542,44.0569],[1.6544,44.0585],[1.654,44.0595],[1.6529,44.0605],[1.652,44.0613]]]},"properties":{"id_ffco":"4133","nom":"Brian de Causse","_dept":"82","numero":"2003-D82-028","commune":"Bruniquel","echelle":"1/10000","surface":"5.89 km²","format":"A4","annee":"2003","cartographes":"A Pellegry","proprietaire":"82 - Tarn-et-Garonne","niveau":"National, International","specialite":"CO à pied","latitude":"44.0425471555","longitude":"1.66064365525","date_saisie":"17/11/2005","date_depot":"02/12/2015","valide":"Oui","ppo":"Non","type_carte":"Nouvelle carte","fond":"Ortho","obsolete":true}},{"type":"Feature","geometry":{"type":"Polygon","coordinates":[[[1.4246,43.9934],[1.4268,43.9936],[1.4296,43.9942],[1.4296,43.9962],[1.4303,43.9988],[1.4312,43.9997],[1.4312,44.0007],[1.43,44.0028],[1.4289,44.0048],[1.428,44.0066],[1.4278,44.0078],[1.4258,44.008],[1.4163,44.0125],[1.4146,44.0129],[1.4097,44.0155],[1.4088,44.0159],[1.4068,44.0163],[1.4043,44.0163],[1.4029,44.0157],[1.402,44.0156],[1.402,44.0124],[1.3984,44.0116],[1.3903,44.0124],[1.3896,44.0117],[1.3898,44.0105],[1.3911,44.0091],[1.3896,44.008],[1.3923,44.0061],[1.3982,44.0033],[1.4035,44.001],[1.41,43.9989],[1.4136,43.9974],[1.4165,43.9966],[1.4186,43.9961],[1.4206,43.9949],[1.4229,43.9941],[1.4246,43.9934]]]},"properties":{"id_ffco":"3943","nom":"LA PIBOULETTE  Le bois de la vieille","_dept":"82","numero":"2001-D82-023","commune":"Montauban","echelle":"1/15000","surface":"4.62 km²","format":"A4","annee":"2001","cartographes":"P Roch,Escudié Ch.","proprietaire":"82 - Tarn-et-Garonne","niveau":"Départemental","specialite":"CO à pied","latitude":"44.0052418733","longitude":"1.41233660177","date_saisie":"23/06/2005","date_depot":"22/07/2005","valide":"Oui","ppo":"Non","type_carte":"Nouvelle carte","fond":"Ortho","obsolete":true}},{"type":"Feature","geometry":{"type":"Polygon","coordinates":[[[1.3784,44.0221],[1.3779,44.0218],[1.3761,44.021],[1.3754,44.0206],[1.3792,44.0171],[1.382,44.0183],[1.3829,44.019],[1.3822,44.0198],[1.3812,44.021],[1.3807,44.0215],[1.3792,44.0219],[1.3784,44.0221]]]},"properties":{"id_ffco":"3272","nom":"LE RAMIEUROU","_dept":"82","numero":"2000-D82-020","commune":"MONTAUBAN","echelle":"1/2500","surface":"0.18 km²","format":"A4","annee":"2000","cartographes":"MORESMAU","proprietaire":"8203 - SPORT CAUSSADE ORIENTATION","niveau":"Départemental","specialite":"CO à pied","latitude":"44.0197382378","longitude":"1.37925650631","date_depot":"03/12/2015","valide":"Oui","ppo":"Non","type_carte":"Nouvelle carte","fond":"Ortho","obsolete":true}},{"type":"Feature","geometry":{"type":"Polygon","coordinates":[[[1.7561,44.3078],[1.7642,44.3069],[1.7665,44.3056],[1.7682,44.3057],[1.774,44.3061],[1.7739,44.3045],[1.7767,44.3045],[1.7779,44.3016],[1.7801,44.3011],[1.7775,44.2965],[1.78,44.2956],[1.781,44.2945],[1.7815,44.2908],[1.781,44.2902],[1.7775,44.2862],[1.7794,44.2834],[1.7818,44.2784],[1.7818,44.2751],[1.7824,44.2731],[1.7818,44.2729],[1.78,44.2737],[1.7777,44.2733],[1.7761,44.2722],[1.7754,44.2725],[1.7746,44.272],[1.7743,44.2709],[1.7689,44.2711],[1.7675,44.2664],[1.7681,44.2646],[1.7712,44.2636],[1.7749,44.2632],[1.7767,44.262],[1.7778,44.2604],[1.7769,44.2604],[1.775,44.2587],[1.7731,44.2572],[1.771,44.2549],[1.7707,44.2535],[1.7688,44.2525],[1.7654,44.2522],[1.7651,44.2533],[1.7638,44.2546],[1.76,44.2562],[1.757,44.2576],[1.7528,44.2605],[1.7528,44.2626],[1.7514,44.2643],[1.7481,44.2667],[1.7435,44.2735],[1.7446,44.2748],[1.7441,44.2779],[1.744,44.2818],[1.747,44.2861],[1.7503,44.2895],[1.7569,44.2934],[1.758,44.2949],[1.7568,44.2979],[1.7558,44.3052],[1.7543,44.3081],[1.7537,44.3092],[1.7561,44.3078]]]},"properties":{"id_ffco":"2462","nom":"MADRELLE","_dept":"82","numero":"1983-D82-02","commune":"CAYLUS","echelle":"1/15000","surface":"12.05 km²","format":"A4","annee":"1983","proprietaire":"82 - Tarn-et-Garonne","niveau":"Régional","specialite":"CO à pied","latitude":"44.2809783487","longitude":"1.76374808275","valide":"Non","ppo":"Non","type_carte":"Nouvelle carte","fond":"Ortho","obsolete":true}},{"type":"Feature","geometry":{"type":"Polygon","coordinates":[[[1.756,44.3077],[1.762,44.3076],[1.7649,44.3067],[1.7671,44.3057],[1.7719,44.3058],[1.7736,44.3058],[1.7741,44.3047],[1.7766,44.3046],[1.7773,44.3028],[1.7781,44.3016],[1.7799,44.3011],[1.7787,44.299],[1.7782,44.2973],[1.7776,44.2963],[1.7801,44.2957],[1.7809,44.295],[1.7812,44.2928],[1.7816,44.2913],[1.781,44.2898],[1.7789,44.2858],[1.7811,44.2804],[1.7824,44.2769],[1.7827,44.2724],[1.7802,44.2736],[1.7785,44.2733],[1.7776,44.2731],[1.7765,44.2723],[1.7755,44.2726],[1.7747,44.272],[1.7747,44.2708],[1.7711,44.2709],[1.7687,44.2709],[1.7683,44.2699],[1.7681,44.2676],[1.7682,44.2653],[1.7688,44.2648],[1.772,44.2639],[1.7741,44.2634],[1.7765,44.262],[1.7778,44.2606],[1.7773,44.2596],[1.7745,44.2575],[1.7724,44.2554],[1.7698,44.2527],[1.7671,44.2523],[1.7654,44.2524],[1.7639,44.2546],[1.7612,44.2555],[1.7583,44.257],[1.755,44.2586],[1.7531,44.2602],[1.7527,44.261],[1.7527,44.2626],[1.7511,44.2645],[1.7488,44.2661],[1.7461,44.2694],[1.7436,44.2736],[1.7445,44.2749],[1.7439,44.2786],[1.744,44.2807],[1.7444,44.2826],[1.7465,44.2855],[1.7484,44.2879],[1.753,44.2909],[1.7567,44.2933],[1.7581,44.2944],[1.7571,44.297],[1.7562,44.2997],[1.7559,44.3034],[1.7558,44.3054],[1.7555,44.3072],[1.756,44.3075],[1.756,44.3077]]]},"properties":{"id_ffco":"3939","nom":"LA MADRELLE","_dept":"82","numero":"2000-D82-019","commune":"Caylus","echelle":"1/15000","surface":"12.25 km²","format":"A3","annee":"2000","cartographes":"A Pellegry","proprietaire":"82 - Tarn-et-Garonne","niveau":"National, International","specialite":"CO à pied","latitude":"44.2808131344","longitude":"1.76392140525","date_saisie":"23/06/2005","date_depot":"22/07/2005","valide":"Oui","ppo":"Non","type_carte":"Reprise","base":"1983-D82-02 MADRELLE","fond":"Ortho","obsolete":true}},{"type":"Feature","geometry":{"type":"Polygon","coordinates":[[[1.7755,44.2359],[1.7736,44.2356],[1.7741,44.2361],[1.7743,44.2368],[1.7749,44.2373],[1.7742,44.2377],[1.7733,44.2371],[1.7723,44.2367],[1.7707,44.2367],[1.7685,44.2368],[1.7669,44.2368],[1.7656,44.2368],[1.7647,44.2366],[1.7645,44.2359],[1.7653,44.235],[1.766,44.2342],[1.7668,44.2335],[1.7674,44.2326],[1.7676,44.2322],[1.7678,44.2319],[1.769,44.2313],[1.7688,44.2308],[1.7742,44.2282],[1.7759,44.2277],[1.7762,44.2289],[1.7764,44.2303],[1.778,44.2303],[1.7789,44.2303],[1.7792,44.2315],[1.7787,44.2322],[1.7783,44.2333],[1.7772,44.2337],[1.7762,44.234],[1.7757,44.2345],[1.7761,44.2357],[1.7755,44.2359]]]},"properties":{"id_ffco":"3400","nom":"CIRQUE DE LABARTHE","_dept":"82","numero":"1999-D82-018","commune":"CAYLUS","echelle":"1/5000","surface":"0.69 km²","format":"A4","annee":"1999","cartographes":"ESCUDIE Christian","proprietaire":"82 - Tarn-et-Garonne","niveau":"Régional","specialite":"CO à pied","latitude":"44.2330391352","longitude":"1.7722418619","date_saisie":"23/11/2001","date_depot":"06/12/2001","valide":"Oui","ppo":"Non","type_carte":"Nouvelle carte","fond":"Ortho","obsolete":true}},{"type":"Feature","geometry":{"type":"Polygon","coordinates":[[[1.4559,44.0161],[1.4548,44.0161],[1.4539,44.0155],[1.4565,44.0106],[1.4576,44.0083],[1.4577,44.007],[1.4666,44.0011],[1.4702,44.0022],[1.4718,44.0035],[1.472,44.0062],[1.474,44.0063],[1.4782,44.0066],[1.48,44.0071],[1.4782,44.0095],[1.476,44.0107],[1.4764,44.0112],[1.4737,44.0128],[1.4725,44.0122],[1.4737,44.0137],[1.4731,44.0142],[1.4731,44.0147],[1.4715,44.0156],[1.4721,44.0162],[1.4675,44.0181],[1.4661,44.0195],[1.4647,44.0213],[1.4629,44.023],[1.4608,44.0235],[1.4547,44.0211],[1.4553,44.0193],[1.4554,44.0174],[1.4559,44.0161]]]},"properties":{"id_ffco":"8577","nom":"GENEU LOISIRS","_dept":"82","numero":"1998-D82-017","commune":"VERGNIOU","echelle":"1/10000","surface":"2.77 km²","format":"A4","annee":"1998","cartographes":"ESCUDIE Christian","proprietaire":"82 - Tarn-et-Garonne","niveau":"Départemental","specialite":"CO à pied","latitude":"44.0120392615","longitude":"1.46503937649","date_saisie":"01/09/2015","date_depot":"23/10/2015","valide":"Oui","ppo":"Non","type_carte":"Nouvelle carte","fond":"Ortho","obsolete":true}},{"type":"Feature","geometry":{"type":"Polygon","coordinates":[[[1.3705,44.0129],[1.3719,44.0138],[1.3722,44.0142],[1.373,44.0151],[1.374,44.0146],[1.3742,44.0143],[1.3746,44.0141],[1.3752,44.0139],[1.3751,44.0137],[1.375,44.0135],[1.3756,44.0132],[1.3751,44.0123],[1.3749,44.0122],[1.3728,44.0119],[1.3724,44.012],[1.3711,44.0126],[1.3705,44.0129]]]},"properties":{"id_ffco":"8576","nom":"LA FABIO 2","_dept":"82","numero":"1998-D82-016","commune":"MONTAUBAN","echelle":"1/2500","surface":"0.08 km²","format":"A4","annee":"1998","cartographes":"MORESMAU","proprietaire":"82 - Tarn-et-Garonne","niveau":"Départemental","specialite":"CO à pied","latitude":"44.0132520452","longitude":"1.37327190529","date_saisie":"01/09/2015","date_depot":"03/12/2015","valide":"Oui","ppo":"Non","type_carte":"Reprise","base":"1994-D82-010 LA FABOI","fond":"Ortho","obsolete":true}},{"type":"Feature","geometry":{"type":"Polygon","coordinates":[[[1.352,44.0139],[1.3512,44.0142],[1.352,44.0149],[1.3532,44.0155],[1.3549,44.0142],[1.3553,44.0142],[1.3554,44.014],[1.3553,44.0138],[1.3559,44.013],[1.3546,44.0124],[1.3538,44.0129],[1.3534,44.0126],[1.3526,44.0131],[1.352,44.0139]]]},"properties":{"id_ffco":"8575","nom":"LE JARDIN DES PLANTES","_dept":"82","numero":"1998-D82-015","commune":"MONTAUBAN","echelle":"1/2500","surface":"0.07 km²","format":"A4","annee":"1998","cartographes":"Julien VIGUIER","proprietaire":"82 - Tarn-et-Garonne","niveau":"Initiation, Scolaire","specialite":"CO à pied","latitude":"44.0138795637","longitude":"1.35360214016","date_saisie":"01/09/2015","date_depot":"23/10/2015","valide":"Oui","ppo":"Non","type_carte":"Nouvelle carte","fond":"Ortho","obsolete":true}},{"type":"Feature","geometry":{"type":"Polygon","coordinates":[[[1.2684,43.9699],[1.2569,43.9658],[1.2593,43.9621],[1.2586,43.9615],[1.2592,43.9599],[1.2582,43.9592],[1.2587,43.9566],[1.2564,43.9483],[1.2707,43.9494],[1.2845,43.9573],[1.2684,43.9699]]]},"properties":{"id_ffco":"3024","nom":"LE PETIT ROND","_dept":"82","numero":"1997-D82-013","commune":"MONTECH","echelle":"1/10000","surface":"3.33 km²","format":"A4","annee":"1997","cartographes":"ESCUDIE Christian","proprietaire":"82 - Tarn-et-Garonne","niveau":"Interrégional","specialite":"CO à pied","latitude":"43.9583947777","longitude":"1.2682163769","date_depot":"03/12/2015","valide":"Oui","ppo":"Non","type_carte":"Reprise","base":"1983-D82-01 FORET MONTECH","fond":"Ortho","obsolete":true}},{"type":"Feature","geometry":{"type":"Polygon","coordinates":[[[1.2686,43.9698],[1.2572,43.9662],[1.2598,43.9604],[1.267,43.9618],[1.2764,43.9627],[1.2686,43.9698]]]},"properties":{"id_ffco":"3025","nom":"LA MAISON FORESTIERE CENTRALE","_dept":"82","numero":"1998-D82-012","commune":"MONTECH","echelle":"1/5000","surface":"0.91 km²","format":"A4","annee":"1998","cartographes":"ESCUDIE Christian","proprietaire":"82 - Tarn-et-Garonne","niveau":"Régional","specialite":"CO à pied","latitude":"43.9648358053","longitude":"1.26593102978","date_depot":"03/12/2015","valide":"Oui","ppo":"Non","type_carte":"Reprise","base":"1983-D82-01 FORET MONTECH","fond":"Ortho","obsolete":true}},{"type":"Feature","geometry":{"type":"Polygon","coordinates":[[[1.0853,44.135],[1.0846,44.1353],[1.0843,44.1352],[1.084,44.1349],[1.0819,44.1359],[1.0798,44.1369],[1.0787,44.1374],[1.077,44.1376],[1.073,44.1406],[1.0746,44.1434],[1.0769,44.1426],[1.0784,44.1452],[1.0798,44.1465],[1.0857,44.1435],[1.0818,44.1395],[1.0848,44.1369],[1.0858,44.1359],[1.0853,44.135]]]},"properties":{"id_ffco":"8574","nom":"LE BOIS DE CHARRI","_dept":"82","numero":"1996-D82-011","commune":"MOISSAC","echelle":"1/5000","surface":"0.67 km²","format":"A4","annee":"1996","cartographes":"Gérard VENON","proprietaire":"82 - Tarn-et-Garonne","niveau":"Initiation, Scolaire","specialite":"CO à pied","latitude":"44.1408211568","longitude":"1.0798482254","date_saisie":"01/09/2015","date_depot":"23/10/2015","valide":"Oui","ppo":"Non","type_carte":"Nouvelle carte","fond":"Ortho","obsolete":true}},{"type":"Feature","geometry":{"type":"Polygon","coordinates":[[[1.3702,44.0128],[1.3729,44.0151],[1.3746,44.0144],[1.3748,44.0139],[1.3749,44.0134],[1.3757,44.0132],[1.3753,44.0122],[1.3731,44.0118],[1.3725,44.0116],[1.3702,44.0128]]]},"properties":{"id_ffco":"8573","nom":"LA FABOI","_dept":"82","numero":"1994-D82-010","commune":"MONTAUBAN","echelle":"1/2000","surface":"0.1 km²","format":"A5","annee":"1994","cartographes":"MORESMAU","proprietaire":"82 - Tarn-et-Garonne","niveau":"Initiation, Scolaire","specialite":"CO à pied","latitude":"44.013175418","longitude":"1.37310042086","date_saisie":"01/09/2015","valide":"Oui","ppo":"Non","type_carte":"Nouvelle carte","fond":"Ortho","obsolete":true}},{"type":"Feature","geometry":{"type":"Polygon","coordinates":[[[1.2684,43.9698],[1.2591,43.9666],[1.2598,43.9485],[1.2701,43.9493],[1.2851,43.9574],[1.2721,43.9663],[1.2684,43.9698]]]},"properties":{"id_ffco":"2461","nom":"FORET MONTECH","_dept":"82","numero":"1983-D82-01","commune":"Montech","echelle":"1/10000","surface":"3.09 km²","format":"A4","annee":"1983","proprietaire":"8201","niveau":"Interrégional","specialite":"CO à pied","latitude":"43.9585172096","longitude":"1.26892420352","date_depot":"23/10/2015","valide":"Oui","ppo":"Non","type_carte":"Nouvelle carte","fond":"Ortho","obsolete":true}},{"type":"Feature","geometry":{"type":"Polygon","coordinates":[[[1.7646,44.0203],[1.7636,44.0195],[1.7615,44.0187],[1.7608,44.0178],[1.7791,44.0157],[1.7857,44.0161],[1.7875,44.0174],[1.7895,44.0182],[1.791,44.0192],[1.7917,44.0202],[1.7935,44.0212],[1.7946,44.0224],[1.7952,44.0229],[1.7927,44.0388],[1.7521,44.0387],[1.7533,44.037],[1.7552,44.0362],[1.7558,44.0352],[1.7582,44.0325],[1.7591,44.0306],[1.7603,44.0299],[1.7614,44.0288],[1.7604,44.0275],[1.7611,44.0266],[1.7618,44.0244],[1.7626,44.0228],[1.7639,44.0215],[1.7646,44.0203]]]},"properties":{"id_ffco":"1406","nom":"GRESIGNE","_dept":"82","numero":"1984-D82-00","commune":"CASTELNAU DE MONT MIRAL","echelle":"1/15000","surface":"6.64 km²","format":"A4","annee":"1984","cartographes":"PETIT Patrick","proprietaire":"MP - Midi-Pyrénées","niveau":"Interrégional","specialite":"CO à pied","latitude":"44.0283408538","longitude":"1.77651540627","date_depot":"23/10/2015","valide":"Oui","ppo":"Non","type_carte":"Nouvelle carte","fond":"Ortho","obsolete":true}}]}