{"type":"FeatureCollection","features":[{"type":"Feature","geometry":null,"properties":{"id_ffco":"5640","nom":"Le Bois de Gourdon","_dept":"83","numero":"2003-D83-95","commune":"Camp de Canjuers","echelle":"1/10000","surface":"None km²","format":"A3","annee":"2003","cartographes":"SUISSE,JAOUEN,Thomas","proprietaire":"AZ - Côte d'Azur","niveau":"Interrégional","specialite":"CO à pied","date_saisie":"19/12/2012","valide":"Non","ppo":"Non","obsolete":true}},{"type":"Feature","geometry":{"type":"Polygon","coordinates":[[[6.251,43.3784],[6.249,43.378],[6.2478,43.3771],[6.2469,43.3755],[6.2449,43.3741],[6.245,43.3711],[6.2462,43.3703],[6.2489,43.3715],[6.2491,43.3731],[6.251,43.3734],[6.2527,43.3742],[6.2529,43.3759],[6.2529,43.3768],[6.2503,43.3769],[6.251,43.3784]]]},"properties":{"id_ffco":"5643","nom":"L'Aoubré","_dept":"83","numero":"2002-D83-92","commune":"Flassans","echelle":"1/3500","surface":"0.32 km²","format":"A4","annee":"2002","cartographes":"Alain Pellegry","proprietaire":"83 - Var","niveau":"Initiation, Scolaire","specialite":"CO à pied","latitude":"43.3743778939","longitude":"6.24866507386","date_saisie":"19/12/2012","valide":"Non","ppo":"Oui (20 postes)","type_carte":"Nouvelle carte","fond":"Ortho","obsolete":true}},{"type":"Feature","geometry":null,"properties":{"id_ffco":"5650","nom":"Thèmes","_dept":"83","numero":"2002-D83-83","commune":"Carnoules","echelle":"1/15000","surface":"None km²","format":"A4","annee":"2002","cartographes":"Alain Pellegry","proprietaire":"83 - Var","specialite":"CO à pied","date_saisie":"19/12/2012","valide":"Non","ppo":"Non","obsolete":true}},{"type":"Feature","geometry":{"type":"Polygon","coordinates":[[[6.4019,43.3582],[6.3786,43.3522],[6.3728,43.3431],[6.3746,43.3332],[6.3805,43.3245],[6.3915,43.3271],[6.4025,43.3269],[6.4075,43.3279],[6.4213,43.3332],[6.4257,43.3352],[6.4289,43.3435],[6.4274,43.3503],[6.4019,43.3582]]]},"properties":{"id_ffco":"3185","nom":"LES AUREDES","_dept":"83","numero":"1996-D83-69","commune":"Le Cannet des Maures","echelle":"1/10000","surface":"12.28 km²","format":"A3","annee":"1996","cartographes":"PELLEGRY,Deli","niveau":"Interrégional","specialite":"CO à pied","contacts":"CDCO83, 0494361314, 0619320242, contact@cdco83.fr, http://cdco83.fr/","latitude":"43.3414958021","longitude":"6.39963379032","date_depot":"06/06/2016","valide":"Oui","ppo":"Non","type_carte":"Nouvelle carte","fond":"Ortho","obsolete":true}},{"type":"Feature","geometry":{"type":"Polygon","coordinates":[[[6.7441,43.4401],[6.739,43.4434],[6.7437,43.4549],[6.755,43.4503],[6.7441,43.4401]]]},"properties":{"id_ffco":"8556","nom":"Frejus Villa Aurelienne","_dept":"83","numero":"1998-D83-68","commune":"FREJUS","echelle":"1/10000","surface":"1.07 km²","format":"A4","annee":"1998","proprietaire":"83 - Var","niveau":"Départemental","specialite":"CO à pied","contacts":"CDCO83, 0494361314, 0619320242, contact@cdco83.fr, http://cdco83.fr/","latitude":"43.4477349318","longitude":"6.74592963299","date_saisie":"25/08/2015","date_depot":"22/12/2015","valide":"Oui","ppo":"Non","type_carte":"Nouvelle carte","fond":"IGN","obsolete":true}},{"type":"Feature","geometry":null,"properties":{"id_ffco":"2946","nom":"FORET DE LA GARDIOLE","_dept":"83","numero":"1997-D83-67","echelle":"1/20000","surface":"27.2 km²","annee":"1997","proprietaire":"AZ - Côte d'Azur","niveau":"National, International","specialite":"CO à pied","latitude":"43.467646","longitude":"6.2375947","valide":"Non","ppo":"Non","obsolete":true}},{"type":"Feature","geometry":null,"properties":{"id_ffco":"2981","nom":"LA GAVARESSE","_dept":"83","numero":"1997-D83-65","echelle":"1/10000","surface":"2.8 km²","annee":"1997","proprietaire":"AZ - Côte d'Azur","specialite":"CO à pied","latitude":"43.467646","longitude":"6.2375947","valide":"Non","ppo":"Non","obsolete":true}},{"type":"Feature","geometry":{"type":"Polygon","coordinates":[[[5.7474,43.3368],[5.7471,43.342],[5.7584,43.3425],[5.7616,43.3413],[5.7664,43.3418],[5.7678,43.3432],[5.7663,43.3436],[5.7681,43.3459],[5.7716,43.3467],[5.784,43.3476],[5.7903,43.3469],[5.791,43.3435],[5.7891,43.3416],[5.7851,43.3403],[5.775,43.3376],[5.7729,43.3373],[5.7659,43.336],[5.7619,43.3356],[5.758,43.3356],[5.7545,43.3356],[5.7474,43.3368]]]},"properties":{"id_ffco":"5654","nom":"Plan d'Aups","_dept":"83","numero":"2013-D83-62","commune":"Plan d'Aups","echelle":"1/10000","surface":"2.81 km²","format":"A4","annee":"2013","cartographes":"VENON,Pierre Delenne,COTIRTA Marian","proprietaire":"83 - Var","niveau":"Interrégional","specialite":"CO à pied","contacts":"CDCO83, 0494361314, 0619320242, contact@cdco83.fr, http://cdco83.fr/","latitude":"43.3412546011","longitude":"5.7696830126","date_saisie":"19/12/2012","date_depot":"17/06/2016","valide":"Oui","ppo":"Non","type_carte":"Nouvelle carte","fond":"Ortho","obsolete":true}},{"type":"Feature","geometry":null,"properties":{"id_ffco":"1777","nom":"CHATEAUVALLON","_dept":"83","numero":"1987-D83-58","commune":"TOULON","echelle":"1/10000","surface":"2.0 km²","annee":"1987","proprietaire":"AZ - Côte d'Azur","specialite":"CO à pied","latitude":"43.1251606","longitude":"5.9311119","date_depot":"30/07/1997","valide":"Non","ppo":"Non","obsolete":true}},{"type":"Feature","geometry":null,"properties":{"id_ffco":"590","nom":"BOUVERIE (LA)","_dept":"83","numero":"2000-D83-57","commune":"ROQUEBRUNE/ARGENS","echelle":"1/20000","surface":"36.25 km²","annee":"2000","proprietaire":"AZ - Côte d'Azur","specialite":"CO à pied","latitude":"43.4424662","longitude":"6.6346014","date_depot":"21/02/1997","valide":"Non","ppo":"Non","obsolete":true}},{"type":"Feature","geometry":null,"properties":{"id_ffco":"1776","nom":"CAP ESTEREL","_dept":"83","numero":"1987-D83-55","commune":"ST RAPHAEL","echelle":"1/7500","surface":"2.0 km²","annee":"1987","proprietaire":"AZ - Côte d'Azur","specialite":"CO à pied","latitude":"43.415117","longitude":"6.789465","date_depot":"21/02/1997","valide":"Non","ppo":"Non","obsolete":true}},{"type":"Feature","geometry":{"type":"Polygon","coordinates":[[[6.6303,43.5063],[6.62,43.5078],[6.6142,43.5099],[6.6033,43.5086],[6.6006,43.5066],[6.5951,43.5047],[6.6004,43.4759],[6.6042,43.4686],[6.6181,43.4672],[6.6286,43.4657],[6.6263,43.4866],[6.6299,43.5062],[6.6303,43.5063]]]},"properties":{"id_ffco":"588","nom":"SIGNES PALAYSON (LES)","_dept":"83","numero":"2000-D83-54","commune":"Le Muy","echelle":"1/15000","surface":"10.67 km²","format":"A3","annee":"2000","cartographes":"Alain Pellegry","proprietaire":"83 - Var","niveau":"Interrégional","specialite":"CO à pied","contacts":"CDCO83, 0494361314, 0619320242, contact@cdco83.fr, http://cdco83.fr/","latitude":"43.4888408363","longitude":"6.61328481916","valide":"Non","ppo":"Non","obsolete":true}},{"type":"Feature","geometry":null,"properties":{"id_ffco":"1775","nom":"COLLINE MALBOUSQUET","_dept":"83","numero":"1987-D83-52","commune":"TOULON","echelle":"1/5000","surface":"2.0 km²","annee":"1987","proprietaire":"AZ - Côte d'Azur","specialite":"CO à pied","latitude":"43.1251606","longitude":"5.9311119","date_depot":"30/07/1997","valide":"Non","ppo":"Non","obsolete":true}},{"type":"Feature","geometry":null,"properties":{"id_ffco":"1774","nom":"LE CLAOU","_dept":"83","numero":"1987-D83-51","commune":"REGUSSE","echelle":"1/2500","surface":"0.2 km²","annee":"1987","proprietaire":"AZ - Côte d'Azur","specialite":"CO à pied","latitude":"43.654761","longitude":"6.1328937","date_depot":"02/05/1997","valide":"Non","ppo":"Non","obsolete":true}},{"type":"Feature","geometry":null,"properties":{"id_ffco":"1772","nom":"PRADET (LE)","_dept":"83","numero":"1987-D83-49","commune":"LE PRADET","echelle":"1/10000","surface":"4.0 km²","annee":"1987","proprietaire":"AZ - Côte d'Azur","specialite":"CO à pied","latitude":"43.1062631","longitude":"6.0238567","valide":"Non","ppo":"Non","obsolete":true}},{"type":"Feature","geometry":null,"properties":{"id_ffco":"1770","nom":"DRAGUIGNAN","_dept":"83","numero":"1987-D83-39","commune":"DRAGUIGNAN","echelle":"1/10000","surface":"2.5 km²","format":"A3","annee":"1987","cartographes":"A Pellegry","proprietaire":"AZ - Côte d'Azur","specialite":"CO à pied","latitude":"43.5410942","longitude":"6.4647315","date_depot":"19/06/1992","valide":"Non","ppo":"Non","obsolete":true}},{"type":"Feature","geometry":null,"properties":{"id_ffco":"1769","nom":"LE MONT FARON","_dept":"83","numero":"1987-D83-38","commune":"TOULON","echelle":"1/7500","surface":"2.0 km²","format":"A4","annee":"1987","cartographes":"A Pellegry","proprietaire":"AZ - Côte d'Azur","specialite":"CO à pied","latitude":"43.1251606","longitude":"5.9311119","date_depot":"19/06/1992","valide":"Non","ppo":"Non","obsolete":true}},{"type":"Feature","geometry":null,"properties":{"id_ffco":"1768","nom":"LA COLLE NOIRE","_dept":"83","numero":"1987-D83-37","commune":"LE PRADET","echelle":"1/10000","surface":"2.0 km²","format":"A4","annee":"1987","cartographes":"A Pellegry","proprietaire":"AZ - Côte d'Azur","specialite":"CO à pied","latitude":"43.1062631","longitude":"6.0238567","date_depot":"19/06/1992","valide":"Non","ppo":"Non","obsolete":true}},{"type":"Feature","geometry":{"type":"Polygon","coordinates":[[[6.5927,43.5061],[6.5882,43.5152],[6.5925,43.5237],[6.6155,43.5277],[6.6234,43.5254],[6.626,43.5156],[6.6145,43.5127],[6.6028,43.5098],[6.5925,43.5063],[6.5927,43.5061]]]},"properties":{"id_ffco":"582","nom":"CATCHEOU","_dept":"83","numero":"2000-D83-36","commune":"LE MUY","echelle":"1/15000","surface":"4.62 km²","format":"A4","annee":"2000","cartographes":"A Pellegry","proprietaire":"83 - Var","niveau":"Interrégional","specialite":"CO à pied","contacts":"CDCO83, 0494361314, 0619320242, contact@cdco83.fr, http://cdco83.fr/","latitude":"43.5180534815","longitude":"6.60633337867","date_depot":"03/08/1991","valide":"Non","ppo":"Non","obsolete":true}},{"type":"Feature","geometry":null,"properties":{"id_ffco":"1767","nom":"COLLET DE LA SERMETTE","_dept":"83","numero":"1987-D83-35","commune":"PIERREFEU","echelle":"1/7500","surface":"1.5 km²","annee":"1987","proprietaire":"8310","specialite":"CO à pied","latitude":"43.2271589","longitude":"6.1431725","date_depot":"03/08/1991","valide":"Non","ppo":"Non","obsolete":true}},{"type":"Feature","geometry":null,"properties":{"id_ffco":"581","nom":"FORET DE JANAS","_dept":"83","numero":"2000-D83-34","commune":"LA SEYNE","echelle":"1/15000","surface":"5.5 km²","format":"A4","annee":"2000","cartographes":"A Pellegry","proprietaire":"83 - Var","niveau":"Régional","specialite":"CO à pied","latitude":"43.0944682","longitude":"5.8828611","date_depot":"03/08/1991","valide":"Non","ppo":"Non","obsolete":true}},{"type":"Feature","geometry":null,"properties":{"id_ffco":"1766","nom":"CREPS DE BOULOURIS","_dept":"83","numero":"2004-D83-33","commune":"BOULOURIS/ST RAPH.","echelle":"1/7500","surface":"1.0 km²","format":"A4","annee":"2004","cartographes":"Deli Georges,A Pellegry","proprietaire":"83 - Var","niveau":"Départemental","specialite":"CO à pied","contacts":"CDCO83, 0494361314, 0619320242, contact@cdco83.fr, http://cdco83.fr/","latitude":"43.4195867","longitude":"6.8008845","date_depot":"03/08/1991","valide":"Non","ppo":"Non","obsolete":true}},{"type":"Feature","geometry":null,"properties":{"id_ffco":"580","nom":"MALASOQUE","_dept":"83","numero":"2000-D83-28","commune":"LA VERDIERE","echelle":"1/15000","surface":"12.0 km²","format":"A3","annee":"2000","cartographes":"A Pellegry","proprietaire":"83 - Var","niveau":"Interrégional","specialite":"CO à pied","contacts":"CDCO83, 0494361314, 0619320242, contact@cdco83.fr, http://cdco83.fr/","latitude":"43.6389708","longitude":"5.9348268","date_depot":"26/12/1990","valide":"Non","ppo":"Non","obsolete":true}},{"type":"Feature","geometry":null,"properties":{"id_ffco":"579","nom":"TERRES GASTES","_dept":"83","numero":"2000-D83-27","commune":"FREJUS","echelle":"1/15000","surface":"9.7 km²","format":"A4","annee":"2000","cartographes":"A Pellegry","proprietaire":"83 - Var","niveau":"Régional","specialite":"CO à pied","contacts":"CDCO83, 0494361314, 0619320242, contact@cdco83.fr, http://cdco83.fr/","latitude":"43.4324683","longitude":"6.7351796","date_depot":"19/06/1992","valide":"Non","ppo":"Non","obsolete":true}},{"type":"Feature","geometry":null,"properties":{"id_ffco":"578","nom":"POURRIERES","_dept":"83","numero":"2000-D83-26","commune":"POURRIERES","echelle":"1/15000","surface":"None km²","format":"A4","annee":"2000","cartographes":"Deli Georges","proprietaire":"83 - Var","niveau":"Interrégional","specialite":"CO à pied","contacts":"CDCO83, 0494361314, 0619320242, contact@cdco83.fr, http://cdco83.fr/","latitude":"43.5044471","longitude":"5.7342246","date_depot":"12/01/1991","valide":"Non","ppo":"Non","type_carte":"Nouvelle carte","fond":"IGN","ref_ign":"x","obsolete":true}},{"type":"Feature","geometry":{"type":"Polygon","coordinates":[[[6.666,43.4795],[6.6698,43.4878],[6.6723,43.4923],[6.6701,43.4931],[6.6701,43.4955],[6.6536,43.4951],[6.6548,43.4862],[6.6562,43.4848],[6.6566,43.4831],[6.6635,43.4816],[6.666,43.4795]]]},"properties":{"id_ffco":"1028","nom":"RAPHAELE","_dept":"83","numero":"1981-D83-25","commune":"FREJUS","echelle":"1/15000","surface":"1.81 km²","format":"A4","annee":"1981","niveau":"Interrégional","specialite":"CO à pied","latitude":"43.4890441759","longitude":"6.66250720232","date_depot":"12/01/1991","valide":"Non","ppo":"Non","type_carte":"Nouvelle carte","fond":"IGN","ref_ign":"x","obsolete":true}},{"type":"Feature","geometry":null,"properties":{"id_ffco":"1027","nom":"PALIERE","_dept":"83","numero":"1981-D83-23","commune":"POURRIERES","echelle":"1/15000","surface":"6.0 km²","annee":"1981","proprietaire":"AZ - Côte d'Azur","niveau":"Interrégional","specialite":"CO à pied","latitude":"43.5044471","longitude":"5.7342246","date_depot":"23/06/1988","valide":"Non","ppo":"Non","obsolete":true}},{"type":"Feature","geometry":null,"properties":{"id_ffco":"1764","nom":"LES MAYONS","_dept":"83","numero":"2006-D83-20","commune":"LES MAYONS","echelle":"1/10000","surface":"3.2 km²","format":"A4","annee":"2006","cartographes":"Deli Georges","proprietaire":"83 - Var","niveau":"Interrégional","specialite":"CO à pied","contacts":"CDCO83, 0494361314, 0619320242, contact@cdco83.fr, http://cdco83.fr/","latitude":"43.3126489","longitude":"6.3581712","valide":"Non","ppo":"Non","obsolete":true}},{"type":"Feature","geometry":{"type":"Polygon","coordinates":[[[6.4423,43.3775],[6.448,43.3733],[6.4458,43.3639],[6.4438,43.3602],[6.4313,43.3539],[6.4286,43.3505],[6.427,43.3549],[6.4227,43.3552],[6.4132,43.3612],[6.4121,43.3642],[6.42,43.368],[6.4236,43.3692],[6.4236,43.3705],[6.4361,43.3765],[6.4423,43.3775]]]},"properties":{"id_ffco":"1024","nom":"LE ROUQUAN","_dept":"83","numero":"1981-D83-19","commune":"VIDAUBAN","echelle":"1/15000","surface":"4.71 km²","format":"A4","annee":"1981","cartographes":"Rebuffet,Dhennin,Denora,Martin","niveau":"Interrégional","specialite":"CO à pied","latitude":"43.3650452611","longitude":"6.43190404192","date_depot":"09/01/1991","valide":"Oui","ppo":"Non","type_carte":"Nouvelle carte","fond":"IGN","ref_ign":"x","obsolete":true}},{"type":"Feature","geometry":{"type":"Polygon","coordinates":[[[5.8542,43.0715],[5.8517,43.0737],[5.8478,43.0748],[5.8437,43.0706],[5.8439,43.0669],[5.8461,43.063],[5.8456,43.0598],[5.8449,43.0558],[5.8588,43.0568],[5.8575,43.0585],[5.8617,43.0592],[5.8615,43.0633],[5.8584,43.0687],[5.8588,43.0718],[5.8542,43.0715]]]},"properties":{"id_ffco":"2791","nom":"FORET DE JANAS","_dept":"83","numero":"1994-D83-18","commune":"SIX FOURS","echelle":"1/10000","surface":"2.24 km²","format":"A4","annee":"1994","cartographes":"M Gassien","proprietaire":"8302 - DRAGUIGNAN COURSE D'ORIENTATION","niveau":"Départemental","specialite":"CO à pied","latitude":"43.0646503864","longitude":"5.85214480819","valide":"Non","ppo":"Non","type_carte":"Nouvelle carte","fond":"IGN","ref_ign":"x","obsolete":true}},{"type":"Feature","geometry":{"type":"Polygon","coordinates":[[[6.5916,43.4929],[6.5916,43.5109],[6.6255,43.5109],[6.6255,43.4929],[6.5916,43.4929]]]},"properties":{"id_ffco":"2790","nom":"PALAYSON","_dept":"83","numero":"1994-D83-17","commune":"LA MOTTE","echelle":"1/10000","surface":"5.48 km²","format":"A4","annee":"1994","proprietaire":"8307","niveau":"Départemental","specialite":"CO à pied","latitude":"43.5019191007","longitude":"6.60855531693","valide":"Non","ppo":"Non","type_carte":"Nouvelle carte","fond":"IGN","ref_ign":"x","obsolete":true}},{"type":"Feature","geometry":null,"properties":{"id_ffco":"5609","nom":"La Piste de la Tire (extraite des Aurèdes)","_dept":"83","numero":"2008-D83-160","commune":"Le Luc","echelle":"1/15000","surface":"None km²","format":"A4","annee":"2008","cartographes":"Alain Pellegry,RICHAUD Alain","proprietaire":"83 - Var","specialite":"CO à VTT","date_saisie":"18/12/2012","valide":"Non","ppo":"Non","obsolete":true}},{"type":"Feature","geometry":{"type":"Polygon","coordinates":[[[6.2021,43.001],[6.193,43.0044],[6.1834,43.0082],[6.169,43.0067],[6.1599,43.0013],[6.1625,42.9976],[6.1669,42.9976],[6.175,42.9947],[6.1887,42.9915],[6.1983,42.9873],[6.1978,42.9836],[6.2071,42.9815],[6.2111,42.9848],[6.2507,42.9996],[6.2519,43.0043],[6.2473,43.0175],[6.2421,43.0257],[6.2387,43.0246],[6.2354,43.0129],[6.227,43.0097],[6.2171,43.0132],[6.2171,43.0098],[6.2126,43.0026],[6.2021,43.001]]]},"properties":{"id_ffco":"1023","nom":"PORQUEROLLES","_dept":"83","numero":"1981-D83-16","commune":"Porqueolles","echelle":"1/15000","surface":"14.12 km²","format":"A4","annee":"1981","cartographes":"ML Martin,L Thiard","proprietaire":"8302 - DRAGUIGNAN COURSE D'ORIENTATION","niveau":"Interrégional","specialite":"CO à pied","latitude":"43.0005014049","longitude":"6.21253658908","valide":"Non","ppo":"Non","type_carte":"Nouvelle carte","fond":"IGN","ref_ign":"x","obsolete":true}},{"type":"Feature","geometry":{"type":"Polygon","coordinates":[[[6.4263,43.3352],[6.4276,43.3496],[6.402,43.3583],[6.405,43.3448],[6.4036,43.3269],[6.4152,43.3313],[6.4263,43.3352]]]},"properties":{"id_ffco":"1022","nom":"LES ESCARCETS","_dept":"83","numero":"1981-D83-15","commune":"Vidauban","echelle":"1/15000","surface":"4.63 km²","format":"A4","annee":"1981","cartographes":"J Charles,G Deli,M Fontaine,M Frangeul","proprietaire":"8306 - ASPTT TOULON OUTDOOR","niveau":"Interrégional","specialite":"CO à pied","latitude":"43.3427042756","longitude":"6.41407653902","date_depot":"23/06/1988","valide":"Oui","ppo":"Non","type_carte":"Reprise","base":"1981-D83-06 ESCARCETS","fond":"IGN","ref_ign":"x","obsolete":true}},{"type":"Feature","geometry":{"type":"Polygon","coordinates":[[[5.8536,43.0715],[5.853,43.071],[5.8464,43.0709],[5.8458,43.0719],[5.8477,43.0748],[5.8523,43.0735],[5.8535,43.0721],[5.8536,43.0715]]]},"properties":{"id_ffco":"1763","nom":"JANAS (CRAPA)","_dept":"83","numero":"1987-D83-14","commune":"SIX FOURS","echelle":"1/5000","surface":"0.19 km²","format":"A4","annee":"1987","cartographes":"Grassien","niveau":"Initiation, Scolaire","specialite":"CO à pied","latitude":"43.0724634764","longitude":"5.84953493282","valide":"Non","ppo":"Non","type_carte":"Nouvelle carte","fond":"IGN","ref_ign":"x","obsolete":true}},{"type":"Feature","geometry":{"type":"Polygon","coordinates":[[[6.4975,43.5677],[6.4887,43.5687],[6.4856,43.5643],[6.4842,43.561],[6.4847,43.5539],[6.4877,43.5532],[6.4962,43.5534],[6.4974,43.5532],[6.4975,43.5677]]]},"properties":{"id_ffco":"5590","nom":"Les Fours à Chaux","_dept":"83","numero":"2010-D83-138","commune":"Figanière","echelle":"1/7500","surface":"1.63 km²","format":"A4","annee":"2010","cartographes":"RICHAUD Alain","proprietaire":"83 - Var","niveau":"Départemental","specialite":"CO à pied","latitude":"43.5604471923","longitude":"6.49128081748","date_saisie":"17/12/2012","date_depot":"22/12/2015","valide":"Oui","ppo":"Non","type_carte":"Nouvelle carte","fond":"Ortho","obsolete":true}},{"type":"Feature","geometry":null,"properties":{"id_ffco":"5616","nom":"Le Pont de la Péguière","_dept":"83","numero":"2006-D83-130","commune":"Fréjus","echelle":"1/10000","surface":"None km²","format":"A4","annee":"2006","cartographes":"Alain Pellegry","proprietaire":"83 - Var","niveau":"Régional","specialite":"CO à pied","date_saisie":"19/12/2012","valide":"Non","ppo":"Non","type_carte":"Nouvelle carte","fond":"Ortho","obsolete":true}},{"type":"Feature","geometry":{"type":"Polygon","coordinates":[[[6.5966,43.7696],[6.5966,43.7737],[6.6065,43.7737],[6.6065,43.7696],[6.5966,43.7696]]]},"properties":{"id_ffco":"1762","nom":"LA CHEYLANE","_dept":"83","numero":"1987-D83-13","commune":"La Martre","echelle":"1/10000","surface":"0.36 km²","format":"A4","annee":"1987","cartographes":"ML Martin,L Thiard","proprietaire":"8302 - DRAGUIGNAN COURSE D'ORIENTATION","niveau":"Initiation, Scolaire","specialite":"CO à pied","latitude":"43.7716515935","longitude":"6.60151720047","valide":"Oui","ppo":"Non","type_carte":"Nouvelle carte","fond":"IGN","ref_ign":"x","obsolete":true}},{"type":"Feature","geometry":{"type":"Polygon","coordinates":[[[6.0948,43.3187],[6.0963,43.3193],[6.0988,43.3189],[6.0993,43.3181],[6.0966,43.3157],[6.0949,43.3162],[6.0955,43.3174],[6.0955,43.3178],[6.0948,43.3187]]]},"properties":{"id_ffco":"5602","nom":"La Verrerie","_dept":"83","numero":"2008-D83-128","commune":"Rocharon","echelle":"1/2500","surface":"0.09 km²","format":"A4","annee":"2008","cartographes":"Alain Pellegry","proprietaire":"83 - Var","niveau":"Initiation, Scolaire","specialite":"CO à pied","latitude":"43.3177108998","longitude":"6.09685211686","date_saisie":"18/12/2012","date_depot":"22/12/2015","valide":"Oui","ppo":"Non","type_carte":"Nouvelle carte","fond":"Ortho","obsolete":true}},{"type":"Feature","geometry":{"type":"Polygon","coordinates":[[[6.5276,43.5244],[6.5234,43.5247],[6.5245,43.5287],[6.5213,43.5312],[6.524,43.5359],[6.533,43.5338],[6.53,43.5282],[6.5276,43.5244]]]},"properties":{"id_ffco":"2605","nom":"VAUGINE","_dept":"83","numero":"1992-D83-12","commune":"DRAGUIGNAN","echelle":"1/15000","surface":"0.71 km²","format":"A4","annee":"1992","proprietaire":"8307","niveau":"Départemental","specialite":"CO à pied","latitude":"43.5305852821","longitude":"6.52686223962","valide":"Non","ppo":"Non","type_carte":"Nouvelle carte","fond":"IGN","ref_ign":"x","obsolete":true}},{"type":"Feature","geometry":{"type":"Polygon","coordinates":[[[6.4534,43.3742],[6.4431,43.3814],[6.4539,43.3962],[6.4764,43.3928],[6.4782,43.3834],[6.476,43.378],[6.4653,43.3718],[6.4534,43.3742]]]},"properties":{"id_ffco":"2604","nom":"BOIS BOUIS","_dept":"83","numero":"1992-D83-11","commune":"VIDAUBAN","echelle":"1/10000","surface":"5.35 km²","format":"A4","annee":"1992","proprietaire":"8302 - DRAGUIGNAN COURSE D'ORIENTATION","niveau":"Régional","specialite":"CO à pied","latitude":"43.3841177528","longitude":"6.46185849207","valide":"Oui","ppo":"Non","type_carte":"Nouvelle carte","fond":"IGN","ref_ign":"x","obsolete":true}},{"type":"Feature","geometry":null,"properties":{"id_ffco":"5620","nom":"Mazaugues","_dept":"83","numero":"2006-D83-106","commune":"Mazaugues","echelle":"1/10000","surface":"None km²","format":"A3","annee":"2006","proprietaire":"83 - Var","niveau":"Interrégional","specialite":"CO à pied","date_saisie":"19/12/2012","valide":"Non","ppo":"Non","obsolete":true}},{"type":"Feature","geometry":null,"properties":{"id_ffco":"1020","nom":"LA ROQUE ESCLAPON","_dept":"83","numero":"1979-D83-10","commune":"BARGEME","echelle":"1/15000","surface":"6.5 km²","annee":"1979","proprietaire":"8302 - DRAGUIGNAN COURSE D'ORIENTATION","niveau":"Interrégional","specialite":"CO à pied","latitude":"43.7297767","longitude":"6.5718236","valide":"Non","ppo":"Non","obsolete":true}},{"type":"Feature","geometry":{"type":"Polygon","coordinates":[[[5.7868,43.1467],[5.7868,43.1482],[5.7905,43.1482],[5.7905,43.1467],[5.7868,43.1467]]]},"properties":{"id_ffco":"2789","nom":"CROCHIROMOL","_dept":"83","numero":"1994-D83-09","commune":"RIBOUX","echelle":"1/10000","surface":"0.05 km²","format":"A4","annee":"1994","niveau":"Initiation, Scolaire","specialite":"CO à pied","latitude":"43.147465851","longitude":"5.78865766525","valide":"Non","ppo":"Non","type_carte":"Nouvelle carte","fond":"IGN","ref_ign":"x","obsolete":true}},{"type":"Feature","geometry":null,"properties":{"id_ffco":"2603","nom":"RAMATUELLE","_dept":"83","numero":"1992-D83-08","commune":"RAMATUELLE","echelle":"1/10000","surface":"3.6 km²","annee":"1992","proprietaire":"AZ - Côte d'Azur","specialite":"CO à pied","latitude":"43.2153325","longitude":"6.6122815","valide":"Non","ppo":"Non","obsolete":true}},{"type":"Feature","geometry":{"type":"Polygon","coordinates":[[[6.4752,43.5458],[6.4752,43.5481],[6.4783,43.5481],[6.4783,43.5458],[6.4752,43.5458]]]},"properties":{"id_ffco":"1761","nom":"EMPAYASPRE","_dept":"83","numero":"1987-D83-07","commune":"DRAGUIGNAN","echelle":"1/5000","surface":"0.06 km²","format":"A4","annee":"1987","niveau":"Initiation, Scolaire","specialite":"CO à pied","latitude":"43.5469306371","longitude":"6.47678375244","valide":"Oui","ppo":"Non","type_carte":"Nouvelle carte","fond":"IGN","ref_ign":"x","obsolete":true}},{"type":"Feature","geometry":{"type":"Polygon","coordinates":[[[6.4021,43.3576],[6.4062,43.3442],[6.4055,43.3329],[6.4227,43.3349],[6.4265,43.3442],[6.4287,43.35],[6.405,43.3573],[6.4021,43.3576]]]},"properties":{"id_ffco":"1018","nom":"ESCARCETS","_dept":"83","numero":"1981-D83-06","commune":"VIDAUBAN","echelle":"1/25000","surface":"3.77 km²","format":"A4","annee":"1981","niveau":"Interrégional","specialite":"CO à pied","latitude":"43.3448643025","longitude":"6.41467364136","valide":"Oui","ppo":"Non","type_carte":"Nouvelle carte","fond":"IGN","ref_ign":"x","obsolete":true}},{"type":"Feature","geometry":null,"properties":{"id_ffco":"589","nom":"BOIS PANISSE","_dept":"83","numero":"2000-D83-056","commune":"DRAGUIGNAN","echelle":"1/15000","surface":"5.0 km²","annee":"2000","proprietaire":"AZ - Côte d'Azur","specialite":"CO à pied","latitude":"43.5410942","longitude":"6.4647315","date_depot":"21/02/1997","valide":"Non","ppo":"Non","obsolete":true}},{"type":"Feature","geometry":{"type":"Polygon","coordinates":[[[5.97,43.1694],[5.97,43.1705],[5.9718,43.1705],[5.9718,43.1694],[5.97,43.1694]]]},"properties":{"id_ffco":"1017","nom":"SIOUX BLANC","_dept":"83","numero":"1981-D83-05","commune":"SIGNES","echelle":"1/20000","surface":"0.02 km²","format":"A4","annee":"1981","niveau":"Interrégional","specialite":"CO à pied","latitude":"43.1699585686","longitude":"5.9709405899","valide":"Oui","ppo":"Non","type_carte":"Nouvelle carte","fond":"IGN","ref_ign":"x","obsolete":true}},{"type":"Feature","geometry":null,"properties":{"id_ffco":"587","nom":"SIX FOURS","_dept":"83","numero":"2000-D83-048","commune":"SIX FOURS","echelle":"1/15000","surface":"5.0 km²","annee":"2000","proprietaire":"AZ - Côte d'Azur","specialite":"CO à pied","latitude":"43.0947652","longitude":"5.8338203","date_depot":"21/02/1997","valide":"Non","ppo":"Non","obsolete":true}},{"type":"Feature","geometry":null,"properties":{"id_ffco":"586","nom":"LE FOURNEL","_dept":"83","numero":"2000-D83-046","commune":"Ste Maxime","echelle":"1/10000","surface":"4.0 km²","format":"A4","annee":"2000","cartographes":"A Pellegry","proprietaire":"AZ - Côte d'Azur","specialite":"CO à pied","latitude":"43.3072091","longitude":"6.6413231","date_depot":"21/02/1997","valide":"Non","ppo":"Non","obsolete":true}},{"type":"Feature","geometry":null,"properties":{"id_ffco":"1030","nom":"LE COL DE BOUGNON","_dept":"83","numero":"1981-D83-045","commune":"Ste Maxime","echelle":"1/20000","surface":"35.0 km²","format":"A3","annee":"1981","cartographes":"R Husser,A Pellegry","proprietaire":"AZ - Côte d'Azur","niveau":"Interrégional","specialite":"CO à VTT","latitude":"43.3072091","longitude":"6.6413231","date_depot":"21/02/1997","valide":"Non","ppo":"Non","obsolete":true}},{"type":"Feature","geometry":{"type":"Polygon","coordinates":[[[6.3072,43.5914],[6.3009,43.5928],[6.2992,43.5973],[6.2947,43.6024],[6.2931,43.6116],[6.3254,43.6122],[6.3352,43.6017],[6.3271,43.5964],[6.317,43.5938],[6.3076,43.5941],[6.3069,43.5915],[6.3072,43.5914]]]},"properties":{"id_ffco":"585","nom":"LE TOURTOUR AMPUS","_dept":"83","numero":"2000-D83-044","commune":"Tourtour","echelle":"1/15000","surface":"5.53 km²","format":"A3","annee":"2000","cartographes":"A Pellegry","proprietaire":"83 - Var","niveau":"Interrégional","specialite":"CO à pied","contacts":"CDCO83, 0494361314, 0619320242, contact@cdco83.fr, http://cdco83.fr/","latitude":"43.6031920054","longitude":"6.31277180891","date_depot":"02/05/1994","valide":"Non","ppo":"Non","obsolete":true}},{"type":"Feature","geometry":{"type":"Polygon","coordinates":[[[6.3601,43.317],[6.3501,43.3206],[6.3311,43.3198],[6.3302,43.3458],[6.3398,43.3574],[6.3949,43.3588],[6.4207,43.3512],[6.425,43.35],[6.4248,43.3346],[6.4052,43.3269],[6.3826,43.3257],[6.3755,43.3214],[6.3757,43.3216],[6.3601,43.317]]]},"properties":{"id_ffco":"584","nom":"LA PLAINE DES MAURES","_dept":"83","numero":"2000-D83-043","commune":"Le Cannet des Maures","echelle":"1/20000","surface":"27.58 km²","format":"A3","annee":"2000","cartographes":"A Pellegry","proprietaire":"83 - Var","niveau":"Interrégional","specialite":"CO à VTT","contacts":"CDCO83, 0494361314, 0619320242, contact@cdco83.fr, http://cdco83.fr/","latitude":"43.3398615693","longitude":"6.37375660293","date_depot":"08/10/1992","valide":"Non","ppo":"Non","obsolete":true}},{"type":"Feature","geometry":null,"properties":{"id_ffco":"1029","nom":"LE BLAVET","_dept":"83","numero":"1981-D83-042","commune":"Roquebrune","echelle":"1/20000","surface":"15.0 km²","format":"A4","annee":"1981","proprietaire":"AZ - Côte d'Azur","niveau":"Interrégional","specialite":"CO à VTT","latitude":"43.4424662","longitude":"6.6346014","date_depot":"08/10/1992","valide":"Non","ppo":"Non","obsolete":true}},{"type":"Feature","geometry":null,"properties":{"id_ffco":"1771","nom":"LE GOURG DU BARON","_dept":"83","numero":"1987-D83-041","commune":"VIBAUDAN","echelle":"1/5000","surface":"0.7 km²","format":"A4","annee":"1987","cartographes":"A Pellegry","proprietaire":"AZ - Côte d'Azur","specialite":"CO à pied","latitude":"43.4273219","longitude":"6.4311597","valide":"Non","ppo":"Non","obsolete":true}},{"type":"Feature","geometry":null,"properties":{"id_ffco":"583","nom":"FORET DE LA GARDIOLE","_dept":"83","numero":"2000-D83-040","commune":"RIANS","echelle":"1/20000","surface":"25.0 km²","format":"A3","annee":"2000","cartographes":"A Pellegry","proprietaire":"83 - Var","niveau":"Interrégional","specialite":"CO à pied","contacts":"CDCO83, 0494361314, 0619320242, contact@cdco83.fr, http://cdco83.fr/","latitude":"43.6068722","longitude":"5.7569108","date_depot":"19/06/1992","valide":"Non","ppo":"Non","obsolete":true}},{"type":"Feature","geometry":null,"properties":{"id_ffco":"1760","nom":"VALERE","_dept":"83","numero":"1987-D83-04","commune":"AIX PROVENCE","echelle":"1/10000","surface":"2.4 km²","annee":"1987","proprietaire":"AZ - Côte d'Azur","specialite":"CO à pied","latitude":"43.4691228","longitude":"6.5548873","valide":"Non","ppo":"Non","obsolete":true}},{"type":"Feature","geometry":{"type":"Polygon","coordinates":[[[6.6248,43.7206],[6.6248,43.7257],[6.6332,43.7257],[6.6332,43.7206],[6.6248,43.7206]]]},"properties":{"id_ffco":"1016","nom":"ROQUE ESCLAPON BARGEME","_dept":"83","numero":"1981-D83-03","commune":"ROQUE ESCLAPON","echelle":"1/16666","surface":"0.38 km²","format":"A4","annee":"1981","niveau":"Interrégional","specialite":"CO à pied","latitude":"43.723164699","longitude":"6.62896156311","valide":"Oui","ppo":"Non","type_carte":"Nouvelle carte","fond":"IGN","ref_ign":"xxx","obsolete":true}},{"type":"Feature","geometry":null,"properties":{"id_ffco":"577","nom":"BALANCAN","_dept":"83","numero":"2000-D83-022","commune":"LE CANNET DES MAURES","echelle":"1/15000","surface":"7.3 km²","format":"A4","annee":"2000","cartographes":"Deli Georges","proprietaire":"83 - Var","niveau":"Interrégional","specialite":"CO à pied","contacts":"CDCO83, 0494361314, 0619320242, contact@cdco83.fr, http://cdco83.fr/","latitude":"43.394546","longitude":"6.3146583","valide":"Non","ppo":"Non","obsolete":true}},{"type":"Feature","geometry":null,"properties":{"id_ffco":"1026","nom":"FORET DOMANIALE DE LA STE BAUME","_dept":"83","numero":"1981-D83-021","commune":"PLAN D'AUPS","echelle":"1/15000","surface":"6.5 km²","format":"A4","annee":"1981","cartographes":"J Keller","proprietaire":"83 - Var","niveau":"Interrégional","specialite":"CO à pied","latitude":"43.7157577","longitude":"6.590765","date_depot":"07/07/1988","valide":"Non","ppo":"Non","obsolete":true}},{"type":"Feature","geometry":{"type":"Polygon","coordinates":[[[6.6003,43.4961],[6.6003,43.4979],[6.6025,43.4979],[6.6025,43.4961],[6.6003,43.4961]]]},"properties":{"id_ffco":"1015","nom":"FORET DE ROUET ET PALAYSON","_dept":"83","numero":"1981-D83-02","commune":"LE MUY","echelle":"1/16666","surface":"0.03 km²","format":"A4","annee":"1981","niveau":"Interrégional","specialite":"CO à pied","latitude":"43.4970167975","longitude":"6.60140991211","valide":"Oui","ppo":"Non","type_carte":"Nouvelle carte","fond":"Ortho","obsolete":true}},{"type":"Feature","geometry":null,"properties":{"id_ffco":"1014","nom":"FORET DE ROUET ET PALAYSON","_dept":"83","numero":"1981-D83-01","commune":"LE MUY","echelle":"1/22500","surface":"11.0 km²","annee":"1981","proprietaire":"83 - Var","niveau":"Interrégional","specialite":"CO à pied","contacts":"CDCO83, 0494361314, 0619320242, contact@cdco83.fr, http://cdco83.fr/","latitude":"43.4719882","longitude":"6.5662551","valide":"Non","ppo":"Non","obsolete":true}}]}