{"type":"FeatureCollection","features":[{"type":"Feature","geometry":{"type":"Polygon","coordinates":[[[5.5263,44.0273],[5.5436,44.027],[5.5435,44.0317],[5.5444,44.0334],[5.5437,44.0368],[5.5444,44.0433],[5.5444,44.047],[5.5455,44.0501],[5.5451,44.0507],[5.5406,44.05],[5.5405,44.0482],[5.5371,44.043],[5.5337,44.042],[5.5315,44.0355],[5.5282,44.0338],[5.5263,44.0273]]]},"properties":{"id_ffco":"463","nom":"Le Grand Bois","_dept":"84","numero":"2002-D84-73","commune":"St Christol d'Albion","echelle":"1/10000","surface":"2.28 km²","format":"A4","annee":"2002","cartographes":"Michel HABERKORN","niveau":"Départemental","specialite":"CO à pied","contacts":"ASPA, 04 90 75 08 33","latitude":"44.0360651806","longitude":"5.53758730685","valide":"Non","ppo":"Oui (23 postes)","type_carte":"Reprise","base":"2013-D84-51 Le Grand Bois","obsolete":true}},{"type":"Feature","geometry":{"type":"Polygon","coordinates":[[[4.8827,44.2333],[4.8826,44.2316],[4.8828,44.2299],[4.884,44.2294],[4.8849,44.229],[4.8854,44.2285],[4.8865,44.2284],[4.8887,44.2281],[4.8892,44.2303],[4.8895,44.2316],[4.8899,44.2328],[4.8899,44.2339],[4.8898,44.2351],[4.8897,44.2363],[4.8875,44.2352],[4.8876,44.2346],[4.887,44.2343],[4.8852,44.2339],[4.8839,44.2334],[4.8827,44.2333]]]},"properties":{"id_ffco":"8040","nom":"L'étang","_dept":"84","numero":"2014-D84-62","commune":"sainte Cécile les vignes","echelle":"1/4000","surface":"0.34 km²","format":"A4","annee":"2014","cartographes":"P COUDRAY","proprietaire":"8404 - ASSOCIATION ORIENTATION PASSION AVIGNON","niveau":"Initiation, Scolaire","specialite":"CO à pied","contacts":"Orientation Passion Avignon, pieryves.coudray@orange.fr, http://400teamraid.e-monsite.com/","latitude":"44.2317530177","longitude":"4.8865964222","date_saisie":"06/02/2015","valide":"Non","ppo":"Non","type_carte":"Nouvelle carte","fond":"Cadastre","obsolete":true}},{"type":"Feature","geometry":{"type":"Polygon","coordinates":[[[4.7501,44.2747],[4.7474,44.2726],[4.7478,44.2707],[4.7475,44.2662],[4.747,44.2647],[4.7499,44.2632],[4.7521,44.2619],[4.7519,44.2606],[4.7518,44.2579],[4.7531,44.2587],[4.7542,44.2594],[4.7539,44.2579],[4.7569,44.2581],[4.7674,44.2577],[4.7703,44.2566],[4.7732,44.2571],[4.7773,44.2568],[4.7814,44.2558],[4.7866,44.2548],[4.7883,44.2551],[4.7912,44.2564],[4.793,44.2571],[4.7966,44.2583],[4.7997,44.2594],[4.8019,44.2608],[4.8033,44.2602],[4.8051,44.2593],[4.8082,44.2601],[4.8122,44.2608],[4.8137,44.2615],[4.8118,44.2673],[4.8057,44.2707],[4.7989,44.2725],[4.7919,44.2746],[4.7887,44.2756],[4.7848,44.2783],[4.781,44.2789],[4.7656,44.2773],[4.7587,44.2772],[4.7551,44.2779],[4.7543,44.2763],[4.752,44.2752],[4.7501,44.2747]]]},"properties":{"id_ffco":"7241","nom":"Colline de St Ariès VTT","_dept":"84","numero":"2014-D84-60","commune":"BOLLENE","echelle":"1/15000","surface":"9.93 km²","format":"A3","annee":"2014","cartographes":"P COUDRAY","proprietaire":"8404 - ASSOCIATION ORIENTATION PASSION AVIGNON","niveau":"National, International","specialite":"CO à VTT","latitude":"44.2668491391","longitude":"4.77781635895","date_saisie":"04/03/2014","date_depot":"27/10/2015","valide":"Oui","ppo":"Non","type_carte":"Nouvelle carte","fond":"Ortho","obsolete":true}},{"type":"Feature","geometry":{"type":"Polygon","coordinates":[[[5.5435,44.0271],[5.5425,44.0272],[5.5412,44.0269],[5.5404,44.0274],[5.5389,44.0275],[5.5341,44.0289],[5.527,44.0304],[5.5263,44.0304],[5.5247,44.0314],[5.5253,44.0342],[5.5276,44.0357],[5.5299,44.0366],[5.5307,44.0376],[5.5298,44.0385],[5.5306,44.039],[5.5344,44.0402],[5.5387,44.0394],[5.5414,44.039],[5.5427,44.0392],[5.5441,44.0399],[5.5438,44.0367],[5.5445,44.0335],[5.5434,44.0314],[5.5435,44.0271]]]},"properties":{"id_ffco":"6989","nom":"Le Grand Bois","_dept":"84","numero":"2013-D84-51","commune":"SAINT CHRISTOL ALBION","echelle":"1/10000","surface":"1.62 km²","format":"A4","annee":"2013","cartographes":"F  BALP","proprietaire":"8404 - ASSOCIATION ORIENTATION PASSION AVIGNON","niveau":"Régional","specialite":"CO à pied","latitude":"44.0337135972","longitude":"5.53588342476","date_saisie":"11/11/2013","valide":"Non","ppo":"Non","obsolete":true}},{"type":"Feature","geometry":{"type":"Polygon","coordinates":[[[4.8058,43.9545],[4.81,43.9545],[4.816,43.9539],[4.8189,43.9527],[4.8201,43.9512],[4.8196,43.9488],[4.816,43.9439],[4.8147,43.9433],[4.8084,43.9421],[4.7996,43.9427],[4.7966,43.9445],[4.7962,43.9463],[4.801,43.9524],[4.8012,43.9525],[4.8058,43.9545]]]},"properties":{"id_ffco":"5481","nom":"Avignon Intramuros","_dept":"84","numero":"2011-D84-31","commune":"AVIGNON","echelle":"1/4000","surface":"2.0 km²","format":"A3","annee":"2011","cartographes":"Fabrice BALP","proprietaire":"8404 - ASSOCIATION ORIENTATION PASSION AVIGNON","niveau":"National, International","specialite":"CO à pied","latitude":"43.9482561572","longitude":"4.80834534269","date_saisie":"31/08/2012","date_depot":"16/03/2016","valide":"Oui","ppo":"Non","type_carte":"Nouvelle carte","fond":"Cadastre","obsolete":true}},{"type":"Feature","geometry":{"type":"Polygon","coordinates":[[[5.3172,44.151],[5.331,44.1545],[5.3475,44.1446],[5.377,44.1372],[5.3811,44.1224],[5.399,44.115],[5.4072,44.0993],[5.4161,44.1175],[5.4505,44.1111],[5.4594,44.0692],[5.4319,44.0825],[5.4093,44.0899],[5.4045,44.0628],[5.3928,44.0524],[5.3488,44.0682],[5.3063,44.0776],[5.2863,44.1131],[5.2802,44.1283],[5.3152,44.1421],[5.3172,44.151]]]},"properties":{"id_ffco":"3513","nom":"CHEMIN DES LAVANDES","_dept":"84","numero":"2002-D84-16","commune":"Sault","echelle":"1/15000","surface":"84.73 km²","format":"+","annee":"2002","specialite":"Raid'O","latitude":"44.1023891677","longitude":"5.36171328001","date_saisie":"07/06/2002","date_depot":"10/06/2002","valide":"Non","ppo":"Non","obsolete":true}},{"type":"Feature","geometry":null,"properties":{"id_ffco":"5478","nom":"Forêt Départementale de Vénasque","_dept":"84","numero":"2000-D84-15","commune":"SAINT DIDIER","echelle":"1/2500","surface":"None km²","format":"A4","annee":"2000","cartographes":"M Haberkorn","proprietaire":"USEP","niveau":"Initiation, Scolaire","specialite":"CO à pied","latitude":"43.9993159592","longitude":"5.12344284044","date_saisie":"29/08/2012","valide":"Non","ppo":"Non","obsolete":true}},{"type":"Feature","geometry":{"type":"Polygon","coordinates":[[[5.1073,44.126],[5.1032,44.1287],[5.1015,44.1304],[5.1034,44.1343],[5.1035,44.1384],[5.1051,44.1432],[5.1221,44.1425],[5.1264,44.1464],[5.1367,44.1416],[5.1408,44.1429],[5.1425,44.1424],[5.1422,44.1382],[5.1313,44.1272],[5.1279,44.1255],[5.127,44.1227],[5.1102,44.1221],[5.1095,44.1244],[5.1066,44.1259],[5.1068,44.1259],[5.1073,44.126]]]},"properties":{"id_ffco":"5404","nom":"Le lac du Paty","_dept":"84","numero":"1999-D84-14","commune":"CAROMB","echelle":"1/10000","surface":"5.88 km²","format":"A3","annee":"1999","cartographes":"Michel HABERKORN,Anne HABERKORN","niveau":"Régional","specialite":"CO à pied","latitude":"44.13413783","longitude":"5.12070680651","date_saisie":"18/07/2012","valide":"Non","ppo":"Oui (35 postes)","obsolete":true}},{"type":"Feature","geometry":{"type":"Polygon","coordinates":[[[4.8123,43.9888],[4.8102,43.9819],[4.8108,43.9766],[4.8133,43.9723],[4.8151,43.9709],[4.8166,43.9742],[4.8177,43.9821],[4.8188,43.9887],[4.8123,43.9888]]]},"properties":{"id_ffco":"5428","nom":"L'Ilon","_dept":"84","numero":"1998-D84-13","commune":"AVIGNON","echelle":"1/10000","surface":"0.93 km²","format":"A4","annee":"1998","cartographes":"Anne HABERKORN","niveau":"Départemental","specialite":"CO à pied","latitude":"43.9810430811","longitude":"4.81435359458","date_saisie":"24/07/2012","valide":"Non","ppo":"Non","obsolete":true}},{"type":"Feature","geometry":{"type":"Polygon","coordinates":[[[5.4115,44.1124],[5.4138,44.113],[5.4129,44.1144],[5.4114,44.1148],[5.4103,44.1142],[5.4099,44.1129],[5.4115,44.1124]]]},"properties":{"id_ffco":"5479","nom":"Chateau de Coudray","_dept":"84","numero":"1997-D84-12","commune":"AUREL","echelle":"1/3000","surface":"0.05 km²","format":"A4","annee":"1997","cartographes":"Anne HABERKORN","proprietaire":"ESEP","niveau":"Initiation, Scolaire","specialite":"CO à pied","latitude":"44.1135444614","longitude":"5.4117515321","date_saisie":"31/08/2012","valide":"Non","ppo":"Non","obsolete":true}},{"type":"Feature","geometry":null,"properties":{"id_ffco":"5427","nom":"Parc de Chico Mendes","_dept":"84","numero":"1997-D84-11","commune":"AVIGNON","echelle":"1/2000","surface":"None km²","format":"A4","annee":"1997","cartographes":"Michel HABERKORN,Claudy NOWAK","niveau":"Initiation, Scolaire","specialite":"CO à pied","latitude":"43.9465956398","longitude":"4.84805507647","date_saisie":"24/07/2012","valide":"Non","ppo":"Non","obsolete":true}},{"type":"Feature","geometry":{"type":"Polygon","coordinates":[[[4.7995,44.1064],[4.8015,44.1063],[4.8042,44.1055],[4.8049,44.1042],[4.8008,44.1037],[4.7984,44.1039],[4.7995,44.1064]]]},"properties":{"id_ffco":"3245","nom":"BOISFEUILLET","_dept":"84","numero":"1996-D84-10","commune":"ORANGE","echelle":"1/2500","surface":"0.11 km²","annee":"1996","cartographes":"Michel HABERKORN","niveau":"Initiation, Scolaire","specialite":"CO à pied","latitude":"44.1049481287","longitude":"4.80144134888","valide":"Non","ppo":"Non","obsolete":true}},{"type":"Feature","geometry":{"type":"Polygon","coordinates":[[[4.8953,43.9752],[4.8982,43.9756],[4.9021,43.9775],[4.9023,43.9782],[4.9022,43.9794],[4.8985,43.9842],[4.8972,43.986],[4.8962,43.9868],[4.8933,43.9867],[4.8926,43.9828],[4.8953,43.9752]]]},"properties":{"id_ffco":"5429","nom":"Montagne Sainte Anne","_dept":"84","numero":"1996-D84-09","commune":"VEDENE","echelle":"1/5000","surface":"0.65 km²","format":"A4","annee":"1996","cartographes":"Michel HABERKORN,Anne HABERKORN,Claudy NOWAK","niveau":"Départemental","specialite":"CO à pied","latitude":"43.9808289334","longitude":"4.89694465822","date_saisie":"24/07/2012","valide":"Non","ppo":"Non","obsolete":true}},{"type":"Feature","geometry":null,"properties":{"id_ffco":"2612","nom":"TREIZES EMINES","_dept":"84","numero":"1992-D84-07","commune":"VILLELAURE","echelle":"1/7500","surface":"0.3 km²","annee":"1992","proprietaire":"PR - Provence","specialite":"CO à pied","latitude":"43.7106511","longitude":"5.433836","valide":"Non","ppo":"Non","obsolete":true}},{"type":"Feature","geometry":null,"properties":{"id_ffco":"2611","nom":"CHATEAU DE BUOUX","_dept":"84","numero":"1992-D84-06","commune":"APT","echelle":"1/10000","surface":"2.5 km²","annee":"1992","proprietaire":"PR - Provence","specialite":"CO à pied","latitude":"43.876502","longitude":"5.3938478","valide":"Non","ppo":"Non","obsolete":true}},{"type":"Feature","geometry":null,"properties":{"id_ffco":"2610","nom":"MOUSQUETY","_dept":"84","numero":"1992-D84-05","commune":"AVIGNON","echelle":"1/10000","surface":"0.8 km²","annee":"1992","proprietaire":"PR - Provence","specialite":"CO à pied","latitude":"43.9486126","longitude":"4.8059666","valide":"Non","ppo":"Non","obsolete":true}},{"type":"Feature","geometry":null,"properties":{"id_ffco":"5489","nom":"MONT JOLI","_dept":"84","numero":"1983-D84-04","commune":"BOLENE","echelle":"1/10000","surface":"5.0 km²","format":"A3","annee":"1983","cartographes":"BONNET G,A.DOUSSIERE,GARCIA P,GERALDES T","proprietaire":"8401","niveau":"Interrégional","specialite":"CO à pied","latitude":"44.2870709929","longitude":"4.76536421016","valide":"Non","ppo":"Non","obsolete":true}},{"type":"Feature","geometry":null,"properties":{"id_ffco":"5489","nom":"Le mont jolï","_dept":"84","numero":"1983-D84-04","commune":"BOLLENE","echelle":"1/10000","surface":"None km²","format":"A3","annee":"1983","cartographes":"BONNET G,A.DOUSSIERE,GARCIA P,GERALDES T","niveau":"Régional","specialite":"CO à pied","latitude":"44.2914976206","longitude":"4.77342529285","date_saisie":"04/09/2012","valide":"Non","ppo":"Non","obsolete":true}},{"type":"Feature","geometry":{"type":"Polygon","coordinates":[[[4.7918,44.2573],[4.7981,44.2581],[4.8023,44.2611],[4.8066,44.2588],[4.8119,44.2602],[4.8084,44.2656],[4.811,44.2677],[4.8055,44.2709],[4.7882,44.2675],[4.787,44.2686],[4.7848,44.269],[4.7796,44.2691],[4.7763,44.2701],[4.7633,44.2634],[4.754,44.2616],[4.752,44.2539],[4.7801,44.2557],[4.7923,44.2576],[4.7918,44.2573]]]},"properties":{"id_ffco":"2609","nom":"DEVES","_dept":"84","numero":"1982-D84-03","commune":"DERBOUX","echelle":"1/15000","surface":"5.52 km²","format":"A4","annee":"1982","cartographes":"A.DOUSSIERE","proprietaire":"8401","specialite":"CO à pied","latitude":"44.2621178424","longitude":"4.78231561906","valide":"Non","ppo":"Non","obsolete":true}},{"type":"Feature","geometry":{"type":"Polygon","coordinates":[[[4.7866,44.2087],[4.7842,44.2105],[4.7816,44.2107],[4.7782,44.2108],[4.773,44.2106],[4.77,44.2105],[4.7671,44.2107],[4.7679,44.2075],[4.7674,44.2065],[4.7683,44.2057],[4.7685,44.2042],[4.7691,44.2006],[4.7671,44.2],[4.7674,44.1989],[4.771,44.1994],[4.7758,44.2005],[4.7775,44.2012],[4.7819,44.2016],[4.7836,44.2012],[4.7865,44.2007],[4.7886,44.2008],[4.7889,44.2029],[4.7867,44.2088],[4.7868,44.2086],[4.7866,44.2087]]]},"properties":{"id_ffco":"2608","nom":"PATY","_dept":"84","numero":"1981-D84-02","commune":"PIOLENC","echelle":"1/10000","surface":"1.74 km²","format":"A4","annee":"1981","cartographes":"A.DOUSSIERE,J.BOSONI","proprietaire":"8401","specialite":"CO à pied","latitude":"44.20545556","longitude":"4.77747152988","valide":"Non","ppo":"Non","obsolete":true}},{"type":"Feature","geometry":null,"properties":{"id_ffco":"829","nom":"REVEST DU BION","_dept":"84","numero":"1978-D84-014","commune":"Revest du Bion","echelle":"1/15000","surface":"8.0 km²","annee":"1978","proprietaire":"PR - Provence","specialite":"CO à pied","latitude":"44.0887228244","longitude":"5.54339609163","valide":"Non","ppo":"Non","obsolete":true}},{"type":"Feature","geometry":{"type":"Polygon","coordinates":[[[4.8182,44.1227],[4.812,44.1216],[4.811,44.1224],[4.8102,44.1223],[4.8102,44.1216],[4.8112,44.1216],[4.8112,44.1207],[4.8094,44.1202],[4.8072,44.1201],[4.8069,44.1197],[4.8115,44.1147],[4.816,44.1139],[4.8165,44.1144],[4.8174,44.1144],[4.8172,44.1175],[4.8187,44.1185],[4.8187,44.1202],[4.8187,44.1209],[4.8186,44.1229],[4.8182,44.1227]]]},"properties":{"id_ffco":"2607","nom":"AGLANETS","_dept":"84","numero":"1992-D84-01","commune":"ORANGE","echelle":"1/5000","surface":"0.59 km²","annee":"1992","proprietaire":"8401","specialite":"CO à pied","latitude":"44.1185068288","longitude":"4.81379721584","valide":"Non","ppo":"Non","obsolete":true}},{"type":"Feature","geometry":null,"properties":{"id_ffco":"825","nom":"REVEST DU BION","_dept":"84","numero":"1978-D84-002","commune":"APT","echelle":"1/20000","surface":"15.0 km²","annee":"1978","proprietaire":"PR - Provence","specialite":"CO à pied","latitude":"44.0778716","longitude":"6.2375947","valide":"Non","ppo":"Non","obsolete":true}},{"type":"Feature","geometry":null,"properties":{"id_ffco":"2606","nom":"DNE MOUSQUETY","_dept":"84","numero":"1992-D84-00","commune":"AVIGNON","echelle":"1/2500","surface":"0.8 km²","annee":"1992","proprietaire":"PR - Provence","specialite":"CO à pied","latitude":"43.9486126","longitude":"4.8059666","valide":"Non","ppo":"Non","obsolete":true}}]}