{"type":"FeatureCollection","features":[{"type":"Feature","geometry":{"type":"Polygon","coordinates":[[[-1.0277,46.862],[-1.0308,46.8589],[-1.0302,46.8588],[-1.0294,46.8596],[-1.0274,46.8594],[-1.0269,46.8596],[-1.0253,46.8589],[-1.0241,46.8602],[-1.0277,46.862]]]},"properties":{"id_ffco":"13979","nom":"Bois de Dard","_dept":"85","numero":"2016-D85-17","commune":"LES HERBIERS","echelle":"1/1500","surface":"0.08 km²","format":"A4","annee":"2016","cartographes":"Eric Charles","proprietaire":"Mairie Les Herbiers","niveau":"Initiation, Scolaire","specialite":"CO à pied","contacts":"Mairie Les Herbiers, 6 Rue du Tourniquet, 85500, Les Herbiers, 02 51 91 07 67, mairie@lesherbiers.fr, https://www.lesherbiers.fr/","latitude":"46.8602568269","longitude":"-1.02716417969","date_saisie":"23/06/2023","date_depot":"15/05/2024","valide":"Oui","ppo":"Oui (52 postes)","type_carte":"Nouvelle carte","fond":"Cadastre","url":"https://www.lesherbiers.fr/","obsolete":true}},{"type":"Feature","geometry":{"type":"Polygon","coordinates":[[[-1.0087,46.878],[-1.0111,46.8743],[-1.0111,46.8737],[-1.0102,46.8734],[-1.0101,46.8723],[-1.0086,46.8719],[-1.0062,46.872],[-1.003,46.871],[-1.0009,46.8708],[-1.0002,46.8713],[-0.9993,46.874],[-0.9986,46.8743],[-0.9996,46.8756],[-1.0003,46.876],[-1.0046,46.8769],[-1.0066,46.8778],[-1.0087,46.878]]]},"properties":{"id_ffco":"13980","nom":"Parc du Landreau","_dept":"85","numero":"2016-D85-16","commune":"LES HERBIERS","echelle":"1/4000","surface":"0.5 km²","format":"A4","annee":"2016","cartographes":"Eric Charles","proprietaire":"Mairie Les Herbiers","niveau":"Initiation, Scolaire","specialite":"CO à pied","contacts":"Mairie Les Herbiers, 6 Rue du Tourniquet, 85500, Les Herbiers, 02 51 91 07 67, mairie@lesherbiers.fr, https://www.lesherbiers.fr/","latitude":"46.8742787991","longitude":"-1.00500893555","date_saisie":"23/06/2023","date_depot":"15/05/2024","valide":"Oui","ppo":"Oui (50 postes)","type_carte":"Reprise","base":"1981-D85-02 LE LANDREAU","fond":"Cadastre","url":"https://www.lesherbiers.fr/","obsolete":true}},{"type":"Feature","geometry":{"type":"Polygon","coordinates":[[[-1.0112,46.8741],[-1.0109,46.8735],[-1.0101,46.8732],[-1.0102,46.8724],[-1.008,46.8718],[-1.0063,46.872],[-1.0031,46.871],[-1.0011,46.8708],[-1.0002,46.8713],[-0.9993,46.874],[-0.9988,46.8743],[-0.9998,46.8756],[-1.0004,46.8759],[-1.0045,46.8769],[-1.0066,46.8778],[-1.0087,46.878],[-1.0112,46.8741]]]},"properties":{"id_ffco":"2561","nom":"LE LANDREAU","_dept":"85","numero":"1981-D85-02","commune":"LES HERBIERS","echelle":"1/5000","surface":"0.49 km²","format":"A4","annee":"1981","cartographes":"B Lemercier","proprietaire":"PL - Pays de la Loire","niveau":"Initiation, Scolaire","specialite":"CO à pied","latitude":"46.8742729502","longitude":"-1.00507383632","valide":"Non","ppo":"Non","type_carte":"Nouvelle carte","obsolete":true}},{"type":"Feature","geometry":null,"properties":{"id_ffco":"1462","nom":"PIERRE BRUNE","_dept":"85","numero":"1987-D85-00 (02)","commune":"MERVENT","echelle":"1/15000","surface":"13.0 km²","format":"+","annee":"1987","cartographes":"Alain FRANGEUL","proprietaire":"PL - Pays de la Loire","niveau":"Interrégional","specialite":"CO à pied","latitude":"46.5407561466","longitude":"-0.78119354248","date_saisie":"27/09/2013","valide":"Non","ppo":"Non","obsolete":true}},{"type":"Feature","geometry":null,"properties":{"id_ffco":"1462","nom":"PIERRE BRUNE (extrait)","_dept":"85","numero":"1987-D85-00 (02)","commune":"MERVENT","echelle":"1/15000","surface":"10.0 km²","format":"A4","annee":"1987","cartographes":"Alain FRANGEUL","proprietaire":"PL - Pays de la Loire","niveau":"Interrégional","specialite":"CO à pied","latitude":"46.5407875481","longitude":"-0.781285648593","valide":"Non","ppo":"Non","obsolete":true}},{"type":"Feature","geometry":null,"properties":{"id_ffco":"6945","nom":"Le Puy Brunet","_dept":"85","numero":"1987-D85-","commune":"MERVENT","echelle":"1/15000","surface":"None km²","format":"A4","annee":"1987","cartographes":"P. BARTHE,GABIOT","proprietaire":"PL - Pays de la Loire","niveau":"Départemental","specialite":"CO à pied","latitude":"46.5328740489","longitude":"-0.790763664246","date_saisie":"27/09/2013","valide":"Non","ppo":"Non","obsolete":true}}]}