{"type":"FeatureCollection","features":[{"type":"Feature","geometry":{"type":"Polygon","coordinates":[[[0.2644,46.4342],[0.2651,46.4357],[0.2656,46.4361],[0.2673,46.4357],[0.2674,46.4344],[0.2672,46.4326],[0.2643,46.4326],[0.2644,46.4342]]]},"properties":{"id_ffco":"8251","nom":"Collège et stade Vivonne","_dept":"86","numero":"2015-D86-99","commune":"Vivonne","echelle":"1/2000","surface":"0.08 km²","format":"A4","annee":"2015","cartographes":"David Barranger","niveau":"O+","specialite":"CO à pied","latitude":"46.4342002342","longitude":"0.265932115419","date_saisie":"31/03/2015","date_depot":"28/07/2015","valide":"Oui","ppo":"Non","type_carte":"Nouvelle carte","fond":"Ortho","obsolete":false}},{"type":"Feature","geometry":{"type":"Polygon","coordinates":[[[0.2628,46.4223],[0.2653,46.4235],[0.2662,46.424],[0.2661,46.4242],[0.2672,46.4248],[0.2658,46.4258],[0.2657,46.4259],[0.2638,46.4251],[0.2637,46.4252],[0.2608,46.4224],[0.2604,46.4221],[0.2609,46.4219],[0.2628,46.4223]]]},"properties":{"id_ffco":"8240","nom":"Plaine des sources","_dept":"86","numero":"2015-D86-98","commune":"Vivonne","echelle":"1/2500","surface":"0.09 km²","format":"A4","annee":"2015","cartographes":"David Barranger","niveau":"O+","specialite":"CO à pied","latitude":"46.4239107168","longitude":"0.263973805124","date_saisie":"24/03/2015","date_depot":"28/07/2015","valide":"Oui","ppo":"Non","type_carte":"Nouvelle carte","fond":"Ortho","obsolete":false}},{"type":"Feature","geometry":{"type":"Polygon","coordinates":[[[0.2592,46.422],[0.26,46.4242],[0.2595,46.4245],[0.2598,46.4248],[0.2587,46.4254],[0.2581,46.4257],[0.2568,46.4248],[0.2577,46.4241],[0.2567,46.4236],[0.2574,46.423],[0.2546,46.4213],[0.2573,46.4212],[0.2592,46.422]]]},"properties":{"id_ffco":"8239","nom":"Parc de Vounant","_dept":"86","numero":"2015-D86-97","commune":"Vivonne","echelle":"1/2500","surface":"0.1 km²","format":"A4","annee":"2015","cartographes":"BARRANGER","niveau":"O+","specialite":"CO à pied","latitude":"46.4231832649","longitude":"0.257938863588","date_saisie":"24/03/2015","date_depot":"28/05/2015","valide":"Oui","ppo":"Non","type_carte":"Nouvelle carte","fond":"Ortho","obsolete":false}},{"type":"Feature","geometry":{"type":"Polygon","coordinates":[[[0.1135,46.4412],[0.1156,46.441],[0.1186,46.4377],[0.1209,46.4392],[0.123,46.4382],[0.1257,46.4387],[0.127,46.4377],[0.1289,46.4395],[0.1306,46.4389],[0.1314,46.4384],[0.1308,46.4373],[0.1287,46.4356],[0.1276,46.4351],[0.1256,46.4351],[0.1213,46.4329],[0.1198,46.4325],[0.1155,46.4331],[0.1137,46.4337],[0.1131,46.4348],[0.1147,46.436],[0.1108,46.4389],[0.1135,46.4412]]]},"properties":{"id_ffco":"8181","nom":"Lusignan centre ville","_dept":"86","numero":"2014-D86-96","commune":"Lusignan","echelle":"1/4000","surface":"0.78 km²","format":"A4","annee":"2014","cartographes":"Marchegay","proprietaire":"86 - Vienne","niveau":"Régional","specialite":"CO à pied","latitude":"46.4366223454","longitude":"0.1201228723","date_saisie":"21/02/2015","date_depot":"28/07/2015","valide":"Oui","ppo":"Non","type_carte":"Nouvelle carte","fond":"Ortho","obsolete":false}},{"type":"Feature","geometry":{"type":"Polygon","coordinates":[[[0.1298,46.4386],[0.131,46.4439],[0.1331,46.4462],[0.134,46.447],[0.136,46.4462],[0.1373,46.4482],[0.139,46.4507],[0.1379,46.4513],[0.1417,46.4553],[0.139,46.4563],[0.1357,46.4564],[0.1327,46.4564],[0.13,46.4574],[0.129,46.4575],[0.128,46.4582],[0.1253,46.4579],[0.1224,46.4594],[0.1166,46.4581],[0.112,46.4545],[0.1091,46.4518],[0.117,46.4507],[0.1236,46.4525],[0.1271,46.4527],[0.1293,46.4516],[0.1306,46.4506],[0.1312,46.4496],[0.1308,46.4482],[0.1294,46.447],[0.1275,46.4465],[0.1256,46.4472],[0.1201,46.4466],[0.1185,46.4445],[0.1181,46.4423],[0.1172,46.4411],[0.1187,46.4388],[0.1218,46.4361],[0.1298,46.4386]]]},"properties":{"id_ffco":"8180","nom":"forêt de Lusignan","_dept":"86","numero":"2014-D86-95","commune":"Lusignan","echelle":"1/10000","surface":"2.72 km²","format":"A3","annee":"2014","cartographes":"Marchegay","proprietaire":"86 - Vienne","niveau":"Régional","specialite":"CO à pied","latitude":"46.4494200162","longitude":"0.125860558563","date_saisie":"21/02/2015","date_depot":"27/07/2015","valide":"Oui","ppo":"Non","type_carte":"Nouvelle carte","fond":"Ortho","obsolete":false}},{"type":"Feature","geometry":{"type":"Polygon","coordinates":[[[0.5208,46.7983],[0.5187,46.7985],[0.5187,46.8007],[0.5192,46.802],[0.5209,46.8023],[0.5222,46.8014],[0.5228,46.8006],[0.523,46.7995],[0.5222,46.7981],[0.5208,46.7983]]]},"properties":{"id_ffco":"8175","nom":"Centre de loisirs municipal chatelleraut","_dept":"86","numero":"2014-D86-94","commune":"Chatelleraut","echelle":"1/2000","surface":"0.12 km²","format":"A4","annee":"2014","cartographes":"LARMINACH","proprietaire":"86 - Vienne","niveau":"O+","specialite":"CO à pied","latitude":"46.8001110666","longitude":"0.520714210221","date_saisie":"20/02/2015","date_depot":"27/07/2015","valide":"Oui","ppo":"Non","type_carte":"Nouvelle carte","fond":"Ortho","obsolete":false}},{"type":"Feature","geometry":{"type":"Polygon","coordinates":[[[0.401,46.6697],[0.4021,46.6697],[0.4032,46.6709],[0.4018,46.6711],[0.401,46.6697]]]},"properties":{"id_ffco":"8174","nom":"Groupe scolaire Marcel Jolliet","_dept":"86","numero":"2014-D86-93","commune":"St Georges les Baillargeaux","echelle":"1/750","surface":"0.01 km²","format":"A4","annee":"2014","cartographes":"D Barranger","proprietaire":"86 - Vienne","niveau":"Initiation, Scolaire","specialite":"CO à pied","latitude":"46.6703606452","longitude":"0.40204383531","date_saisie":"20/02/2015","date_depot":"27/07/2015","valide":"Oui","ppo":"Non","type_carte":"Nouvelle carte","fond":"Ortho","obsolete":false}},{"type":"Feature","geometry":{"type":"Polygon","coordinates":[[[0.39,46.5723],[0.3896,46.5724],[0.389,46.5716],[0.3903,46.5713],[0.3904,46.5716],[0.3906,46.5716],[0.3908,46.5718],[0.3903,46.572],[0.3904,46.5722],[0.39,46.5723]]]},"properties":{"id_ffco":"8173","nom":"Ecole Georges Brassens","_dept":"86","numero":"2014-D86-92","commune":"Poitiers","echelle":"1/750","surface":"0.01 km²","format":"A4","annee":"2014","cartographes":"D Barranger","proprietaire":"86 - Vienne","niveau":"O+","specialite":"CO à pied","latitude":"46.5718297992","longitude":"0.389894037717","date_saisie":"20/02/2015","date_depot":"27/07/2015","valide":"Oui","ppo":"Non","type_carte":"Nouvelle carte","fond":"Ortho","obsolete":false}},{"type":"Feature","geometry":{"type":"Polygon","coordinates":[[[0.0855,47.0145],[0.0877,47.0134],[0.0887,47.0143],[0.09,47.0142],[0.0897,47.0144],[0.09,47.0147],[0.0899,47.0157],[0.089,47.0157],[0.0885,47.0155],[0.0879,47.0155],[0.0874,47.0154],[0.0857,47.0152],[0.0852,47.0148],[0.0855,47.0145]]]},"properties":{"id_ffco":"8172","nom":"Complexe sportif de Loudun","_dept":"86","numero":"2013-D86-91","commune":"Loudun","echelle":"1/1500","surface":"0.05 km²","format":"A4","annee":"2013","cartographes":"D Barranger","proprietaire":"86 - Vienne","niveau":"O+","specialite":"CO à pied","latitude":"47.0147207954","longitude":"0.0878047494957","date_saisie":"20/02/2015","date_depot":"27/07/2015","valide":"Oui","ppo":"Non","type_carte":"Nouvelle carte","fond":"Ortho","obsolete":false}},{"type":"Feature","geometry":{"type":"Polygon","coordinates":[[[0.0798,47.0061],[0.0831,47.0045],[0.085,47.005],[0.0869,47.0066],[0.0875,47.0079],[0.0875,47.0096],[0.087,47.0103],[0.0866,47.0111],[0.085,47.0118],[0.0835,47.0124],[0.0819,47.013],[0.0802,47.0134],[0.0787,47.0136],[0.0774,47.0131],[0.0761,47.0127],[0.0758,47.0123],[0.0751,47.0111],[0.074,47.0106],[0.0734,47.0096],[0.0736,47.0087],[0.073,47.0084],[0.0722,47.0078],[0.0715,47.0072],[0.0726,47.0068],[0.0719,47.0061],[0.0692,47.0031],[0.0689,47.002],[0.0707,47.0023],[0.0736,47.0029],[0.075,47.0034],[0.0798,47.0061]]]},"properties":{"id_ffco":"8171","nom":"Loudun","_dept":"86","numero":"2013-D86-90","commune":"Loudun","echelle":"1/5000","surface":"0.99 km²","format":"A3","annee":"2013","cartographes":"D Barranger","proprietaire":"86 - Vienne","niveau":"Départemental","specialite":"CO à pied","latitude":"47.0081253434","longitude":"0.0789552401116","date_saisie":"20/02/2015","date_depot":"27/07/2015","valide":"Oui","ppo":"Non","type_carte":"Nouvelle carte","fond":"Ortho","obsolete":false}},{"type":"Feature","geometry":{"type":"Polygon","coordinates":[[[0.4551,46.8353],[0.4557,46.8364],[0.4598,46.8346],[0.459,46.834],[0.4551,46.8353]]]},"properties":{"id_ffco":"8170","nom":"Thuré","_dept":"86","numero":"2013-D86-89","commune":"Thuré","echelle":"1/10000","surface":"0.04 km²","format":"A4","annee":"2013","cartographes":"D Barranger","proprietaire":"86 - Vienne","niveau":"Départemental","specialite":"CO à pied","latitude":"46.8351204672","longitude":"0.457293647526","date_saisie":"20/02/2015","date_depot":"27/07/2015","valide":"Oui","ppo":"Non","type_carte":"Nouvelle carte","fond":"Ortho","obsolete":false}},{"type":"Feature","geometry":{"type":"Polygon","coordinates":[[[0.1888,46.791],[0.1896,46.7905],[0.1941,46.7916],[0.1917,46.7929],[0.1968,46.7985],[0.1944,46.8],[0.1928,46.7984],[0.1904,46.7995],[0.1871,46.7939],[0.1883,46.7931],[0.1891,46.7931],[0.1907,46.7922],[0.1888,46.791]]]},"properties":{"id_ffco":"8169","nom":"Mirebeau","_dept":"86","numero":"2013-D86-88","commune":"Mirebeau","echelle":"1/4000","surface":"0.37 km²","format":"A4","annee":"2013","cartographes":"D Barranger","proprietaire":"86 - Vienne","niveau":"Départemental","specialite":"CO à pied","latitude":"46.7955952132","longitude":"0.191629495519","date_saisie":"20/02/2015","date_depot":"27/07/2015","valide":"Oui","ppo":"Non","type_carte":"Nouvelle carte","fond":"Ortho","obsolete":false}},{"type":"Feature","geometry":{"type":"Polygon","coordinates":[[[0.1803,46.7898],[0.181,46.7891],[0.182,46.7895],[0.1813,46.7902],[0.1803,46.7898]]]},"properties":{"id_ffco":"8168","nom":"Ecole Jean Raffarin","_dept":"86","numero":"2013-D86-87","commune":"Mirebeau","echelle":"1/600","surface":"0.01 km²","format":"A4","annee":"2013","cartographes":"D Barranger","proprietaire":"86 - Vienne","niveau":"Initiation, Scolaire","specialite":"CO à pied","latitude":"46.7896410033","longitude":"0.181129741519","date_saisie":"20/02/2015","date_depot":"27/07/2015","valide":"Oui","ppo":"Non","type_carte":"Nouvelle carte","fond":"Ortho","obsolete":false}},{"type":"Feature","geometry":{"type":"Polygon","coordinates":[[[0.4022,46.9026],[0.4044,46.9],[0.4024,46.8998],[0.4029,46.8987],[0.4008,46.8976],[0.3992,46.8985],[0.3972,46.8975],[0.3949,46.8991],[0.4022,46.9026]]]},"properties":{"id_ffco":"8167","nom":"St Gervais les 3 Clochers","_dept":"86","numero":"2013-D86-86","commune":"St Gervais","echelle":"1/4000","surface":"0.2 km²","format":"A4","annee":"2013","cartographes":"D Barranger","proprietaire":"Collège Maurice Bedel","niveau":"Initiation, Scolaire","specialite":"CO à pied","latitude":"46.8997720259","longitude":"0.39998098154","date_saisie":"20/02/2015","date_depot":"27/07/2015","valide":"Oui","ppo":"Non","type_carte":"Nouvelle carte","fond":"Ortho","obsolete":false}},{"type":"Feature","geometry":{"type":"Polygon","coordinates":[[[0.4094,46.3742],[0.41,46.3731],[0.4115,46.3726],[0.4127,46.3741],[0.4113,46.3748],[0.409,46.375],[0.4094,46.3742]]]},"properties":{"id_ffco":"8166","nom":"Plan d'eau de Verneuil","_dept":"86","numero":"2013-D86-85","commune":"Gençay","echelle":"1/2000","surface":"0.04 km²","format":"A4","annee":"2013","cartographes":"D Barranger","proprietaire":"Collège Jean Jaurès","niveau":"Initiation, Scolaire","specialite":"CO à pied","latitude":"46.3739366153","longitude":"0.410834928015","date_saisie":"20/02/2015","date_depot":"27/07/2015","valide":"Oui","ppo":"Non","type_carte":"Nouvelle carte","fond":"Ortho","obsolete":false}},{"type":"Feature","geometry":{"type":"Polygon","coordinates":[[[0.4247,46.6211],[0.4258,46.6199],[0.4269,46.6202],[0.4261,46.6213],[0.4247,46.621],[0.4247,46.6211]]]},"properties":{"id_ffco":"8165","nom":"Ecole Charles Choisie","_dept":"86","numero":"2014-D86-84","commune":"Montamisé","echelle":"1/1000","surface":"0.01 km²","format":"A4","annee":"2014","cartographes":"D Barranger","proprietaire":"86 - Vienne","niveau":"O+","specialite":"CO à pied","latitude":"46.6206153836","longitude":"0.425884411044","date_saisie":"20/02/2015","date_depot":"27/07/2015","valide":"Oui","ppo":"Non","type_carte":"Nouvelle carte","fond":"Ortho","obsolete":false}},{"type":"Feature","geometry":{"type":"Polygon","coordinates":[[[0.2311,46.6098],[0.2294,46.6086],[0.2278,46.6092],[0.2286,46.6098],[0.2295,46.6106],[0.2311,46.6098]]]},"properties":{"id_ffco":"8164","nom":"Ecole de Quinçay","_dept":"86","numero":"2013-D86-83","commune":"Quinçay","echelle":"1/1000","surface":"0.03 km²","format":"A4","annee":"2013","cartographes":"BARRANGER","proprietaire":"86 - Vienne","niveau":"Initiation, Scolaire","specialite":"CO à pied","latitude":"46.6095637793","longitude":"0.229449943158","date_saisie":"20/02/2015","date_depot":"27/07/2015","valide":"Oui","ppo":"Non","type_carte":"Nouvelle carte","fond":"Ortho","obsolete":false}},{"type":"Feature","geometry":{"type":"Polygon","coordinates":[[[0.3577,46.077],[0.3549,46.0779],[0.3553,46.0801],[0.3568,46.0816],[0.3562,46.0823],[0.3548,46.0821],[0.3517,46.0831],[0.3498,46.0825],[0.3494,46.0801],[0.3484,46.0801],[0.3475,46.0781],[0.3448,46.0774],[0.3448,46.0753],[0.3484,46.0746],[0.3509,46.074],[0.3542,46.0753],[0.3575,46.075],[0.3577,46.077]]]},"properties":{"id_ffco":"8159","nom":"Bois de chez Guinot","_dept":"86","numero":"2013-D86-82","commune":"Genouillé","echelle":"1/5000","surface":"0.61 km²","format":"A4","annee":"2013","cartographes":"BARRANGER","proprietaire":"Mairie de Civray","niveau":"Départemental","specialite":"CO à pied","latitude":"46.0780443246","longitude":"0.351515859883","date_saisie":"19/02/2015","date_depot":"27/07/2015","valide":"Oui","ppo":"Non","type_carte":"Nouvelle carte","fond":"Ortho","obsolete":false}},{"type":"Feature","geometry":{"type":"Polygon","coordinates":[[[0.4126,46.3713],[0.4146,46.3707],[0.4155,46.3704],[0.4151,46.3699],[0.4151,46.3689],[0.4134,46.3695],[0.412,46.3698],[0.4126,46.3713]]]},"properties":{"id_ffco":"5674","nom":"COLLEGE JEAN JAURES","_dept":"86","numero":"2013-D86-81","commune":"Gençay","echelle":"1/1500","surface":"0.04 km²","format":"A4","annee":"2013","cartographes":"BARRANGER","proprietaire":"Collège Jean Jaurès","niveau":"Initiation, Scolaire","specialite":"CO à pied","latitude":"46.3701431292","longitude":"0.413721296256","date_saisie":"23/03/2013","date_depot":"27/07/2015","valide":"Oui","ppo":"Non","type_carte":"Nouvelle carte","fond":"Ortho","obsolete":false}},{"type":"Feature","geometry":{"type":"Polygon","coordinates":[[[0.2305,46.1169],[0.231,46.1174],[0.232,46.1178],[0.2305,46.1186],[0.2268,46.121],[0.2267,46.1218],[0.2277,46.1232],[0.2271,46.1239],[0.2296,46.1251],[0.2317,46.1246],[0.2342,46.1237],[0.2346,46.1242],[0.2391,46.1238],[0.2388,46.1224],[0.2402,46.1219],[0.2407,46.1211],[0.2392,46.1203],[0.238,46.119],[0.2364,46.1182],[0.2348,46.1174],[0.2339,46.118],[0.2326,46.1171],[0.2319,46.1166],[0.2312,46.1165],[0.2305,46.1169]]]},"properties":{"id_ffco":"5673","nom":"SAINT-MACOUX","_dept":"86","numero":"2013-D86-80","commune":"Sain-Macoux","echelle":"1/5000","surface":"0.62 km²","format":"A4","annee":"2013","cartographes":"BARRANGER","proprietaire":"Mairie de Civray","niveau":"Initiation, Scolaire","specialite":"CO à pied","latitude":"46.1212743196","longitude":"0.233291873855","date_saisie":"23/03/2013","date_depot":"27/07/2015","valide":"Oui","ppo":"Non","type_carte":"Nouvelle carte","base":"2013-D86-80 SAINT-MACOUX","fond":"Ortho","obsolete":false}},{"type":"Feature","geometry":{"type":"Polygon","coordinates":[[[0.3538,46.5879],[0.3546,46.5878],[0.3549,46.5895],[0.3524,46.5906],[0.3517,46.5902],[0.3506,46.5907],[0.3504,46.5905],[0.3492,46.5913],[0.3493,46.5915],[0.3491,46.5917],[0.3468,46.5919],[0.347,46.5914],[0.3474,46.5914],[0.3501,46.5899],[0.3523,46.5887],[0.3536,46.5879],[0.3538,46.5879]]]},"properties":{"id_ffco":"5672","nom":"PARC CHARLES PERRAULT","_dept":"86","numero":"2013-D86-79","commune":"Poitiers","echelle":"1/2500","surface":"0.08 km²","format":"A4","annee":"2013","cartographes":"BARRANGER","proprietaire":"86 - Vienne","niveau":"Initiation, Scolaire","specialite":"CO à pied","latitude":"46.5898102285","longitude":"0.351724921805","date_saisie":"23/03/2013","date_depot":"27/07/2015","valide":"Oui","ppo":"Non","type_carte":"Nouvelle carte","fond":"Ortho","obsolete":false}},{"type":"Feature","geometry":{"type":"Polygon","coordinates":[[[0.3394,46.6016],[0.3394,46.6016],[0.3409,46.604],[0.3411,46.6039],[0.3416,46.6038],[0.343,46.6057],[0.3434,46.6064],[0.3443,46.606],[0.3433,46.6047],[0.3424,46.6036],[0.3406,46.6018],[0.3402,46.6019],[0.34,46.6014],[0.3394,46.6016]]]},"properties":{"id_ffco":"5671","nom":"CITE SCOLAIRE ISAAC DE L'ETOILE","_dept":"86","numero":"2013-D86-78","commune":"Poiitiers","echelle":"1/2500","surface":"0.05 km²","format":"A4","annee":"2013","cartographes":"BARRANGER","proprietaire":"86 - Vienne","niveau":"Initiation, Scolaire","specialite":"CO à pied","latitude":"46.6037987168","longitude":"0.34180749015","date_saisie":"23/03/2013","date_depot":"27/07/2015","valide":"Oui","ppo":"Non","type_carte":"Nouvelle carte","fond":"Ortho","obsolete":false}},{"type":"Feature","geometry":{"type":"Polygon","coordinates":[[[0.6846,46.2294],[0.6837,46.2298],[0.6834,46.23],[0.6828,46.2297],[0.6822,46.2299],[0.6823,46.2302],[0.6828,46.2305],[0.6831,46.2307],[0.6833,46.2307],[0.6837,46.231],[0.6841,46.2311],[0.6844,46.2314],[0.6849,46.2314],[0.685,46.231],[0.686,46.2306],[0.6856,46.2301],[0.6856,46.2299],[0.6855,46.2297],[0.6852,46.2294],[0.6848,46.2295],[0.6846,46.2294]]]},"properties":{"id_ffco":"5670","nom":"COLLEGE RENE CASSIN","_dept":"86","numero":"2012-D86-77","commune":"L'Isle-Jourdain","echelle":"1/1500","surface":"0.03 km²","format":"A4","annee":"2012","cartographes":"BARRANGER","proprietaire":"Collège René Cassin","niveau":"Initiation, Scolaire","specialite":"CO à pied","latitude":"46.2303279824","longitude":"0.684279724085","date_saisie":"23/03/2013","date_depot":"27/07/2015","valide":"Oui","ppo":"Non","type_carte":"Nouvelle carte","fond":"Ortho","obsolete":false}},{"type":"Feature","geometry":{"type":"Polygon","coordinates":[[[0.6838,46.2374],[0.6833,46.2368],[0.6825,46.2357],[0.682,46.2358],[0.6817,46.2361],[0.6829,46.2393],[0.6839,46.24],[0.685,46.2405],[0.6854,46.2403],[0.6848,46.2379],[0.6841,46.2377],[0.684,46.2375],[0.6838,46.2374]]]},"properties":{"id_ffco":"5669","nom":"LA GARE","_dept":"86","numero":"2012-D86-76","commune":"L'Isle-Jourdain","echelle":"1/2000","surface":"0.07 km²","format":"A4","annee":"2012","cartographes":"BARRANGER","proprietaire":"Collège René Cassin","niveau":"Initiation, Scolaire","specialite":"CO à pied","latitude":"46.2382631774","longitude":"0.6835731815","date_saisie":"23/03/2013","date_depot":"27/07/2015","valide":"Oui","ppo":"Non","type_carte":"Nouvelle carte","base":"2012-D86-76 LA GARE","fond":"Ortho","obsolete":false}},{"type":"Feature","geometry":{"type":"Polygon","coordinates":[[[0.869,46.4351],[0.8695,46.4352],[0.87,46.4344],[0.8703,46.4337],[0.8702,46.4328],[0.87,46.4321],[0.8696,46.4315],[0.8694,46.4315],[0.8692,46.4324],[0.8693,46.4333],[0.8691,46.4343],[0.8689,46.435],[0.869,46.4351]]]},"properties":{"id_ffco":"5533","nom":"AIRE DES ILETTES","_dept":"86","numero":"2012-D86-75","commune":"Montmorillon","echelle":"1/2000","surface":"0.03 km²","format":"A4","annee":"2012","cartographes":"BARRANGER","proprietaire":"Lycée Jean Moulin","niveau":"Initiation, Scolaire","specialite":"CO à pied","latitude":"46.4334105552","longitude":"0.869623504661","date_saisie":"04/10/2012","date_depot":"09/11/2016","valide":"Oui","ppo":"Non","type_carte":"Nouvelle carte","fond":"Ortho","obsolete":false}},{"type":"Feature","geometry":{"type":"Polygon","coordinates":[[[0.3118,46.5662],[0.3118,46.5662],[0.3115,46.5668],[0.312,46.5671],[0.3131,46.5668],[0.3131,46.5667],[0.3121,46.566],[0.3118,46.5662]]]},"properties":{"id_ffco":"5525","nom":"ECOLE MARCEL PAGNOL","_dept":"86","numero":"2012-D86-74","commune":"Poitiers","echelle":"1/600","surface":"0.01 km²","format":"A4","annee":"2012","cartographes":"BARRANGER","proprietaire":"86 - Vienne","niveau":"Initiation, Scolaire","specialite":"CO à pied","latitude":"46.5666253289","longitude":"0.312217246428","date_saisie":"30/09/2012","date_depot":"27/07/2015","valide":"Oui","ppo":"Non","type_carte":"Nouvelle carte","fond":"Ortho","obsolete":false}},{"type":"Feature","geometry":{"type":"Polygon","coordinates":[[[0.1865,46.3026],[0.1847,46.3042],[0.1832,46.3035],[0.1834,46.3021],[0.1838,46.3012],[0.1848,46.3011],[0.1865,46.3026]]]},"properties":{"id_ffco":"5524","nom":"COLLEGE ANDRE BROUILLET","_dept":"86","numero":"2012-D86-73","commune":"Couhé","echelle":"1/2000","surface":"0.05 km²","format":"A4","annee":"2012","cartographes":"BARRANGER","proprietaire":"Collège André Brouillet","niveau":"Initiation, Scolaire","specialite":"CO à pied","latitude":"46.3025923301","longitude":"0.18462792121","date_saisie":"30/09/2012","date_depot":"27/07/2015","valide":"Oui","ppo":"Non","type_carte":"Nouvelle carte","fond":"Ortho","obsolete":false}},{"type":"Feature","geometry":{"type":"Polygon","coordinates":[[[0.3895,46.5677],[0.3901,46.5686],[0.3917,46.5698],[0.394,46.5692],[0.3952,46.5715],[0.3985,46.571],[0.3995,46.5707],[0.4009,46.5692],[0.4022,46.5683],[0.4018,46.5669],[0.4027,46.5665],[0.4016,46.5647],[0.3971,46.5659],[0.3895,46.5677]]]},"properties":{"id_ffco":"5523","nom":"CENTRE EQUESTRE GRAND POITIERS","_dept":"86","numero":"2012-D86-72","commune":"Poitiers","echelle":"1/4000","surface":"0.41 km²","format":"A4","annee":"2012","cartographes":"BARRANGER","proprietaire":"86 - Vienne","niveau":"Initiation, Scolaire","specialite":"CO à pied","latitude":"46.5681425546","longitude":"0.396931027303","date_saisie":"30/09/2012","date_depot":"27/07/2015","valide":"Oui","ppo":"Oui (30 postes)","type_carte":"Nouvelle carte","fond":"Ortho","obsolete":false}},{"type":"Feature","geometry":{"type":"Polygon","coordinates":[[[0.4585,46.7199],[0.4526,46.7255],[0.4507,46.7287],[0.4573,46.7309],[0.4609,46.7316],[0.4645,46.7309],[0.4683,46.7313],[0.4709,46.7322],[0.4741,46.7311],[0.4749,46.7295],[0.4738,46.7272],[0.4713,46.7249],[0.4653,46.722],[0.4597,46.7198],[0.4585,46.7199]]]},"properties":{"id_ffco":"5522","nom":"LE PARC DE ST CYR","_dept":"86","numero":"2009-D86-71","commune":"St Cyr","echelle":"1/7500","surface":"1.57 km²","format":"A4","annee":"2009","cartographes":"Y Mareigner","proprietaire":"8604 - PEDALER-MARCHER-S'ORIENTER","niveau":"Départemental","specialite":"CO à pied","latitude":"46.7267570015","longitude":"0.462830557575","date_saisie":"30/09/2012","date_depot":"27/07/2015","valide":"Oui","ppo":"Oui (9 postes)","type_carte":"Nouvelle carte","fond":"IGN","obsolete":false}},{"type":"Feature","geometry":{"type":"Polygon","coordinates":[[[0.4826,46.7403],[0.49,46.7357],[0.5011,46.7319],[0.5102,46.7309],[0.5195,46.7311],[0.5219,46.7318],[0.5227,46.7372],[0.525,46.7439],[0.5255,46.749],[0.5262,46.7519],[0.5236,46.7544],[0.5186,46.7582],[0.5135,46.7617],[0.5136,46.7673],[0.5107,46.7676],[0.5033,46.7658],[0.4961,46.759],[0.4862,46.7493],[0.481,46.7423],[0.4826,46.7403]]]},"properties":{"id_ffco":"5521","nom":"LES MYSTERES DE LA BATAILLE","_dept":"86","numero":"2012-D86-70","commune":"Naintré","echelle":"1/15000","surface":"9.17 km²","format":"A3","annee":"2012","cartographes":"BARRANGER","proprietaire":"8604 - PEDALER-MARCHER-S'ORIENTER","niveau":"Départemental","specialite":"CO à VTT","latitude":"46.7468898921","longitude":"0.505875178342","date_saisie":"30/09/2012","date_depot":"28/07/2015","valide":"Oui","ppo":"Non","type_carte":"Nouvelle carte","fond":"Ortho","obsolete":false}},{"type":"Feature","geometry":{"type":"Polygon","coordinates":[[[0.2785,46.0857],[0.2769,46.0846],[0.2762,46.0836],[0.2744,46.0838],[0.2728,46.0858],[0.2703,46.0869],[0.2672,46.0872],[0.2663,46.083],[0.2665,46.0808],[0.2679,46.0785],[0.2706,46.0782],[0.2734,46.0782],[0.2744,46.079],[0.2756,46.0793],[0.2772,46.0794],[0.2791,46.0795],[0.2796,46.0822],[0.2798,46.084],[0.2812,46.0847],[0.2819,46.085],[0.2828,46.0858],[0.2845,46.0856],[0.2862,46.0864],[0.2867,46.0871],[0.2868,46.088],[0.2867,46.089],[0.2821,46.0893],[0.281,46.088],[0.2779,46.0875],[0.2785,46.0857]]]},"properties":{"id_ffco":"5520","nom":"La vallée du Cibiou","_dept":"86","numero":"2012-D86-69","commune":"Lizant","echelle":"1/6000","surface":"0.99 km²","format":"A4","annee":"2012","cartographes":"BARRANGER","proprietaire":"Mairie de Civray","niveau":"Départemental","specialite":"CO à pied","latitude":"46.0834403595","longitude":"0.274806776932","date_saisie":"30/09/2012","date_depot":"27/07/2015","valide":"Oui","ppo":"Non","type_carte":"Nouvelle carte","fond":"Ortho","obsolete":false}},{"type":"Feature","geometry":{"type":"Polygon","coordinates":[[[0.3475,46.5633],[0.3475,46.5645],[0.3465,46.565],[0.3443,46.5656],[0.3439,46.564],[0.344,46.5632],[0.3444,46.5631],[0.3475,46.5633]]]},"properties":{"id_ffco":"5518","nom":"PARC DU TRIANGLE D'OR","_dept":"86","numero":"2021-D86-68","commune":"Poitiers","echelle":"1/1500","surface":"0.06 km²","format":"A4","annee":"2021","cartographes":"BARRANGER","proprietaire":"86 - Vienne","niveau":"Initiation, Scolaire","specialite":"CO à pied","latitude":"46.5642071485","longitude":"0.345553395521","date_saisie":"30/09/2012","date_depot":"27/07/2015","valide":"Oui","ppo":"Oui (10 postes)","type_carte":"Reprise","base":"2021-D86-68 PARC DU TRIANGLE D'OR","fond":"Ortho","obsolete":false}},{"type":"Feature","geometry":{"type":"Polygon","coordinates":[[[0.3251,46.8237],[0.3215,46.8263],[0.3192,46.8248],[0.3235,46.822],[0.3251,46.8237]]]},"properties":{"id_ffco":"5519","nom":"LE TERRAIN DE CROSS","_dept":"86","numero":"2012-D86-67","commune":"Lencloitre","echelle":"1/2500","surface":"0.1 km²","format":"A4","annee":"2012","cartographes":"BARRANGER","proprietaire":"Collège Arsène Lambert","niveau":"Initiation, Scolaire","specialite":"CO à pied","latitude":"46.8242056927","longitude":"0.322247195224","date_saisie":"30/09/2012","date_depot":"27/07/2015","valide":"Oui","ppo":"Non","type_carte":"Nouvelle carte","base":"2011-D86-65 COLLEGE ARSENE LAMBERT","fond":"Ortho","obsolete":false}},{"type":"Feature","geometry":{"type":"Polygon","coordinates":[[[0.4838,46.6373],[0.4999,46.6454],[0.5173,46.6427],[0.5277,46.6325],[0.5114,46.6243],[0.5011,46.6243],[0.4937,46.6203],[0.4918,46.6157],[0.4881,46.613],[0.481,46.6101],[0.4711,46.6055],[0.4639,46.6081],[0.4664,46.614],[0.4675,46.6189],[0.4728,46.6284],[0.4798,46.6282],[0.4821,46.6318],[0.4827,46.636],[0.4838,46.6373]]]},"properties":{"id_ffco":"5517","nom":"LE GRAND RECOIN","_dept":"86","numero":"2012-D86-66","commune":"Montamisé","echelle":"1/15000","surface":"9.77 km²","format":"A3","annee":"2012","cartographes":"Barthélémy,BARRANGER","proprietaire":"86 - Vienne","niveau":"Régional","specialite":"CO à pied","latitude":"46.6275734553","longitude":"0.493666010136","date_saisie":"30/09/2012","date_depot":"15/11/2012","valide":"Oui","ppo":"Non","type_carte":"Nouvelle carte","fond":"Ortho","obsolete":false}},{"type":"Feature","geometry":{"type":"Polygon","coordinates":[[[0.3325,46.8191],[0.3371,46.8216],[0.3373,46.8213],[0.3372,46.8207],[0.3367,46.8201],[0.3361,46.8196],[0.3354,46.8191],[0.335,46.8185],[0.335,46.8181],[0.3349,46.8176],[0.3335,46.8183],[0.3325,46.8191]]]},"properties":{"id_ffco":"5516","nom":"COLLEGE ARSENE LAMBERT","_dept":"86","numero":"2011-D86-65","commune":"Lencloitre","echelle":"1/2000","surface":"0.06 km²","format":"A4","annee":"2011","cartographes":"BARRANGER","proprietaire":"Collège Arsène Lambert","niveau":"Initiation, Scolaire","specialite":"CO à pied","latitude":"46.819575973","longitude":"0.33498509708","date_saisie":"30/09/2012","date_depot":"15/11/2012","valide":"Oui","ppo":"Non","type_carte":"Nouvelle carte","fond":"Cadastre","obsolete":false}},{"type":"Feature","geometry":{"type":"Polygon","coordinates":[[[0.3326,46.5734],[0.3363,46.5748],[0.3356,46.5761],[0.3344,46.5763],[0.3325,46.5752],[0.3299,46.574],[0.3294,46.5737],[0.3304,46.5726],[0.3326,46.5734]]]},"properties":{"id_ffco":"5515","nom":"PARC DE BLOSSAC","_dept":"86","numero":"2011-D86-64","commune":"Poitiers","echelle":"1/2000","surface":"0.09 km²","format":"A4","annee":"2011","cartographes":"LARMINACH","proprietaire":"86 - Vienne","niveau":"Initiation, Scolaire","specialite":"CO à pied","latitude":"46.5744761877","longitude":"0.332971595006","date_saisie":"30/09/2012","date_depot":"15/11/2012","valide":"Oui","ppo":"Non","type_carte":"Nouvelle carte","fond":"Cadastre","obsolete":false}},{"type":"Feature","geometry":{"type":"Polygon","coordinates":[[[0.8783,46.4293],[0.8773,46.4286],[0.8782,46.4273],[0.8803,46.428],[0.8794,46.4295],[0.8783,46.4293]]]},"properties":{"id_ffco":"5514","nom":"CITE SCOLAIRE JEAN MOULIN","_dept":"86","numero":"2011-D86-63","commune":"Montmorillon","echelle":"1/1200","surface":"0.03 km²","format":"A4","annee":"2011","cartographes":"BARRANGER","proprietaire":"Lycée Jean Moulin","niveau":"Initiation, Scolaire","specialite":"CO à pied","latitude":"46.4283857967","longitude":"0.878773385652","date_saisie":"30/09/2012","date_depot":"15/11/2012","valide":"Oui","ppo":"Non","type_carte":"Nouvelle carte","fond":"Cadastre","obsolete":false}},{"type":"Feature","geometry":{"type":"Polygon","coordinates":[[[0.3696,46.4859],[0.3622,46.5057],[0.3665,46.5065],[0.3665,46.5141],[0.3693,46.5148],[0.3686,46.5213],[0.3715,46.5207],[0.3732,46.519],[0.3799,46.5201],[0.3828,46.5183],[0.3825,46.5125],[0.3849,46.5082],[0.3918,46.5031],[0.3921,46.4987],[0.393,46.4948],[0.3859,46.4932],[0.3803,46.4911],[0.3773,46.487],[0.3751,46.4858],[0.3696,46.4859]]]},"properties":{"id_ffco":"5513","nom":"LES BOIS DE SAINT-PIERRE VTT","_dept":"86","numero":"2011-D86-62","commune":"Les Roches Prémaries","echelle":"1/15000","surface":"5.54 km²","format":"A4","annee":"2011","cartographes":"BARRANGER","proprietaire":"86 - Vienne","niveau":"Régional","specialite":"CO à VTT","latitude":"46.5028420867","longitude":"0.376599682252","date_saisie":"30/09/2012","date_depot":"15/11/2012","valide":"Oui","ppo":"Non","type_carte":"Nouvelle carte","fond":"Ortho","obsolete":false}},{"type":"Feature","geometry":{"type":"Polygon","coordinates":[[[0.2326,46.5804],[0.2165,46.5815],[0.1992,46.5804],[0.1928,46.5843],[0.1962,46.5883],[0.1928,46.5896],[0.1904,46.5928],[0.1835,46.591],[0.1844,46.5939],[0.188,46.5994],[0.1916,46.6004],[0.1966,46.5988],[0.2029,46.5985],[0.2045,46.6033],[0.2091,46.6035],[0.2079,46.5996],[0.2139,46.5981],[0.2242,46.594],[0.2326,46.5904],[0.2308,46.5866],[0.2342,46.5834],[0.2326,46.5804]]]},"properties":{"id_ffco":"5512","nom":"FORET DOMANIALE DE VOUILLE SAINT-HILAIRE","_dept":"86","numero":"2014-D86-61","commune":"Vouillé","echelle":"1/10000","surface":"5.86 km²","format":"+","annee":"2014","cartographes":"BARRANGER","proprietaire":"86 - Vienne","niveau":"Régional","specialite":"CO à pied","latitude":"46.5900735761","longitude":"0.209315407023","date_saisie":"30/09/2012","date_depot":"27/07/2015","valide":"Oui","ppo":"Non","type_carte":"Reprise","base":"2014-D86-61 FORET DOMANIALE DE VOUILLE SAINT-HILAIRE","fond":"Ortho","obsolete":false}},{"type":"Feature","geometry":{"type":"Polygon","coordinates":[[[0.417,46.7043],[0.4181,46.7038],[0.4178,46.7036],[0.4176,46.7034],[0.4175,46.7033],[0.4174,46.7034],[0.4171,46.7035],[0.4167,46.7039],[0.417,46.7043]]]},"properties":{"id_ffco":"5511","nom":"MATERNELLE TONY LAINE","_dept":"86","numero":"2011-D86-60","commune":"Dissay","echelle":"1/500","surface":"0.01 km²","format":"A4","annee":"2011","cartographes":"LARMINACH","proprietaire":"86 - Vienne","niveau":"Initiation, Scolaire","specialite":"CO à pied","latitude":"46.7038037535","longitude":"0.417344064246","date_saisie":"30/09/2012","date_depot":"15/11/2012","valide":"Oui","ppo":"Non","type_carte":"Nouvelle carte","fond":"Cadastre","obsolete":false}},{"type":"Feature","geometry":{"type":"Polygon","coordinates":[[[0.5445,46.7144],[0.5443,46.7153],[0.5437,46.7161],[0.5455,46.7163],[0.5458,46.7158],[0.546,46.7147],[0.5463,46.7139],[0.5445,46.7144]]]},"properties":{"id_ffco":"5510","nom":"COLLEGE CAMILLE GUERIN","_dept":"86","numero":"2011-D86-59","commune":"Vouneuil-sur-Vienne","echelle":"1/1000","surface":"0.03 km²","format":"A4","annee":"2011","cartographes":"BARRANGER","proprietaire":"Collège Camille Guérin","niveau":"Initiation, Scolaire","specialite":"CO à pied","latitude":"46.7152065976","longitude":"0.545121880593","date_saisie":"30/09/2012","date_depot":"15/11/2012","valide":"Oui","ppo":"Non","type_carte":"Nouvelle carte","fond":"Cadastre","obsolete":false}},{"type":"Feature","geometry":{"type":"Polygon","coordinates":[[[0.703,46.4024],[0.7037,46.4001],[0.7037,46.3978],[0.7038,46.3962],[0.7053,46.3963],[0.7063,46.3979],[0.7064,46.4009],[0.7061,46.4025],[0.703,46.4024]]]},"properties":{"id_ffco":"5509","nom":"LES BORDS DE VIENNE","_dept":"86","numero":"2011-D86-58","commune":"Lussac-les-Châteaux","echelle":"1/3000","surface":"0.14 km²","format":"A4","annee":"2011","cartographes":"BARRANGER","proprietaire":"Collège Louise Michel","niveau":"Initiation, Scolaire","specialite":"CO à pied","latitude":"46.399590481","longitude":"0.704881782926","date_saisie":"30/09/2012","date_depot":"15/11/2012","valide":"Oui","ppo":"Non","type_carte":"Nouvelle carte","fond":"Cadastre","obsolete":false}},{"type":"Feature","geometry":{"type":"Polygon","coordinates":[[[0.7181,46.4004],[0.72,46.4015],[0.7193,46.4026],[0.7184,46.4026],[0.7171,46.4019],[0.7181,46.4004]]]},"properties":{"id_ffco":"5508","nom":"COLLEGE LOUISE MICHEL","_dept":"86","numero":"2011-D86-57","commune":"Lussac-les-Châteaux","echelle":"1/1500","surface":"0.03 km²","format":"A4","annee":"2011","cartographes":"BARRANGER","proprietaire":"Collège Louise Michel","niveau":"Initiation, Scolaire","specialite":"CO à pied","latitude":"46.4016456407","longitude":"0.718551527936","date_saisie":"30/09/2012","date_depot":"15/11/2012","valide":"Oui","ppo":"Non","type_carte":"Nouvelle carte","fond":"Cadastre","obsolete":false}},{"type":"Feature","geometry":{"type":"Polygon","coordinates":[[[0.4244,46.6968],[0.4246,46.6967],[0.4265,46.6982],[0.4256,46.6991],[0.4233,46.6977],[0.4244,46.6968]]]},"properties":{"id_ffco":"5507","nom":"CAMPING MUNICIPAL DE DISSAY","_dept":"86","numero":"2011-D86-56","commune":"Dissay","echelle":"1/1000","surface":"0.03 km²","format":"A4","annee":"2011","cartographes":"LARMINACH","proprietaire":"86 - Vienne","niveau":"Initiation, Scolaire","specialite":"CO à pied","latitude":"46.6979077625","longitude":"0.424945511154","date_saisie":"30/09/2012","date_depot":"15/11/2012","valide":"Oui","ppo":"Non","type_carte":"Nouvelle carte","fond":"Cadastre","obsolete":false}},{"type":"Feature","geometry":{"type":"Polygon","coordinates":[[[0.3173,46.0728],[0.3179,46.0739],[0.3172,46.0755],[0.3177,46.0764],[0.3194,46.0767],[0.3195,46.078],[0.32,46.0803],[0.3241,46.0796],[0.3252,46.0786],[0.3283,46.078],[0.3328,46.0767],[0.3341,46.0763],[0.3377,46.0765],[0.3396,46.0761],[0.3402,46.0749],[0.3397,46.0732],[0.3392,46.0724],[0.334,46.0726],[0.3337,46.0716],[0.3295,46.0716],[0.3265,46.0719],[0.3233,46.0717],[0.3195,46.0728],[0.3173,46.0728]]]},"properties":{"id_ffco":"5506","nom":"LA VALLEE DU CIBIOU","_dept":"86","numero":"2011-D86-55","commune":"Genouillé","echelle":"1/5000","surface":"1.07 km²","format":"A4","annee":"2011","cartographes":"BARRANGER","proprietaire":"Mairie de Civray","niveau":"Départemental","specialite":"CO à pied","latitude":"46.0750686507","longitude":"0.327639308115","date_saisie":"30/09/2012","date_depot":"15/11/2012","valide":"Oui","ppo":"Non","type_carte":"Nouvelle carte","fond":"Cadastre","obsolete":false}},{"type":"Feature","geometry":{"type":"Polygon","coordinates":[[[0.2663,46.4329],[0.2673,46.433],[0.2676,46.4343],[0.2675,46.4349],[0.2672,46.4359],[0.265,46.4356],[0.2645,46.4346],[0.2644,46.4338],[0.2654,46.4337],[0.2656,46.433],[0.2663,46.4329]]]},"properties":{"id_ffco":"5505","nom":"COLLEGE ET STADE DE VIVONNE","_dept":"86","numero":"2011-D86-54","commune":"Vivonne","echelle":"1/2000","surface":"0.06 km²","format":"A4","annee":"2011","cartographes":"GAGNOT","proprietaire":"86 - Vienne","niveau":"Initiation, Scolaire","specialite":"CO à pied","latitude":"46.4344019997","longitude":"0.266142960267","date_saisie":"30/09/2012","date_depot":"27/07/2015","valide":"Oui","ppo":"Non","type_carte":"Reprise","base":"2011-D86-54 COLLEGE ET STADE DE VIVONNE","fond":"Ortho","obsolete":false}},{"type":"Feature","geometry":{"type":"Polygon","coordinates":[[[0.2965,46.1508],[0.2934,46.1488],[0.2847,46.1488],[0.2768,46.1496],[0.2697,46.1502],[0.263,46.1496],[0.263,46.1455],[0.2644,46.1429],[0.2671,46.1421],[0.2692,46.1391],[0.273,46.1371],[0.2774,46.1352],[0.2838,46.1351],[0.286,46.1348],[0.2955,46.1375],[0.3046,46.1408],[0.3037,46.1461],[0.3131,46.1493],[0.3055,46.1559],[0.3034,46.1603],[0.2974,46.1581],[0.2965,46.1508]]]},"properties":{"id_ffco":"5504","nom":"CIVRAY","_dept":"86","numero":"2013-D86-53","commune":"Civray","echelle":"1/7500","surface":"5.19 km²","format":"A3","annee":"2013","cartographes":"BARRANGER","proprietaire":"Mairie de Civray","niveau":"Départemental","specialite":"CO à pied","latitude":"46.1451743162","longitude":"0.287839740771","date_saisie":"30/09/2012","date_depot":"27/07/2015","valide":"Oui","ppo":"Non","type_carte":"Nouvelle carte","base":"2013-D86-53 CIVRAY","fond":"Ortho","obsolete":false}},{"type":"Feature","geometry":{"type":"Polygon","coordinates":[[[0.6081,46.9318],[0.6092,46.9312],[0.6099,46.9317],[0.6111,46.9322],[0.61,46.933],[0.6084,46.9332],[0.6081,46.9318]]]},"properties":{"id_ffco":"5502","nom":"STADE DE DANGE ST ROMAIN","_dept":"86","numero":"2010-D86-51","commune":"Dangé Saint-Romain","echelle":"1/1000","surface":"0.03 km²","format":"A4","annee":"2010","cartographes":"LARMINACH","proprietaire":"86 - Vienne","niveau":"Initiation, Scolaire","specialite":"CO à pied","latitude":"46.9322761452","longitude":"0.609357346167","date_saisie":"30/09/2012","date_depot":"15/11/2012","valide":"Oui","ppo":"Non","type_carte":"Nouvelle carte","fond":"Cadastre","obsolete":false}},{"type":"Feature","geometry":{"type":"Polygon","coordinates":[[[0.6041,46.93],[0.6045,46.9313],[0.6026,46.9315],[0.6022,46.9302],[0.6041,46.93]]]},"properties":{"id_ffco":"5501","nom":"COLLEGE BELLEVUE","_dept":"86","numero":"2010-D86-50","commune":"Dangé Saint-Romain","echelle":"1/1000","surface":"0.02 km²","format":"A4","annee":"2010","cartographes":"LARMINACH","proprietaire":"86 - Vienne","niveau":"Initiation, Scolaire","specialite":"CO à pied","latitude":"46.930758701","longitude":"0.603369065527","date_saisie":"30/09/2012","date_depot":"15/11/2012","valide":"Oui","ppo":"Non","type_carte":"Nouvelle carte","fond":"Cadastre","obsolete":false}},{"type":"Feature","geometry":{"type":"Polygon","coordinates":[[[0.396,46.5554],[0.3701,46.5708],[0.3706,46.5722],[0.3776,46.5704],[0.3788,46.5731],[0.381,46.5729],[0.3834,46.5732],[0.3856,46.5735],[0.3884,46.5734],[0.3905,46.5759],[0.3967,46.5739],[0.3984,46.5724],[0.3979,46.5659],[0.3972,46.5614],[0.3976,46.5573],[0.3985,46.5536],[0.396,46.5554]]]},"properties":{"id_ffco":"5500","nom":"POITIERS CAMPUS","_dept":"86","numero":"2010-D86-49","commune":"Poitiers","echelle":"1/7500","surface":"2.5 km²","format":"A3","annee":"2010","cartographes":"BARRANGER","proprietaire":"86 - Vienne","niveau":"Départemental","specialite":"CO à pied","latitude":"46.5669056569","longitude":"0.388482450683","date_saisie":"30/09/2012","date_depot":"15/11/2012","valide":"Oui","ppo":"Non","type_carte":"Nouvelle carte","fond":"Ortho","obsolete":false}},{"type":"Feature","geometry":{"type":"Polygon","coordinates":[[[0.3506,46.5637],[0.3521,46.5643],[0.3528,46.5659],[0.3531,46.567],[0.3514,46.5681],[0.3513,46.5691],[0.3499,46.5707],[0.3478,46.5732],[0.3465,46.5733],[0.3467,46.574],[0.346,46.5748],[0.3383,46.5725],[0.3387,46.5719],[0.3366,46.5703],[0.3362,46.5686],[0.3363,46.5665],[0.3369,46.5639],[0.3372,46.5622],[0.3386,46.5618],[0.3404,46.5611],[0.3442,46.5632],[0.3506,46.5637]]]},"properties":{"id_ffco":"5499","nom":"POITIERS LES 3 CITES","_dept":"86","numero":"2010-D86-48","commune":"Poitiers","echelle":"1/5000","surface":"1.3 km²","format":"A3","annee":"2010","cartographes":"BARRANGER","proprietaire":"86 - Vienne","niveau":"Départemental","specialite":"CO à pied","latitude":"46.5677590079","longitude":"0.343786030754","date_saisie":"30/09/2012","date_depot":"15/11/2012","valide":"Oui","ppo":"Non","type_carte":"Nouvelle carte","fond":"Cadastre","obsolete":false}},{"type":"Feature","geometry":{"type":"Polygon","coordinates":[[[0.375,46.4961],[0.3656,46.5013],[0.3676,46.5071],[0.3677,46.5146],[0.3688,46.5166],[0.3681,46.5221],[0.3704,46.5221],[0.373,46.5175],[0.3765,46.5196],[0.3831,46.518],[0.3813,46.514],[0.3817,46.5101],[0.3849,46.5082],[0.387,46.5049],[0.375,46.4961]]]},"properties":{"id_ffco":"5498","nom":"LES BOIS DE SAINT-PIERRE","_dept":"86","numero":"2010-D86-47","commune":"Smarves","echelle":"1/10000","surface":"2.82 km²","format":"A4","annee":"2010","cartographes":"BARRANGER","proprietaire":"86 - Vienne","niveau":"Régional","specialite":"CO à pied","latitude":"46.5084565564","longitude":"0.37519630976","date_saisie":"30/09/2012","date_depot":"15/11/2012","valide":"Oui","ppo":"Oui (70 postes)","type_carte":"Nouvelle carte","fond":"Ortho","obsolete":false}},{"type":"Feature","geometry":{"type":"Polygon","coordinates":[[[0.6356,46.5602],[0.6357,46.5614],[0.638,46.5637],[0.6369,46.5643],[0.6346,46.5647],[0.6338,46.5639],[0.6325,46.5638],[0.6309,46.5642],[0.6292,46.5631],[0.6284,46.5621],[0.6309,46.5614],[0.6317,46.5605],[0.6356,46.5602]]]},"properties":{"id_ffco":"5497","nom":"LES GUIRAUDIERES","_dept":"86","numero":"2010-D86-46","commune":"Chauvigny","echelle":"1/3000","surface":"0.22 km²","format":"A4","annee":"2010","cartographes":"BARRANGER","proprietaire":"86 - Vienne","niveau":"Initiation, Scolaire","specialite":"CO à pied","latitude":"46.5625088902","longitude":"0.633385087886","date_saisie":"29/09/2012","date_depot":"27/07/2015","valide":"Oui","ppo":"Non","type_carte":"Nouvelle carte","fond":"Ortho","obsolete":false}},{"type":"Feature","geometry":{"type":"Polygon","coordinates":[[[0.3293,46.5746],[0.3295,46.5757],[0.3335,46.5817],[0.3368,46.585],[0.34,46.5877],[0.3411,46.5903],[0.3451,46.5904],[0.3481,46.5888],[0.3504,46.5867],[0.3531,46.5825],[0.3527,46.5796],[0.3514,46.5779],[0.3466,46.5765],[0.343,46.5766],[0.3374,46.575],[0.3307,46.5729],[0.3293,46.5746]]]},"properties":{"id_ffco":"2495","nom":"POITIERS CENTRE","_dept":"86","numero":"2011-D86-45","commune":"POITIERS","echelle":"1/5000","surface":"2.0 km²","format":"A3","annee":"2011","cartographes":"BARRANGER","proprietaire":"86 - Vienne","niveau":"Régional","specialite":"CO à pied","latitude":"46.5814979996","longitude":"0.341994059843","date_depot":"27/07/2015","valide":"Oui","ppo":"Non","type_carte":"Nouvelle carte","fond":"Ortho","obsolete":false}},{"type":"Feature","geometry":{"type":"Polygon","coordinates":[[[0.5131,46.7747],[0.4997,46.781],[0.4984,46.7878],[0.4982,46.7948],[0.5186,46.8039],[0.5245,46.8003],[0.5277,46.7967],[0.5258,46.7867],[0.5234,46.7811],[0.5131,46.7747]]]},"properties":{"id_ffco":"2494","nom":"FORET DOMANIALE DE CHATELLERAULT","_dept":"86","numero":"2009-D86-44","commune":"Châtellerault","echelle":"1/10000","surface":"5.05 km²","format":"A3","annee":"2009","cartographes":"TAILLEBOIS,TINTAR","proprietaire":"86 - Vienne","niveau":"Interrégional","specialite":"CO à pied","latitude":"46.7894204729","longitude":"0.513053506204","date_depot":"27/07/2015","valide":"Oui","ppo":"Non","type_carte":"Reprise","base":"1998-D86-12 FORET DOMANIALE DE CHATELLERAULT 2","fond":"IGN","obsolete":false}},{"type":"Feature","geometry":{"type":"Polygon","coordinates":[[[0.312,46.5634],[0.3136,46.5622],[0.3147,46.5632],[0.3157,46.5646],[0.3152,46.5654],[0.3146,46.5651],[0.314,46.5644],[0.312,46.5634]]]},"properties":{"id_ffco":"471","nom":"LE PARC DES PRES MIGNONS","_dept":"86","numero":"2011-D86-42","commune":"Poitiers","echelle":"1/2000","surface":"0.04 km²","format":"A4","annee":"2011","cartographes":"BARRANGER","proprietaire":"86 - Vienne","niveau":"Initiation, Scolaire","specialite":"CO à pied","latitude":"46.563753898","longitude":"0.314017182538","date_depot":"15/11/2012","valide":"Oui","ppo":"Non","type_carte":"Nouvelle carte","fond":"Cadastre","obsolete":false}},{"type":"Feature","geometry":{"type":"Polygon","coordinates":[[[0.3289,46.5406],[0.3313,46.5391],[0.336,46.5397],[0.3403,46.5408],[0.3422,46.54],[0.3401,46.5366],[0.3368,46.532],[0.3368,46.5281],[0.3384,46.5253],[0.3408,46.5238],[0.3416,46.5213],[0.3418,46.5171],[0.3392,46.5165],[0.3362,46.5161],[0.3336,46.5184],[0.3315,46.5202],[0.331,46.5217],[0.3279,46.5213],[0.3264,46.5227],[0.3207,46.5253],[0.3205,46.5307],[0.3245,46.5345],[0.3246,46.537],[0.3289,46.5406]]]},"properties":{"id_ffco":"4901","nom":"LIGUGE","_dept":"86","numero":"2009-D86-41","commune":"Ligugé","echelle":"1/10000","surface":"2.82 km²","format":"A4","annee":"2009","cartographes":"BARRANGER","proprietaire":"86 - Vienne","niveau":"Départemental","specialite":"CO à pied","latitude":"46.5290419577","longitude":"0.33184650275","date_saisie":"19/03/2010","date_depot":"26/03/2010","valide":"Oui","ppo":"Oui (18 postes)","type_carte":"Reprise","base":"2009-D86-41 LIGUGE","fond":"Ortho","obsolete":false}},{"type":"Feature","geometry":{"type":"Polygon","coordinates":[[[0.514,46.67],[0.5175,46.6687],[0.5225,46.6678],[0.5281,46.6688],[0.5301,46.6712],[0.531,46.6743],[0.5348,46.676],[0.5349,46.6769],[0.5348,46.6846],[0.5318,46.6876],[0.527,46.6884],[0.5235,46.6882],[0.5215,46.6872],[0.5167,46.6874],[0.5136,46.686],[0.514,46.67]]]},"properties":{"id_ffco":"469","nom":"LE PALAC","_dept":"86","numero":"2008-D86-38","commune":"Bonneuil-Matours","echelle":"1/10000","surface":"3.11 km²","format":"A4","annee":"2008","cartographes":"TAILLEBOIS,TINTAR","proprietaire":"86 - Vienne","niveau":"Régional","specialite":"CO à pied","latitude":"46.6785783131","longitude":"0.523662442808","date_depot":"01/01/2008","valide":"Oui","ppo":"Non","type_carte":"Nouvelle carte","fond":"Ortho","obsolete":false}},{"type":"Feature","geometry":{"type":"Polygon","coordinates":[[[0.3846,46.5718],[0.3855,46.5726],[0.3866,46.5723],[0.3872,46.5718],[0.3868,46.571],[0.3844,46.5716],[0.3846,46.5718]]]},"properties":{"id_ffco":"4899","nom":"COLLEGE FRANCE BLOCH SERAZIN","_dept":"86","numero":"2008-D86-37","commune":"Poitiers","echelle":"1/1000","surface":"0.02 km²","format":"A4","annee":"2008","cartographes":"LARMINACH","proprietaire":"86 - Vienne","niveau":"Initiation, Scolaire","specialite":"CO à pied","latitude":"46.5718007221","longitude":"0.385923656101","date_saisie":"19/03/2010","date_depot":"26/03/2010","valide":"Oui","ppo":"Non","type_carte":"Extrait","base":"2008-D86-37 COLLEGE FRANCE BLOCH SERAZIN","fond":"IGN","obsolete":false}},{"type":"Feature","geometry":{"type":"Polygon","coordinates":[[[0.5122,46.7757],[0.5,46.781],[0.4976,46.7856],[0.4993,46.7954],[0.5125,46.8015],[0.5185,46.8042],[0.5221,46.8026],[0.528,46.8019],[0.5256,46.7899],[0.5233,46.782],[0.5144,46.7759],[0.5122,46.7757]]]},"properties":{"id_ffco":"4897","nom":"FORET DE CHATELLERAULT VTT","_dept":"86","numero":"2008-D86-35","commune":"Chatellerault","echelle":"1/15000","surface":"5.04 km²","format":"A4","annee":"2008","cartographes":"BARRANGER","proprietaire":"86 - Vienne","niveau":"Régional","specialite":"CO à VTT","latitude":"46.7900132142","longitude":"0.513010102183","date_saisie":"19/03/2010","date_depot":"26/03/2010","valide":"Oui","ppo":"Non","type_carte":"Reprise","base":"1998-D86-12 FORET DOMANIALE DE CHATELLERAULT 2","fond":"IGN","obsolete":false}},{"type":"Feature","geometry":{"type":"Polygon","coordinates":[[[0.3219,46.5253],[0.321,46.5288],[0.3219,46.531],[0.3233,46.5328],[0.3248,46.5341],[0.3248,46.5354],[0.3289,46.5403],[0.3302,46.5392],[0.3328,46.5385],[0.3374,46.537],[0.3373,46.5355],[0.3353,46.5317],[0.3343,46.5279],[0.3335,46.5257],[0.3309,46.5261],[0.3275,46.5263],[0.3257,46.5259],[0.3242,46.5243],[0.3219,46.5253]]]},"properties":{"id_ffco":"4896","nom":"Ligugé","_dept":"86","numero":"2011-D86-34","commune":"Ligugé","echelle":"1/7500","surface":"1.35 km²","format":"A4","annee":"2011","cartographes":"BARRANGER","proprietaire":"86 - Vienne","niveau":"Départemental","specialite":"CO à pied","latitude":"46.5319592544","longitude":"0.3291679735","date_saisie":"19/03/2010","date_depot":"26/03/2010","valide":"Oui","ppo":"Non","type_carte":"Reprise","base":"2009-D86-41 LIGUGE","fond":"IGN","obsolete":false}},{"type":"Feature","geometry":{"type":"Polygon","coordinates":[[[0.1698,46.5971],[0.1768,46.5954],[0.1841,46.5943],[0.1892,46.6018],[0.1844,46.6047],[0.1822,46.607],[0.1783,46.6077],[0.1691,46.6098],[0.1698,46.5971]]]},"properties":{"id_ffco":"4895","nom":"LE BOIS AUX CLERCS 2","_dept":"86","numero":"2014-D86-33","commune":"Vouillé","echelle":"1/10000","surface":"1.78 km²","format":"A4","annee":"2014","cartographes":"BARRANGER","proprietaire":"86 - Vienne","niveau":"Régional","specialite":"CO à pied","latitude":"46.6016418401","longitude":"0.177878230083","date_saisie":"19/03/2010","date_depot":"26/03/2010","valide":"Oui","ppo":"Non","type_carte":"Reprise","base":"2014-D86-33 LE BOIS AUX CLERCS 2","fond":"Ortho","obsolete":false}},{"type":"Feature","geometry":{"type":"Polygon","coordinates":[[[0.2536,46.582],[0.2574,46.5825],[0.261,46.5835],[0.2641,46.584],[0.268,46.5845],[0.2701,46.5851],[0.271,46.5851],[0.2704,46.5834],[0.2706,46.5824],[0.2712,46.5812],[0.272,46.5804],[0.2724,46.5799],[0.2701,46.5794],[0.268,46.5785],[0.2646,46.5773],[0.2626,46.5766],[0.2607,46.575],[0.259,46.5734],[0.2567,46.5747],[0.2568,46.5757],[0.2579,46.5765],[0.2577,46.5773],[0.2561,46.5785],[0.2543,46.5808],[0.2536,46.582]]]},"properties":{"id_ffco":"4893","nom":"CREPS DE BOIVRE","_dept":"86","numero":"2011-D86-31","commune":"Boivre","echelle":"1/7500","surface":"0.92 km²","format":"A4","annee":"2011","cartographes":"TAILLEBOIS,TINTAR","proprietaire":"CREPS","niveau":"Régional","specialite":"CO à pied","latitude":"46.5801332658","longitude":"0.262812923826","date_saisie":"19/03/2010","date_depot":"26/03/2010","valide":"Oui","ppo":"Oui (40 postes)","type_carte":"Reprise","base":"2011-D86-31 CREPS DE BOIVRE","fond":"IGN","obsolete":false}},{"type":"Feature","geometry":{"type":"Polygon","coordinates":[[[0.2582,46.5826],[0.2628,46.5773],[0.2671,46.5784],[0.2668,46.5799],[0.2663,46.5813],[0.2669,46.5843],[0.2612,46.5836],[0.2582,46.5826]]]},"properties":{"id_ffco":"4892","nom":"LE CHATEAU DE BOIVRE","_dept":"86","numero":"2007-D86-30","commune":"Vouneuil-sous-Biard","echelle":"1/4000","surface":"0.34 km²","format":"A4","annee":"2007","cartographes":"TAILLEBOIS,TINTAR","proprietaire":"CREPS","niveau":"Interrégional","specialite":"CO à pied","latitude":"46.5810347691","longitude":"0.263379154997","date_saisie":"19/03/2010","date_depot":"26/03/2010","valide":"Oui","ppo":"Non","type_carte":"Nouvelle carte","fond":"IGN","obsolete":false}},{"type":"Feature","geometry":{"type":"Polygon","coordinates":[[[0.3752,46.5707],[0.3767,46.5703],[0.3763,46.5698],[0.3768,46.5691],[0.3768,46.5683],[0.3757,46.5677],[0.3703,46.5711],[0.3707,46.5719],[0.3752,46.5707]]]},"properties":{"id_ffco":"4891","nom":"STADE REBEILLEAU","_dept":"86","numero":"2014-D86-29","commune":"Poitiers","echelle":"1/2000","surface":"0.1 km²","format":"A4","annee":"2014","cartographes":"BARRANGER","proprietaire":"86 - Vienne","niveau":"Initiation, Scolaire","specialite":"CO à pied","latitude":"46.5698905651","longitude":"0.374062940442","date_saisie":"19/03/2010","date_depot":"26/03/2010","valide":"Oui","ppo":"Non","type_carte":"Nouvelle carte","fond":"Ortho","obsolete":false}},{"type":"Feature","geometry":{"type":"Polygon","coordinates":[[[0.0878,47.0154],[0.088,47.0154],[0.0898,47.0144],[0.0892,47.0139],[0.0882,47.0141],[0.0874,47.0138],[0.0861,47.0145],[0.0878,47.0154]]]},"properties":{"id_ffco":"4649","nom":"COLLEGE DU BELLAY","_dept":"86","numero":"2006-D86-26","commune":"Loudun","echelle":"1/1500","surface":"0.03 km²","format":"A4","annee":"2006","cartographes":"LARMINACH","proprietaire":"Collège du Bellay","niveau":"Initiation, Scolaire","specialite":"CO à pied","latitude":"47.0145422312","longitude":"0.0879498791543","date_saisie":"09/12/2009","date_depot":"15/12/2009","valide":"Oui","ppo":"Non","type_carte":"Reprise","base":"2006-D86-26 COLLEGE DU BELLAY","fond":"IGN","obsolete":false}},{"type":"Feature","geometry":{"type":"Polygon","coordinates":[[[0.9337,46.314],[0.9324,46.3123],[0.9312,46.3111],[0.9316,46.3097],[0.9331,46.3084],[0.9355,46.3075],[0.9378,46.3062],[0.9396,46.3044],[0.9398,46.3035],[0.9445,46.3037],[0.9492,46.3061],[0.9529,46.3069],[0.956,46.3113],[0.9525,46.3139],[0.9441,46.3157],[0.9393,46.3176],[0.9351,46.3148],[0.9337,46.315],[0.9337,46.314]]]},"properties":{"id_ffco":"4643","nom":"LA VALLEE DU PEU","_dept":"86","numero":"2021-D86-20","commune":"Lathus","echelle":"1/10000","surface":"1.82 km²","format":"A4","annee":"2021","cartographes":"BARRANGER","proprietaire":"8606 - CENTRE DE PLEIN AIR MJC DE LATHUS","niveau":"Régional","specialite":"CO à pied","latitude":"46.3104645339","longitude":"0.943179671579","date_saisie":"09/12/2009","date_depot":"15/12/2009","valide":"Oui","ppo":"Oui (60 postes)","type_carte":"Reprise","base":"2021-D86-20 LA VALLEE DU PEU","fond":"Ortho","obsolete":false}},{"type":"Feature","geometry":{"type":"Polygon","coordinates":[[[0.33,46.634],[0.3306,46.6329],[0.3316,46.633],[0.3316,46.633],[0.3309,46.6342],[0.33,46.634]]]},"properties":{"id_ffco":"14873","nom":"Ecole Robert Desnos","_dept":"86","numero":"2024-D86-145","commune":"Migné Auxances","echelle":"1/1000","surface":"0.01 km²","format":"A4","annee":"2024","cartographes":"Damien Roche","proprietaire":"86 - Vienne","niveau":"O+","specialite":"CO à pied","latitude":"46.6334963445","longitude":"0.330818345753","date_saisie":"29/01/2025","date_depot":"12/03/2025","valide":"Non","ppo":"Non","type_carte":"Nouvelle carte","fond":"Cadastre","obsolete":false}},{"type":"Feature","geometry":{"type":"Polygon","coordinates":[[[0.28,46.6258],[0.2797,46.6252],[0.28,46.6251],[0.2802,46.6255],[0.2806,46.6254],[0.2806,46.6257],[0.28,46.6258]]]},"properties":{"id_ffco":"14872","nom":"Ecole de Limbre","_dept":"86","numero":"2024-D86-144","commune":"Migné Auxances","echelle":"1/500","surface":"0.0 km²","format":"A4","annee":"2024","cartographes":"Damien Roche","proprietaire":"86 - Vienne","niveau":"O+","specialite":"CO à pied","latitude":"46.6254967986","longitude":"0.280152148833","date_saisie":"29/01/2025","date_depot":"12/03/2025","valide":"Oui","ppo":"Non","type_carte":"Nouvelle carte","fond":"Cadastre","obsolete":false}},{"type":"Feature","geometry":{"type":"Polygon","coordinates":[[[0.3114,46.6234],[0.3116,46.6229],[0.3119,46.623],[0.3123,46.6224],[0.3129,46.6227],[0.313,46.6228],[0.3127,46.6235],[0.3114,46.6234]]]},"properties":{"id_ffco":"14871","nom":"Ecole Victor Schoelcher","_dept":"86","numero":"2024-D86-143","commune":"Migné Auxances","echelle":"1/1000","surface":"0.01 km²","format":"A4","annee":"2024","cartographes":"Damien Roche","proprietaire":"86 - Vienne","niveau":"O+","specialite":"CO à pied","contacts":"CDCO 86, cd.vienne@ffcorientation.fr","latitude":"46.623025048","longitude":"0.312266742628","date_saisie":"29/01/2025","date_depot":"12/03/2025","valide":"Oui","ppo":"Non","type_carte":"Nouvelle carte","fond":"Cadastre","obsolete":false}},{"type":"Feature","geometry":{"type":"Polygon","coordinates":[[[0.3198,46.6343],[0.3199,46.6335],[0.3209,46.6335],[0.3218,46.633],[0.3224,46.6328],[0.3231,46.6322],[0.3243,46.6331],[0.3229,46.6337],[0.3215,46.6343],[0.3198,46.6343]]]},"properties":{"id_ffco":"14869","nom":"Parc des Rochereaux","_dept":"86","numero":"2024-D86-142","commune":"Migné Auxances","echelle":"1/2000","surface":"0.04 km²","format":"A4","annee":"2024","cartographes":"Damien Roche","proprietaire":"86 - Vienne","niveau":"O+","specialite":"CO à pied","latitude":"46.6334434121","longitude":"0.32200996796","date_saisie":"29/01/2025","date_depot":"12/03/2025","valide":"Oui","ppo":"Non","type_carte":"Nouvelle carte","fond":"Cadastre","obsolete":false}},{"type":"Feature","geometry":{"type":"Polygon","coordinates":[[[0.3161,46.6277],[0.3162,46.6269],[0.3169,46.626],[0.3172,46.6259],[0.3174,46.6256],[0.3174,46.6253],[0.3199,46.6265],[0.3194,46.6269],[0.3175,46.6283],[0.3161,46.6277]]]},"properties":{"id_ffco":"14868","nom":"Parc de la Comberie","_dept":"86","numero":"2024-D86-141","commune":"Migné Auxances","echelle":"1/2000","surface":"0.05 km²","format":"A4","annee":"2024","cartographes":"Damien Roche","proprietaire":"86 - Vienne","niveau":"O+","specialite":"CO à pied","latitude":"46.6268398005","longitude":"0.317750349253","date_saisie":"29/01/2025","date_depot":"12/03/2025","valide":"Oui","ppo":"Non","type_carte":"Nouvelle carte","fond":"Cadastre","obsolete":false}},{"type":"Feature","geometry":{"type":"Polygon","coordinates":[[[0.3816,46.5873],[0.3845,46.5875],[0.3845,46.5863],[0.384,46.5862],[0.3838,46.5858],[0.3835,46.5858],[0.3834,46.5849],[0.3824,46.5848],[0.3819,46.5851],[0.3816,46.5873]]]},"properties":{"id_ffco":"14442","nom":"Ensemble scolaire St Jacques de Compostelle","_dept":"86","numero":"2024-D86-140","commune":"Poitiers","echelle":"1/4000","surface":"0.05 km²","format":"A4","annee":"2024","cartographes":"Nicolas TALON","proprietaire":"86 - Vienne","niveau":"Initiation, Scolaire","specialite":"CO à pied","contacts":"CDCO 86, cd.vienne@ffcorientation.fr","latitude":"46.5863011738","longitude":"0.382943451033","date_saisie":"26/04/2024","date_depot":"20/01/2026","valide":"Oui","ppo":"Non","type_carte":"Nouvelle carte","fond":"Cadastre","obsolete":false}},{"type":"Feature","geometry":{"type":"Polygon","coordinates":[[[0.3344,46.5289],[0.3333,46.5315],[0.3326,46.5322],[0.3346,46.5329],[0.3358,46.5346],[0.3371,46.5343],[0.3357,46.5308],[0.3344,46.5289]]]},"properties":{"id_ffco":"13909","nom":"Parc de Givray","_dept":"86","numero":"2022-D86-139","commune":"Ligugé","echelle":"1/2000","surface":"0.09 km²","format":"A4","annee":"2022","cartographes":"COTIRTA Marian","proprietaire":"86 - Vienne","niveau":"O+","specialite":"CO à pied","contacts":"CDCO 86, cd.vienne@ffcorientation.fr","latitude":"46.5320015566","longitude":"0.334991421212","date_saisie":"30/03/2023","date_depot":"20/07/2023","valide":"Oui","ppo":"Oui (20 postes)","type_carte":"Extrait","base":"2011-D86-34 Ligugé","fond":"Ortho","obsolete":false}},{"type":"Feature","geometry":{"type":"Polygon","coordinates":[[[0.1699,46.6464],[0.1571,46.6442],[0.1572,46.6316],[0.1643,46.6277],[0.1725,46.6304],[0.1762,46.6357],[0.1832,46.6356],[0.1822,46.6449],[0.1699,46.6464]]]},"properties":{"id_ffco":"13908","nom":"Vouillé","_dept":"86","numero":"2023-D86-138","commune":"Vouillé","echelle":"1/4000","surface":"3.05 km²","format":"A3","annee":"2023","cartographes":"Fabrice LAPERGUE","proprietaire":"86 - Vienne","niveau":"Régional","specialite":"CO à pied","contacts":"CDCO 86, cd.vienne@ffcorientation.fr","latitude":"46.6381481218","longitude":"0.16880374846","date_saisie":"27/03/2023","date_depot":"20/07/2023","valide":"Oui","ppo":"Non","type_carte":"Nouvelle carte","fond":"Ortho","obsolete":false}},{"type":"Feature","geometry":{"type":"Polygon","coordinates":[[[0.3427,46.5679],[0.3409,46.5673],[0.3404,46.5666],[0.3407,46.5661],[0.3418,46.566],[0.3428,46.5658],[0.3434,46.5675],[0.3427,46.5679]]]},"properties":{"id_ffco":"13921","nom":"Ecoles Tony Lainé","_dept":"86","numero":"2023-D86-137","commune":"Poitiers","echelle":"1/2000","surface":"0.04 km²","format":"A4","annee":"2023","cartographes":"David Barranger","niveau":"Initiation, Scolaire","specialite":"CO à pied","contacts":"CDCO 86, cd.vienne@ffcorientation.fr","latitude":"46.5668322631","longitude":"0.341983736118","date_saisie":"14/04/2023","date_depot":"20/07/2023","valide":"Oui","ppo":"Non","type_carte":"Extrait","base":"2010-D86-48 POITIERS LES 3 CITES","fond":"Cadastre","obsolete":false}},{"type":"Feature","geometry":{"type":"Polygon","coordinates":[[[0.2535,46.5821],[0.2618,46.5838],[0.2702,46.5852],[0.2713,46.5854],[0.2705,46.5832],[0.2726,46.58],[0.2685,46.5774],[0.2599,46.573],[0.2569,46.5748],[0.2584,46.5767],[0.2535,46.5821]]]},"properties":{"id_ffco":"13917","nom":"Creps de Poitiers VTT O","_dept":"86","numero":"2023-D86-136","commune":"Vouneuil sous Biard","echelle":"1/7500","surface":"1.1 km²","format":"A4","annee":"2023","cartographes":"COTIRTA Marian","proprietaire":"86 - Vienne","niveau":"Départemental","specialite":"CO à VTT","contacts":"CREPS de Poitiers","latitude":"46.5797969006","longitude":"0.263362653091","date_saisie":"06/04/2023","date_depot":"20/07/2023","valide":"Oui","ppo":"Non","type_carte":"Nouvelle carte","fond":"Cadastre","obsolete":false}},{"type":"Feature","geometry":{"type":"Polygon","coordinates":[[[0.3335,46.5257],[0.3376,46.5263],[0.338,46.5275],[0.337,46.5295],[0.3366,46.5309],[0.3378,46.5338],[0.3398,46.537],[0.3415,46.5394],[0.3412,46.5405],[0.3378,46.5408],[0.3357,46.5401],[0.3322,46.5388],[0.3295,46.5392],[0.3282,46.5406],[0.3244,46.535],[0.322,46.5324],[0.3181,46.5307],[0.3129,46.5294],[0.3068,46.5277],[0.3074,46.5258],[0.3125,46.5241],[0.3174,46.5232],[0.3236,46.524],[0.3335,46.5257]]]},"properties":{"id_ffco":"13910","nom":"Bois de Givray","_dept":"86","numero":"2022-D86-135","commune":"Ligugé","echelle":"1/10000","surface":"2.6 km²","format":"A4","annee":"2022","cartographes":"COTIRTA Marian","proprietaire":"86 - Vienne","niveau":"Régional","specialite":"CO à pied","latitude":"46.5308014827","longitude":"0.326591049885","date_saisie":"30/03/2023","date_depot":"20/07/2023","valide":"Oui","ppo":"Oui (20 postes)","type_carte":"Nouvelle carte","fond":"Ortho","obsolete":false}},{"type":"Feature","geometry":{"type":"Polygon","coordinates":[[[0.9326,46.3159],[0.9295,46.3099],[0.9352,46.3065],[0.939,46.3013],[0.942,46.2998],[0.9593,46.3044],[0.9585,46.3082],[0.9411,46.3126],[0.9326,46.3159]]]},"properties":{"id_ffco":"13391","nom":"Lathus Vallée du Peu VTT","_dept":"86","numero":"2021-D86-134","commune":"Lathus","echelle":"1/10000","surface":"2.12 km²","format":"A4","annee":"2021","cartographes":"David Barranger","proprietaire":"8606 - CENTRE DE PLEIN AIR MJC DE LATHUS","niveau":"Départemental","specialite":"CO à VTT","latitude":"46.3073382147","longitude":"0.943718258919","date_saisie":"12/05/2022","date_depot":"20/07/2022","valide":"Oui","ppo":"Non","type_carte":"Nouvelle carte","fond":"Ortho","obsolete":false}},{"type":"Feature","geometry":{"type":"Polygon","coordinates":[[[0.9342,46.3171],[0.929,46.3105],[0.935,46.3061],[0.9404,46.2972],[0.9445,46.2973],[0.9556,46.2971],[0.9613,46.3005],[0.9591,46.3081],[0.9342,46.3171]]]},"properties":{"id_ffco":"13390","nom":"Lathus Vallée du Peu","_dept":"86","numero":"2021-D86-133","commune":"Lathus","echelle":"1/10000","surface":"3.29 km²","format":"A4","annee":"2021","cartographes":"David Barranger","proprietaire":"8606 - CENTRE DE PLEIN AIR MJC DE LATHUS","niveau":"Départemental","specialite":"CO à pied","latitude":"46.3059424545","longitude":"0.945548386387","date_saisie":"12/05/2022","date_depot":"20/07/2022","valide":"Oui","ppo":"Non","type_carte":"Reprise","base":"2021-D86-133 Lathus Vallée du Peu","fond":"Ortho","obsolete":false}},{"type":"Feature","geometry":{"type":"Polygon","coordinates":[[[0.393,46.5665],[0.392,46.5654],[0.3936,46.5647],[0.3947,46.566],[0.3944,46.5662],[0.393,46.5665]]]},"properties":{"id_ffco":"13389","nom":"EREA Anne Franck","_dept":"86","numero":"2021-D86-132","commune":"Poitiers","echelle":"1/1000","surface":"0.02 km²","format":"A4","annee":"2021","cartographes":"David Barranger","proprietaire":"86 - Vienne","niveau":"O+","specialite":"CO à pied","latitude":"46.5656869964","longitude":"0.393355088747","date_saisie":"12/05/2022","date_depot":"20/07/2022","valide":"Oui","ppo":"Non","type_carte":"Nouvelle carte","fond":"Ortho","obsolete":false}},{"type":"Feature","geometry":{"type":"Polygon","coordinates":[[[0.5394,46.6653],[0.5174,46.6543],[0.4934,46.6766],[0.5128,46.686],[0.5394,46.6653]]]},"properties":{"id_ffco":"468","nom":"LA LOGERIE","_dept":"86","numero":"2022-D86-131","commune":"Bonneuil-Matours","echelle":"1/15000","surface":"5.98 km²","format":"A3","annee":"2022","cartographes":"COTIRTA Marian","proprietaire":"86 - Vienne","niveau":"National, International","specialite":"CO à pied","latitude":"46.6703237514","longitude":"0.51602048357","date_depot":"05/04/2009","valide":"Oui","ppo":"Non","type_carte":"Reprise","base":"2006-D86-18 LA LOGERIE","fond":"Ortho","obsolete":false}},{"type":"Feature","geometry":{"type":"Polygon","coordinates":[[[0.0488,47.1623],[0.0428,47.1642],[0.044,47.1588],[0.0422,47.1571],[0.0391,47.1566],[0.0477,47.1535],[0.0503,47.1551],[0.0488,47.1623]]]},"properties":{"id_ffco":"13387","nom":"Domaine de Roiffé","_dept":"86","numero":"2022-D86-130","commune":"Roiffé","echelle":"1/5000","surface":"0.5 km²","format":"A4","annee":"2022","cartographes":"COTIRTA Marian","proprietaire":"86 - Vienne","niveau":"Initiation, Scolaire","specialite":"CO à pied","latitude":"47.1583491726","longitude":"0.0460759523894","date_saisie":"12/05/2022","date_depot":"20/07/2022","valide":"Oui","ppo":"Oui (30 postes)","type_carte":"Nouvelle carte","fond":"Ortho","obsolete":false}},{"type":"Feature","geometry":{"type":"Polygon","coordinates":[[[0.303,46.6313],[0.3135,46.6176],[0.3292,46.6263],[0.3328,46.633],[0.3277,46.6352],[0.3164,46.6356],[0.3105,46.6356],[0.303,46.6313]]]},"properties":{"id_ffco":"13388","nom":"Migné Auxances","_dept":"86","numero":"2021-D86-128","commune":"Migné Auxances","echelle":"1/4000","surface":"2.79 km²","format":"A4","annee":"2021","cartographes":"Damien Roche","proprietaire":"86 - Vienne","niveau":"Régional","specialite":"Sprint (ISSOM)","latitude":"46.6286262737","longitude":"0.317648801967","date_saisie":"12/05/2022","date_depot":"17/05/2023","valide":"Oui","ppo":"Non","type_carte":"Nouvelle carte","fond":"Cadastre","obsolete":false}},{"type":"Feature","geometry":{"type":"Polygon","coordinates":[[[0.4901,46.632],[0.4879,46.6321],[0.481,46.6322],[0.4773,46.6278],[0.4742,46.6276],[0.4704,46.6255],[0.4699,46.624],[0.4719,46.6219],[0.4693,46.621],[0.4693,46.62],[0.4677,46.6185],[0.469,46.6099],[0.4723,46.6096],[0.4812,46.6063],[0.4818,46.6099],[0.4884,46.6135],[0.4926,46.6162],[0.4941,46.6206],[0.4999,46.6233],[0.4901,46.632]]]},"properties":{"id_ffco":"13028","nom":"Les sarcophages","_dept":"86","numero":"2020-D86-127","commune":"Montamisé","echelle":"1/10000","surface":"4.2 km²","format":"A4","annee":"2020","cartographes":"Claude Flament","proprietaire":"86 - Vienne","niveau":"Régional","specialite":"CO à pied","contacts":"CDCO 86, cd.vienne@ffcorientation.fr","latitude":"46.6203064016","longitude":"0.481958643154","date_saisie":"18/11/2021","date_depot":"17/05/2023","valide":"Oui","ppo":"Non","type_carte":"Reprise","base":"1999-D86-11 LES SARCOPHAGES","fond":"Ortho","obsolete":false}},{"type":"Feature","geometry":{"type":"Polygon","coordinates":[[[0.3661,46.6729],[0.3661,46.672],[0.3675,46.6725],[0.3661,46.6729]]]},"properties":{"id_ffco":"12387","nom":"LP2i","_dept":"86","numero":"2020-D86-126","commune":"Jaunay Marigny","echelle":"1/700","surface":"0.01 km²","format":"A4","annee":"2020","cartographes":"David Barranger","proprietaire":"86 - Vienne","niveau":"Départemental","specialite":"CO à pied","latitude":"46.67245155","longitude":"0.366526544094","date_saisie":"10/12/2020","date_depot":"17/05/2023","valide":"Oui","ppo":"Non","type_carte":"Nouvelle carte","fond":"Cadastre","obsolete":false}},{"type":"Feature","geometry":{"type":"Polygon","coordinates":[[[0.3295,46.5582],[0.3284,46.5583],[0.3271,46.559],[0.3266,46.5592],[0.3288,46.5621],[0.3298,46.5629],[0.3314,46.5632],[0.3338,46.5625],[0.3348,46.5622],[0.3348,46.5614],[0.3357,46.5609],[0.3367,46.56],[0.3373,46.5592],[0.3351,46.5587],[0.3337,46.5577],[0.3319,46.5591],[0.3295,46.5582]]]},"properties":{"id_ffco":"12234","nom":"La Varenne","_dept":"86","numero":"2020-D86-125","commune":"Saint Benoit","echelle":"1/3500","surface":"0.29 km²","format":"A4","annee":"2020","cartographes":"David Barranger","proprietaire":"86 - Vienne","niveau":"Initiation, Scolaire","specialite":"CO à pied","latitude":"46.5604079719","longitude":"0.331777222996","date_saisie":"27/10/2020","date_depot":"12/04/2021","valide":"Oui","ppo":"Oui (15 postes)","type_carte":"Nouvelle carte","fond":"Cadastre","obsolete":false}},{"type":"Feature","geometry":{"type":"Polygon","coordinates":[[[0.304,46.6689],[0.2992,46.6682],[0.2964,46.667],[0.2973,46.6665],[0.2895,46.6629],[0.295,46.6618],[0.3006,46.6604],[0.3035,46.6587],[0.3045,46.6572],[0.3047,46.6605],[0.3042,46.6643],[0.3043,46.6657],[0.304,46.6689]]]},"properties":{"id_ffco":"12093","nom":"Avanton Centre ville","_dept":"86","numero":"2020-D86-124","commune":"Avanton","echelle":"1/4000","surface":"0.69 km²","format":"A4","annee":"2020","cartographes":"Damien Roche","proprietaire":"86 - Vienne","niveau":"Départemental","specialite":"Sprint (ISSOM)","latitude":"46.6638839342","longitude":"0.29953255412","date_saisie":"21/08/2020","date_depot":"04/06/2021","valide":"Oui","ppo":"Non","type_carte":"Nouvelle carte","fond":"Cadastre","obsolete":false}},{"type":"Feature","geometry":{"type":"Polygon","coordinates":[[[0.1865,46.7932],[0.1854,46.7921],[0.1842,46.7926],[0.1822,46.7925],[0.1762,46.7908],[0.1766,46.7898],[0.1754,46.7894],[0.1758,46.7887],[0.1745,46.788],[0.1733,46.7886],[0.1716,46.7882],[0.1731,46.7836],[0.1767,46.7815],[0.1753,46.7783],[0.1789,46.7764],[0.1893,46.7764],[0.1923,46.7832],[0.1865,46.7932]]]},"properties":{"id_ffco":"12092","nom":"Mirebeau Centre ville","_dept":"86","numero":"2020-D86-123","commune":"Mirebeau","echelle":"1/4000","surface":"2.03 km²","format":"A4","annee":"2020","cartographes":"Damien Roche","proprietaire":"86 - Vienne","niveau":"Départemental","specialite":"CO à pied","contacts":"CDCO 86, cd.vienne@ffcorientation.fr","latitude":"46.7841663392","longitude":"0.18255223752","date_saisie":"21/08/2020","date_depot":"12/04/2021","valide":"Oui","ppo":"Non","type_carte":"Nouvelle carte","fond":"Cadastre","obsolete":false}},{"type":"Feature","geometry":{"type":"Polygon","coordinates":[[[0.0852,46.624],[0.0868,46.6225],[0.0891,46.6235],[0.0914,46.6239],[0.0927,46.6242],[0.0941,46.625],[0.0938,46.6256],[0.0911,46.6253],[0.0883,46.6249],[0.0852,46.624]]]},"properties":{"id_ffco":"12091","nom":"Parc Château de la Chèze","_dept":"86","numero":"2020-D86-121","commune":"Latillé","echelle":"1/2500","surface":"0.1 km²","format":"A4","annee":"2020","cartographes":"Claude Flament","proprietaire":"86 - Vienne","niveau":"Initiation, Scolaire","specialite":"CO à pied","latitude":"46.6242482178","longitude":"0.0894900154314","date_saisie":"21/08/2020","date_depot":"12/04/2021","valide":"Oui","ppo":"Non","type_carte":"Nouvelle carte","fond":"Ortho","obsolete":false}},{"type":"Feature","geometry":{"type":"Polygon","coordinates":[[[0.6481,46.5735],[0.6443,46.5722],[0.6414,46.5717],[0.6422,46.5679],[0.6444,46.5676],[0.6462,46.5673],[0.6474,46.5673],[0.6487,46.5678],[0.6508,46.5669],[0.6518,46.5695],[0.6561,46.5684],[0.6561,46.5692],[0.6514,46.5706],[0.6525,46.5719],[0.6504,46.5731],[0.6481,46.5735]]]},"properties":{"id_ffco":"12034","nom":"Chauvigny","_dept":"86","numero":"2020-D86-120","commune":"Chauvigny","echelle":"1/4000","surface":"0.47 km²","format":"A4","annee":"2020","cartographes":"David Barranger","proprietaire":"86 - Vienne","niveau":"Régional","specialite":"CO à pied","contacts":"CDCO 86, cd.vienne@ffcorientation.fr","latitude":"46.570127439","longitude":"0.647533432243","date_saisie":"26/04/2020","date_depot":"11/05/2020","valide":"Oui","ppo":"Non","type_carte":"Nouvelle carte","fond":"Ortho","obsolete":false}},{"type":"Feature","geometry":{"type":"Polygon","coordinates":[[[0.5405,46.7813],[0.5383,46.7798],[0.5393,46.7759],[0.5406,46.7761],[0.5412,46.7758],[0.5416,46.7768],[0.5412,46.7798],[0.5405,46.7813]]]},"properties":{"id_ffco":"12035","nom":"Parc de Forclan","_dept":"86","numero":"2019-D86-119","commune":"Cenon sur Vienne","echelle":"1/2500","surface":"0.1 km²","format":"A4","annee":"2019","cartographes":"David Barranger","proprietaire":"86 - Vienne","niveau":"Départemental","specialite":"CO à pied","latitude":"46.7783849387","longitude":"0.540067052526","date_saisie":"26/04/2020","date_depot":"11/05/2020","valide":"Oui","ppo":"Non","type_carte":"Nouvelle carte","fond":"Cadastre","obsolete":false}},{"type":"Feature","geometry":{"type":"Polygon","coordinates":[[[0.4103,46.5459],[0.4087,46.5446],[0.4061,46.5419],[0.4066,46.5414],[0.4125,46.5417],[0.4118,46.5404],[0.4121,46.5395],[0.4135,46.5377],[0.4165,46.5378],[0.4183,46.5409],[0.4103,46.5459]]]},"properties":{"id_ffco":"11523","nom":"Mignaloux Beauvoir","_dept":"86","numero":"2019-D86-118","commune":"Mignaloux Beauvoir","echelle":"1/5000","surface":"0.38 km²","format":"A4","annee":"2019","cartographes":"David Barranger","proprietaire":"86 - Vienne","niveau":"Départemental","specialite":"CO à pied","latitude":"46.54166353","longitude":"0.412722205148","date_saisie":"05/06/2019","date_depot":"25/09/2019","valide":"Oui","ppo":"Oui (12 postes)","type_carte":"Nouvelle carte","fond":"Cadastre","obsolete":false}},{"type":"Feature","geometry":{"type":"Polygon","coordinates":[[[0.2986,46.2733],[0.298,46.2724],[0.2985,46.272],[0.299,46.2723],[0.2986,46.2733]]]},"properties":{"id_ffco":"11518","nom":"Ecole de Romagne","_dept":"86","numero":"2019-D86-117","commune":"Romagne","echelle":"1/500","surface":"0.01 km²","format":"A4","annee":"2019","cartographes":"David Barranger","proprietaire":"86 - Vienne","niveau":"Initiation, Scolaire","specialite":"CO à pied","contacts":"CDCO 86, cd.vienne@ffcorientation.fr","latitude":"46.2725609067","longitude":"0.298519454617","date_saisie":"03/06/2019","date_depot":"25/09/2019","valide":"Oui","ppo":"Non","type_carte":"Nouvelle carte","fond":"Cadastre","obsolete":false}},{"type":"Feature","geometry":{"type":"Polygon","coordinates":[[[0.302,46.2704],[0.3066,46.271],[0.3077,46.2699],[0.3068,46.2689],[0.3073,46.2688],[0.3087,46.2692],[0.3099,46.2689],[0.3086,46.2674],[0.3036,46.2689],[0.3019,46.2695],[0.302,46.2704]]]},"properties":{"id_ffco":"11517","nom":"Romagne ferme Vignaud","_dept":"86","numero":"2019-D86-116","commune":"Romagne","echelle":"1/2500","surface":"0.12 km²","format":"A4","annee":"2019","cartographes":"David Barranger","proprietaire":"86 - Vienne","niveau":"Initiation, Scolaire","specialite":"CO à pied","contacts":"CDCO 86, cd.vienne@ffcorientation.fr","latitude":"46.2693483751","longitude":"0.305768142721","date_saisie":"03/06/2019","date_depot":"25/09/2019","valide":"Oui","ppo":"Non","type_carte":"Nouvelle carte","fond":"Cadastre","obsolete":false}},{"type":"Feature","geometry":{"type":"Polygon","coordinates":[[[0.3651,46.4865],[0.3612,46.4838],[0.3615,46.4834],[0.363,46.4835],[0.366,46.4823],[0.3661,46.4814],[0.3647,46.4813],[0.3643,46.4789],[0.3693,46.4799],[0.3717,46.4809],[0.3742,46.4812],[0.3748,46.4819],[0.3744,46.4831],[0.3697,46.4852],[0.3651,46.4865]]]},"properties":{"id_ffco":"11516","nom":"Roches Prémaries","_dept":"86","numero":"2019-D86-115","commune":"Roches Prémaries","echelle":"1/5000","surface":"0.45 km²","format":"A4","annee":"2019","cartographes":"David Barranger","proprietaire":"86 - Vienne","niveau":"Départemental","specialite":"CO à pied","contacts":"CDCO 86, cd.vienne@ffcorientation.fr","latitude":"46.4828055592","longitude":"0.368088055343","date_saisie":"03/06/2019","date_depot":"25/09/2019","valide":"Oui","ppo":"Non","type_carte":"Nouvelle carte","fond":"Cadastre","obsolete":false}},{"type":"Feature","geometry":{"type":"Polygon","coordinates":[[[0.1954,46.5713],[0.1948,46.5697],[0.1973,46.5669],[0.2003,46.5684],[0.2034,46.5682],[0.2047,46.5675],[0.2063,46.5656],[0.2095,46.5663],[0.2102,46.5648],[0.2109,46.565],[0.211,46.5664],[0.21,46.5683],[0.2022,46.5702],[0.2019,46.5697],[0.2007,46.5697],[0.1988,46.5721],[0.1954,46.5713]]]},"properties":{"id_ffco":"11515","nom":"Béruges","_dept":"86","numero":"2018-D86-114","commune":"Béruges","echelle":"1/5000","surface":"0.38 km²","format":"A4","annee":"2018","cartographes":"David Barranger","proprietaire":"86 - Vienne","niveau":"Départemental","specialite":"CO à pied","contacts":"CDCO 86, cd.vienne@ffcorientation.fr","latitude":"46.5686417867","longitude":"0.20247972501","date_saisie":"03/06/2019","date_depot":"25/09/2019","valide":"Oui","ppo":"Non","type_carte":"Nouvelle carte","fond":"Ortho","obsolete":false}},{"type":"Feature","geometry":{"type":"Polygon","coordinates":[[[0.1843,46.5821],[0.1833,46.5789],[0.1652,46.5779],[0.1599,46.5749],[0.156,46.5778],[0.1534,46.5764],[0.1431,46.5809],[0.1438,46.5843],[0.1569,46.5845],[0.1584,46.5874],[0.1801,46.5839],[0.1843,46.5821]]]},"properties":{"id_ffco":"11134","nom":"Le verger Marion","_dept":"86","numero":"2018-D86-113","commune":"Béruges","echelle":"1/10000","surface":"2.45 km²","format":"A4","annee":"2018","cartographes":"David Barranger","proprietaire":"86 - Vienne","niveau":"Régional","specialite":"CO à pied","latitude":"46.5814527095","longitude":"0.163182160307","date_saisie":"12/11/2018","date_depot":"20/05/2019","valide":"Oui","ppo":"Non","type_carte":"Nouvelle carte","fond":"Ortho","obsolete":false}},{"type":"Feature","geometry":{"type":"Polygon","coordinates":[[[0.4032,46.5088],[0.404,46.5037],[0.4053,46.5044],[0.4085,46.505],[0.4104,46.5061],[0.4117,46.5074],[0.4142,46.5085],[0.415,46.5097],[0.4183,46.5125],[0.4187,46.5138],[0.421,46.5138],[0.4211,46.5152],[0.4169,46.5157],[0.4155,46.5133],[0.4115,46.514],[0.4064,46.5146],[0.4045,46.5126],[0.4032,46.5088]]]},"properties":{"id_ffco":"11133","nom":"Nouaillé- Maupertuis","_dept":"86","numero":"2017-D86-112","commune":"Nouaillé-Maupertuis","echelle":"1/7500","surface":"0.9 km²","format":"A4","annee":"2017","cartographes":"David Barranger","proprietaire":"86 - Vienne","niveau":"Régional","specialite":"CO à pied","contacts":"CDCO 86, cd.vienne@ffcorientation.fr","latitude":"46.5103307098","longitude":"0.41009579885","date_saisie":"12/11/2018","date_depot":"20/05/2019","valide":"Oui","ppo":"Oui (25 postes)","type_carte":"Nouvelle carte","fond":"Ortho","obsolete":false}},{"type":"Feature","geometry":{"type":"Polygon","coordinates":[[[0.9533,46.4418],[0.9581,46.438],[0.96,46.4381],[0.9601,46.4373],[0.9664,46.4379],[0.9726,46.4371],[0.9749,46.4386],[0.9665,46.4428],[0.9635,46.4412],[0.9609,46.4431],[0.9533,46.4418]]]},"properties":{"id_ffco":"11132","nom":"Camp de Montmorillon","_dept":"86","numero":"2017-D86-111","commune":"Montmorillon","echelle":"1/5000","surface":"0.65 km²","format":"A4","annee":"2017","cartographes":"David Barranger","proprietaire":"RICM Poitiers","niveau":"Départemental","specialite":"CO à pied","latitude":"46.439941186","longitude":"0.963938120123","date_saisie":"12/11/2018","date_depot":"20/05/2019","valide":"Oui","ppo":"Non","type_carte":"Nouvelle carte","fond":"Ortho","obsolete":false}},{"type":"Feature","geometry":{"type":"Polygon","coordinates":[[[0.2721,46.5908],[0.2972,46.5898],[0.2938,46.5864],[0.2846,46.5855],[0.2811,46.5861],[0.2722,46.5859],[0.2721,46.5908]]]},"properties":{"id_ffco":"11131","nom":"Biard Les renardières","_dept":"86","numero":"2017-D86-110","commune":"Biard","echelle":"1/7500","surface":"0.87 km²","format":"A4","annee":"2017","cartographes":"David Barranger","proprietaire":"RICM Poitiers","niveau":"Départemental","specialite":"CO à pied","latitude":"46.5881719665","longitude":"0.28330242425","date_saisie":"12/11/2018","date_depot":"20/05/2019","valide":"Oui","ppo":"Non","type_carte":"Nouvelle carte","fond":"Ortho","obsolete":false}},{"type":"Feature","geometry":{"type":"Polygon","coordinates":[[[0.3577,46.5968],[0.3598,46.5961],[0.3599,46.5962],[0.3609,46.5959],[0.3602,46.5951],[0.3607,46.5949],[0.3599,46.5941],[0.3586,46.5947],[0.3588,46.595],[0.3577,46.595],[0.3577,46.5958],[0.3572,46.5959],[0.3573,46.5963],[0.3577,46.5968]]]},"properties":{"id_ffco":"11130","nom":"Complexe sportif André Messy Buxerolles","_dept":"86","numero":"2016-D86-109","commune":"Buxerolles","echelle":"1/1500","surface":"0.05 km²","format":"A4","annee":"2016","cartographes":"David Barranger","proprietaire":"Collège Jules Verne","niveau":"O+","specialite":"CO à pied","latitude":"46.5955091233","longitude":"0.359080081246","date_saisie":"12/11/2018","date_depot":"09/07/2019","valide":"Oui","ppo":"Non","type_carte":"Nouvelle carte","fond":"Cadastre","obsolete":false}},{"type":"Feature","geometry":{"type":"Polygon","coordinates":[[[0.203,46.3456],[0.203,46.344],[0.2038,46.3426],[0.205,46.3418],[0.2075,46.3416],[0.21,46.3419],[0.2112,46.3408],[0.2128,46.3417],[0.2124,46.3422],[0.2139,46.3427],[0.2097,46.3453],[0.2053,46.3466],[0.203,46.3456]]]},"properties":{"id_ffco":"11129","nom":"Les îles de Payré","_dept":"86","numero":"2016-D86-108","commune":"Payré","echelle":"1/4000","surface":"0.31 km²","format":"A4","annee":"2016","cartographes":"David Barranger","proprietaire":"86 - Vienne","niveau":"O+","specialite":"CO à pied","contacts":"CDCO 86, cd.vienne@ffcorientation.fr","latitude":"46.3436862337","longitude":"0.207714021209","date_saisie":"12/11/2018","date_depot":"09/07/2019","valide":"Oui","ppo":"Oui (6 postes)","type_carte":"Nouvelle carte","fond":"Ortho","obsolete":false}},{"type":"Feature","geometry":{"type":"Polygon","coordinates":[[[0.1872,46.3482],[0.1939,46.3552],[0.208,46.3658],[0.2105,46.3729],[0.2193,46.3736],[0.2662,46.3699],[0.2337,46.3294],[0.1881,46.3293],[0.1872,46.3482]]]},"properties":{"id_ffco":"11128","nom":"Payré VTT","_dept":"86","numero":"2016-D86-107","commune":"Payré","echelle":"1/20000","surface":"20.5 km²","format":"A4","annee":"2016","cartographes":"David Barranger","niveau":"Régional","specialite":"CO à VTT","contacts":"CDCO 86, cd.vienne@ffcorientation.fr","latitude":"46.351157526","longitude":"0.222431602215","date_saisie":"12/11/2018","date_depot":"20/05/2019","valide":"Oui","ppo":"Oui (17 postes)","type_carte":"Nouvelle carte","fond":"Ortho","obsolete":false}},{"type":"Feature","geometry":{"type":"Polygon","coordinates":[[[0.3684,46.5148],[0.3695,46.5131],[0.3704,46.5114],[0.3709,46.5112],[0.3768,46.5134],[0.3736,46.5169],[0.3692,46.5169],[0.3684,46.5148]]]},"properties":{"id_ffco":"11127","nom":"Zoo et Château du Bois de Saint Pierre","_dept":"86","numero":"2015-D86-106","commune":"Smarves","echelle":"1/3000","surface":"0.26 km²","format":"A4","annee":"2015","cartographes":"David Barranger","proprietaire":"86 - Vienne","niveau":"O+","specialite":"CO à pied","contacts":"CDCO 86, cd.vienne@ffcorientation.fr","latitude":"46.5143553404","longitude":"0.372105260505","date_saisie":"12/11/2018","date_depot":"09/07/2019","valide":"Oui","ppo":"Oui (10 postes)","type_carte":"Nouvelle carte","fond":"Ortho","obsolete":false}},{"type":"Feature","geometry":{"type":"Polygon","coordinates":[[[0.3676,46.5066],[0.3725,46.5049],[0.3739,46.5076],[0.3745,46.5085],[0.3752,46.5092],[0.3745,46.5097],[0.3705,46.5083],[0.3689,46.508],[0.3676,46.5069],[0.3676,46.5066]]]},"properties":{"id_ffco":"11126","nom":"Pelouses Bois de Saint Pierre","_dept":"86","numero":"2015-D86-105","commune":"Smarves","echelle":"1/3000","surface":"0.15 km²","format":"A4","annee":"2015","cartographes":"David Barranger","proprietaire":"86 - Vienne","niveau":"O+","specialite":"CO à pied","contacts":"CDCO 86, cd.vienne@ffcorientation.fr","latitude":"46.5072733053","longitude":"0.371499637855","date_saisie":"12/11/2018","date_depot":"09/07/2019","valide":"Oui","ppo":"Oui (20 postes)","type_carte":"Nouvelle carte","fond":"Ortho","obsolete":false}},{"type":"Feature","geometry":{"type":"Polygon","coordinates":[[[0.4721,46.5711],[0.4736,46.5707],[0.4731,46.5695],[0.471,46.5701],[0.4721,46.5711]]]},"properties":{"id_ffco":"11125","nom":"IME Moulins","_dept":"86","numero":"2016-D86-104","commune":"Sèvres Anxaumont","echelle":"1/1500","surface":"0.02 km²","format":"A4","annee":"2016","cartographes":"David Barranger","proprietaire":"86 - Vienne","niveau":"O+","specialite":"CO à pied","latitude":"46.5703095926","longitude":"0.472434074336","date_saisie":"12/11/2018","date_depot":"09/07/2019","valide":"Oui","ppo":"Non","type_carte":"Nouvelle carte","fond":"Cadastre","obsolete":false}},{"type":"Feature","geometry":{"type":"Polygon","coordinates":[[[0.3188,46.5513],[0.3193,46.5497],[0.3211,46.55],[0.3204,46.5514],[0.3188,46.5513]]]},"properties":{"id_ffco":"11124","nom":"Collège Renaudot","_dept":"86","numero":"2018-D86-103","commune":"Saint Benoit","echelle":"1/1500","surface":"0.02 km²","format":"A4","annee":"2018","cartographes":"David Barranger","proprietaire":"86 - Vienne","niveau":"O+","specialite":"CO à pied","latitude":"46.5505863707","longitude":"0.319898636927","date_saisie":"12/11/2018","date_depot":"09/07/2019","valide":"Oui","ppo":"Non","type_carte":"Nouvelle carte","fond":"Cadastre","obsolete":false}},{"type":"Feature","geometry":{"type":"Polygon","coordinates":[[[0.3491,46.5698],[0.3496,46.5684],[0.3508,46.5684],[0.351,46.5686],[0.3502,46.57],[0.3491,46.5698]]]},"properties":{"id_ffco":"11123","nom":"Collège Ronsard","_dept":"86","numero":"2015-D86-102","commune":"Poitiers","echelle":"1/1200","surface":"0.02 km²","format":"A4","annee":"2015","cartographes":"David Barranger","proprietaire":"Collège Ronsard","niveau":"O+","specialite":"CO à pied","latitude":"46.569143773","longitude":"0.350037392773","date_saisie":"12/11/2018","date_depot":"09/07/2019","valide":"Oui","ppo":"Non","type_carte":"Nouvelle carte","fond":"Cadastre","obsolete":false}},{"type":"Feature","geometry":{"type":"Polygon","coordinates":[[[0.2738,46.607],[0.2761,46.6059],[0.2789,46.6059],[0.2794,46.6071],[0.2781,46.6074],[0.2762,46.6069],[0.2749,46.608],[0.2738,46.607]]]},"properties":{"id_ffco":"11122","nom":"Stade des Arches","_dept":"86","numero":"2015-D86-101","commune":"Vouneuil sous Biard","echelle":"1/1500","surface":"0.06 km²","format":"A4","annee":"2015","cartographes":"David Barranger","proprietaire":"86 - Vienne","niveau":"O+","specialite":"CO à pied","latitude":"46.60673532","longitude":"0.276689061079","date_saisie":"12/11/2018","date_depot":"09/07/2019","valide":"Oui","ppo":"Non","type_carte":"Nouvelle carte","fond":"Cadastre","obsolete":false}},{"type":"Feature","geometry":{"type":"Polygon","coordinates":[[[0.3182,46.578],[0.3184,46.5769],[0.317,46.5762],[0.3165,46.5774],[0.3182,46.578]]]},"properties":{"id_ffco":"10880","nom":"Collège rabelais","_dept":"86","numero":"2015-D86-100","commune":"Poitiers","echelle":"1/1500","surface":"0.02 km²","format":"A4","annee":"2015","cartographes":"David Barranger","proprietaire":"86 - Vienne","niveau":"Initiation, Scolaire","specialite":"CO à pied","latitude":"46.5771310564","longitude":"0.317484319599","date_saisie":"23/08/2018","date_depot":"02/11/2018","valide":"Oui","ppo":"Non","type_carte":"Nouvelle carte","fond":"Cadastre","obsolete":false}}]}