{"type":"FeatureCollection","features":[{"type":"Feature","geometry":null,"properties":{"id_ffco":"5503","nom":"LA CROIX DES JOLIS","_dept":"86","numero":"2010-D86-52","commune":"Montamisé","echelle":"1/10000","surface":"2.0 km²","format":"A4","annee":"2010","cartographes":"Barthélémy","proprietaire":"86 - Vienne","niveau":"Régional","specialite":"CO à pied","latitude":"46.6339555022","longitude":"0.500258636522","date_saisie":"30/09/2012","valide":"Non","ppo":"Non","obsolete":true}},{"type":"Feature","geometry":null,"properties":{"id_ffco":"4902","nom":"LE PARC DE CREMAULT","_dept":"86","numero":"2009-D86-43","commune":"Bonneuil-Matours","echelle":"1/2500","surface":"0.2 km²","format":"A4","annee":"2009","cartographes":"BARRANGER","proprietaire":"86 - Vienne","niveau":"Initiation, Scolaire","specialite":"CO à pied","latitude":"46.6772839485","longitude":"0.575474741308","date_saisie":"19/03/2010","date_depot":"26/03/2010","valide":"Non","ppo":"Non","obsolete":true}},{"type":"Feature","geometry":null,"properties":{"id_ffco":"4900","nom":"ITEP DE GURON","_dept":"86","numero":"2009-D86-40","commune":"Payré","echelle":"1/3000","surface":"0.2 km²","format":"A4","annee":"2009","cartographes":"BARRANGER","proprietaire":"ITEP de Guron","niveau":"Initiation, Scolaire","specialite":"CO à pied","latitude":"46.3405574","longitude":"0.2112385","date_saisie":"19/03/2010","date_depot":"26/03/2010","valide":"Non","ppo":"Non","obsolete":true}},{"type":"Feature","geometry":null,"properties":{"id_ffco":"4898","nom":"CENTRE EQUESTRE","_dept":"86","numero":"2008-D86-36","commune":"Poitiers","echelle":"1/4000","surface":"0.53 km²","format":"A4","annee":"2008","cartographes":"TEXIER,LARMINACH","proprietaire":"86 - Vienne","niveau":"Initiation, Scolaire","specialite":"CO à pied","latitude":"46.5682832823","longitude":"0.394575466526","date_saisie":"19/03/2010","date_depot":"26/03/2010","valide":"Non","ppo":"Non","obsolete":true}},{"type":"Feature","geometry":null,"properties":{"id_ffco":"4894","nom":"IEM DE BIARD","_dept":"86","numero":"2008-D86-32","commune":"Biard","echelle":"1/750","surface":"0.01 km²","format":"A4","annee":"2008","cartographes":"BARRANGER","proprietaire":"8607 - POITIERS COURSE D'ORIENTATION","niveau":"Initiation, Scolaire","specialite":"CO à pied","latitude":"46.5763293","longitude":"0.3041489","date_saisie":"19/03/2010","date_depot":"26/03/2010","valide":"Non","ppo":"Non","obsolete":true}},{"type":"Feature","geometry":{"type":"Polygon","coordinates":[[[0.49,46.6317],[0.4971,46.6262],[0.5003,46.6232],[0.4984,46.6221],[0.4946,46.621],[0.4922,46.6225],[0.4905,46.6246],[0.49,46.6285],[0.4895,46.6313],[0.49,46.6317]]]},"properties":{"id_ffco":"4651","nom":"LE COUDREAU","_dept":"86","numero":"2007-D86-28","commune":"Montamisé","echelle":"1/5000","surface":"0.47 km²","format":"A4","annee":"2007","cartographes":"TAILLEBOIS,TINTAR","proprietaire":"86 - Vienne","niveau":"Initiation, Scolaire","specialite":"CO à pied","latitude":"46.6254787919","longitude":"0.494014016831","date_saisie":"09/12/2009","date_depot":"15/12/2009","valide":"Non","ppo":"Non","obsolete":true}},{"type":"Feature","geometry":{"type":"Polygon","coordinates":[[[0.4904,46.6315],[0.496,46.6271],[0.4988,46.6251],[0.5003,46.6234],[0.4977,46.6217],[0.4943,46.6202],[0.4934,46.6185],[0.4819,46.6217],[0.4808,46.6201],[0.4729,46.6219],[0.4757,46.628],[0.478,46.628],[0.48,46.6308],[0.482,46.6314],[0.4847,46.6312],[0.4874,46.6318],[0.4904,46.6315]]]},"properties":{"id_ffco":"4650","nom":"LES SARCOPHAGES 2","_dept":"86","numero":"2007-D86-27","commune":"Montamisé","echelle":"1/10000","surface":"1.92 km²","format":"A4","annee":"2007","cartographes":"TAILLEBOIS,TINTAR","proprietaire":"86 - Vienne","niveau":"Régional","specialite":"CO à pied","latitude":"46.6251760972","longitude":"0.486427118956","date_saisie":"09/12/2009","date_depot":"15/12/2009","valide":"Non","ppo":"Non","obsolete":true}},{"type":"Feature","geometry":{"type":"Polygon","coordinates":[[[0.3819,46.5637],[0.3767,46.567],[0.377,46.5684],[0.3764,46.5695],[0.3769,46.5704],[0.3879,46.5676],[0.3873,46.5664],[0.386,46.5655],[0.3839,46.5653],[0.3819,46.5637]]]},"properties":{"id_ffco":"4648","nom":"CAMPUS SUD","_dept":"86","numero":"2005-D86-25","commune":"Poitiers","echelle":"1/4000","surface":"0.35 km²","format":"A4","annee":"2005","cartographes":"LARMINACH,GAGNOT","proprietaire":"86 - Vienne","niveau":"Régional","specialite":"CO à pied","latitude":"46.5672025575","longitude":"0.381587105962","date_saisie":"09/12/2009","date_depot":"15/12/2009","valide":"Non","ppo":"Non","obsolete":true}},{"type":"Feature","geometry":{"type":"Polygon","coordinates":[[[0.3881,46.5678],[0.3786,46.5701],[0.3799,46.5729],[0.3848,46.5735],[0.389,46.5733],[0.3905,46.572],[0.3914,46.5708],[0.3891,46.5698],[0.3881,46.5678]]]},"properties":{"id_ffco":"4647","nom":"CAMPUS NORD","_dept":"86","numero":"2005-D86-24","commune":"Poitiers","echelle":"1/4000","surface":"0.41 km²","format":"A4","annee":"2005","cartographes":"LARMINACH,GAGNOT","proprietaire":"86 - Vienne","niveau":"Régional","specialite":"CO à pied","latitude":"46.5710280907","longitude":"0.385034556065","date_saisie":"09/12/2009","date_depot":"15/12/2009","valide":"Non","ppo":"Non","obsolete":true}},{"type":"Feature","geometry":{"type":"Polygon","coordinates":[[[0.5204,46.7791],[0.5206,46.7797],[0.5245,46.7892],[0.5273,46.7987],[0.5221,46.8024],[0.5187,46.8044],[0.5141,46.8019],[0.5117,46.7967],[0.5072,46.7898],[0.5005,46.781],[0.5129,46.774],[0.5204,46.7791]]]},"properties":{"id_ffco":"4646","nom":"LE MARCHAIS GRUET","_dept":"86","numero":"2005-D86-23","commune":"Châtellerault","echelle":"1/10000","surface":"3.7 km²","format":"A3","annee":"2005","cartographes":"HASSMANN,COLLETER,LARMINACH,GAGNOT","proprietaire":"86 - Vienne","niveau":"Régional","specialite":"CO à pied","latitude":"46.7887019773","longitude":"0.515247178993","date_saisie":"09/12/2009","date_depot":"15/12/2009","valide":"Non","ppo":"Non","obsolete":true}},{"type":"Feature","geometry":{"type":"Polygon","coordinates":[[[0.3654,46.5012],[0.3677,46.506],[0.3682,46.5087],[0.3685,46.5148],[0.3687,46.5157],[0.3699,46.5165],[0.3691,46.5194],[0.369,46.5217],[0.3701,46.5217],[0.3711,46.5191],[0.3714,46.518],[0.3743,46.518],[0.3763,46.519],[0.3796,46.5184],[0.381,46.5176],[0.3816,46.5161],[0.381,46.5137],[0.3809,46.512],[0.3809,46.5099],[0.3808,46.5089],[0.3831,46.5061],[0.3736,46.4971],[0.3654,46.5012]]]},"properties":{"id_ffco":"4645","nom":"LES BOIS DE SAINT-PIERRE","_dept":"86","numero":"2006-D86-22","commune":"Smarves","echelle":"1/10000","surface":"2.18 km²","format":"A4","annee":"2006","cartographes":"CROCHET,HASSMANN,robin,LAVALADE","proprietaire":"8607 - POITIERS COURSE D'ORIENTATION","niveau":"Départemental","specialite":"CO à pied","latitude":"46.5087446042","longitude":"0.374201150611","date_saisie":"09/12/2009","date_depot":"15/12/2009","valide":"Non","ppo":"Non","obsolete":true}},{"type":"Feature","geometry":null,"properties":{"id_ffco":"4644","nom":"FORET DOMANIALE DE MAREUIL (OUEST)","_dept":"86","numero":"2007-D86-21","commune":"Chauvigny","echelle":"1/10000","surface":"1.6 km²","format":"A4","annee":"2007","cartographes":"BARRANGER","proprietaire":"86 - Vienne","niveau":"Départemental","specialite":"CO à pied","latitude":"46.5802505211","longitude":"0.692968326268","date_saisie":"09/12/2009","date_depot":"15/12/2009","valide":"Non","ppo":"Non","obsolete":true}},{"type":"Feature","geometry":{"type":"Polygon","coordinates":[[[0.3323,46.5733],[0.3324,46.5734],[0.3362,46.5748],[0.3354,46.5761],[0.3341,46.5762],[0.3297,46.5739],[0.3303,46.5726],[0.3323,46.5733]]]},"properties":{"id_ffco":"4642","nom":"PARC DE BLOSSAC","_dept":"86","numero":"2006-D86-19","commune":"Poitiers","echelle":"1/2000","surface":"0.09 km²","format":"A4","annee":"2006","cartographes":"BARRANGER","proprietaire":"86 - Vienne","niveau":"Initiation, Scolaire","specialite":"CO à pied","latitude":"46.5745103183","longitude":"0.332904723739","date_saisie":"09/12/2009","date_depot":"15/12/2009","valide":"Non","ppo":"Non","obsolete":true}},{"type":"Feature","geometry":{"type":"Polygon","coordinates":[[[0.5047,46.6483],[0.4932,46.6595],[0.5162,46.6708],[0.5185,46.671],[0.5214,46.6714],[0.5238,46.6714],[0.5251,46.6714],[0.5274,46.6713],[0.5289,46.6708],[0.5306,46.6671],[0.5379,46.6668],[0.5392,46.6653],[0.5047,46.6483]]]},"properties":{"id_ffco":"4290","nom":"LA LOGERIE","_dept":"86","numero":"2006-D86-18","commune":"Bonneuil-Matours","echelle":"1/10000","surface":"4.38 km²","format":"A3","annee":"2006","cartographes":"CROCHET,COLLETER,DOMENICI,GUERAUD","proprietaire":"PC - Poitou-Charentes","niveau":"Interrégional","specialite":"CO à pied","latitude":"46.6612440451","longitude":"0.514671836264","date_saisie":"03/12/2006","date_depot":"05/12/2006","valide":"Non","ppo":"Non","obsolete":true}},{"type":"Feature","geometry":{"type":"Polygon","coordinates":[[[0.0744,46.6589],[0.075,46.6587],[0.075,46.6583],[0.0766,46.658],[0.0769,46.6585],[0.0767,46.6594],[0.0768,46.6601],[0.0755,46.6601],[0.0743,46.6599],[0.0744,46.6589]]]},"properties":{"id_ffco":"5496","nom":"MAISON DE LA NATURE D'AYRON","_dept":"86","numero":"2001-D86-17","commune":"Ayron","echelle":"1/2000","surface":"0.04 km²","format":"A4","annee":"2001","cartographes":"MAES","proprietaire":"8604 - PEDALER-MARCHER-S'ORIENTER","niveau":"Initiation, Scolaire","specialite":"CO à pied","latitude":"46.6591606993","longitude":"0.0756808940051","date_saisie":"29/09/2012","valide":"Non","ppo":"Non","obsolete":true}},{"type":"Feature","geometry":{"type":"Polygon","coordinates":[[[0.4508,46.7286],[0.4548,46.7302],[0.4574,46.7312],[0.4595,46.7317],[0.461,46.7314],[0.4627,46.7312],[0.4645,46.7306],[0.467,46.7309],[0.469,46.7306],[0.4695,46.7304],[0.4703,46.7266],[0.4645,46.7246],[0.457,46.7215],[0.4508,46.7286]]]},"properties":{"id_ffco":"472","nom":"ST CYR NORD","_dept":"86","numero":"2001-D86-16","commune":"Saint-Cyr","echelle":"1/5000","surface":"1.02 km²","format":"A4","annee":"2001","cartographes":"MAES","proprietaire":"8604 - PEDALER-MARCHER-S'ORIENTER","niveau":"Initiation, Scolaire","specialite":"CO à pied","latitude":"46.7273196363","longitude":"0.460638108484","valide":"Non","ppo":"Oui","obsolete":true}},{"type":"Feature","geometry":{"type":"Polygon","coordinates":[[[0.1701,46.597],[0.1693,46.609],[0.1815,46.6064],[0.1883,46.6066],[0.1907,46.6034],[0.1843,46.5942],[0.1701,46.597]]]},"properties":{"id_ffco":"4641","nom":"LE BOIS AUX CLERCS","_dept":"86","numero":"2001-D86-15","commune":"Vouillé","echelle":"1/10000","surface":"1.86 km²","format":"A4","annee":"2001","cartographes":"MAES","proprietaire":"86 - Vienne","niveau":"Régional","specialite":"CO à pied","latitude":"46.6016639887","longitude":"0.179027255831","date_saisie":"09/12/2009","date_depot":"15/12/2009","valide":"Non","ppo":"Non","obsolete":true}},{"type":"Feature","geometry":{"type":"Polygon","coordinates":[[[0.0748,46.6599],[0.0748,46.6573],[0.0755,46.6561],[0.076,46.6513],[0.0763,46.6486],[0.0781,46.6456],[0.0829,46.6443],[0.0894,46.643],[0.0937,46.6482],[0.0951,46.6499],[0.0968,46.6508],[0.0993,46.6516],[0.1001,46.6535],[0.1018,46.6563],[0.0785,46.6599],[0.0762,46.6602],[0.0748,46.6599]]]},"properties":{"id_ffco":"5495","nom":"AYRON - FLEIX","_dept":"86","numero":"2001-D86-14","commune":"Ayron","echelle":"1/10000","surface":"2.52 km²","format":"A4","annee":"2001","cartographes":"MAES","proprietaire":"8604 - PEDALER-MARCHER-S'ORIENTER","niveau":"Initiation, Scolaire","specialite":"CO à pied","latitude":"46.6522837383","longitude":"0.0862797572382","date_saisie":"29/09/2012","valide":"Non","ppo":"Non","obsolete":true}},{"type":"Feature","geometry":{"type":"Polygon","coordinates":[[[0.0754,46.6569],[0.0772,46.6562],[0.0799,46.6549],[0.0831,46.6535],[0.0853,46.6528],[0.0866,46.6524],[0.0878,46.6515],[0.0919,46.6515],[0.0924,46.6577],[0.0788,46.6598],[0.0763,46.6601],[0.0754,46.66],[0.0754,46.6569]]]},"properties":{"id_ffco":"5494","nom":"BASE DE LOISIRS D'AYRON","_dept":"86","numero":"2001-D86-13","commune":"Ayron","echelle":"1/5000","surface":"0.78 km²","format":"A4","annee":"2001","cartographes":"MAES","proprietaire":"8604 - PEDALER-MARCHER-S'ORIENTER","niveau":"Initiation, Scolaire","specialite":"CO à pied","latitude":"46.6560609494","longitude":"0.0846679695701","date_saisie":"29/09/2012","valide":"Non","ppo":"Non","obsolete":true}},{"type":"Feature","geometry":{"type":"Polygon","coordinates":[[[0.5029,46.7837],[0.4985,46.7854],[0.4988,46.7905],[0.4991,46.7945],[0.496,46.7975],[0.4927,46.8016],[0.5013,46.8052],[0.5094,46.8052],[0.5152,46.805],[0.5198,46.8022],[0.5233,46.7991],[0.5245,46.7963],[0.5245,46.7926],[0.5231,46.7876],[0.5231,46.7842],[0.5183,46.7852],[0.5124,46.7792],[0.5029,46.7837]]]},"properties":{"id_ffco":"2493","nom":"FORET DOMANIALE DE CHATELLERAULT 2","_dept":"86","numero":"1998-D86-12","commune":"CHATELLERAULT","echelle":"1/10000","surface":"4.78 km²","format":"A4","annee":"1998","cartographes":"COLLETER,MALATRAY","proprietaire":"ESOG CHATELLERAULT","specialite":"CO à pied","latitude":"46.7938368539","longitude":"0.510031143046","valide":"Non","ppo":"Non","obsolete":true}},{"type":"Feature","geometry":{"type":"Polygon","coordinates":[[[0.4675,46.619],[0.4724,46.6271],[0.4774,46.6284],[0.4824,46.6307],[0.4901,46.6325],[0.5112,46.6419],[0.5186,46.6347],[0.4992,46.6241],[0.4925,46.6203],[0.49,46.6156],[0.487,46.6125],[0.4809,46.6104],[0.4757,46.6074],[0.4706,46.6068],[0.4671,46.6092],[0.4678,46.6137],[0.4675,46.619]]]},"properties":{"id_ffco":"3039","nom":"LES SARCOPHAGES","_dept":"86","numero":"1999-D86-11","commune":"Montamisé","echelle":"1/15000","surface":"6.2 km²","format":"A4","annee":"1999","cartographes":"MALATRAY,CABESSUT,DIULEIN,TRIHAN","proprietaire":"PC - Poitou-Charentes","specialite":"CO à pied","latitude":"46.6243404645","longitude":"0.488779526172","valide":"Non","ppo":"Non","obsolete":true}},{"type":"Feature","geometry":{"type":"Polygon","coordinates":[[[0.6814,46.8927],[0.6599,46.8843],[0.6625,46.876],[0.6707,46.8741],[0.6693,46.8717],[0.6881,46.8718],[0.7016,46.8709],[0.7129,46.8728],[0.7135,46.884],[0.7092,46.8914],[0.7037,46.8956],[0.6956,46.8976],[0.6814,46.8927]]]},"properties":{"id_ffco":"1431","nom":"LE ROND DU CHENE","_dept":"86","numero":"1988-D86-09","commune":"Dangé Saint-Romain","echelle":"1/15000","surface":"8.76 km²","format":"A4","annee":"1988","cartographes":"DELAMARE,NOUAILLE","proprietaire":"CSA CHATELLERAULT","specialite":"CO à pied","latitude":"46.8825390296","longitude":"0.689422830355","valide":"Non","ppo":"Non","obsolete":true}},{"type":"Feature","geometry":{"type":"Polygon","coordinates":[[[0.525,46.7843],[0.5284,46.7832],[0.5307,46.7813],[0.5359,46.782],[0.5402,46.7836],[0.5409,46.7866],[0.5421,46.791],[0.5331,46.791],[0.5325,46.7886],[0.5258,46.789],[0.5264,46.7889],[0.5258,46.7887],[0.525,46.7843]]]},"properties":{"id_ffco":"1430","nom":"LA ZAC DE LA FORET","_dept":"86","numero":"1989-D86-09","commune":"CHATELLERAULT","echelle":"1/5000","surface":"0.99 km²","format":"A4","annee":"1989","cartographes":"MERLIER","proprietaire":"ORGANISATION 86","niveau":"Initiation, Scolaire","specialite":"CO à pied","latitude":"46.7863448794","longitude":"0.533873872926","valide":"Non","ppo":"Non","obsolete":true}},{"type":"Feature","geometry":{"type":"Polygon","coordinates":[[[0.4995,46.6456],[0.5043,46.648],[0.493,46.6596],[0.5053,46.6657],[0.5457,46.6684],[0.5539,46.6628],[0.5548,46.6608],[0.5397,46.6533],[0.5359,46.6484],[0.5369,46.6447],[0.5383,46.6404],[0.5141,46.644],[0.5069,46.6401],[0.4995,46.6456]]]},"properties":{"id_ffco":"5493","nom":"LE GACHET DE VILLIERS","_dept":"86","numero":"1987-D86-08","commune":"Bonneuil-Matours","echelle":"1/15000","surface":"9.36 km²","format":"A4","annee":"1987","cartographes":"NEVOUX,MENARD,Samson,MERLIER","proprietaire":"ESOG CHATELLERAULT","specialite":"CO à pied","latitude":"46.655731141","longitude":"0.522742440164","date_saisie":"29/09/2012","valide":"Non","ppo":"Non","obsolete":true}},{"type":"Feature","geometry":{"type":"Polygon","coordinates":[[[0.5242,46.7846],[0.5218,46.781],[0.5172,46.7777],[0.5124,46.7752],[0.4998,46.7806],[0.4935,46.7854],[0.4894,46.7897],[0.49,46.8013],[0.5002,46.8054],[0.5065,46.8057],[0.5142,46.8053],[0.5177,46.8044],[0.5216,46.8018],[0.5261,46.7988],[0.5263,46.7948],[0.5242,46.7863],[0.5242,46.7846]]]},"properties":{"id_ffco":"1429","nom":"FORET DOMANIALE DE CHATELLERAULT","_dept":"86","numero":"1986-D86-05","commune":"CHATELLERAULT","echelle":"1/10000","surface":"7.16 km²","format":"A3","annee":"1986","cartographes":"LAURENT,MERLIER","proprietaire":"8601","specialite":"CO à pied","latitude":"46.7920094814","longitude":"0.508195663892","valide":"Non","ppo":"Non","obsolete":true}},{"type":"Feature","geometry":{"type":"Polygon","coordinates":[[[0.4884,46.6489],[0.4985,46.6541],[0.4929,46.6594],[0.5054,46.6651],[0.5171,46.6542],[0.5322,46.6409],[0.5282,46.6391],[0.532,46.6356],[0.5301,46.6337],[0.5162,46.6269],[0.5111,46.6244],[0.4996,46.6251],[0.4913,46.6324],[0.5011,46.6377],[0.4884,46.6489]]]},"properties":{"id_ffco":"1428","nom":"LE FOUR SEC","_dept":"86","numero":"1984-D86-04","commune":"La Chapelle Moulière","echelle":"1/15000","surface":"8.77 km²","format":"A4","annee":"1984","cartographes":"BOISSEAU","proprietaire":"EPG CHATELLERAULT","niveau":"Interrégional","specialite":"CO à pied","latitude":"46.6426632254","longitude":"0.50945317608","valide":"Non","ppo":"Non","obsolete":true}},{"type":"Feature","geometry":{"type":"Polygon","coordinates":[[[0.3751,46.5037],[0.3838,46.4967],[0.3867,46.4973],[0.388,46.5005],[0.3894,46.5032],[0.3861,46.5057],[0.384,46.5079],[0.3821,46.5095],[0.3807,46.511],[0.3807,46.5131],[0.3817,46.5153],[0.3822,46.5168],[0.3819,46.5179],[0.3805,46.5182],[0.3787,46.5184],[0.3771,46.5182],[0.376,46.5181],[0.3756,46.5174],[0.3751,46.5162],[0.3745,46.5151],[0.3736,46.5147],[0.3725,46.5143],[0.3709,46.514],[0.3691,46.5132],[0.3682,46.5113],[0.368,46.5094],[0.3674,46.5075],[0.3674,46.5062],[0.3751,46.5037]]]},"properties":{"id_ffco":"1427","nom":"LE BOIS DE SAINT-PIERRE","_dept":"86","numero":"1980-D86-03","commune":"POITIERS","echelle":"1/10000","surface":"2.03 km²","format":"A4","annee":"1980","cartographes":"MERLIER,BOUFFARTIGUE","proprietaire":"CRENSOA","niveau":"Départemental","specialite":"CO à pied","latitude":"46.5075897426","longitude":"0.37826057015","valide":"Non","ppo":"Non","obsolete":true}},{"type":"Feature","geometry":null,"properties":{"id_ffco":"2496","nom":"MAREAU","_dept":"86","numero":"1992-D86-02","commune":"VOUILLE","echelle":"1/5000","surface":"1.0 km²","annee":"1992","proprietaire":"1601 - CHARENTE ORIENTATION FEUILLADE - C-O-F","specialite":"CO à pied","latitude":"46.6376929","longitude":"0.1660347","valide":"Non","ppo":"Non","obsolete":true}},{"type":"Feature","geometry":{"type":"Polygon","coordinates":[[[0.49,46.6323],[0.4954,46.628],[0.5004,46.6234],[0.4981,46.6219],[0.4946,46.6204],[0.4934,46.6184],[0.4925,46.6166],[0.4904,46.6145],[0.4893,46.6136],[0.4691,46.6191],[0.4736,46.6277],[0.478,46.6279],[0.4809,46.6306],[0.4812,46.6316],[0.4842,46.6317],[0.4895,46.6321],[0.49,46.6323]]]},"properties":{"id_ffco":"5492","nom":"LE GRAND RECOIN","_dept":"86","numero":"1983-D86-02","commune":"Montamisé","echelle":"1/10000","surface":"2.98 km²","format":"A4","annee":"1983","cartographes":"JF Laurent","niveau":"Régional","specialite":"CO à pied","latitude":"46.6231086025","longitude":"0.484761558111","date_saisie":"29/09/2012","valide":"Non","ppo":"Non","obsolete":true}},{"type":"Feature","geometry":null,"properties":{"id_ffco":"805","nom":"SOUBIS","_dept":"86","numero":"1978-D86-010","commune":"POITIERS","echelle":"1/15000","surface":"9.0 km²","annee":"1978","proprietaire":"8601","specialite":"CO à pied","latitude":"46.5869855","longitude":"0.3426479","valide":"Non","ppo":"Non","obsolete":true}},{"type":"Feature","geometry":null,"properties":{"id_ffco":"470","nom":"Centre de Vacances Château de Puygirault A CONTAC","_dept":"86","numero":"????-D86-","commune":"St. Pierre de Maillé","surface":"None km²","latitude":"46.6795653","longitude":"0.8433351","valide":"Non","ppo":"Oui","obsolete":true}}]}