{"type":"FeatureCollection","features":[{"type":"Feature","geometry":{"type":"Polygon","coordinates":[[[1.4005,45.9739],[1.4061,45.9738],[1.4122,45.979],[1.4153,45.9771],[1.4199,45.9769],[1.4206,45.9746],[1.4163,45.9717],[1.4138,45.9651],[1.4091,45.9617],[1.4049,45.9601],[1.4039,45.9631],[1.4054,45.9666],[1.4043,45.9694],[1.4019,45.9706],[1.3988,45.9716],[1.4005,45.9739]]]},"properties":{"id_ffco":"15197","nom":"Etang de Jonas","_dept":"87","numero":"2025-D87-45","commune":"Ambazac","echelle":"1/10000","surface":"1.6 km²","format":"A4","annee":"2025","cartographes":"Mathieu BRUGAT","proprietaire":"mairie","niveau":"Initiation, Scolaire","specialite":"CO à pied","latitude":"45.970399379","longitude":"1.41003688303","date_saisie":"27/09/2025","valide":"Non","ppo":"Non","type_carte":"Nouvelle carte","fond":"IGN","obsolete":false}},{"type":"Feature","geometry":{"type":"Polygon","coordinates":[[[1.8578,45.8047],[1.8562,45.801],[1.8579,45.7998],[1.8608,45.8001],[1.862,45.7995],[1.8649,45.7973],[1.866,45.797],[1.8699,45.7991],[1.8714,45.8043],[1.8696,45.8065],[1.8663,45.8064],[1.8643,45.8036],[1.8578,45.8047]]]},"properties":{"id_ffco":"15080","nom":"Ile de Vassivière","_dept":"87","numero":"2025-D87-44","commune":"Beaumont du Lac","echelle":"1/7500","surface":"0.74 km²","format":"A4","annee":"2025","cartographes":"Jean-Louis PERISSAT","proprietaire":"1905 - BRIVE LIMOUSIN COURSE D'ORIENTATION","niveau":"National, International","specialite":"CO à pied","latitude":"45.8019096534","longitude":"1.86473818078","date_saisie":"29/06/2025","date_depot":"17/09/2025","valide":"Oui","ppo":"Non","type_carte":"Reprise","base":"2013-D87-18 Ile de Vassivière","fond":"IGN","obsolete":false}},{"type":"Feature","geometry":{"type":"Polygon","coordinates":[[[1.7374,45.7383],[1.7401,45.7408],[1.7413,45.7411],[1.7409,45.7428],[1.7466,45.7413],[1.748,45.7419],[1.7508,45.7411],[1.7496,45.7393],[1.7499,45.7384],[1.749,45.7353],[1.7459,45.7332],[1.7434,45.7333],[1.7426,45.7349],[1.7374,45.7383]]]},"properties":{"id_ffco":"15079","nom":"Eymoutiers","_dept":"87","numero":"2025-D87-43","commune":"Eymoutiers","echelle":"1/4000","surface":"0.67 km²","format":"A4","annee":"2025","cartographes":"Jean-Louis PERISSAT","proprietaire":"1905 - BRIVE LIMOUSIN COURSE D'ORIENTATION","niveau":"National, International","specialite":"CO à pied","latitude":"45.7381471515","longitude":"1.74457996183","date_saisie":"29/06/2025","date_depot":"17/09/2025","valide":"Oui","ppo":"Non","type_carte":"Nouvelle carte","fond":"IGN","obsolete":false}},{"type":"Feature","geometry":{"type":"Polygon","coordinates":[[[1.8397,45.8053],[1.84,45.8048],[1.8382,45.8032],[1.8388,45.8018],[1.8417,45.7961],[1.8425,45.7958],[1.8443,45.7959],[1.8482,45.795],[1.8507,45.7936],[1.8511,45.7903],[1.8481,45.7838],[1.8461,45.7858],[1.843,45.7835],[1.8404,45.7851],[1.8359,45.7866],[1.835,45.7873],[1.8358,45.7881],[1.8385,45.7883],[1.8404,45.7902],[1.8392,45.7925],[1.8375,45.7926],[1.8362,45.7921],[1.8334,45.793],[1.8328,45.7934],[1.8298,45.7942],[1.8282,45.7936],[1.8265,45.7943],[1.8235,45.7967],[1.8198,45.7989],[1.8153,45.806],[1.8221,45.8064],[1.8227,45.8043],[1.8243,45.8032],[1.8269,45.8036],[1.8281,45.8031],[1.8291,45.8034],[1.8286,45.8052],[1.8354,45.8051],[1.8368,45.8044],[1.8397,45.8053]]]},"properties":{"id_ffco":"15078","nom":"Bois de Crozat","_dept":"87","numero":"2025-D87-42","commune":"Auphelle","echelle":"1/10000","surface":"2.99 km²","format":"A4","annee":"2025","cartographes":"Bruno MARCHEGAY","proprietaire":"1905 - BRIVE LIMOUSIN COURSE D'ORIENTATION","niveau":"National, International","specialite":"CO à pied","latitude":"45.7961690085","longitude":"1.83502659337","date_saisie":"29/06/2025","date_depot":"17/09/2025","valide":"Oui","ppo":"Non","type_carte":"Nouvelle carte","fond":"IGN","obsolete":false}},{"type":"Feature","geometry":{"type":"Polygon","coordinates":[[[1.4771,46.0557],[1.4786,46.0561],[1.4805,46.0558],[1.4851,46.0567],[1.4858,46.0562],[1.486,46.055],[1.4848,46.055],[1.4832,46.0528],[1.4815,46.0518],[1.4782,46.0536],[1.4772,46.0546],[1.4771,46.0557]]]},"properties":{"id_ffco":"14764","nom":"Etang de la Papeterie","_dept":"87","numero":"2024-D87-41","commune":"Saint Sulpice Laurière","echelle":"1/4000","surface":"0.21 km²","format":"A4","annee":"2024","cartographes":"Mathieu BRUGAT","proprietaire":"collège Jean Rostand St Sulpice Laurière","niveau":"Initiation, Scolaire","specialite":"CO à pied","latitude":"46.0545301466","longitude":"1.48141197819","date_saisie":"24/11/2024","valide":"Non","ppo":"Non","type_carte":"Nouvelle carte","fond":"IGN","obsolete":false}},{"type":"Feature","geometry":{"type":"Polygon","coordinates":[[[1.2755,45.8332],[1.2732,45.8342],[1.2645,45.8323],[1.2638,45.8315],[1.2611,45.8279],[1.2602,45.8273],[1.268,45.826],[1.2701,45.8296],[1.2755,45.8332]]]},"properties":{"id_ffco":"14573","nom":"Les jardins de l'évêché","_dept":"87","numero":"2024-D87-40","commune":"Limoges","echelle":"1/4000","surface":"0.5 km²","format":"A4","annee":"2024","cartographes":"Baptiste TRONCHE MASSO","proprietaire":"1905 - BRIVE LIMOUSIN COURSE D'ORIENTATION","niveau":"Régional","specialite":"CO à pied","latitude":"45.8301435932","longitude":"1.26744462898","date_saisie":"21/08/2024","date_depot":"11/12/2024","valide":"Oui","ppo":"Non","type_carte":"Nouvelle carte","fond":"IGN","obsolete":false}},{"type":"Feature","geometry":{"type":"Polygon","coordinates":[[[0.7866,45.7982],[0.7866,45.8384],[0.8525,45.8384],[0.8525,45.7982],[0.7866,45.7982]]]},"properties":{"id_ffco":"14061","nom":"Rochechouart","_dept":"87","numero":"2023-D87-39","commune":"Rochechouart","echelle":"1/4000","surface":"22.89 km²","format":"A4","annee":"2023","cartographes":"Stéphane Courtin","proprietaire":"8702 - ORIENTATION 87","niveau":"Régional","specialite":"CO à pied","latitude":"45.818269","longitude":"0.81958","date_saisie":"03/09/2023","date_depot":"26/10/2023","valide":"Oui","ppo":"Non","type_carte":"Nouvelle carte","fond":"Ortho","obsolete":false}},{"type":"Feature","geometry":{"type":"Polygon","coordinates":[[[1.2329,45.8489],[1.2267,45.8484],[1.2226,45.8465],[1.2281,45.8427],[1.2342,45.8441],[1.2329,45.8489]]]},"properties":{"id_ffco":"13680","nom":"Parc de l'Aurence 2","_dept":"87","numero":"2022-D87-38","commune":"Limoges","echelle":"1/4000","surface":"0.41 km²","format":"A4","annee":"2022","cartographes":"Baranger","proprietaire":"8702 - ORIENTATION 87","niveau":"Régional","specialite":"CO à pied","contacts":"Boyer, 4 rue A. Dutreix, 87350, Panazol, 05 55 30 33 99, bernardboyer.co@orange.fr, http://co-limoges.asso-web.com/","latitude":"45.8459541075","longitude":"1.22909464973","date_saisie":"29/11/2022","date_depot":"18/01/2023","valide":"Oui","ppo":"Non","type_carte":"Nouvelle carte","fond":"Ortho","obsolete":false}},{"type":"Feature","geometry":null,"properties":{"id_ffco":"13679","nom":"Parc de l'Aurence 2","_dept":"87","numero":"2022-D87-37","commune":"Limoges","echelle":"1/4000","surface":"None km²","format":"A4","annee":"2022","date_saisie":"29/11/2022","valide":"Non","ppo":"Non","type_carte":"Nouvelle carte","obsolete":false}},{"type":"Feature","geometry":null,"properties":{"id_ffco":"13628","nom":"Aurence 2","_dept":"87","numero":"2022-D87-36","surface":"None km²","annee":"2022","date_saisie":"25/10/2022","valide":"Non","ppo":"Non","obsolete":false}},{"type":"Feature","geometry":{"type":"Polygon","coordinates":[[[1.2266,45.8094],[1.2225,45.808],[1.2199,45.81],[1.2172,45.8091],[1.2125,45.8048],[1.2115,45.8042],[1.2103,45.8023],[1.212,45.8009],[1.2134,45.8001],[1.2146,45.8002],[1.2164,45.7994],[1.22,45.7995],[1.2203,45.8002],[1.2201,45.8021],[1.2205,45.8032],[1.2206,45.8036],[1.2225,45.8037],[1.227,45.8019],[1.2284,45.8019],[1.2304,45.803],[1.23,45.8039],[1.2293,45.8043],[1.2297,45.8047],[1.2297,45.8049],[1.2302,45.8051],[1.231,45.8049],[1.2315,45.8049],[1.2318,45.8051],[1.2307,45.8068],[1.2317,45.8077],[1.2309,45.8091],[1.2306,45.8102],[1.2291,45.8104],[1.2285,45.8091],[1.2266,45.8094]]]},"properties":{"id_ffco":"12124","nom":"Isle","_dept":"87","numero":"2020-D87-35","commune":"Limoges","echelle":"1/4000","surface":"1.17 km²","format":"A4","annee":"2020","cartographes":"Alexandre Vergnaud","proprietaire":"8702 - ORIENTATION 87","niveau":"Régional","specialite":"CO à pied","latitude":"45.8049618674","longitude":"1.221198506","date_saisie":"16/09/2020","date_depot":"22/09/2020","valide":"Non","ppo":"Non","type_carte":"Nouvelle carte","fond":"Cadastre","obsolete":false}},{"type":"Feature","geometry":{"type":"Polygon","coordinates":[[[1.4012,45.9644],[1.4038,45.9637],[1.4047,45.9618],[1.4053,45.9598],[1.4046,45.9578],[1.4029,45.9558],[1.4009,45.9541],[1.3976,45.9525],[1.3942,45.9514],[1.3925,45.9518],[1.3913,45.9546],[1.3897,45.9581],[1.3884,45.9596],[1.3909,45.9614],[1.3996,45.9635],[1.4012,45.9644]]]},"properties":{"id_ffco":"10548","nom":"Ambazac.","_dept":"87","numero":"2017-D87-34","commune":"Ambazac","echelle":"1/5000","surface":"1.19 km²","format":"A4","annee":"2017","cartographes":"Bruno Marcheqay","proprietaire":"8702 - ORIENTATION 87","niveau":"Régional","specialite":"CO à pied","latitude":"45.9581458626","longitude":"1.39726370854","date_saisie":"23/11/2017","date_depot":"14/10/2017","valide":"Oui","ppo":"Non","type_carte":"Nouvelle carte","fond":"Ortho","obsolete":false}},{"type":"Feature","geometry":{"type":"Polygon","coordinates":[[[1.3488,45.9511],[1.3554,45.9547],[1.3581,45.9575],[1.3631,45.9571],[1.3708,45.958],[1.3792,45.9581],[1.3849,45.9596],[1.3881,45.9608],[1.3926,45.9575],[1.3952,45.9535],[1.3931,45.9502],[1.3916,45.9457],[1.3856,45.9437],[1.3785,45.9433],[1.3698,45.9454],[1.3612,45.947],[1.3523,45.9477],[1.3463,45.9466],[1.3488,45.9511]]]},"properties":{"id_ffco":"10546","nom":"Ambazac le Muret","_dept":"87","numero":"2017-D87-33","commune":"Ambazac","echelle":"1/10000","surface":"4.6 km²","format":"A4","annee":"2017","cartographes":"Ionut Alin Zinca","proprietaire":"8702 - ORIENTATION 87","niveau":"National, International","specialite":"CO à pied","latitude":"45.9515521766","longitude":"1.37408756867","date_saisie":"22/11/2017","date_depot":"14/10/2017","valide":"Oui","ppo":"Non","type_carte":"Nouvelle carte","fond":"Ortho","obsolete":false}},{"type":"Feature","geometry":{"type":"Polygon","coordinates":[[[1.4868,45.836],[1.4851,45.8449],[1.4954,45.8441],[1.4951,45.8404],[1.4966,45.8372],[1.493,45.8336],[1.4868,45.836]]]},"properties":{"id_ffco":"9618","nom":"St Léonard de Noblat","_dept":"87","numero":"2016-D87-32","commune":"St Léonard de Noblat 87400","echelle":"1/4000","surface":"0.8 km²","format":"A4","annee":"2016","cartographes":"Bruno MARCHEGAY","proprietaire":"8702 - ORIENTATION 87","niveau":"Régional","specialite":"Sprint (ISSOM)","latitude":"45.8397230133","longitude":"1.49083903732","date_saisie":"17/06/2016","date_depot":"21/06/2016","valide":"Oui","ppo":"Non","type_carte":"Nouvelle carte","fond":"Ortho","obsolete":false}},{"type":"Feature","geometry":{"type":"Polygon","coordinates":[[[1.1297,45.7922],[1.1264,45.7939],[1.1295,45.7985],[1.1337,45.7986],[1.1408,45.797],[1.1415,45.7949],[1.1421,45.7915],[1.1373,45.7914],[1.1334,45.7927],[1.1297,45.7922]]]},"properties":{"id_ffco":"9617","nom":"Aixe sur Vienne","_dept":"87","numero":"2014-D87-31","commune":"Aixe sur Vienne 87700","echelle":"1/4000","surface":"0.71 km²","format":"A4","annee":"2014","cartographes":"Bruno MARCHEGAY","proprietaire":"8702 - ORIENTATION 87","niveau":"Régional","specialite":"Sprint (ISSOM)","latitude":"45.7949701679","longitude":"1.13467014322","date_saisie":"17/06/2016","date_depot":"21/06/2016","valide":"Oui","ppo":"Non","type_carte":"Nouvelle carte","fond":"Ortho","obsolete":false}},{"type":"Feature","geometry":{"type":"Polygon","coordinates":[[[1.2849,45.861],[1.2814,45.8612],[1.2815,45.862],[1.2807,45.8625],[1.2746,45.863],[1.2787,45.8687],[1.2822,45.8712],[1.2864,45.8729],[1.2877,45.872],[1.2882,45.8718],[1.2885,45.8727],[1.2896,45.8715],[1.2903,45.8712],[1.2894,45.871],[1.2896,45.8689],[1.2895,45.8685],[1.29,45.8678],[1.2904,45.8667],[1.29,45.8664],[1.2883,45.8669],[1.2882,45.8663],[1.2873,45.8663],[1.2872,45.8637],[1.2862,45.8616],[1.2856,45.8619],[1.2847,45.8616],[1.2849,45.861]]]},"properties":{"id_ffco":"9616","nom":"Bois de la Bastide","_dept":"87","numero":"2014-D87-30","commune":"Limoges 87000","echelle":"1/7500","surface":"0.92 km²","format":"A4","annee":"2014","cartographes":"Berranger","proprietaire":"Bureau des sports Limoges","niveau":"Régional","specialite":"CO à pied","contacts":"Bureau des sports de Limoges, 23 BD Beaublanc, 87000, Limoges","latitude":"45.8667214699","longitude":"1.28329157035","date_saisie":"17/06/2016","date_depot":"21/06/2016","valide":"Oui","ppo":"Non","type_carte":"Nouvelle carte","fond":"Ortho","obsolete":false}},{"type":"Feature","geometry":{"type":"Polygon","coordinates":[[[1.27,45.8669],[1.271,45.8677],[1.2707,45.8683],[1.2717,45.8691],[1.2716,45.8701],[1.272,45.8724],[1.2725,45.8732],[1.2728,45.8742],[1.2738,45.8755],[1.2753,45.8759],[1.2761,45.875],[1.2764,45.8738],[1.2761,45.8718],[1.2758,45.8706],[1.2778,45.8705],[1.2774,45.8686],[1.2763,45.8662],[1.2745,45.8644],[1.2727,45.8642],[1.27,45.8669]]]},"properties":{"id_ffco":"9615","nom":"Zone loisirs Uzurat","_dept":"87","numero":"2014-D87-29","commune":"Limoges 87000","echelle":"1/5000","surface":"0.45 km²","format":"A4","annee":"2014","cartographes":"Berranger","proprietaire":"Limoges","niveau":"Initiation, Scolaire","specialite":"CO à pied","contacts":"Bureau des sports de Limoges, 23 BD Beaublanc, 87000, Limoges","latitude":"45.8695964889","longitude":"1.27407643597","date_saisie":"17/06/2016","date_depot":"21/06/2016","valide":"Oui","ppo":"Non","type_carte":"Nouvelle carte","fond":"Ortho","obsolete":false}},{"type":"Feature","geometry":{"type":"Polygon","coordinates":[[[1.2768,46.0219],[1.282,46.0279],[1.2854,46.0285],[1.2856,46.03],[1.2866,46.0293],[1.2875,46.0275],[1.2891,46.0262],[1.2913,46.0273],[1.2911,46.0289],[1.2923,46.0294],[1.2936,46.0276],[1.2942,46.0254],[1.2951,46.0237],[1.2957,46.0239],[1.2962,46.0252],[1.2952,46.0268],[1.2965,46.0272],[1.2977,46.0259],[1.2976,46.0242],[1.2977,46.0233],[1.2959,46.0229],[1.2937,46.0234],[1.2864,46.0227],[1.2813,46.0214],[1.2768,46.0219]]]},"properties":{"id_ffco":"9614","nom":"Chabannes","_dept":"87","numero":"2013-D87-28","commune":"Compreignac 87140","echelle":"1/5000","surface":"0.76 km²","format":"A4","annee":"2013","cartographes":"Bruno MARCHEGAY","proprietaire":"Conseil Départemental 87","niveau":"Initiation, Scolaire","specialite":"CO à pied","latitude":"46.0250434543","longitude":"1.28708130684","date_saisie":"17/06/2016","date_depot":"21/06/2016","valide":"Oui","ppo":"Oui (30 postes)","type_carte":"Nouvelle carte","fond":"Ortho","url":"http://www.cd87.fr/","obsolete":false}},{"type":"Feature","geometry":{"type":"Polygon","coordinates":[[[1.269,46.0537],[1.2697,46.0543],[1.2748,46.0515],[1.2761,46.0524],[1.2792,46.0532],[1.2812,46.0531],[1.2827,46.0539],[1.2843,46.0548],[1.2835,46.0554],[1.2881,46.0556],[1.2882,46.0536],[1.2869,46.0507],[1.284,46.051],[1.2822,46.0499],[1.2801,46.0474],[1.2784,46.0468],[1.2771,46.049],[1.2759,46.0492],[1.2744,46.0482],[1.2747,46.0492],[1.2741,46.0495],[1.2721,46.0486],[1.2706,46.0497],[1.2704,46.0504],[1.2693,46.0515],[1.2688,46.0517],[1.269,46.0537]]]},"properties":{"id_ffco":"9613","nom":"Fréaudour","_dept":"87","numero":"2013-D87-27","commune":"St Pardoux 87250","echelle":"1/7500","surface":"0.67 km²","format":"A4","annee":"2013","cartographes":"Bruno MARCHEGAY","proprietaire":"Conseil Départemental 87","niveau":"Initiation, Scolaire","specialite":"CO à pied","latitude":"46.0514877536","longitude":"1.27898449488","date_saisie":"17/06/2016","date_depot":"21/06/2016","valide":"Oui","ppo":"Oui (32 postes)","type_carte":"Nouvelle carte","fond":"Ortho","url":"http://www.cd87.fr/","obsolete":false}},{"type":"Feature","geometry":{"type":"Polygon","coordinates":[[[1.0068,45.8304],[1.0112,45.8294],[1.0099,45.8272],[1.0125,45.8263],[1.0142,45.8229],[1.0154,45.8192],[1.0135,45.8193],[1.0066,45.8205],[1.0018,45.8197],[0.9953,45.8197],[0.9966,45.8238],[0.9995,45.8243],[1.0016,45.8252],[1.0033,45.8292],[1.0068,45.8304]]]},"properties":{"id_ffco":"9610","nom":"Forêt de Cognac","_dept":"87","numero":"2014-D87-26","commune":"Coganc la Forêt  87310","echelle":"1/10000","surface":"1.15 km²","format":"A4","annee":"2014","cartographes":"Bruno MARCHEGAY","proprietaire":"8702 - ORIENTATION 87","niveau":"Régional","specialite":"CO à pied","latitude":"45.8238483008","longitude":"1.00599855745","date_saisie":"16/06/2016","date_depot":"21/06/2016","valide":"Oui","ppo":"Non","type_carte":"Nouvelle carte","fond":"Ortho","obsolete":false}},{"type":"Feature","geometry":{"type":"Polygon","coordinates":[[[1.0504,45.8241],[1.0592,45.8302],[1.0643,45.8303],[1.0665,45.8262],[1.0665,45.8192],[1.074,45.8143],[1.0734,45.8121],[1.0661,45.8107],[1.0625,45.8112],[1.0613,45.8134],[1.0528,45.8196],[1.0504,45.8241]]]},"properties":{"id_ffco":"9609","nom":"Les Loges","_dept":"87","numero":"2014-D87-25","commune":"St Priest sous Aixe 87700","echelle":"1/10000","surface":"2.1 km²","format":"A4","annee":"2014","cartographes":"Bruno MARCHEGAY","proprietaire":"8702 - ORIENTATION 87","niveau":"Interrégional","specialite":"CO à pied","latitude":"45.8203758488","longitude":"1.06177828591","date_saisie":"16/06/2016","date_depot":"21/06/2016","valide":"Oui","ppo":"Oui (50 postes)","type_carte":"Nouvelle carte","fond":"Ortho","url":"http://www.saintpriestsousaixe.com/","obsolete":false}},{"type":"Feature","geometry":{"type":"Polygon","coordinates":[[[1.0771,46.0268],[1.0749,46.0228],[1.0687,46.0231],[1.0618,46.0202],[1.0567,46.0237],[1.0568,46.0294],[1.0598,46.0339],[1.0671,46.0362],[1.0719,46.033],[1.0733,46.0293],[1.0771,46.0268]]]},"properties":{"id_ffco":"9597","nom":"Vaulry","_dept":"87","numero":"2013-D87-24","commune":"Vaulry 87140","echelle":"1/10000","surface":"1.82 km²","format":"A4","annee":"2013","cartographes":"Bruno MARCHEGAY","proprietaire":"8702 - ORIENTATION 87","niveau":"Régional","specialite":"CO à pied","latitude":"46.0279613904","longitude":"1.06568866683","date_saisie":"14/06/2016","date_depot":"21/06/2016","valide":"Oui","ppo":"Oui (16 postes)","type_carte":"Nouvelle carte","fond":"Ortho","obsolete":false}},{"type":"Feature","geometry":{"type":"Polygon","coordinates":[[[0.8989,45.8809],[0.8946,45.8812],[0.8913,45.8836],[0.8893,45.8868],[0.887,45.8881],[0.886,45.8894],[0.8873,45.8902],[0.8892,45.8896],[0.8889,45.8923],[0.8886,45.8936],[0.8884,45.8962],[0.8897,45.8972],[0.8897,45.8987],[0.8921,45.8993],[0.8945,45.8999],[0.8985,45.8998],[0.9037,45.8993],[0.9139,45.8976],[0.9174,45.8974],[0.9171,45.8912],[0.913,45.8889],[0.9129,45.8866],[0.9087,45.8849],[0.9092,45.8824],[0.9075,45.8814],[0.8989,45.8809]]]},"properties":{"id_ffco":"9596","nom":"St Junien","_dept":"87","numero":"2013-D87-23","commune":"St Junien 87200","echelle":"1/4000","surface":"3.76 km²","format":"A5","annee":"2013","cartographes":"Bruno MARCHEGAY","proprietaire":"8702 - ORIENTATION 87","niveau":"Régional","specialite":"CO à pied","latitude":"45.8909231624","longitude":"0.901525056088","date_saisie":"14/06/2016","date_depot":"21/06/2016","valide":"Oui","ppo":"Non","type_carte":"Nouvelle carte","fond":"Ortho","obsolete":false}},{"type":"Feature","geometry":{"type":"Polygon","coordinates":[[[0.9042,45.8986],[0.9026,45.894],[0.8833,45.8937],[0.8813,45.9027],[0.9007,45.9056],[0.9038,45.9032],[0.9042,45.8986]]]},"properties":{"id_ffco":"9595","nom":"St Junien Nord","_dept":"87","numero":"2013-D87-22","commune":"St Junien 87200","echelle":"1/7500","surface":"1.92 km²","format":"A4","annee":"2013","cartographes":"Bruno MARCHEGAY","proprietaire":"8702 - ORIENTATION 87","niveau":"Régional","specialite":"CO à pied","latitude":"45.8991657076","longitude":"0.893310703219","date_saisie":"14/06/2016","date_depot":"21/06/2016","valide":"Oui","ppo":"Non","type_carte":"Nouvelle carte","fond":"Ortho","obsolete":false}},{"type":"Feature","geometry":{"type":"Polygon","coordinates":[[[1.8284,45.7728],[1.8222,45.7658],[1.8181,45.7589],[1.8067,45.7601],[1.7975,45.7718],[1.7927,45.7819],[1.7899,45.7931],[1.7868,45.7967],[1.8129,45.7994],[1.8184,45.7907],[1.8225,45.7857],[1.8266,45.7783],[1.8284,45.7728]]]},"properties":{"id_ffco":"9594","nom":"Vassivière","_dept":"87","numero":"2012-D87-21","commune":"Beaumont du Lac 87120","echelle":"1/10000","surface":"8.97 km²","format":"A4","annee":"2012","cartographes":"Bruno MARCHEGAY","proprietaire":"LI - Limousin","niveau":"National, International","specialite":"CO à pied","latitude":"45.7802270676","longitude":"1.80872337981","date_saisie":"14/06/2016","date_depot":"21/06/2016","valide":"Oui","ppo":"Non","type_carte":"Nouvelle carte","fond":"Ortho","obsolete":false}},{"type":"Feature","geometry":null,"properties":{"id_ffco":"9593","nom":"Forêt Lenfant","_dept":"87","numero":"2012-D87-20","commune":"St Gence 87510","echelle":"1/7500","surface":"None km²","format":"A4","annee":"2012","cartographes":"Leyzat Cédric","proprietaire":"Mairie de St Gence 87510","niveau":"Initiation, Scolaire","specialite":"CO à pied","date_saisie":"10/06/2016","date_depot":"21/06/2016","valide":"Non","ppo":"Oui (30 postes)","type_carte":"Nouvelle carte","fond":"Cadastre","url":"http://www.saint-gence.fr/","obsolete":false}},{"type":"Feature","geometry":{"type":"Polygon","coordinates":[[[1.2275,45.8348],[1.2291,45.8363],[1.2325,45.8381],[1.2347,45.8395],[1.2356,45.8395],[1.2382,45.8384],[1.2409,45.8372],[1.2428,45.8364],[1.2442,45.8356],[1.2428,45.8345],[1.2424,45.8341],[1.233,45.8351],[1.2287,45.8341],[1.2267,45.8345],[1.2275,45.8348]]]},"properties":{"id_ffco":"9592","nom":"La Borie","_dept":"87","numero":"2012-D87-19","commune":"Limoges 87000","echelle":"1/4000","surface":"0.44 km²","format":"A4","annee":"2012","cartographes":"Marechegay Breuno","proprietaire":"LI - Limousin","niveau":"Régional","specialite":"Sprint (ISSOM)","latitude":"45.8363174723","longitude":"1.23583818297","date_saisie":"10/06/2016","date_depot":"21/06/2016","valide":"Oui","ppo":"Non","type_carte":"Nouvelle carte","fond":"Cadastre","obsolete":false}},{"type":"Feature","geometry":{"type":"Polygon","coordinates":[[[1.8587,45.8046],[1.8609,45.8039],[1.8627,45.8039],[1.8657,45.8043],[1.8677,45.8062],[1.8708,45.8052],[1.8715,45.8028],[1.8701,45.8003],[1.8687,45.7981],[1.8652,45.7973],[1.8634,45.7995],[1.8618,45.7997],[1.8586,45.7998],[1.857,45.8006],[1.8566,45.8018],[1.8578,45.804],[1.8587,45.8046]]]},"properties":{"id_ffco":"9585","nom":"Ile de Vassivière","_dept":"87","numero":"2013-D87-18","commune":"Beaumont du Lac","echelle":"1/7500","surface":"0.67 km²","format":"A4","annee":"2013","cartographes":"Bruno MARCHEGAY","proprietaire":"LI - Limousin","niveau":"Initiation, Scolaire","specialite":"CO à pied","latitude":"45.8018227662","longitude":"1.86479076901","date_saisie":"30/05/2016","date_depot":"21/06/2016","valide":"Oui","ppo":"Oui (35 postes)","type_carte":"Nouvelle carte","fond":"Ortho","obsolete":false}},{"type":"Feature","geometry":{"type":"Polygon","coordinates":[[[1.182,45.6774],[1.1835,45.6781],[1.1845,45.6779],[1.1889,45.6766],[1.1901,45.6765],[1.1899,45.6731],[1.1891,45.672],[1.1821,45.6717],[1.1814,45.6731],[1.1813,45.6752],[1.1818,45.6772],[1.182,45.6774]]]},"properties":{"id_ffco":"9574","nom":"Parc de Nexon","_dept":"87","numero":"2009-D87-17","commune":"Nexon","echelle":"1/5000","surface":"0.4 km²","format":"A3","annee":"2009","cartographes":"Bernard Boyer","proprietaire":"8702 - ORIENTATION 87","niveau":"Initiation, Scolaire","specialite":"CO à pied","contacts":"Mairie de Nexon, 05 55 58 10 19, http://www.nexon.fr/","latitude":"45.6746556328","longitude":"1.18549057244","date_saisie":"13/05/2016","date_depot":"07/06/2016","valide":"Oui","ppo":"Oui (30 postes)","type_carte":"Nouvelle carte","fond":"Ortho","obsolete":false}},{"type":"Feature","geometry":{"type":"Polygon","coordinates":[[[0.8345,45.6779],[0.8392,45.6769],[0.8444,45.6762],[0.8449,45.669],[0.843,45.6644],[0.8441,45.6635],[0.8431,45.6621],[0.8419,45.6624],[0.8414,45.6618],[0.8392,45.6618],[0.8388,45.6625],[0.8375,45.6629],[0.8374,45.6647],[0.8341,45.6646],[0.8327,45.6654],[0.8294,45.6655],[0.8252,45.6666],[0.8235,45.6682],[0.825,45.6703],[0.8267,45.673],[0.8302,45.6758],[0.8329,45.6778],[0.8345,45.6779]]]},"properties":{"id_ffco":"9573","nom":"Forêt de Boubon","_dept":"87","numero":"2008-D87-16","commune":"Cussac","echelle":"1/10000","surface":"1.99 km²","format":"A4","annee":"2008","cartographes":"Bernard Boyer","proprietaire":"8702 - ORIENTATION 87","niveau":"Initiation, Scolaire","specialite":"CO à pied","latitude":"45.6702839036","longitude":"0.83579120099","date_saisie":"13/05/2016","date_depot":"07/06/2016","valide":"Oui","ppo":"Oui (35 postes)","type_carte":"Nouvelle carte","base":"2008-D87-16 Forêt de Boubon","fond":"Ortho","obsolete":false}},{"type":"Feature","geometry":{"type":"Polygon","coordinates":[[[1.6328,45.8012],[1.6448,45.8087],[1.6499,45.8021],[1.6372,45.7978],[1.6328,45.8012]]]},"properties":{"id_ffco":"9572","nom":"Les Varaches","_dept":"87","numero":"2008-D87-15","commune":"Bujaleuf","echelle":"1/7500","surface":"0.78 km²","format":"A4","annee":"2008","cartographes":"Bertnard Boyer","proprietaire":"8702 - ORIENTATION 87","niveau":"Régional","specialite":"CO à pied","contacts":"Bernard Boyer, 4 rue A Dutreix, 87350, Panazol, 05 55 30 33 99, Bernardboyer.co@orange.fr","latitude":"45.8027453162","longitude":"1.64161889638","date_saisie":"13/05/2016","date_depot":"07/06/2016","valide":"Oui","ppo":"Oui (60 postes)","type_carte":"Nouvelle carte","fond":"IGN","ref_ign":"Eymouthiers","obsolete":false}},{"type":"Feature","geometry":{"type":"Polygon","coordinates":[[[1.3067,45.8267],[1.3019,45.8234],[1.3034,45.8212],[1.32,45.8262],[1.3159,45.8296],[1.3131,45.8265],[1.3095,45.8253],[1.3067,45.8267]]]},"properties":{"id_ffco":"9571","nom":"Morpiènas","_dept":"87","numero":"2008-D87-14","commune":"Panazol","echelle":"1/5000","surface":"0.45 km²","format":"A4","annee":"2008","cartographes":"Bernard Boyer","proprietaire":"8702 - ORIENTATION 87","niveau":"Régional","specialite":"CO à pied","contacts":"Bernard Boyer, 4 rue A Dutreix, 87350, Panazol, 05 55 30 33 99, Bernardboyer.co@orange.fr","latitude":"45.8250555111","longitude":"1.31055226732","date_saisie":"13/05/2016","date_depot":"07/06/2016","valide":"Oui","ppo":"Oui (40 postes)","type_carte":"Nouvelle carte","fond":"IGN","ref_ign":"Limoges","obsolete":false}},{"type":"Feature","geometry":null,"properties":{"id_ffco":"2319","nom":"BOIS DE LA BASTIDE - 3","_dept":"87","numero":"1990-D87-10","commune":"LIMOGES","echelle":"1/5000","surface":"0.5 km²","annee":"1990","proprietaire":"ESPALCECOS","specialite":"CO à pied","latitude":"45.8285215","longitude":"1.261746","valide":"Non","ppo":"Non","obsolete":false}},{"type":"Feature","geometry":null,"properties":{"id_ffco":"2319","nom":"BOIS DE LA BASTIDE - 2","_dept":"87","numero":"1990-D87-10","commune":"LIMOGES","echelle":"1/5000","surface":"0.5 km²","annee":"1990","proprietaire":"ESPALCECOS","specialite":"CO à pied","latitude":"45.8285215","longitude":"1.261746","valide":"Non","ppo":"Non","obsolete":false}},{"type":"Feature","geometry":null,"properties":{"id_ffco":"4498","nom":"LES VASEIX 2","_dept":"87","numero":"2006-D87-013","commune":"Limoges","echelle":"1/10000","surface":"3.6 km²","format":"A4","annee":"2006","cartographes":"B Boyer","proprietaire":"8702 - ORIENTATION 87","niveau":"Départemental","specialite":"CO à pied","latitude":"45.8285215","longitude":"1.261746","date_saisie":"21/10/2009","date_depot":"22/10/2009","valide":"Non","ppo":"Non","obsolete":false}},{"type":"Feature","geometry":null,"properties":{"id_ffco":"4497","nom":"CHAUFAILLE 2","_dept":"87","numero":"2006-D87-012","commune":"Coussac-Bonneval","echelle":"1/10000","surface":"2.2 km²","format":"A4","annee":"2006","cartographes":"B Boyer","proprietaire":"8702 - ORIENTATION 87","niveau":"Départemental","specialite":"CO à pied","latitude":"45.508587","longitude":"1.3162543","date_saisie":"21/10/2009","date_depot":"22/10/2009","valide":"Non","ppo":"Non","obsolete":false}},{"type":"Feature","geometry":null,"properties":{"id_ffco":"1745","nom":"DOMAINE DES CHAUFFAILLES","_dept":"87","numero":"1987-D87-01","commune":"ST JULIEN LE VEND.","echelle":"1/10000","surface":"5.5 km²","annee":"1987","proprietaire":"24 - Dordogne","specialite":"CO à pied","latitude":"45.7435173","longitude":"1.4025484","valide":"Non","ppo":"Non","obsolete":false}},{"type":"Feature","geometry":null,"properties":{"id_ffco":"2314","nom":"DNE CHAUFFAILLE","_dept":"87","numero":"1990-D87-01","commune":"COUSSAC","echelle":"1/10000","surface":"2.6 km²","annee":"1990","proprietaire":"15DI","specialite":"CO à pied","latitude":"45.7057337","longitude":"0.8518007","valide":"Non","ppo":"Non","obsolete":false}},{"type":"Feature","geometry":null,"properties":{"id_ffco":"2314","nom":"DNE CHAUFFAILLE","_dept":"87","numero":"1990-D87-01","commune":"COUSSAC","echelle":"1/15000","surface":"2.6 km²","annee":"1990","proprietaire":"LI","specialite":"CO à pied","latitude":"45.7057337","longitude":"0.8518007","valide":"Non","ppo":"Non","obsolete":false}},{"type":"Feature","geometry":null,"properties":{"id_ffco":"743","nom":"BOIS ECHELLES","_dept":"87","numero":"1977-D87-008","commune":"BERSAC","echelle":"1/15000","surface":"7.7 km²","annee":"1977","proprietaire":"CA - Champagne-Ardenne","specialite":"CO à pied","latitude":"46.0803868","longitude":"1.4262097","valide":"Non","ppo":"Non","obsolete":false}},{"type":"Feature","geometry":null,"properties":{"id_ffco":"2312","nom":"BOIS DE LA BASTIDE","_dept":"87","numero":"1990-D87-00","commune":"LIMOGES","echelle":"1/5000","surface":"1.1 km²","annee":"1990","proprietaire":"8704","specialite":"CO à pied","latitude":"45.8285215","longitude":"1.261746","valide":"Non","ppo":"Non","obsolete":false}},{"type":"Feature","geometry":null,"properties":{"id_ffco":"2312","nom":"COROT","_dept":"87","numero":"1990-D87-00","commune":"LIMOGES","echelle":"1/5000","surface":"1.5 km²","annee":"1990","proprietaire":"8704","specialite":"CO à pied","latitude":"45.8285215","longitude":"1.261746","valide":"Non","ppo":"Non","obsolete":false}},{"type":"Feature","geometry":null,"properties":{"id_ffco":"2823","nom":"BASTIDE","_dept":"87","numero":"1995-D87-00","commune":"LIMOGES","echelle":"1/10000","surface":"0.0 km²","annee":"1995","specialite":"CO à pied","latitude":"45.8285215","longitude":"1.261746","valide":"Non","ppo":"Non","obsolete":false}},{"type":"Feature","geometry":null,"properties":{"id_ffco":"2312","nom":"LES VASEIX","_dept":"87","numero":"1990-D87-00","commune":"LIMOGES","echelle":"1/10000","surface":"4.2 km²","annee":"1990","proprietaire":"8704","specialite":"CO à pied","latitude":"45.8285215","longitude":"1.261746","valide":"Non","ppo":"Non","obsolete":false}},{"type":"Feature","geometry":null,"properties":{"id_ffco":"1289","nom":"BORIE","_dept":"87","numero":"1983-D87-00","echelle":"1/15000","surface":"4.8 km²","annee":"1983","proprietaire":"LI","niveau":"Interrégional","specialite":"CO à pied","latitude":"45.7435173","longitude":"1.4025484","valide":"Non","ppo":"Non","obsolete":false}},{"type":"Feature","geometry":{"type":"Polygon","coordinates":[[[0.8396,45.6769],[0.8396,45.6775],[0.8396,45.6777],[0.8394,45.6779],[0.8381,45.6776],[0.8374,45.6777],[0.8366,45.6776],[0.8358,45.6777],[0.835,45.6779],[0.8346,45.6781],[0.8339,45.678],[0.8332,45.678],[0.8328,45.6779],[0.8327,45.6773],[0.8324,45.6767],[0.8324,45.6763],[0.8305,45.6763],[0.8289,45.675],[0.8285,45.6748],[0.8268,45.6743],[0.8262,45.6743],[0.826,45.6734],[0.8266,45.6733],[0.8249,45.6717],[0.8227,45.6695],[0.8229,45.6686],[0.8235,45.6678],[0.8245,45.6668],[0.8251,45.6666],[0.8255,45.6665],[0.8266,45.666],[0.8277,45.6657],[0.8285,45.6655],[0.8288,45.6655],[0.8295,45.6653],[0.8305,45.6655],[0.8315,45.6654],[0.8325,45.6654],[0.8329,45.6654],[0.834,45.6647],[0.8342,45.6645],[0.8352,45.6646],[0.8362,45.6646],[0.8369,45.6646],[0.8374,45.6645],[0.8375,45.6642],[0.8374,45.6631],[0.8375,45.6626],[0.838,45.6624],[0.8387,45.6624],[0.839,45.6621],[0.8391,45.6617],[0.8398,45.6616],[0.8409,45.6616],[0.8415,45.6616],[0.8416,45.6617],[0.8416,45.6622],[0.8418,45.6623],[0.8422,45.6623],[0.8428,45.662],[0.8433,45.6622],[0.8435,45.6625],[0.8437,45.663],[0.8438,45.6634],[0.8443,45.6635],[0.8439,45.6637],[0.8434,45.6639],[0.843,45.6643],[0.8431,45.6651],[0.8434,45.6662],[0.8438,45.6672],[0.8449,45.6688],[0.8446,45.672],[0.8445,45.6745],[0.8444,45.6759],[0.8434,45.6761],[0.8422,45.6766],[0.8415,45.6768],[0.8409,45.6768],[0.8402,45.6768],[0.8399,45.6768],[0.8396,45.6769]]]},"properties":{"id_ffco":"477","nom":"Forêt de Boubon","_dept":"87","numero":"2009-D87-","commune":"Cussac","echelle":"1/10000","surface":"2.09 km²","annee":"2009","contacts":"Mairie de Cussac, 05 55 70 90 60, http://www.cussac.a3w.fr","latitude":"45.6703225294","longitude":"0.835386198952","valide":"Non","ppo":"Oui (35 postes)","url":"https://www.cussac.a3w.fr","obsolete":false}},{"type":"Feature","geometry":{"type":"Polygon","coordinates":[[[1.1718,45.8442],[1.1763,45.8442],[1.1836,45.84],[1.1827,45.8377],[1.1822,45.8356],[1.1817,45.8344],[1.1807,45.8333],[1.1802,45.8318],[1.1802,45.831],[1.18,45.8302],[1.1795,45.8284],[1.1763,45.8286],[1.1755,45.8287],[1.1745,45.8288],[1.1738,45.8288],[1.1736,45.8287],[1.1732,45.8281],[1.1731,45.8272],[1.173,45.8257],[1.1712,45.8259],[1.1693,45.8263],[1.1676,45.8264],[1.1675,45.8257],[1.1657,45.8257],[1.1657,45.8264],[1.1652,45.829],[1.1649,45.83],[1.1646,45.8305],[1.1642,45.8308],[1.1636,45.831],[1.1633,45.8316],[1.1632,45.832],[1.1633,45.8324],[1.1635,45.8327],[1.1636,45.8331],[1.162,45.8334],[1.1628,45.834],[1.1637,45.8343],[1.1641,45.8349],[1.166,45.8367],[1.1666,45.8371],[1.1668,45.8371],[1.167,45.8371],[1.1673,45.8371],[1.1684,45.837],[1.1691,45.837],[1.1687,45.8388],[1.1686,45.8392],[1.1687,45.8395],[1.1685,45.8399],[1.1691,45.8402],[1.1697,45.8405],[1.1704,45.8415],[1.1711,45.8425],[1.1718,45.8442]]]},"properties":{"id_ffco":"477","nom":"Forêt Départementale de Vaseix","_dept":"87","numero":"2009-D87-","commune":"Verneuil sur Vienne","echelle":"1/10000","surface":"2.09 km²","annee":"2009","contacts":"Conseil Général 87, 05 55 14 14 15, http://www.cg87.fr","latitude":"45.8348705285","longitude":"1.17334917227","valide":"Non","ppo":"Oui (60 postes)","url":"https://www.cg87.fr","obsolete":false}},{"type":"Feature","geometry":null,"properties":{"id_ffco":"473","nom":"Bois de la Bastide","_dept":"87","numero":"1993-D87-","commune":"Limoges","surface":"None km²","annee":"1993","latitude":"45.8285215","longitude":"1.261746","valide":"Non","ppo":"Oui (52 postes)","obsolete":false}},{"type":"Feature","geometry":{"type":"Polygon","coordinates":[[[1.6294,45.8034],[1.6281,45.7965],[1.6437,45.7971],[1.6439,45.7983],[1.6447,45.7986],[1.6463,45.7991],[1.648,45.8],[1.6485,45.801],[1.6489,45.8008],[1.649,45.8015],[1.6493,45.8022],[1.6499,45.8027],[1.6505,45.8032],[1.6508,45.8044],[1.6511,45.8051],[1.651,45.8059],[1.651,45.807],[1.6507,45.8081],[1.6498,45.808],[1.6488,45.8086],[1.6483,45.8091],[1.6477,45.8089],[1.6472,45.8088],[1.6464,45.8088],[1.6454,45.8086],[1.6442,45.8084],[1.643,45.8083],[1.6423,45.8081],[1.6416,45.8079],[1.6404,45.8076],[1.6398,45.8073],[1.6392,45.8066],[1.6389,45.8064],[1.6384,45.8063],[1.6379,45.8061],[1.6376,45.8057],[1.6368,45.8061],[1.6371,45.8065],[1.6362,45.8069],[1.6294,45.8034]]]},"properties":{"id_ffco":"477","nom":"Les Varaches","_dept":"87","numero":"2009-D87-","commune":"Bujaleuf","echelle":"1/75000","surface":"1.71 km²","annee":"2009","contacts":"Mairie de Bujaleuf, 05 55 69 50 04, http://www.bujaleuf.fr/fichiers/Carte_PPO_Bujaleuf.pdf","latitude":"45.8023577642","longitude":"1.63983542304","valide":"Non","ppo":"Oui (60 postes)","url":"https://www.bujaleuf.fr/fichiers/Carte_PPO_Bujaleuf.pdf","obsolete":false}},{"type":"Feature","geometry":{"type":"Polygon","coordinates":[[[1.1891,45.6719],[1.1806,45.6716],[1.1808,45.6719],[1.1809,45.6722],[1.1812,45.673],[1.1813,45.6736],[1.1813,45.6744],[1.1812,45.675],[1.1811,45.6757],[1.182,45.6778],[1.1824,45.6782],[1.1827,45.6783],[1.1837,45.6782],[1.1859,45.678],[1.1882,45.6775],[1.1902,45.6771],[1.1901,45.6762],[1.19,45.6747],[1.1899,45.6737],[1.1899,45.6731],[1.1897,45.6728],[1.1894,45.6725],[1.1891,45.6719]]]},"properties":{"id_ffco":"477","nom":"Parc de Nexon","_dept":"87","numero":"2009-D87-","commune":"Nexon","echelle":"1/5000","surface":"0.45 km²","annee":"2009","contacts":"Mairie de Nexon, 05 55 58 10 19, http://www.nexon.fr/","latitude":"45.6748163048","longitude":"1.18544040351","valide":"Non","ppo":"Oui (30 postes)","url":"https://www.nexon.fr","obsolete":false}},{"type":"Feature","geometry":null,"properties":{"id_ffco":"474","nom":"Base de loisirs de Lathus","_dept":"87","numero":"????-D87-","surface":"None km²","latitude":"45.7435173","longitude":"1.4025484","valide":"Non","ppo":"Oui","obsolete":false}}]}