{"type":"FeatureCollection","features":[{"type":"Feature","geometry":null,"properties":{"id_ffco":"2320","nom":"BOIS DE LA BASTIDE - 3","_dept":"87","numero":"1990-D87-11","commune":"LIMOGES","echelle":"1/10000","surface":"1.2 km²","annee":"1990","proprietaire":"ESPALCECOS","specialite":"CO à pied","latitude":"45.8285215","longitude":"1.261746","valide":"Non","ppo":"Non","obsolete":true}},{"type":"Feature","geometry":null,"properties":{"id_ffco":"2317","nom":"BOIS DE LA BASTIDE - 1","_dept":"87","numero":"1990-D87-09","commune":"LIMOGES","echelle":"1/5000","surface":"0.3 km²","annee":"1990","proprietaire":"ESPALCECOS","specialite":"CO à pied","latitude":"45.8285215","longitude":"1.261746","valide":"Non","ppo":"Non","obsolete":true}},{"type":"Feature","geometry":null,"properties":{"id_ffco":"2316","nom":"CROIX VERTE","_dept":"87","numero":"1990-D87-03","commune":"FEYTIAT","echelle":"1/10000","surface":"2.2 km²","annee":"1990","proprietaire":"LI","specialite":"CO à pied","latitude":"45.8079468","longitude":"1.3316535","valide":"Non","ppo":"Non","obsolete":true}}]}