{"type":"FeatureCollection","features":[{"type":"Feature","geometry":{"type":"Polygon","coordinates":[[[3.9927,47.6682],[3.9925,47.6691],[3.9951,47.6696],[3.9961,47.6697],[3.9966,47.6704],[3.9973,47.6704],[3.9977,47.6701],[3.9969,47.6692],[3.9969,47.6686],[3.9995,47.6665],[4.0004,47.6636],[4.0014,47.6629],[4.0068,47.66],[4.0112,47.6598],[4.0126,47.661],[4.0142,47.6609],[4.0171,47.6601],[4.0198,47.6601],[4.0204,47.6598],[4.0216,47.6581],[4.0206,47.6569],[4.0197,47.6559],[4.0197,47.6551],[4.018,47.6541],[4.0146,47.6526],[4.0128,47.6523],[4.012,47.6523],[4.0104,47.6523],[4.0084,47.6524],[4.0067,47.6525],[4.0045,47.652],[4.0013,47.6509],[4.0002,47.6504],[3.9998,47.6504],[3.9996,47.6501],[3.9996,47.6495],[3.9996,47.6486],[3.999,47.6474],[3.9981,47.6465],[3.9976,47.6465],[3.9973,47.6467],[3.9969,47.6468],[3.9963,47.6467],[3.9959,47.6466],[3.9956,47.6466],[3.9952,47.6467],[3.9946,47.647],[3.9942,47.6475],[3.9939,47.6479],[3.9937,47.6484],[3.9931,47.6495],[3.9922,47.65],[3.9916,47.6503],[3.9908,47.6506],[3.9901,47.6506],[3.9888,47.6507],[3.988,47.6508],[3.9875,47.6506],[3.9867,47.6506],[3.9863,47.6507],[3.9861,47.6508],[3.9861,47.651],[3.9846,47.6515],[3.9836,47.6518],[3.985,47.6533],[3.9845,47.6538],[3.984,47.654],[3.9837,47.654],[3.9829,47.6539],[3.9825,47.6539],[3.982,47.6539],[3.9816,47.655],[3.9807,47.6559],[3.9804,47.6565],[3.9799,47.657],[3.9787,47.6576],[3.9772,47.6584],[3.9779,47.6589],[3.9785,47.6591],[3.9793,47.6588],[3.9799,47.6591],[3.9804,47.6591],[3.9815,47.6597],[3.9821,47.6596],[3.9828,47.6606],[3.9824,47.6613],[3.9822,47.6619],[3.9822,47.6619],[3.9826,47.6623],[3.983,47.6619],[3.9836,47.6611],[3.9847,47.6617],[3.9853,47.6615],[3.9868,47.6617],[3.9878,47.6618],[3.9899,47.6624],[3.9917,47.6631],[3.9922,47.6636],[3.9924,47.6646],[3.992,47.6655],[3.9932,47.6657],[3.9931,47.666],[3.9933,47.6664],[3.9932,47.6667],[3.9929,47.6669],[3.9933,47.6673],[3.9927,47.6682]]]},"properties":{"id_ffco":"12051","nom":"Grimault-Forêt de Noyers","_dept":"89","numero":"2020-D89-173","commune":"Grimault","echelle":"1/10000","surface":"3.74 km²","format":"A4","annee":"2020","cartographes":"Fabrice THOMASSIN","proprietaire":"89 - Yonne","niveau":"Interrégional","specialite":"CO à pied","latitude":"47.6571748921","longitude":"3.9985730902","date_saisie":"21/05/2020","date_depot":"11/02/2025","valide":"Oui","ppo":"Non","type_carte":"Nouvelle carte","fond":"IGN","ref_ign":"2821 SB","obsolete":true}},{"type":"Feature","geometry":{"type":"Polygon","coordinates":[[[3.0933,47.8937],[3.0929,47.8943],[3.0921,47.8956],[3.0921,47.8958],[3.0959,47.8959],[3.0959,47.8961],[3.0965,47.8961],[3.0966,47.8954],[3.0967,47.8948],[3.0976,47.8924],[3.0976,47.8921],[3.0973,47.8918],[3.0975,47.8913],[3.0976,47.8911],[3.0972,47.8911],[3.0963,47.891],[3.096,47.8913],[3.0959,47.8914],[3.0941,47.8913],[3.0936,47.8927],[3.0933,47.8937]]]},"properties":{"id_ffco":"10001","nom":"Charny. Stade-Collège-Parc","_dept":"89","numero":"2017-D89-132","commune":"Charny Orée de Puisaye","echelle":"1/2000","surface":"0.15 km²","format":"A4","annee":"2017","cartographes":"Fabrice THOMASSIN","proprietaire":"89 - Yonne","niveau":"Initiation, Scolaire","specialite":"CO à pied","latitude":"47.893639275","longitude":"3.09513050976","date_saisie":"22/12/2016","date_depot":"16/06/2017","valide":"Oui","ppo":"Non","type_carte":"Nouvelle carte","fond":"IGN","ref_ign":"2722 Est","obsolete":true}},{"type":"Feature","geometry":{"type":"Polygon","coordinates":[[[3.2899,48.2135],[3.2913,48.2139],[3.2915,48.2138],[3.2925,48.2131],[3.2928,48.2129],[3.2928,48.2124],[3.2919,48.2113],[3.2907,48.21],[3.2902,48.2095],[3.2899,48.209],[3.2897,48.2086],[3.2896,48.2083],[3.2894,48.2081],[3.2889,48.2085],[3.288,48.209],[3.2877,48.2091],[3.2875,48.2101],[3.2858,48.2103],[3.2862,48.2126],[3.2877,48.2129],[3.2899,48.2135]]]},"properties":{"id_ffco":"9755","nom":"Saint-Clément-Parc de la Ballastière","_dept":"89","numero":"2016-D89-131","commune":"Sens","echelle":"1/2500","surface":"0.19 km²","format":"A4","annee":"2016","cartographes":"Emmanuel AGOSTINI","proprietaire":"89 - Yonne","niveau":"Initiation, Scolaire","specialite":"CO à pied","latitude":"48.2113886568","longitude":"3.28925746527","date_saisie":"24/10/2016","date_depot":"16/06/2017","valide":"Oui","ppo":"Non","type_carte":"Nouvelle carte","fond":"Cadastre","obsolete":true}},{"type":"Feature","geometry":{"type":"Polygon","coordinates":[[[3.9237,47.4765],[3.923,47.4754],[3.9205,47.475],[3.9171,47.4764],[3.9171,47.4766],[3.9171,47.4774],[3.9189,47.4784],[3.9209,47.4793],[3.9223,47.4793],[3.9271,47.4872],[3.9283,47.4882],[3.9322,47.4882],[3.9383,47.4858],[3.9384,47.485],[3.9387,47.4843],[3.9392,47.4827],[3.94,47.4819],[3.94,47.4801],[3.938,47.4796],[3.9357,47.4782],[3.936,47.4773],[3.9341,47.4759],[3.9313,47.4759],[3.9292,47.476],[3.9252,47.4765],[3.9237,47.4765]]]},"properties":{"id_ffco":"9527","nom":"Le Bois Dieu 2","_dept":"89","numero":"2016-D89-121","commune":"Avallon","echelle":"1/7500","surface":"1.48 km²","format":"A4","annee":"2016","cartographes":"Arnaud DUPLESSIS","proprietaire":"89 - Yonne","niveau":"Régional","specialite":"CO à pied","latitude":"47.4812270417","longitude":"3.92997023497","date_saisie":"10/04/2016","date_depot":"04/10/2016","valide":"Oui","ppo":"Non","type_carte":"Reprise","base":"2006-D89-041 Le Bois Dieu","fond":"IGN","ref_ign":"2722 ET","obsolete":true}},{"type":"Feature","geometry":{"type":"Polygon","coordinates":[[[3.2987,48.1911],[3.2972,48.1917],[3.2952,48.1892],[3.2959,48.189],[3.2953,48.1878],[3.2954,48.1877],[3.2954,48.1874],[3.2951,48.1866],[3.2959,48.1865],[3.2977,48.186],[3.2993,48.1855],[3.3015,48.1857],[3.3019,48.1859],[3.302,48.1874],[3.3024,48.1891],[3.3018,48.1894],[3.3015,48.1896],[3.3012,48.1898],[3.3008,48.19],[3.3005,48.1902],[3.3003,48.1903],[3.3001,48.1904],[3.2987,48.1911]]]},"properties":{"id_ffco":"7205","nom":"Complexe sportif René Binet","_dept":"89","numero":"2015-D89-112","commune":"Sens","echelle":"1/3000","surface":"0.26 km²","format":"A4","annee":"2015","cartographes":"Aimé LOUAT","proprietaire":"89 - Yonne","niveau":"Initiation, Scolaire","specialite":"CO à pied","latitude":"48.188291689","longitude":"3.29871485168","date_saisie":"16/01/2014","date_depot":"20/10/2015","valide":"Oui","ppo":"Non","type_carte":"Reprise","base":"2006-D89-040 SENS. Complexe sportif René Binet","fond":"Cadastre","obsolete":true}},{"type":"Feature","geometry":{"type":"Polygon","coordinates":[[[3.5872,47.8514],[3.5874,47.8515],[3.5908,47.8515],[3.5941,47.8518],[3.5957,47.8519],[3.5968,47.8519],[3.5978,47.8516],[3.6005,47.8504],[3.6018,47.8498],[3.6026,47.8492],[3.6044,47.8472],[3.6018,47.8435],[3.6004,47.8416],[3.599,47.8398],[3.5991,47.8395],[3.5993,47.8391],[3.5981,47.8384],[3.5978,47.8381],[3.5977,47.8375],[3.5976,47.8372],[3.597,47.8366],[3.5963,47.8363],[3.5953,47.8361],[3.5947,47.8359],[3.5934,47.8346],[3.5922,47.8348],[3.5905,47.8356],[3.5901,47.8378],[3.5901,47.8393],[3.5898,47.8399],[3.5894,47.8399],[3.5889,47.8414],[3.5883,47.8411],[3.5874,47.8423],[3.5862,47.8423],[3.5854,47.8445],[3.5827,47.8444],[3.5825,47.8449],[3.5821,47.8449],[3.5813,47.8468],[3.5818,47.8471],[3.5844,47.848],[3.5857,47.8484],[3.5878,47.849],[3.5872,47.8514]]]},"properties":{"id_ffco":"7209","nom":"Monéteau-Le Thureau-Sud","_dept":"89","numero":"2014-D89-103","commune":"Monéteau","echelle":"1/10000","surface":"1.86 km²","format":"A4","annee":"2014","cartographes":"Fabrice THOMASSIN","proprietaire":"89 - Yonne","niveau":"Régional","specialite":"CO à pied","latitude":"47.8446952031","longitude":"3.59367351075","date_saisie":"16/01/2014","date_depot":"20/10/2015","valide":"Oui","ppo":"Non","type_carte":"Reprise","base":"2009-D89-060 Le Thureau - Sud","fond":"IGN","ref_ign":"2720 Ouest","obsolete":true}},{"type":"Feature","geometry":{"type":"Polygon","coordinates":[[[3.2758,48.1845],[3.2759,48.1835],[3.2769,48.1836],[3.2826,48.1834],[3.2833,48.1824],[3.2856,48.1827],[3.2856,48.1832],[3.2865,48.183],[3.2869,48.1832],[3.2876,48.1833],[3.2872,48.184],[3.2864,48.1838],[3.2859,48.1841],[3.2855,48.1843],[3.2852,48.1842],[3.2848,48.184],[3.284,48.1843],[3.2837,48.1847],[3.2833,48.1851],[3.2828,48.1852],[3.2823,48.1849],[3.2818,48.1848],[3.2813,48.185],[3.281,48.1853],[3.2812,48.1866],[3.2778,48.1863],[3.2776,48.1865],[3.2757,48.1855],[3.2758,48.1848],[3.2758,48.1845]]]},"properties":{"id_ffco":"7240","nom":"Parc du Moulin à Tan","_dept":"89","numero":"2014-D89-093","commune":"Sens","echelle":"1/4000","surface":"0.2 km²","format":"A4","annee":"2014","cartographes":"Aimé LOUAT","proprietaire":"89 - Yonne","niveau":"Départemental","specialite":"CO à pied","latitude":"48.1844750588","longitude":"3.28064082695","date_saisie":"26/02/2014","date_depot":"20/10/2015","valide":"Oui","ppo":"Non","type_carte":"Reprise","base":"2009-D89-056 SENS Parc du Moulin à Tan","fond":"IGN","ref_ign":"2618 Ouest","obsolete":true}},{"type":"Feature","geometry":{"type":"Polygon","coordinates":[[[3.306,48.2947],[3.3074,48.2956],[3.3046,48.3002],[3.3015,48.3009],[3.2982,48.301],[3.2972,48.3018],[3.2927,48.3005],[3.2917,48.3044],[3.2866,48.3061],[3.2831,48.3072],[3.282,48.308],[3.2794,48.3082],[3.2784,48.3097],[3.2745,48.3094],[3.2739,48.31],[3.2725,48.3098],[3.2692,48.3081],[3.2663,48.3078],[3.2658,48.3028],[3.2648,48.3015],[3.2661,48.2988],[3.2666,48.2956],[3.265,48.2951],[3.2666,48.2918],[3.2699,48.2929],[3.2719,48.2914],[3.2758,48.2922],[3.277,48.2902],[3.2856,48.2915],[3.2881,48.2907],[3.2931,48.2909],[3.2992,48.2926],[3.3053,48.2927],[3.3066,48.2932],[3.306,48.2947]]]},"properties":{"id_ffco":"7149","nom":"Bois de la Pommeraie","_dept":"89","numero":"2013-D89-085","commune":"La Chapelle sur Oreuse","echelle":"1/10000","surface":"4.55 km²","format":"A4","annee":"2013","cartographes":"Fabrice THOMASSIN,Aimé LOUAT,Emmanuel AGOSTINI","proprietaire":"89 - Yonne","niveau":"Régional","specialite":"CO à pied","contacts":"CDCO 89, 06 45 11 08 27, cdco89@free.fr, http://cdco89.free.fr/index.php?option=com_content&view=section&id=8&Itemid=56","latitude":"48.2989052799","longitude":"3.28309999222","date_saisie":"24/12/2013","valide":"Oui","ppo":"Non","type_carte":"Reprise","base":"2011-D89-075 La Pommeraie-VTT","fond":"IGN","ref_ign":"2617 Ouest","obsolete":true}},{"type":"Feature","geometry":{"type":"Polygon","coordinates":[[[3.5565,47.8113],[3.5589,47.8104],[3.5596,47.8098],[3.5598,47.8096],[3.5603,47.8096],[3.5608,47.8101],[3.5609,47.8104],[3.561,47.8112],[3.5611,47.8119],[3.5611,47.8122],[3.5602,47.8125],[3.5606,47.8131],[3.5603,47.8137],[3.5599,47.814],[3.5592,47.8142],[3.5575,47.8123],[3.5571,47.8124],[3.5563,47.8114],[3.5565,47.8113]]]},"properties":{"id_ffco":"7144","nom":"Auxerre. Lycée-Collège St Joseph","_dept":"89","numero":"2013-D89-084","commune":"Auxerre","echelle":"1/2000","surface":"0.1 km²","format":"A4","annee":"2013","cartographes":"Fabrice THOMASSIN","proprietaire":"89 - Yonne","niveau":"Initiation, Scolaire","specialite":"CO à pied","contacts":"CDCO 89, 06 45 11 08 27, cdco89@free.fr, http://cdco89.free.fr/index.php?option=com_content&view=section&id=8&Itemid=56","latitude":"47.8117935042","longitude":"3.55916395038","date_saisie":"24/12/2013","valide":"Oui","ppo":"Non","type_carte":"Reprise","base":"2009-D89-062 AUXERRE Lycée-Collège Saint Joseph","fond":"Cadastre","obsolete":true}},{"type":"Feature","geometry":{"type":"Polygon","coordinates":[[[3.1371,47.7422],[3.1382,47.7416],[3.1376,47.7409],[3.1394,47.7401],[3.1389,47.7388],[3.1403,47.7385],[3.1384,47.7357],[3.1368,47.7354],[3.1308,47.7355],[3.1304,47.7375],[3.1298,47.7377],[3.1299,47.7381],[3.1293,47.7382],[3.1282,47.7386],[3.1278,47.7389],[3.1275,47.739],[3.1265,47.7393],[3.1298,47.7441],[3.1361,47.7441],[3.1375,47.7427],[3.1371,47.7422]]]},"properties":{"id_ffco":"5141","nom":"Bois de la Garenne","_dept":"89","numero":"2011-D89-076","commune":"Tannerre en Puisaye","echelle":"1/5000","surface":"0.69 km²","format":"A4","annee":"2011","cartographes":"Fabrice THOMASSIN","proprietaire":"89 - Yonne","niveau":"Régional","specialite":"CO à pied","contacts":"CDCO 89, 06 45 11 08 27, cdco89@free.fr, http://cdco89.free.fr/index.php?option=com_content&view=section&id=8&Itemid=56","latitude":"47.7397285981","longitude":"3.13360559153","date_saisie":"09/10/2011","date_depot":"25/09/2013","valide":"Oui","ppo":"Oui (25 postes)","type_carte":"Nouvelle carte","fond":"Cadastre","obsolete":true}},{"type":"Feature","geometry":{"type":"Polygon","coordinates":[[[3.1169,47.6101],[3.12,47.6107],[3.1206,47.611],[3.1222,47.6098],[3.1215,47.6089],[3.1204,47.6088],[3.1193,47.609],[3.1179,47.6092],[3.1177,47.6093],[3.1178,47.6094],[3.1168,47.6095],[3.1169,47.6101]]]},"properties":{"id_ffco":"5112","nom":"St Fargeau. Camping de la Calanque","_dept":"89","numero":"2010-D89-070","commune":"Saint Fargeau","echelle":"1/2000","surface":"0.06 km²","format":"A4","annee":"2010","cartographes":"Fabrice THOMASSIN","proprietaire":"89 - Yonne","niveau":"Initiation, Scolaire","specialite":"CO à pied","latitude":"47.6097783842","longitude":"3.11972086157","date_saisie":"16/09/2011","date_depot":"07/11/2012","valide":"Oui","ppo":"Non","type_carte":"Nouvelle carte","fond":"Cadastre","obsolete":true}},{"type":"Feature","geometry":{"type":"Polygon","coordinates":[[[3.9904,47.6866],[3.9895,47.6872],[3.99,47.6882],[3.9901,47.6895],[3.9869,47.6909],[3.9833,47.6884],[3.9842,47.6879],[3.9831,47.6864],[3.9821,47.6859],[3.9822,47.6846],[3.9843,47.6843],[3.9863,47.6846],[3.988,47.6854],[3.989,47.6859],[3.9904,47.6866]]]},"properties":{"id_ffco":"5046","nom":"NOYERS sur SEREIN Les Survignes","_dept":"89","numero":"2009-D89-063","commune":"Noyers sur Serein","echelle":"1/4000","surface":"0.28 km²","format":"A4","annee":"2009","cartographes":"Fabrice THOMASSIN","proprietaire":"89 - Yonne","niveau":"Départemental","specialite":"CO à pied","contacts":"CDCO 89, 06 45 11 08 27, cdco89@free.fr, http://cdco89.free.fr/index.php?option=com_content&view=section&id=8&Itemid=56","latitude":"47.6873298025","longitude":"3.98637175974","date_saisie":"09/08/2010","date_depot":"22/09/2010","valide":"Oui","ppo":"Oui (46 postes)","type_carte":"Reprise","base":"2001-D89-030 Les Survignes","fond":"IGN","ref_ign":"2821 Ouest","obsolete":true}},{"type":"Feature","geometry":{"type":"Polygon","coordinates":[[[3.5584,47.813],[3.5593,47.814],[3.5602,47.8137],[3.56,47.8129],[3.5609,47.8124],[3.5611,47.8121],[3.5611,47.8113],[3.561,47.8106],[3.5607,47.81],[3.5589,47.8106],[3.5567,47.8114],[3.5577,47.8131],[3.5581,47.8131],[3.5584,47.813]]]},"properties":{"id_ffco":"5045","nom":"AUXERRE Lycée-Collège Saint Joseph","_dept":"89","numero":"2009-D89-062","commune":"Auxerre","echelle":"1/2000","surface":"0.09 km²","format":"A4","annee":"2009","cartographes":"Fabrice THOMASSIN","proprietaire":"89 - Yonne","niveau":"Initiation, Scolaire","specialite":"CO à pied","latitude":"47.8118966538","longitude":"3.55923593582","date_saisie":"09/08/2010","date_depot":"22/09/2010","valide":"Oui","ppo":"Non","type_carte":"Reprise","base":"1998-D89-020 AUXERRE Saint-Joseph","fond":"Cadastre","obsolete":true}},{"type":"Feature","geometry":{"type":"Polygon","coordinates":[[[3.5953,47.8577],[3.6112,47.8559],[3.6169,47.8538],[3.6164,47.8523],[3.6178,47.8514],[3.6202,47.8528],[3.6236,47.8496],[3.6206,47.8471],[3.6188,47.8443],[3.6164,47.8433],[3.6077,47.8418],[3.5998,47.8402],[3.6061,47.8488],[3.6007,47.8515],[3.5931,47.8544],[3.5953,47.8577]]]},"properties":{"id_ffco":"5044","nom":"Le Thureau - Nord","_dept":"89","numero":"2009-D89-061","commune":"Auxerre","echelle":"1/10000","surface":"2.2 km²","format":"A4","annee":"2009","cartographes":"Fabrice THOMASSIN","proprietaire":"89 - Yonne","niveau":"Régional","specialite":"CO à pied","latitude":"47.849756295","longitude":"3.60901048889","date_saisie":"09/08/2010","date_depot":"22/09/2010","valide":"Oui","ppo":"Oui (26 postes)","type_carte":"Reprise","base":"1979-D89-001 AUXERRE-TUREAU DU BAR","fond":"IGN","ref_ign":"2720 Ouest","obsolete":true}},{"type":"Feature","geometry":{"type":"Polygon","coordinates":[[[3.6023,47.8443],[3.6043,47.8473],[3.6026,47.8491],[3.6017,47.8498],[3.5997,47.8508],[3.5975,47.8518],[3.5966,47.852],[3.5941,47.8518],[3.591,47.8515],[3.5878,47.8515],[3.5863,47.8514],[3.587,47.8493],[3.5853,47.8487],[3.5809,47.8477],[3.5811,47.8469],[3.5808,47.8465],[3.5817,47.846],[3.5823,47.8445],[3.5856,47.8446],[3.5863,47.8423],[3.5875,47.8423],[3.5883,47.841],[3.5888,47.8398],[3.5896,47.8398],[3.59,47.8392],[3.5899,47.8382],[3.5904,47.8356],[3.5923,47.8348],[3.5936,47.8348],[3.5944,47.8358],[3.5954,47.8362],[3.5965,47.8364],[3.5972,47.8367],[3.5977,47.8373],[3.5978,47.838],[3.598,47.8383],[3.5994,47.8392],[3.599,47.8395],[3.5991,47.8398],[3.6004,47.8418],[3.6023,47.8443]]]},"properties":{"id_ffco":"5043","nom":"Le Thureau - Sud","_dept":"89","numero":"2009-D89-060","commune":"Auxerre","echelle":"1/10000","surface":"1.91 km²","format":"A4","annee":"2009","cartographes":"Fabrice THOMASSIN","proprietaire":"89 - Yonne","niveau":"Régional","specialite":"CO à pied","latitude":"47.8447859623","longitude":"3.59341619406","date_saisie":"09/08/2010","date_depot":"22/09/2010","valide":"Oui","ppo":"Non","type_carte":"Reprise","base":"2001-D89-027 Le Thureau III","fond":"IGN","ref_ign":"2720 Ouest","obsolete":true}},{"type":"Feature","geometry":{"type":"Polygon","coordinates":[[[3.2488,48.1863],[3.2534,48.1877],[3.2524,48.1864],[3.2525,48.1856],[3.2539,48.1863],[3.2559,48.1873],[3.2572,48.1871],[3.2572,48.1842],[3.2551,48.1832],[3.2516,48.1831],[3.2494,48.1833],[3.2491,48.1846],[3.2491,48.1848],[3.2488,48.1863]]]},"properties":{"id_ffco":"5146","nom":"PARON-Bois de Saint Bond","_dept":"89","numero":"2009-D89-057","commune":"PARON","echelle":"1/2500","surface":"0.24 km²","format":"A4","annee":"2009","cartographes":"Emmanuel AGOSTINI","proprietaire":"89 - Yonne","niveau":"Initiation, Scolaire","specialite":"CO à pied","latitude":"48.1851211301","longitude":"3.25308145992","date_saisie":"10/10/2011","date_depot":"07/11/2012","valide":"Oui","ppo":"Non","type_carte":"Nouvelle carte","fond":"IGN","ref_ign":"2618 Ouest","obsolete":true}},{"type":"Feature","geometry":{"type":"Polygon","coordinates":[[[3.2833,48.1845],[3.2831,48.1848],[3.2809,48.1851],[3.2808,48.1862],[3.2777,48.186],[3.2761,48.1853],[3.2759,48.1846],[3.2795,48.1839],[3.2815,48.1837],[3.2828,48.1838],[3.2853,48.1834],[3.2873,48.1836],[3.2867,48.1845],[3.2851,48.184],[3.2839,48.184],[3.2837,48.1845],[3.2833,48.1845]]]},"properties":{"id_ffco":"5040","nom":"SENS Parc du Moulin à Tan","_dept":"89","numero":"2009-D89-056","commune":"Sens","echelle":"1/3000","surface":"0.12 km²","format":"A4","annee":"2009","cartographes":"Aimé LOUAT,Stéphane POUZET,Fabrice THOMASSIN","proprietaire":"89 - Yonne","niveau":"Initiation, Scolaire","specialite":"CO à pied","latitude":"48.1846975703","longitude":"3.28058174069","date_saisie":"09/08/2010","date_depot":"22/09/2010","valide":"Oui","ppo":"Non","type_carte":"Nouvelle carte","fond":"Cadastre","obsolete":true}},{"type":"Feature","geometry":{"type":"Polygon","coordinates":[[[3.1115,47.6114],[3.1153,47.6157],[3.1172,47.6165],[3.1195,47.6166],[3.1204,47.6171],[3.1251,47.6165],[3.1247,47.6146],[3.1255,47.6138],[3.1251,47.6121],[3.1247,47.6075],[3.1229,47.608],[3.1222,47.609],[3.1204,47.6084],[3.1181,47.6083],[3.1154,47.608],[3.1142,47.6096],[3.1125,47.6098],[3.1115,47.6114]]]},"properties":{"id_ffco":"4779","nom":"Base du Bourdon. Bois des Rublins","_dept":"89","numero":"2008-D89-053","commune":"Saint Fargeau","echelle":"1/7500","surface":"0.81 km²","format":"A4","annee":"2008","cartographes":"Gisèle JOUBERT,Fabrice THOMASSIN","proprietaire":"89 - Yonne","niveau":"Départemental","specialite":"CO à pied","latitude":"47.6123333363","longitude":"3.11928838367","date_saisie":"30/01/2010","date_depot":"17/02/2010","valide":"Oui","ppo":"Non","type_carte":"Nouvelle carte","fond":"IGN","ref_ign":"2521 Est","obsolete":true}},{"type":"Feature","geometry":{"type":"Polygon","coordinates":[[[3.7418,47.4628],[3.7414,47.4631],[3.7415,47.4636],[3.7426,47.464],[3.7431,47.4646],[3.7444,47.4665],[3.7451,47.4668],[3.7455,47.4674],[3.7468,47.4679],[3.7476,47.4682],[3.7487,47.4684],[3.7495,47.4683],[3.7506,47.4682],[3.7516,47.4675],[3.7518,47.4672],[3.7516,47.4658],[3.7513,47.4656],[3.7504,47.465],[3.7493,47.4646],[3.7482,47.4647],[3.7472,47.4649],[3.7464,47.4648],[3.7458,47.4648],[3.7454,47.4646],[3.7446,47.4642],[3.744,47.4636],[3.7435,47.4631],[3.7424,47.4628],[3.7418,47.4628]]]},"properties":{"id_ffco":"4782","nom":"La Colline de Vézelay","_dept":"89","numero":"2008-D89-051","commune":"Vezelay","echelle":"1/4000","surface":"0.22 km²","format":"A4","annee":"2008","cartographes":"Arnaud DUPLESSIS,Fabrice THOMASSIN,Joël MARTIN","proprietaire":"89 - Yonne","niveau":"Régional","specialite":"Sprint (ISSOM)","latitude":"47.465987649","longitude":"3.74727729444","date_saisie":"30/01/2010","date_depot":"17/02/2010","valide":"Oui","ppo":"Non","type_carte":"Nouvelle carte","fond":"IGN","ref_ign":"2722 Ouest","obsolete":true}},{"type":"Feature","geometry":{"type":"Polygon","coordinates":[[[3.4916,47.6119],[3.4934,47.6119],[3.4943,47.6119],[3.4952,47.6123],[3.4957,47.6118],[3.4963,47.6111],[3.495,47.6106],[3.4932,47.6099],[3.4929,47.6101],[3.4932,47.6104],[3.4913,47.6113],[3.4916,47.6119]]]},"properties":{"id_ffco":"4783","nom":"COURSON Le Filouer","_dept":"89","numero":"2008-D89-050","commune":"Courson-les-Carrières","echelle":"1/1500","surface":"0.05 km²","format":"A4","annee":"2008","cartographes":"Cécile COMTE,Fabrice THOMASSIN","proprietaire":"89 - Yonne","niveau":"Initiation, Scolaire","specialite":"CO à pied","latitude":"47.6111917966","longitude":"3.49382214708","date_saisie":"30/01/2010","date_depot":"17/02/2010","valide":"Oui","ppo":"Non","type_carte":"Nouvelle carte","fond":"Cadastre","obsolete":true}},{"type":"Feature","geometry":{"type":"Polygon","coordinates":[[[3.2961,48.2905],[3.2965,48.2931],[3.2959,48.2951],[3.3015,48.2957],[3.3018,48.2972],[3.3054,48.2978],[3.3128,48.2979],[3.3155,48.2922],[3.318,48.2919],[3.3187,48.2903],[3.3191,48.2884],[3.3122,48.2887],[3.3119,48.2856],[3.3063,48.2838],[3.3043,48.2848],[3.3044,48.2865],[3.299,48.2874],[3.295,48.2876],[3.2916,48.2884],[3.2912,48.2897],[3.293,48.29],[3.2961,48.2905]]]},"properties":{"id_ffco":"4781","nom":"La Chapelle sur Oreuse","_dept":"89","numero":"2008-D89-048","commune":"La Chapelle sur Oreuse","echelle":"1/7500","surface":"1.81 km²","format":"A4","annee":"2008","cartographes":"Emmanuel AGOSTINI,Fabrice THOMASSIN","proprietaire":"89 - Yonne","niveau":"Départemental","specialite":"CO à pied","latitude":"48.2913268295","longitude":"3.30601217859","date_saisie":"30/01/2010","date_depot":"17/02/2010","valide":"Oui","ppo":"Non","type_carte":"Nouvelle carte","fond":"IGN","ref_ign":"2617 Ouest","obsolete":true}},{"type":"Feature","geometry":{"type":"Polygon","coordinates":[[[3.3039,48.285],[3.3024,48.2838],[3.3003,48.2823],[3.3,48.2822],[3.2996,48.2821],[3.2989,48.282],[3.2973,48.2819],[3.295,48.281],[3.2941,48.2803],[3.293,48.28],[3.291,48.2786],[3.2892,48.2773],[3.2875,48.2764],[3.2861,48.2748],[3.2845,48.2732],[3.2872,48.2724],[3.2904,48.2719],[3.292,48.2713],[3.2925,48.271],[3.2932,48.2696],[3.2954,48.2687],[3.297,48.2688],[3.2987,48.2687],[3.2996,48.2681],[3.3009,48.2671],[3.3044,48.2652],[3.3076,48.2639],[3.312,48.2624],[3.3153,48.2617],[3.3178,48.2613],[3.3223,48.2603],[3.326,48.2596],[3.3283,48.2589],[3.3297,48.2584],[3.3313,48.2579],[3.3355,48.2577],[3.3368,48.2588],[3.3405,48.2625],[3.3416,48.263],[3.3444,48.2632],[3.3465,48.2633],[3.3482,48.2638],[3.3522,48.2656],[3.3556,48.268],[3.3572,48.2759],[3.3587,48.2786],[3.3575,48.2925],[3.3515,48.292],[3.3503,48.2919],[3.3468,48.2907],[3.3462,48.2906],[3.3443,48.2904],[3.3425,48.2902],[3.3405,48.2904],[3.3397,48.2904],[3.339,48.2902],[3.3385,48.2904],[3.3374,48.2903],[3.3366,48.2899],[3.3351,48.2901],[3.3323,48.2901],[3.3316,48.2901],[3.3289,48.2894],[3.3268,48.289],[3.3254,48.2887],[3.3243,48.2887],[3.3234,48.2888],[3.3224,48.2887],[3.3215,48.2887],[3.3192,48.289],[3.318,48.2892],[3.3162,48.2892],[3.3146,48.2894],[3.3135,48.2894],[3.3124,48.289],[3.3114,48.289],[3.3106,48.2891],[3.3088,48.2884],[3.307,48.288],[3.3071,48.2874],[3.3069,48.2872],[3.3058,48.2863],[3.3039,48.285]]]},"properties":{"id_ffco":"4635","nom":"La Chapelle Saint-Germain","_dept":"89","numero":"2007-D89-046","commune":"Sens","echelle":"1/20000","surface":"13.87 km²","format":"A4","annee":"2007","cartographes":"Aimé LOUAT,Emmanuel AGOSTINI,Fabrice THOMASSIN","proprietaire":"8903 puis CDCO 89","niveau":"Régional","specialite":"CO à VTT","latitude":"48.2758006883","longitude":"3.32707499646","date_saisie":"09/12/2009","date_depot":"15/12/2009","valide":"Oui","ppo":"Non","type_carte":"Reprise","base":"2005-D89-036 Forêt de SOUCY","fond":"IGN","ref_ign":"2617 Ouest","obsolete":true}},{"type":"Feature","geometry":{"type":"Polygon","coordinates":[[[3.6369,47.5606],[3.6326,47.5587],[3.6292,47.556],[3.6272,47.5525],[3.6256,47.5484],[3.6223,47.5488],[3.6187,47.5516],[3.6174,47.5537],[3.6191,47.5549],[3.6157,47.5579],[3.6176,47.5593],[3.6154,47.561],[3.6142,47.5628],[3.6339,47.5661],[3.6369,47.5642],[3.642,47.5625],[3.6424,47.56],[3.6369,47.5606]]]},"properties":{"id_ffco":"4632","nom":"MERRY SUR YONNE - Bois de la Tour","_dept":"89","numero":"2007-D89-043","commune":"Merry sur Yonne","echelle":"1/7500","surface":"1.99 km²","format":"A4","annee":"2007","cartographes":"Fabrice THOMASSIN","proprietaire":"89 - Yonne","niveau":"Régional","specialite":"CO à pied","latitude":"47.5588836225","longitude":"3.6262510202","date_saisie":"09/12/2009","date_depot":"15/12/2009","valide":"Oui","ppo":"Non","type_carte":"Nouvelle carte","fond":"IGN","ref_ign":"2721 Ouest","obsolete":true}},{"type":"Feature","geometry":{"type":"Polygon","coordinates":[[[3.5577,47.7979],[3.5601,47.797],[3.5608,47.7981],[3.5597,47.7984],[3.5596,47.7983],[3.558,47.7987],[3.5575,47.798],[3.5577,47.7979]]]},"properties":{"id_ffco":"7158","nom":"Auxerre. Collège Denfert Rochereau","_dept":"89","numero":"2006-D89-042","commune":"Auxerre","echelle":"1/1000","surface":"0.02 km²","format":"A4","annee":"2006","cartographes":"Gisèle JOUBERT","proprietaire":"8903 - YONNE COURSE ORIENTATION NATURE ET EVASION","niveau":"Initiation, Scolaire","specialite":"CO à pied","contacts":"CDCO 89, 06 45 11 08 27, cdco89@free.fr, http://cdco89.free.fr/index.php?option=com_content&view=section&id=8&Itemid=56","latitude":"47.7979187762","longitude":"3.55919298785","date_saisie":"25/12/2013","valide":"Non","ppo":"Non","type_carte":"Nouvelle carte","fond":"Cadastre","obsolete":true}},{"type":"Feature","geometry":{"type":"Polygon","coordinates":[[[3.9288,47.4883],[3.9321,47.4878],[3.9331,47.4874],[3.9366,47.4857],[3.9389,47.4853],[3.9383,47.4849],[3.9385,47.4841],[3.9386,47.4823],[3.9395,47.4818],[3.9396,47.4808],[3.9371,47.4806],[3.9356,47.4792],[3.935,47.4782],[3.9357,47.4772],[3.9345,47.4764],[3.9327,47.4761],[3.9295,47.4766],[3.9268,47.477],[3.925,47.4773],[3.9233,47.4768],[3.9226,47.4759],[3.9204,47.4753],[3.9178,47.4764],[3.9177,47.4774],[3.9198,47.4785],[3.9216,47.478],[3.9231,47.4784],[3.9233,47.4799],[3.9259,47.4846],[3.9288,47.4883]]]},"properties":{"id_ffco":"487","nom":"Le Bois Dieu","_dept":"89","numero":"2006-D89-041","commune":"Avallon","echelle":"1/7500","surface":"1.22 km²","format":"A4","annee":"2006","cartographes":"Gisèle JOUBERT,Fabrice THOMASSIN","proprietaire":"89 - Yonne","niveau":"Régional","specialite":"CO à pied","contacts":"CDCO 89, 03 86 44 27 22, cdco89@free.fr","latitude":"47.4814083052","longitude":"3.93010670922","valide":"Non","ppo":"Non","type_carte":"Reprise","base":"2004-D89-033 Le Bois Dieu","fond":"IGN","ref_ign":"2722 ET","obsolete":true}},{"type":"Feature","geometry":{"type":"Polygon","coordinates":[[[3.3024,48.1891],[3.3019,48.1858],[3.2988,48.1856],[3.2952,48.1867],[3.2955,48.1878],[3.2945,48.1881],[3.2946,48.1895],[3.2952,48.1893],[3.2973,48.1916],[3.3005,48.1901],[3.3024,48.1891]]]},"properties":{"id_ffco":"7157","nom":"SENS. Complexe sportif René Binet","_dept":"89","numero":"2006-D89-040","commune":"Sens","echelle":"1/3000","surface":"0.27 km²","format":"A4","annee":"2006","cartographes":"Gisèle JOUBERT","proprietaire":"8903 - YONNE COURSE ORIENTATION NATURE ET EVASION","niveau":"Initiation, Scolaire","specialite":"CO à pied","contacts":"CDCO 89, 06 45 11 08 27, cdco89@free.fr, http://cdco89.free.fr/index.php?option=com_content&view=section&id=8&Itemid=56","latitude":"48.1882673962","longitude":"3.29856034413","date_saisie":"25/12/2013","valide":"Non","ppo":"Non","type_carte":"Nouvelle carte","fond":"IGN","ref_ign":"2618 Ouest","obsolete":true}},{"type":"Feature","geometry":{"type":"Polygon","coordinates":[[[3.5466,47.8511],[3.5448,47.8538],[3.5424,47.8533],[3.54,47.8534],[3.5389,47.8533],[3.5369,47.8527],[3.5365,47.853],[3.5335,47.8515],[3.5293,47.8501],[3.5295,47.8498],[3.5292,47.8496],[3.5277,47.8486],[3.5266,47.8476],[3.5244,47.8462],[3.5244,47.8451],[3.5241,47.8433],[3.5241,47.8395],[3.5239,47.8388],[3.5241,47.8384],[3.5247,47.8382],[3.5315,47.8365],[3.5339,47.836],[3.5346,47.8359],[3.5352,47.8357],[3.541,47.8357],[3.5429,47.8372],[3.5448,47.8386],[3.5455,47.8381],[3.5467,47.8388],[3.5461,47.8393],[3.5483,47.8407],[3.5493,47.841],[3.5508,47.8416],[3.5501,47.8447],[3.5486,47.8476],[3.5466,47.8511]]]},"properties":{"id_ffco":"7156","nom":"Bois de Chaumoi","_dept":"89","numero":"2006-D89-039","commune":"Appoigny ; Perrigny","echelle":"1/10000","surface":"2.94 km²","format":"A4","annee":"2006","cartographes":"Gisèle JOUBERT","proprietaire":"8903 - YONNE COURSE ORIENTATION NATURE ET EVASION","niveau":"Départemental","specialite":"CO à pied","latitude":"47.8442316514","longitude":"3.53719475585","date_saisie":"25/12/2013","valide":"Non","ppo":"Non","type_carte":"Extrait","base":"1999-D89-022 Appoigny","fond":"IGN","ref_ign":"2620 Est","obsolete":true}},{"type":"Feature","geometry":{"type":"Polygon","coordinates":[[[3.3358,48.2796],[3.3446,48.2809],[3.3484,48.282],[3.3541,48.2819],[3.3567,48.2766],[3.3555,48.2686],[3.3511,48.2651],[3.3469,48.2636],[3.3413,48.263],[3.3376,48.26],[3.3335,48.2568],[3.3322,48.258],[3.3265,48.2598],[3.3183,48.2614],[3.3122,48.2626],[3.3114,48.2642],[3.3121,48.2715],[3.3083,48.2721],[3.3117,48.2767],[3.316,48.2774],[3.3174,48.276],[3.3202,48.2764],[3.3198,48.278],[3.3245,48.2786],[3.3248,48.2765],[3.3261,48.2734],[3.328,48.2738],[3.3271,48.2762],[3.329,48.2766],[3.3313,48.2772],[3.3313,48.279],[3.3358,48.2796]]]},"properties":{"id_ffco":"3888","nom":"Forêt de SOUCY","_dept":"89","numero":"2005-D89-036","commune":"Soucy","echelle":"1/15000","surface":"6.35 km²","format":"A4","annee":"2005","cartographes":"Fabrice THOMASSIN","proprietaire":"8903","niveau":"Régional","specialite":"CO à pied","latitude":"48.270320881","longitude":"3.33384419687","date_saisie":"18/03/2005","date_depot":"25/03/2005","valide":"Oui","ppo":"Non","type_carte":"Reprise","base":"2001-D89-031 Soucy-Launay","fond":"IGN","ref_ign":"2617 Ouest","obsolete":true}},{"type":"Feature","geometry":{"type":"Polygon","coordinates":[[[3.9529,47.6243],[3.9561,47.6194],[3.9561,47.6131],[3.954,47.6018],[3.9457,47.5906],[3.9388,47.5841],[3.9313,47.5801],[3.921,47.5871],[3.9137,47.593],[3.9098,47.6012],[3.9099,47.61],[3.9086,47.6192],[3.9065,47.6289],[3.9529,47.6243]]]},"properties":{"id_ffco":"3887","nom":"Forêt d'Hervaux","_dept":"89","numero":"2005-D89-035","commune":"Joux la Ville","echelle":"1/15000","surface":"14.42 km²","format":"A3","annee":"2005","cartographes":"Fabrice THOMASSIN,Gisèle JOUBERT","proprietaire":"8903 - YONNE COURSE ORIENTATION NATURE ET EVASION","niveau":"Interrégional","specialite":"CO à pied","latitude":"47.6073700455","longitude":"3.93128667971","date_saisie":"18/03/2005","date_depot":"25/03/2005","valide":"Oui","ppo":"Non","type_carte":"Nouvelle carte","fond":"IGN","ref_ign":"2721Est","obsolete":true}},{"type":"Feature","geometry":{"type":"Polygon","coordinates":[[[3.9323,47.4877],[3.9311,47.4879],[3.93,47.4879],[3.9289,47.4881],[3.9275,47.4871],[3.9272,47.4863],[3.9235,47.4798],[3.9232,47.4792],[3.9233,47.4787],[3.9231,47.4786],[3.924,47.4772],[3.9256,47.4774],[3.9274,47.4769],[3.9283,47.4767],[3.9292,47.4765],[3.9305,47.4765],[3.9314,47.4765],[3.932,47.4763],[3.9326,47.4763],[3.9332,47.4761],[3.9342,47.4761],[3.9341,47.4765],[3.9354,47.4772],[3.9354,47.4774],[3.9352,47.4778],[3.935,47.4781],[3.935,47.4786],[3.9359,47.4795],[3.9367,47.4801],[3.9371,47.4807],[3.9376,47.4808],[3.9385,47.4809],[3.9395,47.4809],[3.9396,47.4817],[3.9392,47.482],[3.9387,47.4823],[3.9386,47.483],[3.9386,47.4838],[3.9384,47.4842],[3.9377,47.4843],[3.937,47.4845],[3.9365,47.4851],[3.9365,47.4859],[3.9359,47.4863],[3.935,47.4868],[3.9323,47.4877]]]},"properties":{"id_ffco":"3885","nom":"Le Bois Dieu","_dept":"89","numero":"2004-D89-033","commune":"Avallon","echelle":"1/7500","surface":"1.07 km²","format":"A4","annee":"2004","cartographes":"Gisèle JOUBERT,Fabrice THOMASSIN","proprietaire":"8903 - YONNE COURSE ORIENTATION NATURE ET EVASION","niveau":"Régional","specialite":"CO à pied","latitude":"47.4818466827","longitude":"3.93101889289","date_saisie":"18/03/2005","date_depot":"21/03/2005","valide":"Oui","ppo":"Non","type_carte":"Reprise","base":"1997-D89-010 Bois-Dieu - Avallon","fond":"IGN","ref_ign":"2722 ET","obsolete":true}},{"type":"Feature","geometry":{"type":"Polygon","coordinates":[[[3.9097,47.6087],[3.9099,47.6115],[3.9098,47.6136],[3.9131,47.6129],[3.9153,47.6121],[3.9208,47.6119],[3.9272,47.6118],[3.931,47.6121],[3.9337,47.6127],[3.9374,47.6129],[3.9399,47.6152],[3.9443,47.6196],[3.9574,47.6197],[3.9575,47.614],[3.9556,47.6117],[3.9541,47.6104],[3.9531,47.6098],[3.9528,47.6091],[3.9528,47.6076],[3.9533,47.6065],[3.9551,47.6044],[3.9553,47.6015],[3.955,47.601],[3.9503,47.6013],[3.9453,47.6005],[3.9431,47.5968],[3.9439,47.5948],[3.9425,47.5942],[3.9135,47.5937],[3.912,47.5959],[3.9108,47.5987],[3.9099,47.6022],[3.9096,47.6049],[3.9097,47.6087]]]},"properties":{"id_ffco":"3843","nom":"Forêt d'Hervaux","_dept":"89","numero":"2004-D89-032","commune":"Joux la Ville","echelle":"1/10000","surface":"7.13 km²","format":"A3","annee":"2004","cartographes":"Fabrice THOMASSIN","proprietaire":"8903 - YONNE COURSE ORIENTATION NATURE ET EVASION","niveau":"Interrégional","specialite":"CO à pied","latitude":"47.6055004876","longitude":"3.93319749184","date_saisie":"21/10/2004","date_depot":"15/11/2004","valide":"Non","ppo":"Non","type_carte":"Extrait","base":"2005-D89-035 Forêt d'Hervaux","fond":"IGN","ref_ign":"2721 Est","obsolete":true}},{"type":"Feature","geometry":{"type":"Polygon","coordinates":[[[3.3363,48.2584],[3.3334,48.2562],[3.3317,48.2571],[3.3301,48.2579],[3.3291,48.2582],[3.3288,48.258],[3.3257,48.2583],[3.326,48.2592],[3.3233,48.2598],[3.3194,48.2604],[3.3151,48.2612],[3.3155,48.2625],[3.3116,48.2626],[3.309,48.2635],[3.309,48.2656],[3.3149,48.2658],[3.315,48.2661],[3.3147,48.2664],[3.3143,48.2667],[3.3131,48.2675],[3.3123,48.2682],[3.3116,48.2688],[3.3113,48.2694],[3.3112,48.27],[3.3112,48.2706],[3.3112,48.2711],[3.311,48.2714],[3.3108,48.2716],[3.3101,48.2716],[3.3094,48.2716],[3.3089,48.2717],[3.3085,48.2719],[3.3084,48.2723],[3.3087,48.2728],[3.3092,48.2734],[3.3094,48.2737],[3.3094,48.2746],[3.3096,48.2754],[3.3097,48.2761],[3.3094,48.2762],[3.3081,48.2763],[3.3079,48.2764],[3.3082,48.2771],[3.3124,48.2773],[3.3156,48.2779],[3.3231,48.279],[3.3253,48.2791],[3.3258,48.2788],[3.3256,48.2767],[3.3267,48.2767],[3.3294,48.2771],[3.3309,48.2794],[3.3338,48.2791],[3.3345,48.2798],[3.3381,48.2803],[3.3384,48.2806],[3.3402,48.2803],[3.3407,48.281],[3.3429,48.281],[3.3436,48.2816],[3.3465,48.2807],[3.3467,48.2815],[3.3473,48.2816],[3.3472,48.2822],[3.3481,48.2821],[3.3484,48.2806],[3.3482,48.2789],[3.3483,48.2779],[3.3521,48.2777],[3.3528,48.2802],[3.3595,48.2802],[3.3583,48.2778],[3.3572,48.2758],[3.3567,48.2727],[3.3557,48.2679],[3.3539,48.2667],[3.3517,48.2653],[3.3499,48.2645],[3.3482,48.2638],[3.3468,48.2634],[3.3454,48.2632],[3.3421,48.263],[3.3414,48.2629],[3.3406,48.2625],[3.3363,48.2584]]]},"properties":{"id_ffco":"7155","nom":"Soucy-Launay","_dept":"89","numero":"2001-D89-031","commune":"Soucy","echelle":"1/15000","surface":"6.8 km²","format":"A4","annee":"2001","cartographes":"Fabrice THOMASSIN","proprietaire":"8903 - YONNE COURSE ORIENTATION NATURE ET EVASION","niveau":"Régional","specialite":"CO à pied","latitude":"48.2702150237","longitude":"3.33313829156","date_saisie":"25/12/2013","valide":"Non","ppo":"Non","type_carte":"Nouvelle carte","fond":"IGN","ref_ign":"2617 Ouest","obsolete":true}},{"type":"Feature","geometry":{"type":"Polygon","coordinates":[[[3.9827,47.6859],[3.9831,47.6859],[3.9834,47.686],[3.9841,47.687],[3.9848,47.6881],[3.9837,47.6886],[3.9849,47.6895],[3.9861,47.6902],[3.9863,47.6901],[3.9867,47.6904],[3.987,47.6905],[3.9878,47.6906],[3.9883,47.6903],[3.9891,47.69],[3.9896,47.6892],[3.9893,47.6885],[3.9894,47.6876],[3.989,47.687],[3.9898,47.6865],[3.9903,47.6866],[3.9904,47.6864],[3.9899,47.6861],[3.9886,47.6855],[3.9879,47.685],[3.9872,47.6847],[3.9865,47.6844],[3.9843,47.6844],[3.9842,47.6845],[3.9829,47.6848],[3.9827,47.6848],[3.9824,47.6852],[3.9821,47.6851],[3.982,47.6855],[3.9828,47.6855],[3.9826,47.6857],[3.9827,47.6859]]]},"properties":{"id_ffco":"7154","nom":"Les Survignes","_dept":"89","numero":"2001-D89-030","commune":"Noyers sur Serein","echelle":"1/3500","surface":"0.25 km²","format":"A4","annee":"2001","cartographes":"Bruno HABERKORN","proprietaire":"Collège de Noyers","niveau":"Départemental","specialite":"CO à pied","latitude":"47.687230262","longitude":"3.98652200423","date_saisie":"25/12/2013","valide":"Oui","ppo":"Non","type_carte":"Nouvelle carte","fond":"IGN","ref_ign":"2821 Ouest","obsolete":true}},{"type":"Feature","geometry":{"type":"Polygon","coordinates":[[[3.5449,47.8013],[3.5413,47.8023],[3.5378,47.804],[3.5366,47.8046],[3.5352,47.8056],[3.5336,47.8062],[3.5347,47.8088],[3.5362,47.8109],[3.539,47.8165],[3.5393,47.8185],[3.5434,47.8178],[3.5484,47.818],[3.5533,47.8168],[3.5569,47.8151],[3.5533,47.8099],[3.5501,47.8051],[3.5499,47.8037],[3.5479,47.8009],[3.5449,47.8013]]]},"properties":{"id_ffco":"3301","nom":"Le Cormier","_dept":"89","numero":"2000-D89-029","commune":"Auxerre","echelle":"1/10000","surface":"2.14 km²","format":"A4","annee":"2000","cartographes":"Jean Luc DERIAZ (relevés).,Fabrice THOMASSIN (dessin).","proprietaire":"89 - Yonne","niveau":"Initiation, Scolaire","specialite":"CO à pied","latitude":"47.8102488408","longitude":"3.54489515245","valide":"Oui","ppo":"Non","type_carte":"Nouvelle carte","fond":"IGN","ref_ign":"2620 Est","obsolete":true}},{"type":"Feature","geometry":{"type":"Polygon","coordinates":[[[3.3121,47.8794],[3.316,47.8794],[3.3182,47.8785],[3.3151,47.874],[3.3131,47.8738],[3.3105,47.8661],[3.3063,47.8653],[3.2956,47.8642],[3.291,47.8647],[3.2855,47.8643],[3.2782,47.863],[3.2761,47.864],[3.2739,47.8693],[3.2743,47.8749],[3.2758,47.8781],[3.2857,47.8779],[3.2932,47.8807],[3.3,47.8815],[3.3121,47.8794]]]},"properties":{"id_ffco":"3300","nom":"Les Ferriers","_dept":"89","numero":"2000-D89-028","commune":"Aillant sur Tholon","echelle":"1/15000","surface":"4.89 km²","format":"A4","annee":"2000","cartographes":"Fabrice THOMASSIN","proprietaire":"89 - Yonne","niveau":"Régional","specialite":"CO à pied","latitude":"47.8723436037","longitude":"3.29437735458","valide":"Oui","ppo":"Non","type_carte":"Nouvelle carte","fond":"IGN","ref_ign":"2620 Ouest","obsolete":true}},{"type":"Feature","geometry":{"type":"Polygon","coordinates":[[[3.6091,47.8556],[3.5995,47.857],[3.5959,47.8575],[3.5962,47.8589],[3.5949,47.859],[3.5944,47.8585],[3.5902,47.8589],[3.5903,47.8547],[3.5896,47.853],[3.5862,47.8519],[3.5862,47.8489],[3.5831,47.8478],[3.5832,47.8451],[3.587,47.8439],[3.5872,47.8424],[3.589,47.8407],[3.59,47.8356],[3.5917,47.8342],[3.5926,47.8341],[3.5928,47.8336],[3.5938,47.8353],[3.5944,47.8358],[3.5953,47.8361],[3.5963,47.8363],[3.5971,47.8366],[3.5977,47.8374],[3.5979,47.8383],[3.6008,47.84],[3.6022,47.8404],[3.6038,47.8406],[3.6087,47.8413],[3.6165,47.8423],[3.6185,47.8429],[3.6199,47.844],[3.621,47.8462],[3.6224,47.8481],[3.6207,47.8503],[3.6185,47.8525],[3.6166,47.8531],[3.6161,47.8539],[3.6116,47.8536],[3.6091,47.8556]]]},"properties":{"id_ffco":"7153","nom":"Le Thureau III","_dept":"89","numero":"2001-D89-027","commune":"Auxerre","echelle":"1/15000","surface":"4.54 km²","format":"A4","annee":"2001","cartographes":"Fabrice THOMASSIN","proprietaire":"89 - Yonne","niveau":"Régional","specialite":"CO à pied","latitude":"47.8475837073","longitude":"3.60130587808","date_saisie":"25/12/2013","valide":"Non","ppo":"Non","type_carte":"Reprise","base":"1979-D89-001 AUXERRE-TUREAU DU BAR","fond":"IGN","ref_ign":"2720 Ouest","obsolete":true}},{"type":"Feature","geometry":{"type":"Polygon","coordinates":[[[3.295,47.7373],[3.2953,47.7375],[3.2956,47.738],[3.2958,47.7383],[3.2959,47.7382],[3.2964,47.7385],[3.2966,47.7384],[3.2971,47.7387],[3.2991,47.7377],[3.2983,47.7368],[3.2968,47.7372],[3.2958,47.7369],[3.295,47.7373]]]},"properties":{"id_ffco":"3394","nom":"TOUCY Lycée Collège Pierre Larousse","_dept":"89","numero":"1999-D89-026","commune":"TOUCY","echelle":"1/2000","surface":"0.04 km²","format":"A4","annee":"1999","cartographes":"Fabrice THOMASSIN","proprietaire":"89 - Yonne","niveau":"Initiation, Scolaire","specialite":"CO à pied","contacts":"CDCO 89, 03 86 44 27 22, cdco89@free.fr","latitude":"47.7376857955","longitude":"3.29705213158","date_saisie":"23/11/2001","date_depot":"06/12/2001","valide":"Oui","ppo":"Non","type_carte":"Nouvelle carte","fond":"Cadastre","obsolete":true}},{"type":"Feature","geometry":{"type":"Polygon","coordinates":[[[3.2997,47.7404],[3.3004,47.7405],[3.3014,47.7409],[3.3019,47.7411],[3.3024,47.7412],[3.3038,47.7411],[3.3037,47.7409],[3.3051,47.7407],[3.3065,47.7407],[3.3085,47.7406],[3.3104,47.7401],[3.3108,47.7395],[3.3115,47.7385],[3.3126,47.737],[3.313,47.7367],[3.3142,47.7364],[3.3146,47.7362],[3.315,47.7362],[3.3177,47.7363],[3.3177,47.7356],[3.3174,47.7348],[3.317,47.7342],[3.3168,47.7341],[3.3165,47.734],[3.316,47.7338],[3.3154,47.7339],[3.3147,47.7339],[3.3139,47.7339],[3.3122,47.7336],[3.3118,47.7335],[3.3115,47.7333],[3.3107,47.7324],[3.3103,47.7322],[3.3093,47.7319],[3.3082,47.7317],[3.3074,47.7316],[3.306,47.7316],[3.3046,47.7317],[3.3019,47.7323],[3.3006,47.7325],[3.2969,47.7346],[3.2949,47.7355],[3.2942,47.7357],[3.2946,47.7362],[3.2944,47.7365],[3.2944,47.7368],[3.2946,47.737],[3.2952,47.7375],[3.2955,47.7379],[3.2958,47.7383],[3.296,47.7387],[3.2968,47.7393],[3.2974,47.74],[3.2976,47.7402],[3.2983,47.7401],[3.2997,47.7404]]]},"properties":{"id_ffco":"3393","nom":"TOUCY Les Montagnes","_dept":"89","numero":"1999-D89-025","commune":"Toucy","echelle":"1/7500","surface":"1.19 km²","format":"A4","annee":"1999","cartographes":"Fabrice THOMASSIN","proprietaire":"89 - Yonne","niveau":"Initiation, Scolaire","specialite":"CO à pied","latitude":"47.7362999776","longitude":"3.30514298272","date_saisie":"23/11/2001","date_depot":"06/12/2001","valide":"Oui","ppo":"Non","type_carte":"Nouvelle carte","fond":"Cadastre","obsolete":true}},{"type":"Feature","geometry":{"type":"Polygon","coordinates":[[[3.4183,48.0167],[3.4189,48.0175],[3.4193,48.0183],[3.4198,48.0186],[3.421,48.0192],[3.422,48.0198],[3.4228,48.0204],[3.4235,48.0214],[3.424,48.0217],[3.4243,48.0221],[3.4252,48.0255],[3.4252,48.0263],[3.4255,48.0283],[3.4266,48.0302],[3.4276,48.0314],[3.428,48.0318],[3.4285,48.033],[3.4357,48.0296],[3.4445,48.0254],[3.4461,48.0246],[3.4461,48.0226],[3.4454,48.0223],[3.4446,48.0219],[3.4437,48.0212],[3.4414,48.0196],[3.4397,48.0184],[3.4388,48.0176],[3.439,48.017],[3.4387,48.0163],[3.4375,48.0145],[3.4346,48.0125],[3.4344,48.0121],[3.4249,48.0144],[3.4174,48.0162],[3.4183,48.0167]]]},"properties":{"id_ffco":"3407","nom":"JOIGNY \"Réserve forestière\"","_dept":"89","numero":"1999-D89-024","commune":"Joigny","echelle":"1/10000","surface":"2.57 km²","format":"A4","annee":"1999","cartographes":"Bousser  Etienne","proprietaire":"89 - Yonne","niveau":"Régional","specialite":"CO à pied","latitude":"48.021758851","longitude":"3.43220819061","date_saisie":"23/11/2001","date_depot":"06/12/2001","valide":"Oui","ppo":"Non","type_carte":"Extrait","base":"1999-D89-023 Joigny III","fond":"IGN","ref_ign":"2619 Est","obsolete":true}},{"type":"Feature","geometry":{"type":"Polygon","coordinates":[[[3.4009,47.9942],[3.4026,47.9956],[3.4026,47.9962],[3.4028,47.9971],[3.403,47.9987],[3.404,48.0007],[3.4043,48.0019],[3.4051,48.0031],[3.406,48.0042],[3.4064,48.0048],[3.407,48.0062],[3.4081,48.0081],[3.4088,48.009],[3.41,48.0101],[3.4115,48.0117],[3.4163,48.0154],[3.4182,48.0167],[3.4194,48.0184],[3.4204,48.0189],[3.4219,48.0197],[3.4228,48.0205],[3.4236,48.0215],[3.4244,48.0221],[3.4248,48.0236],[3.4252,48.0256],[3.4255,48.0282],[3.4267,48.0304],[3.428,48.0318],[3.4286,48.033],[3.4392,48.028],[3.4442,48.0255],[3.4488,48.0234],[3.4466,48.0227],[3.4451,48.0221],[3.4421,48.02],[3.4397,48.0182],[3.4381,48.016],[3.4376,48.0161],[3.4352,48.0142],[3.4345,48.0132],[3.4345,48.0119],[3.435,48.0107],[3.435,48.0078],[3.4346,48.007],[3.4346,48.0059],[3.4351,48.0042],[3.4358,48.0028],[3.4361,48.0013],[3.4369,48.0001],[3.4375,47.9986],[3.4386,47.9971],[3.4394,47.9948],[3.4393,47.9944],[3.4399,47.9936],[3.4409,47.9924],[3.4418,47.9917],[3.4421,47.9904],[3.4414,47.9885],[3.441,47.987],[3.4404,47.9864],[3.4381,47.985],[3.4324,47.9846],[3.4294,47.9854],[3.4275,47.9854],[3.4247,47.986],[3.4213,47.9861],[3.4207,47.985],[3.4199,47.9846],[3.4186,47.9843],[3.4131,47.9844],[3.413,47.9837],[3.4095,47.9839],[3.4039,47.9844],[3.4028,47.9844],[3.4036,47.9863],[3.4043,47.988],[3.4049,47.9891],[3.4027,47.9886],[3.3998,47.9885],[3.399,47.9887],[3.3995,47.9899],[3.3988,47.9901],[3.3994,47.9914],[3.3991,47.9916],[3.3997,47.993],[3.3988,47.9938],[3.4009,47.9942]]]},"properties":{"id_ffco":"3406","nom":"Joigny III","_dept":"89","numero":"1999-D89-023","commune":"Joigny","echelle":"1/15000","surface":"10.59 km²","format":"A3","annee":"1999","cartographes":"Bousser  Etienne;Didier HASSMANN,Patrick GRANGE;Claude PERROT,Philippe NOUAILE;Alain Godet,Fabrice THOMASSIN","proprietaire":"89 - Yonne","niveau":"Interrégional","specialite":"CO à pied","latitude":"48.0037817726","longitude":"3.4235745638","date_saisie":"23/11/2001","date_depot":"06/12/2001","valide":"Oui","ppo":"Non","type_carte":"Reprise","base":"1998-D89-015 Joigny 2","fond":"IGN","ref_ign":"2619 Est","obsolete":true}},{"type":"Feature","geometry":{"type":"Polygon","coordinates":[[[3.5241,47.8606],[3.5195,47.8612],[3.5192,47.8613],[3.5188,47.8616],[3.5152,47.8627],[3.5145,47.863],[3.5115,47.8609],[3.5107,47.8601],[3.5083,47.8565],[3.5055,47.8531],[3.5031,47.8497],[3.5026,47.8477],[3.5002,47.8478],[3.4997,47.8449],[3.4993,47.8418],[3.5013,47.8416],[3.5005,47.8379],[3.5074,47.8348],[3.5129,47.8322],[3.5185,47.8298],[3.5196,47.829],[3.5218,47.8272],[3.5233,47.8264],[3.5253,47.8256],[3.5261,47.8252],[3.528,47.8233],[3.5289,47.8234],[3.5294,47.8237],[3.5305,47.8247],[3.5312,47.8259],[3.5314,47.827],[3.5327,47.8291],[3.5387,47.8347],[3.5447,47.8386],[3.5454,47.838],[3.5468,47.8389],[3.5462,47.8394],[3.5483,47.8407],[3.5493,47.8409],[3.5509,47.8417],[3.5502,47.8446],[3.5487,47.8477],[3.5471,47.85],[3.5449,47.8538],[3.5426,47.8533],[3.54,47.8533],[3.5389,47.8533],[3.537,47.8528],[3.5366,47.8529],[3.536,47.8536],[3.5351,47.8542],[3.5334,47.8549],[3.5324,47.8556],[3.532,47.8556],[3.5316,47.8552],[3.5306,47.8547],[3.5294,47.8545],[3.528,47.8538],[3.5277,47.8539],[3.5274,47.8547],[3.5279,47.8564],[3.528,47.8576],[3.5277,47.8594],[3.5277,47.861],[3.527,47.8611],[3.5262,47.861],[3.5241,47.8606]]]},"properties":{"id_ffco":"3405","nom":"Appoigny","_dept":"89","numero":"1999-D89-022","commune":"Appoigny","echelle":"1/15000","surface":"9.73 km²","format":"A3","annee":"1999","cartographes":"Bousser  Etienne;Alain Godet,Patrick GRANGE;Philippe NOUAILLE,Didier HASSMANN;Claude PERROT,Fabrice THOMASSIN","proprietaire":"89 - Yonne","niveau":"Interrégional","specialite":"CO à pied","latitude":"47.8440966835","longitude":"3.52380307133","date_saisie":"23/11/2001","date_depot":"06/12/2001","valide":"Oui","ppo":"Non","type_carte":"Nouvelle carte","fond":"IGN","ref_ign":"2620 Est","obsolete":true}},{"type":"Feature","geometry":{"type":"Polygon","coordinates":[[[3.7639,47.805],[3.7638,47.8044],[3.7624,47.8026],[3.7618,47.8019],[3.761,47.8012],[3.7575,47.7986],[3.7595,47.7975],[3.7591,47.7971],[3.7598,47.7964],[3.7616,47.797],[3.7644,47.7983],[3.7671,47.7998],[3.7675,47.8005],[3.7687,47.801],[3.7702,47.8018],[3.7693,47.8027],[3.7705,47.8035],[3.7715,47.8041],[3.7739,47.8056],[3.7744,47.8059],[3.7747,47.8066],[3.772,47.808],[3.7681,47.8072],[3.7639,47.805]]]},"properties":{"id_ffco":"3359","nom":"CHABLIS \"Bois des Lys\"","_dept":"89","numero":"1999-D89-021","commune":"Chablis","echelle":"1/7500","surface":"0.65 km²","format":"A4","annee":"1999","cartographes":"Didier HASSMANN,Jean-Luc BARATANGE,Fabrice THOMASSIN","proprietaire":"89 - Yonne","niveau":"Initiation, Scolaire","specialite":"CO à pied","latitude":"47.8025283831","longitude":"3.76604006473","date_saisie":"18/10/2001","date_depot":"06/12/2001","valide":"Oui","ppo":"Non","type_carte":"Nouvelle carte","fond":"IGN","ref_ign":"2720 Est","obsolete":true}},{"type":"Feature","geometry":{"type":"Polygon","coordinates":[[[3.5592,47.814],[3.5586,47.8133],[3.5582,47.8134],[3.5577,47.8131],[3.5579,47.8129],[3.5577,47.8127],[3.5574,47.8127],[3.5568,47.8115],[3.5571,47.8113],[3.5582,47.811],[3.5588,47.8108],[3.5592,47.8106],[3.5607,47.81],[3.561,47.8105],[3.5611,47.8112],[3.5612,47.8119],[3.5612,47.812],[3.5612,47.812],[3.5599,47.8125],[3.5603,47.813],[3.5598,47.8133],[3.5601,47.8137],[3.5592,47.814]]]},"properties":{"id_ffco":"3360","nom":"AUXERRE Saint-Joseph","_dept":"89","numero":"1998-D89-020","commune":"Auxerre","echelle":"1/2000","surface":"0.08 km²","format":"A4","annee":"1998","cartographes":"Didier HASSMANN,Fabrice THOMASSIN,Jean-Luc BARATANGE","proprietaire":"8902 puis CDCO 89","niveau":"Initiation, Scolaire","specialite":"CO à pied","latitude":"47.8119185155","longitude":"3.55921615175","date_saisie":"20/11/2001","date_depot":"06/12/2001","valide":"Oui","ppo":"Non","type_carte":"Nouvelle carte","fond":"Cadastre","obsolete":true}},{"type":"Feature","geometry":{"type":"Polygon","coordinates":[[[3.5195,47.9684],[3.5203,47.9695],[3.5221,47.9699],[3.5232,47.9687],[3.5245,47.9691],[3.5255,47.9679],[3.5226,47.9669],[3.5229,47.9665],[3.5211,47.9658],[3.5204,47.9656],[3.5193,47.9655],[3.519,47.9673],[3.5195,47.9684]]]},"properties":{"id_ffco":"3361","nom":"MIGENNES Le Pot Levé","_dept":"89","numero":"1998-D89-019","commune":"Migennes","echelle":"1/3000","surface":"0.13 km²","format":"A4","annee":"1998","cartographes":"Eric SOEUVRE,Fabrice THOMASSIN","proprietaire":"8902 puis CDCO 89","niveau":"Initiation, Scolaire","specialite":"CO à pied","latitude":"47.9677375455","longitude":"3.52166921756","date_saisie":"20/11/2001","date_depot":"06/12/2001","valide":"Oui","ppo":"Non","type_carte":"Nouvelle carte","fond":"IGN","ref_ign":"2619 Est","obsolete":true}},{"type":"Feature","geometry":{"type":"Polygon","coordinates":[[[3.5851,47.7856],[3.5861,47.7847],[3.5881,47.7844],[3.5886,47.7848],[3.5881,47.7851],[3.5886,47.7857],[3.587,47.7864],[3.5862,47.7868],[3.5853,47.7862],[3.5851,47.7856]]]},"properties":{"id_ffco":"3079","nom":"Camping municipal d'Auxerre","_dept":"89","numero":"1998-D89-018","commune":"Auxerre","echelle":"1/1300","surface":"0.04 km²","format":"A4","annee":"1998","cartographes":"Fabrice THOMASSIN","proprietaire":"89 - Yonne","niveau":"Initiation, Scolaire","specialite":"CO à pied","latitude":"47.7855274661","longitude":"3.58683056227","valide":"Oui","ppo":"Non","type_carte":"Nouvelle carte","fond":"Cadastre","obsolete":true}},{"type":"Feature","geometry":{"type":"Polygon","coordinates":[[[3.5832,47.7855],[3.584,47.7848],[3.5844,47.7847],[3.5845,47.7848],[3.585,47.786],[3.5839,47.7868],[3.5827,47.7863],[3.5832,47.7855]]]},"properties":{"id_ffco":"3137","nom":"Collège Paul Bert","_dept":"89","numero":"1998-D89-017","commune":"Auxerre","echelle":"1/1000","surface":"0.02 km²","format":"A4","annee":"1998","cartographes":"Fabrice THOMASSIN","proprietaire":"89 - Yonne","niveau":"Initiation, Scolaire","specialite":"CO à pied","latitude":"47.7858290203","longitude":"3.58393346818","valide":"Oui","ppo":"Non","type_carte":"Nouvelle carte","fond":"Cadastre","obsolete":true}},{"type":"Feature","geometry":{"type":"Polygon","coordinates":[[[3.5244,47.8463],[3.5254,47.8469],[3.5236,47.8465],[3.5195,47.8462],[3.518,47.8461],[3.5162,47.8466],[3.5146,47.8475],[3.5108,47.8486],[3.5029,47.8491],[3.5022,47.8457],[3.5008,47.839],[3.5005,47.8379],[3.5046,47.836],[3.5164,47.8307],[3.5189,47.8296],[3.5197,47.829],[3.5204,47.8296],[3.5194,47.8301],[3.5206,47.8325],[3.5205,47.834],[3.5208,47.8353],[3.5215,47.8359],[3.5223,47.8373],[3.5238,47.8386],[3.5241,47.8396],[3.5242,47.8436],[3.5244,47.8457],[3.5244,47.8463]]]},"properties":{"id_ffco":"3080","nom":"Branches","_dept":"89","numero":"1998-D89-016","commune":"Appoigny","echelle":"1/10000","surface":"2.61 km²","format":"A4","annee":"1998","cartographes":"Didier HASSMANN,Fabrice THOMASSIN","proprietaire":"89 - Yonne","niveau":"Régional","specialite":"CO à pied","latitude":"47.840484556","longitude":"3.51275745452","valide":"Oui","ppo":"Non","type_carte":"Nouvelle carte","fond":"IGN","ref_ign":"2620 Est","obsolete":true}},{"type":"Feature","geometry":{"type":"Polygon","coordinates":[[[3.4194,48.0184],[3.4217,48.0195],[3.4228,48.0204],[3.4234,48.0214],[3.4243,48.022],[3.4247,48.0233],[3.4252,48.0259],[3.4254,48.0282],[3.4272,48.0309],[3.428,48.0318],[3.4285,48.0329],[3.4391,48.028],[3.4488,48.0233],[3.4456,48.0224],[3.4438,48.0214],[3.4413,48.0196],[3.4382,48.0172],[3.4373,48.0153],[3.4355,48.0134],[3.4346,48.0132],[3.4344,48.0119],[3.435,48.0108],[3.4349,48.0095],[3.435,48.0079],[3.4345,48.0069],[3.4347,48.0054],[3.4353,48.0037],[3.4358,48.0028],[3.4362,48.0012],[3.4368,48.0002],[3.4376,47.9986],[3.4385,47.9972],[3.4394,47.9948],[3.4395,47.9943],[3.44,47.9935],[3.4393,47.9935],[3.4383,47.9939],[3.4377,47.9939],[3.4349,47.9938],[3.4332,47.9945],[3.4325,47.9945],[3.4317,47.9945],[3.43,47.9945],[3.4289,47.994],[3.4284,47.9939],[3.4276,47.9942],[3.4273,47.9941],[3.4271,47.9942],[3.4224,47.9947],[3.4154,47.9955],[3.414,47.995],[3.4117,47.9944],[3.4119,47.9938],[3.4117,47.9931],[3.4087,47.9936],[3.4054,47.9936],[3.4026,47.9959],[3.4029,47.9984],[3.4036,47.9997],[3.4041,48.0009],[3.4044,48.002],[3.4057,48.0039],[3.4063,48.0048],[3.4085,48.0088],[3.4114,48.0115],[3.4153,48.0146],[3.4163,48.0156],[3.4176,48.0162],[3.4183,48.0168],[3.4189,48.0175],[3.4194,48.0184]]]},"properties":{"id_ffco":"3081","nom":"Joigny 2","_dept":"89","numero":"1998-D89-015","commune":"Joigny","echelle":"1/15000","surface":"7.42 km²","format":"A4","annee":"1998","cartographes":"Bousser  Etienne;Christian ESCUDE,Patrick GRANGE,Philippe NOUAILLE;Alain Godet","proprietaire":"89 - Yonne","niveau":"Régional","specialite":"CO à pied","latitude":"48.0097367001","longitude":"3.42489797774","valide":"Oui","ppo":"Non","type_carte":"Reprise","base":"1982-D89-002 JOIGNY","fond":"IGN","ref_ign":"2619 Ouest","obsolete":true}},{"type":"Feature","geometry":{"type":"Polygon","coordinates":[[[3.6707,47.9268],[3.663,47.9254],[3.6612,47.9299],[3.6858,47.9483],[3.7033,47.9652],[3.7089,47.9671],[3.7265,47.9585],[3.7267,47.9541],[3.732,47.9448],[3.7318,47.9399],[3.7236,47.9355],[3.7165,47.9257],[3.709,47.9285],[3.7069,47.926],[3.7,47.9282],[3.6965,47.9267],[3.685,47.9286],[3.6783,47.9272],[3.6707,47.9268]]]},"properties":{"id_ffco":"2919","nom":"Forêt domaniale de Pontigny","_dept":"89","numero":"1997-D89-014","commune":"Pontigny","echelle":"1/15000","surface":"13.83 km²","format":"+","annee":"1997","cartographes":"Didier HASSMANN;Philippe NOUAILLE,Alain Godet;Patrick GRANGE,Bousser  Etienne;Christian ESCUDE,Fabrice THOMASSIN","proprietaire":"89 - Yonne","niveau":"Interrégional","specialite":"CO à pied","contacts":"CDCO 89, 06 45 11 08 27, cdco89@free.fr, http://cdco89.free.fr/index.php?option=com_content&view=section&id=8&Itemid=56","latitude":"47.9429604849","longitude":"3.70206945884","valide":"Oui","ppo":"Non","type_carte":"Nouvelle carte","fond":"IGN","ref_ign":"2719 Ouest","obsolete":true}},{"type":"Feature","geometry":{"type":"Polygon","coordinates":[[[3.5786,47.8503],[3.5809,47.8503],[3.5818,47.8503],[3.5845,47.8511],[3.5877,47.8515],[3.5886,47.8515],[3.5909,47.8515],[3.5919,47.8516],[3.5941,47.8518],[3.5959,47.8519],[3.597,47.8519],[3.5979,47.8517],[3.6015,47.85],[3.6025,47.8493],[3.6043,47.8472],[3.5994,47.8402],[3.599,47.8396],[3.5993,47.8391],[3.5982,47.8385],[3.5979,47.8381],[3.5978,47.8374],[3.5974,47.8369],[3.5966,47.8364],[3.595,47.8361],[3.594,47.8355],[3.5928,47.8336],[3.5926,47.8341],[3.5904,47.8342],[3.5877,47.8343],[3.5855,47.8342],[3.5846,47.8341],[3.5819,47.8338],[3.5813,47.8367],[3.5805,47.8411],[3.5797,47.8451],[3.5793,47.8475],[3.5789,47.8485],[3.5786,47.8495],[3.5786,47.8503]]]},"properties":{"id_ffco":"3082","nom":"MONETEAU - Thureau du Bard","_dept":"89","numero":"1997-D89-013","commune":"Monéteau","echelle":"1/10000","surface":"2.84 km²","format":"A4","annee":"1997","cartographes":"Didier HASSMANN,Fabrice THOMASSIN","proprietaire":"8902","niveau":"Régional","specialite":"CO à pied","latitude":"47.8435759466","longitude":"3.59049685319","valide":"Oui","ppo":"Non","type_carte":"Reprise","base":"1979-D89-001 AUXERRE-TUREAU DU BAR","fond":"IGN","ref_ign":"2720 Ouest","obsolete":true}},{"type":"Feature","geometry":{"type":"Polygon","coordinates":[[[3.5832,47.7939],[3.5844,47.793],[3.5841,47.7926],[3.5854,47.7921],[3.5865,47.7915],[3.5875,47.7907],[3.5884,47.7896],[3.5895,47.7887],[3.5903,47.7878],[3.5893,47.7875],[3.5883,47.7885],[3.5879,47.7888],[3.587,47.7885],[3.5868,47.7887],[3.5858,47.7883],[3.5857,47.7885],[3.5847,47.7881],[3.584,47.7887],[3.5826,47.7898],[3.5821,47.7901],[3.5822,47.7914],[3.5824,47.7925],[3.582,47.7929],[3.5829,47.7935],[3.5832,47.7939]]]},"properties":{"id_ffco":"3083","nom":"AUXERRE - Parc de l'Arbre Sec","_dept":"89","numero":"1997-D89-012","commune":"Auxerre","echelle":"1/3000","surface":"0.19 km²","format":"A4","annee":"1997","cartographes":"Didier HASSMANN,Jean-Luc BARATANGE,Christophe BRUNEAU,Fabrice THOMASSIN","proprietaire":"8902 puis CDCO 89","niveau":"Initiation, Scolaire","specialite":"CO à pied","latitude":"47.7903961712","longitude":"3.58518760882","valide":"Oui","ppo":"Non","type_carte":"Nouvelle carte","fond":"IGN","ref_ign":"2620 Est","obsolete":true}},{"type":"Feature","geometry":{"type":"Polygon","coordinates":[[[3.5732,47.835],[3.5764,47.8349],[3.5766,47.8365],[3.5772,47.8365],[3.5776,47.8396],[3.5749,47.8396],[3.5745,47.8392],[3.5741,47.8382],[3.5737,47.8368],[3.5732,47.835]]]},"properties":{"id_ffco":"2918","nom":"C.I.G.A. Nord","_dept":"89","numero":"1997-D89-011","commune":"Monéteau","echelle":"1/3000","surface":"0.13 km²","format":"A4","annee":"1997","proprietaire":"8902","niveau":"Initiation, Scolaire","specialite":"CO à pied","latitude":"47.8372384666","longitude":"3.57549377943","valide":"Oui","ppo":"Non","type_carte":"Nouvelle carte","fond":"IGN","ref_ign":"2620 Est","obsolete":true}},{"type":"Feature","geometry":{"type":"Polygon","coordinates":[[[3.924,47.4808],[3.9233,47.4793],[3.9233,47.4785],[3.9241,47.4772],[3.9255,47.4774],[3.9286,47.4766],[3.9301,47.4764],[3.9316,47.4765],[3.9326,47.4764],[3.9336,47.4764],[3.9348,47.4768],[3.9353,47.477],[3.9355,47.4773],[3.9351,47.4779],[3.9348,47.4783],[3.9351,47.4788],[3.9358,47.4795],[3.9367,47.4801],[3.9373,47.4807],[3.9379,47.4808],[3.9386,47.4809],[3.9394,47.4809],[3.9395,47.4816],[3.9392,47.4819],[3.9387,47.4823],[3.9386,47.483],[3.9386,47.4837],[3.9384,47.4842],[3.9377,47.4843],[3.9369,47.4846],[3.9366,47.4849],[3.9365,47.4854],[3.9364,47.486],[3.9357,47.4864],[3.9348,47.4868],[3.9335,47.4873],[3.932,47.4877],[3.9309,47.4879],[3.9295,47.488],[3.929,47.4881],[3.9277,47.4873],[3.9257,47.4835],[3.924,47.4808]]]},"properties":{"id_ffco":"3018","nom":"Bois-Dieu - Avallon","_dept":"89","numero":"1997-D89-010","commune":"Avallon","echelle":"1/7500","surface":"1.06 km²","format":"A4","annee":"1997","cartographes":"Gérard VENON","proprietaire":"Collège des Chaumes","niveau":"Initiation, Scolaire","specialite":"CO à pied","latitude":"47.4818640736","longitude":"3.9310211551","valide":"Oui","ppo":"Non","type_carte":"Nouvelle carte","fond":"IGN","ref_ign":"2722 E","obsolete":true}},{"type":"Feature","geometry":{"type":"Polygon","coordinates":[[[3.3011,48.1137],[3.3039,48.1127],[3.3055,48.1121],[3.3061,48.1124],[3.3073,48.1119],[3.3091,48.1137],[3.3087,48.1144],[3.3084,48.1143],[3.3079,48.1153],[3.3041,48.1177],[3.3037,48.1179],[3.3035,48.1171],[3.3011,48.1137]]]},"properties":{"id_ffco":"3017","nom":"Château de Passy","_dept":"89","numero":"1997-D89-008","commune":"PASSY","echelle":"1/3000","surface":"0.21 km²","format":"A4","annee":"1997","cartographes":"TOUSSAINT Jean Luc,Michel HABERKORN","proprietaire":"FFCO","niveau":"Initiation, Scolaire","specialite":"CO à pied","latitude":"48.1145126241","longitude":"3.30512990786","valide":"Oui","ppo":"Non","type_carte":"Nouvelle carte","fond":"Cadastre","obsolete":true}},{"type":"Feature","geometry":{"type":"Polygon","coordinates":[[[3.2059,47.8055],[3.2133,47.8054],[3.2198,47.8016],[3.2215,47.8016],[3.2281,47.8024],[3.2324,47.7983],[3.242,47.8025],[3.2446,47.7979],[3.2326,47.7923],[3.2282,47.7932],[3.2202,47.7945],[3.2183,47.7918],[3.2094,47.7929],[3.2093,47.7936],[3.2088,47.7942],[3.2083,47.7946],[3.2066,47.7954],[3.206,47.7975],[3.2066,47.7988],[3.2063,47.8009],[3.2069,47.8018],[3.2059,47.8055]]]},"properties":{"id_ffco":"1886","nom":"Villiers St Benoît","_dept":"89","numero":"1995-D89-007","commune":"Villiers Saint Benoît","echelle":"1/10000","surface":"2.66 km²","format":"A4","annee":"1995","cartographes":"Valentin PALCAU","proprietaire":"UNSS District Puisaye","niveau":"Départemental","specialite":"CO à pied","latitude":"47.7981169724","longitude":"3.22206644973","valide":"Oui","ppo":"Non","type_carte":"Nouvelle carte","fond":"IGN","ref_ign":"2520 Est","obsolete":true}},{"type":"Feature","geometry":{"type":"Polygon","coordinates":[[[4.0019,47.8328],[4.0216,47.82],[4.042,47.8336],[4.0315,47.8408],[4.0147,47.8462],[4.0077,47.849],[4.0071,47.8483],[4.0035,47.8465],[4.0,47.8438],[3.9967,47.8397],[4.0033,47.8352],[4.0006,47.8336],[4.0019,47.8328]]]},"properties":{"id_ffco":"1076","nom":"TONNERRE - Forêt communale","_dept":"89","numero":"1993-D89-006","commune":"Tonnerre","echelle":"1/15000","surface":"5.72 km²","format":"+","annee":"1993","cartographes":"Gérard VENON","proprietaire":"BO - Bourgogne","niveau":"Interrégional","specialite":"CO à pied","latitude":"47.8351580684","longitude":"4.01826267455","valide":"Oui","ppo":"Non","type_carte":"Nouvelle carte","fond":"IGN","ref_ign":"2820 Ouest","obsolete":true}},{"type":"Feature","geometry":{"type":"Polygon","coordinates":[[[3.9954,47.8682],[3.9965,47.8687],[3.9983,47.8694],[3.9995,47.8698],[4.0033,47.8708],[4.0052,47.8717],[4.0067,47.8725],[4.008,47.8734],[4.0096,47.8743],[4.0106,47.8748],[4.0118,47.8751],[4.0142,47.8753],[4.0158,47.8756],[4.0166,47.8751],[4.0185,47.8746],[4.0202,47.8744],[4.0213,47.8744],[4.022,47.8742],[4.022,47.8737],[4.0232,47.8717],[4.0227,47.8712],[4.0236,47.87],[4.0247,47.8688],[4.0257,47.8682],[4.0249,47.8661],[4.0249,47.863],[4.0195,47.8638],[4.0156,47.8643],[4.0125,47.8644],[4.0079,47.8638],[4.005,47.8636],[4.0023,47.8633],[3.999,47.8625],[3.9948,47.8612],[3.9897,47.8606],[3.9884,47.8616],[3.9883,47.863],[3.9881,47.8647],[3.9887,47.865],[3.989,47.8659],[3.9901,47.8665],[3.9908,47.8672],[3.9915,47.8675],[3.9924,47.8677],[3.9929,47.8679],[3.9943,47.868],[3.9954,47.8682]]]},"properties":{"id_ffco":"1885","nom":"Tonnerre-Maison Rouge","_dept":"89","numero":"1993-D89-005","commune":"Tonnerre","echelle":"1/10000","surface":"2.6 km²","format":"A4","annee":"1993","cartographes":"Gérard VENON","proprietaire":"Ligue de Bourgogne","niveau":"Départemental","specialite":"CO à pied","latitude":"47.8677233185","longitude":"4.00842758807","valide":"Oui","ppo":"Non","type_carte":"Nouvelle carte","fond":"IGN","ref_ign":"2820 Ouest","obsolete":true}},{"type":"Feature","geometry":{"type":"Polygon","coordinates":[[[3.9713,47.337],[3.9714,47.3375],[3.9713,47.3379],[3.9726,47.3377],[3.9727,47.3386],[3.9724,47.3391],[3.9723,47.3395],[3.9725,47.3403],[3.973,47.3408],[3.9734,47.3411],[3.9733,47.3414],[3.9728,47.342],[3.9727,47.3427],[3.9729,47.3434],[3.9727,47.3444],[3.9729,47.3449],[3.9727,47.3451],[3.9721,47.3453],[3.9716,47.346],[3.9716,47.3465],[3.9721,47.3476],[3.972,47.3483],[3.9714,47.3499],[3.9717,47.35],[3.9727,47.3489],[3.9734,47.3484],[3.9745,47.3483],[3.9755,47.3487],[3.9757,47.3492],[3.9758,47.3504],[3.9761,47.3515],[3.9765,47.352],[3.9781,47.3523],[3.9785,47.3522],[3.9787,47.3519],[3.9788,47.3511],[3.9793,47.3511],[3.9806,47.3514],[3.9821,47.3531],[3.9822,47.3536],[3.982,47.3542],[3.9812,47.3555],[3.982,47.3565],[3.9823,47.3571],[3.9831,47.3593],[3.9826,47.3607],[3.9829,47.361],[3.9832,47.3611],[3.9839,47.3614],[3.9847,47.3616],[3.9856,47.3613],[3.986,47.3613],[3.9864,47.3615],[3.9868,47.3617],[3.9872,47.3618],[3.9874,47.3618],[3.9876,47.362],[3.9877,47.3625],[3.9881,47.3632],[3.9879,47.3638],[3.9877,47.3642],[3.9878,47.3647],[3.9883,47.3652],[3.9888,47.3654],[3.9892,47.3653],[3.9898,47.3651],[3.9909,47.3651],[3.9915,47.3651],[3.9919,47.365],[3.9924,47.3649],[3.9927,47.3647],[3.9932,47.3644],[3.9946,47.3643],[3.9952,47.3644],[3.9954,47.3647],[3.9951,47.3656],[3.9957,47.3667],[3.9965,47.368],[3.9967,47.369],[3.9977,47.369],[3.9977,47.3685],[3.9996,47.3678],[4.0003,47.366],[4.0008,47.3643],[4.0015,47.3635],[4.0037,47.3626],[4.005,47.3619],[4.0055,47.3612],[4.0058,47.3587],[4.0052,47.3571],[4.0057,47.3556],[4.0107,47.3502],[4.0165,47.3439],[4.0167,47.3395],[4.0167,47.3389],[4.0178,47.3379],[4.0212,47.3357],[4.0225,47.3346],[4.0203,47.3328],[4.0195,47.3322],[4.0186,47.3318],[4.0173,47.3316],[4.0116,47.3292],[4.0107,47.3289],[4.0095,47.3288],[4.0088,47.3285],[4.0081,47.3285],[4.0073,47.3284],[4.007,47.3281],[4.0065,47.3281],[4.0049,47.3276],[4.0047,47.327],[4.0034,47.3263],[4.0019,47.326],[4.0003,47.3259],[3.9981,47.3262],[3.9973,47.3261],[3.9966,47.3259],[3.9943,47.3252],[3.9931,47.3244],[3.9923,47.3246],[3.9927,47.3246],[3.9926,47.3248],[3.9916,47.3251],[3.9897,47.3252],[3.9871,47.3253],[3.9858,47.3248],[3.985,47.3244],[3.9846,47.3238],[3.9839,47.3237],[3.9806,47.3256],[3.9807,47.3264],[3.9797,47.3273],[3.9793,47.3278],[3.9793,47.3285],[3.9783,47.3298],[3.9774,47.3302],[3.9763,47.3311],[3.9754,47.3311],[3.9746,47.3309],[3.9741,47.331],[3.9735,47.3313],[3.9734,47.3319],[3.9734,47.3324],[3.9726,47.3333],[3.9728,47.3345],[3.9728,47.335],[3.9727,47.3355],[3.9723,47.3359],[3.9716,47.3362],[3.9713,47.337]]]},"properties":{"id_ffco":"625","nom":"La Forêt au Duc","_dept":"89","numero":"1990-D89-004","commune":"Quarré les Tombes","echelle":"1/15000","surface":"11.49 km²","format":"A3","annee":"1990","cartographes":"Gérard VENON","proprietaire":"89 - Yonne","niveau":"National, International","specialite":"CO à pied","contacts":"CDCO 89, 03 86 44 27 22, cdco89@free.fr","latitude":"47.3431281289","longitude":"3.99462052843","valide":"Oui","ppo":"Non","type_carte":"Nouvelle carte","fond":"IGN","ref_ign":"2822 OT","obsolete":true}},{"type":"Feature","geometry":{"type":"Polygon","coordinates":[[[3.6933,47.9307],[3.6927,47.93],[3.6925,47.9292],[3.6929,47.9283],[3.6933,47.928],[3.6944,47.9279],[3.6957,47.9277],[3.698,47.9268],[3.6984,47.9264],[3.717,47.9264],[3.7177,47.9272],[3.7185,47.9281],[3.722,47.9329],[3.7232,47.9345],[3.7242,47.9354],[3.7232,47.9377],[3.7181,47.9364],[3.7172,47.9365],[3.7155,47.9364],[3.7128,47.9368],[3.712,47.9367],[3.7112,47.9367],[3.7054,47.9367],[3.7041,47.9369],[3.7028,47.9374],[3.7017,47.9374],[3.7003,47.9374],[3.6977,47.9369],[3.695,47.9364],[3.6943,47.9361],[3.6937,47.9361],[3.6932,47.9363],[3.6925,47.9363],[3.6901,47.937],[3.6893,47.9371],[3.6899,47.9359],[3.6899,47.9353],[3.6896,47.9347],[3.689,47.9335],[3.689,47.9332],[3.6895,47.9329],[3.6898,47.9329],[3.6908,47.9329],[3.6917,47.9328],[3.6922,47.9329],[3.6933,47.9334],[3.6938,47.9335],[3.6941,47.9335],[3.6944,47.9332],[3.6943,47.933],[3.6938,47.9323],[3.6938,47.9312],[3.6933,47.9307]]]},"properties":{"id_ffco":"1884","nom":"Le Mont César","_dept":"89","numero":"1983-D89-003","commune":"PONTIGNY","echelle":"1/10000","surface":"2.47 km²","format":"+","annee":"1983","cartographes":"Marcel SAUVAIN","proprietaire":"Ligue de Bourgogne","niveau":"Départemental","specialite":"CO à pied","latitude":"47.9320520563","longitude":"3.70676253393","valide":"Oui","ppo":"Non","type_carte":"Nouvelle carte","fond":"IGN","ref_ign":"2719 Ouest","obsolete":true}},{"type":"Feature","geometry":{"type":"Polygon","coordinates":[[[3.4027,47.9959],[3.403,47.9985],[3.404,48.0003],[3.4045,48.0021],[3.4062,48.0047],[3.4074,48.0071],[3.4086,48.0088],[3.4116,48.0117],[3.4145,48.014],[3.4162,48.0155],[3.4183,48.0167],[3.4195,48.0184],[3.421,48.0192],[3.4228,48.0204],[3.4234,48.0215],[3.4243,48.022],[3.4246,48.0231],[3.4256,48.0284],[3.4267,48.0306],[3.4281,48.0318],[3.4285,48.0329],[3.4363,48.0294],[3.4489,48.0232],[3.4454,48.0223],[3.4387,48.0174],[3.4379,48.0164],[3.4359,48.0145],[3.4349,48.0139],[3.4346,48.0133],[3.4344,48.0119],[3.4349,48.0107],[3.4349,48.0079],[3.4345,48.007],[3.4345,48.006],[3.4354,48.0038],[3.4354,47.9935],[3.4334,47.9944],[3.4315,47.9945],[3.4305,47.9945],[3.4298,47.9943],[3.4287,47.9939],[3.4276,47.9941],[3.4272,47.9941],[3.4191,47.9949],[3.4176,47.9951],[3.4173,47.9949],[3.4077,47.9935],[3.4054,47.9937],[3.4027,47.9959]]]},"properties":{"id_ffco":"1075","nom":"JOIGNY","_dept":"89","numero":"1982-D89-002","commune":"JOIGNY","echelle":"1/15000","surface":"7.27 km²","format":"+","annee":"1982","cartographes":"Silvestre;Belmas;Bousser,Rigal;Rougé,Mielle;Losiowski;Gauthier","proprietaire":"28° Groupe Géo Joigny","niveau":"Interrégional","specialite":"CO à pied","latitude":"48.0100413546","longitude":"3.42461810477","valide":"Oui","ppo":"Non","type_carte":"Nouvelle carte","fond":"IGN","ref_ign":"2619 Ouest","obsolete":true}},{"type":"Feature","geometry":{"type":"Polygon","coordinates":[[[3.5884,47.8262],[3.5885,47.8265],[3.5892,47.8265],[3.5893,47.8267],[3.5897,47.8267],[3.59,47.8269],[3.5904,47.8268],[3.5908,47.8272],[3.5935,47.8273],[3.5936,47.8277],[3.5942,47.8279],[3.5947,47.8279],[3.5951,47.828],[3.5969,47.8279],[3.598,47.8278],[3.5982,47.8279],[3.5985,47.828],[3.5999,47.8279],[3.601,47.8278],[3.6028,47.8276],[3.6041,47.8276],[3.6054,47.8277],[3.6061,47.8279],[3.6082,47.8285],[3.6097,47.8289],[3.6115,47.8285],[3.6123,47.8286],[3.6124,47.8289],[3.6128,47.8294],[3.6135,47.8298],[3.6155,47.8285],[3.6184,47.8275],[3.6198,47.8279],[3.6217,47.8286],[3.6244,47.8296],[3.6255,47.8303],[3.6265,47.8313],[3.6272,47.8323],[3.6286,47.8341],[3.6289,47.8347],[3.6291,47.8359],[3.6291,47.8372],[3.6288,47.8387],[3.6288,47.8393],[3.6292,47.8422],[3.6291,47.8426],[3.6278,47.8449],[3.6261,47.8479],[3.6252,47.8494],[3.6238,47.85],[3.6224,47.851],[3.6211,47.8521],[3.6199,47.8529],[3.6129,47.8528],[3.608,47.8518],[3.5994,47.852],[3.5966,47.8519],[3.5941,47.8518],[3.5909,47.8515],[3.5878,47.8515],[3.5851,47.8512],[3.584,47.851],[3.58,47.8503],[3.5805,47.8484],[3.5815,47.8464],[3.5823,47.8445],[3.5829,47.8418],[3.5845,47.8341],[3.5863,47.8262],[3.5884,47.8262]]]},"properties":{"id_ffco":"1074","nom":"AUXERRE-TUREAU DU BAR","_dept":"89","numero":"1979-D89-001","commune":"AUXERRE","echelle":"1/15000","surface":"8.78 km²","format":"+","annee":"1979","cartographes":"P-MIELLE,R-LOSIOWSKI,GORET Gilles","proprietaire":"Ligue de Bourgogne","niveau":"Interrégional","specialite":"CO à pied","latitude":"47.8401195144","longitude":"3.60513020804","valide":"Oui","ppo":"Non","type_carte":"Nouvelle carte","fond":"IGN","ref_ign":"2720 Ouest","obsolete":true}}]}