{"type":"FeatureCollection","features":[{"type":"Feature","geometry":{"type":"Polygon","coordinates":[[[6.7987,47.7],[6.7962,47.6995],[6.7886,47.6945],[6.7853,47.6937],[6.7813,47.6925],[6.7756,47.6916],[6.7728,47.6925],[6.7704,47.6928],[6.7672,47.6941],[6.7624,47.6929],[6.7549,47.6915],[6.7514,47.6925],[6.7507,47.6976],[6.7513,47.6991],[6.7497,47.7012],[6.7507,47.7034],[6.7562,47.7071],[6.7606,47.709],[6.7687,47.7082],[6.7726,47.7154],[6.7804,47.7172],[6.788,47.7179],[6.7927,47.7161],[6.7927,47.7126],[6.7985,47.7074],[6.7984,47.7039],[6.7986,47.7001],[6.7987,47.7]]]},"properties":{"id_ffco":"2024-D90-51","nom":"Le bois du fays","_dept":"90","numero":"2024-D90-51","commune":"La chapelle sous chaux","echelle":"1/10000","surface":"7.32 km²","format":"A3","annee":"2024","cartographes":"Michel Stribeau, Vincent Papon","proprietaire":"9006 - ROYAL AZIMUT MONTBELIARD BELFORT ORIENTATION","niveau":"Régional","specialite":"CO à pied","contacts":"Rambo, 0389270551","latitude":"47.7033535217","longitude":"6.77557308806","date_saisie":"22/08/2024","date_depot":"02/01/2025","valide":"Oui","ppo":"Non","type_carte":"Reprise","base":"2021-D90-47 Le Bois du Fays 3","fond":"Ortho","obsolete":false}},{"type":"Feature","geometry":{"type":"Polygon","coordinates":[[[6.8618,47.6346],[6.8615,47.6356],[6.8617,47.6371],[6.8623,47.6379],[6.8626,47.64],[6.8629,47.6407],[6.866,47.6409],[6.8677,47.64],[6.8697,47.6392],[6.8702,47.6386],[6.8702,47.6381],[6.8698,47.6372],[6.8696,47.636],[6.8693,47.6344],[6.8689,47.6333],[6.8685,47.6326],[6.8635,47.6326],[6.8628,47.6338],[6.8618,47.6346]]]},"properties":{"id_ffco":"2024-D90-50","nom":"Les remparts de Belfort","_dept":"90","numero":"2024-D90-50","commune":"Belfort","echelle":"1/4000","surface":"0.48 km²","format":"A4","annee":"2024","cartographes":"Michel Stribeau","proprietaire":"9006 - ROYAL AZIMUT MONTBELIARD BELFORT ORIENTATION","niveau":"Régional","specialite":"Sprint (ISSOM)","contacts":"Rambo, 0389270551","latitude":"47.6366195585","longitude":"6.86578320012","date_saisie":"22/08/2024","date_depot":"11/02/2025","valide":"Oui","ppo":"Non","type_carte":"Reprise","base":"2011-D90-35 La Citadelle","fond":"Cadastre","obsolete":false}},{"type":"Feature","geometry":null,"properties":{"id_ffco":"2022-D90-49","nom":"bois du fays","_dept":"90","numero":"2022-D90-49","surface":"None km²","annee":"2022","date_saisie":"27/04/2022","valide":"Non","ppo":"Non","obsolete":false}},{"type":"Feature","geometry":{"type":"Polygon","coordinates":[[[6.973,47.5068],[6.974,47.5072],[6.9749,47.5075],[6.9758,47.5076],[6.9767,47.5078],[6.9779,47.5078],[6.9787,47.5077],[6.9797,47.5077],[6.981,47.5077],[6.9829,47.5078],[6.9834,47.5074],[6.9844,47.5069],[6.9843,47.507],[6.985,47.5068],[6.9856,47.5065],[6.9861,47.506],[6.9868,47.5056],[6.9879,47.5051],[6.9883,47.5049],[6.9886,47.5045],[6.9882,47.5042],[6.9816,47.5031],[6.9808,47.5031],[6.9799,47.5033],[6.9787,47.5038],[6.9775,47.5044],[6.9766,47.5047],[6.9753,47.505],[6.9746,47.5053],[6.9739,47.5058],[6.973,47.5063],[6.973,47.5068]]]},"properties":{"id_ffco":"2020-D90-48","nom":"Le FAY","_dept":"90","numero":"2020-D90-48","commune":"Delle 90","echelle":"1/5000","surface":"0.39 km²","format":"A4","annee":"2020","cartographes":"STRIBEAU Michel","proprietaire":"9006 - ROYAL AZIMUT MONTBELIARD BELFORT ORIENTATION","niveau":"Initiation, Scolaire","specialite":"CO à pied","contacts":"LP Jules Ferry Delle 90100, RAMBO","latitude":"47.5056035045","longitude":"6.98070376491","date_saisie":"09/11/2020","valide":"Non","ppo":"Non","type_carte":"Extrait","base":"2021-D90-47 Le Bois du Fays 3","fond":"Cadastre","obsolete":false}},{"type":"Feature","geometry":{"type":"Polygon","coordinates":[[[6.7549,47.6911],[6.7535,47.6921],[6.7515,47.6925],[6.7514,47.6948],[6.7507,47.6966],[6.7508,47.6979],[6.752,47.6982],[6.7499,47.7013],[6.7507,47.7028],[6.7506,47.7035],[6.7542,47.7052],[6.7556,47.707],[6.7608,47.7096],[6.7626,47.7105],[6.765,47.7113],[6.7722,47.71],[6.7726,47.7131],[6.7723,47.715],[6.7743,47.7161],[6.778,47.7167],[6.7846,47.7176],[6.7868,47.7174],[6.7904,47.7163],[6.7938,47.7157],[6.7975,47.7151],[6.7995,47.7158],[6.8016,47.7171],[6.8038,47.717],[6.8053,47.7163],[6.8067,47.7154],[6.8086,47.7146],[6.8097,47.7135],[6.8108,47.7122],[6.8113,47.7115],[6.8083,47.7108],[6.8066,47.7104],[6.8047,47.709],[6.8046,47.7084],[6.8055,47.7074],[6.8071,47.7062],[6.8057,47.7036],[6.8058,47.7022],[6.8053,47.7013],[6.8048,47.7005],[6.8057,47.6986],[6.8058,47.6948],[6.8087,47.6906],[6.8096,47.6882],[6.8143,47.6839],[6.8133,47.683],[6.8113,47.6823],[6.8092,47.6819],[6.8074,47.6832],[6.8035,47.6857],[6.7992,47.6869],[6.7967,47.6899],[6.7935,47.6924],[6.7897,47.6939],[6.7885,47.6941],[6.7838,47.6932],[6.7819,47.6926],[6.7785,47.6923],[6.777,47.6916],[6.7747,47.6914],[6.7696,47.6928],[6.7657,47.6934],[6.7627,47.6927],[6.7589,47.6916],[6.7549,47.6911]]]},"properties":{"id_ffco":"2021-D90-47","nom":"Le Bois du Fays 3","_dept":"90","numero":"2021-D90-47","commune":"LA CHAPELLE SOUS CHAUX - 90","echelle":"1/15000","surface":"10.62 km²","format":"A3","annee":"2021","cartographes":"Michel STRIBEAU, Vincent PAPON, Michel DUBOC","proprietaire":"9006 - ROYAL AZIMUT MONTBELIARD BELFORT ORIENTATION","niveau":"National, International","specialite":"CO à pied","latitude":"47.7022283822","longitude":"6.78315022932","date_saisie":"22/04/2019","date_depot":"21/05/2019","valide":"Oui","ppo":"Non","type_carte":"Reprise","base":"2007-D90-26 Le Bois du Fays","fond":"IGN","ref_ign":"3520 ET","obsolete":false}},{"type":"Feature","geometry":{"type":"Polygon","coordinates":[[[6.8145,47.6477],[6.8185,47.6487],[6.8236,47.6505],[6.824,47.6512],[6.8247,47.6522],[6.826,47.6536],[6.8271,47.654],[6.8271,47.6549],[6.8276,47.6554],[6.8285,47.6559],[6.8324,47.6566],[6.8344,47.6551],[6.8381,47.6553],[6.8387,47.6593],[6.8361,47.6615],[6.8357,47.664],[6.8353,47.6645],[6.8358,47.6652],[6.83,47.6643],[6.8241,47.6648],[6.823,47.6635],[6.8189,47.6633],[6.815,47.662],[6.8123,47.6626],[6.8096,47.6613],[6.8079,47.6604],[6.8076,47.6588],[6.8068,47.6577],[6.8051,47.6572],[6.8033,47.6567],[6.7989,47.6556],[6.7989,47.6545],[6.7992,47.653],[6.799,47.6517],[6.8003,47.6502],[6.8009,47.6484],[6.8042,47.6482],[6.8071,47.648],[6.8105,47.6495],[6.8128,47.6492],[6.8145,47.6477]]]},"properties":{"id_ffco":"2019-D90-46","nom":"Le Salbert 2","_dept":"90","numero":"2019-D90-46","commune":"CRAVANCHE - 90","echelle":"1/10000","surface":"3.48 km²","format":"A4","annee":"2019","cartographes":"Vincent PAPON","proprietaire":"9006 - ROYAL AZIMUT MONTBELIARD BELFORT ORIENTATION","niveau":"National, International","specialite":"CO à pied","contacts":"LP Jules Ferry Delle 90100, RAMBO","latitude":"47.6564205399","longitude":"6.81834596275","date_saisie":"22/04/2019","date_depot":"21/05/2019","valide":"Oui","ppo":"Non","type_carte":"Reprise","base":"2009-D90-16 Le Salbert","fond":"IGN","ref_ign":"3621 OT","obsolete":false}},{"type":"Feature","geometry":{"type":"Polygon","coordinates":[[[6.8014,47.6922],[6.7995,47.6914],[6.8003,47.6895],[6.8052,47.6858],[6.8104,47.6824],[6.8119,47.6832],[6.8132,47.6851],[6.8092,47.6893],[6.808,47.6914],[6.8034,47.6922],[6.8014,47.6922]]]},"properties":{"id_ffco":"2018-D90-45","nom":"La Maison de l'Environnement","_dept":"90","numero":"2018-D90-45","commune":"SERMAMAGNY - 90","echelle":"1/5000","surface":"0.55 km²","format":"A4","annee":"2018","cartographes":"Michel STRIBEAU","proprietaire":"9006 - ROYAL AZIMUT MONTBELIARD BELFORT ORIENTATION","niveau":"Initiation, Scolaire","specialite":"CO à pied","contacts":"La Maison de l'Environnement, SERMAMAGNY - 90","latitude":"47.6878957497","longitude":"6.80659742364","date_saisie":"13/11/2018","date_depot":"28/11/2018","valide":"Oui","ppo":"Non","type_carte":"Nouvelle carte","fond":"IGN","ref_ign":"3621 OT","obsolete":false}},{"type":"Feature","geometry":{"type":"Polygon","coordinates":[[[6.8847,47.6644],[6.8822,47.6643],[6.8811,47.6649],[6.8811,47.6659],[6.8816,47.6672],[6.8823,47.6688],[6.8823,47.6698],[6.8821,47.6708],[6.8814,47.6713],[6.8798,47.6715],[6.8786,47.6703],[6.8797,47.6685],[6.8795,47.6673],[6.8779,47.6669],[6.8765,47.6664],[6.875,47.6658],[6.8731,47.6666],[6.8718,47.6687],[6.8712,47.6701],[6.8701,47.6712],[6.8693,47.6723],[6.8682,47.6732],[6.8648,47.6739],[6.8634,47.6756],[6.8631,47.6775],[6.8647,47.6788],[6.8658,47.6804],[6.8665,47.681],[6.8681,47.6819],[6.8699,47.6828],[6.8728,47.6836],[6.8763,47.6845],[6.8768,47.686],[6.8793,47.6857],[6.8822,47.6857],[6.885,47.6856],[6.8864,47.6869],[6.8856,47.6896],[6.8847,47.692],[6.8858,47.6938],[6.8871,47.6945],[6.8896,47.6945],[6.8944,47.6952],[6.8973,47.6951],[6.8993,47.6948],[6.9007,47.6947],[6.9022,47.6961],[6.9032,47.6969],[6.9043,47.6971],[6.9075,47.6979],[6.9098,47.6985],[6.9113,47.6988],[6.9144,47.6981],[6.9171,47.6989],[6.9185,47.6999],[6.9204,47.7002],[6.9226,47.7004],[6.9255,47.7007],[6.9266,47.7007],[6.9278,47.701],[6.9289,47.7015],[6.9306,47.7018],[6.9325,47.7009],[6.9332,47.7002],[6.9325,47.6993],[6.9328,47.6982],[6.9337,47.6974],[6.9395,47.6965],[6.9424,47.6931],[6.9449,47.6905],[6.9446,47.6873],[6.9444,47.6846],[6.9443,47.6828],[6.9423,47.6813],[6.9392,47.6802],[6.9351,47.6785],[6.9338,47.6778],[6.9292,47.6752],[6.9279,47.6742],[6.9266,47.6732],[6.9246,47.6726],[6.9239,47.6713],[6.9236,47.6706],[6.9207,47.6702],[6.9202,47.67],[6.9196,47.6699],[6.9151,47.6687],[6.8847,47.6644]]]},"properties":{"id_ffco":"2017-D90-44","nom":"Le Fort de Roppe","_dept":"90","numero":"2017-D90-44","commune":"Offemont - 90","echelle":"1/15000","surface":"15.68 km²","format":"A3","annee":"2017","cartographes":"Michel Stribeau","proprietaire":"9006 - ROYAL AZIMUT MONTBELIARD BELFORT ORIENTATION","niveau":"National, International","specialite":"CO à VTT","contacts":"LP Jules Ferry Delle 90100, RAMBO","latitude":"47.6824209889","longitude":"6.90618685184","date_saisie":"25/04/2017","date_depot":"31/07/2017","valide":"Oui","ppo":"Non","type_carte":"Nouvelle carte","fond":"IGN","ref_ign":"3621 OT","obsolete":false}},{"type":"Feature","geometry":{"type":"Polygon","coordinates":[[[6.8686,47.614],[6.866,47.6121],[6.8686,47.6055],[6.8701,47.6039],[6.8772,47.6058],[6.8822,47.6059],[6.8874,47.6042],[6.8908,47.6057],[6.8937,47.6077],[6.8928,47.6136],[6.8944,47.615],[6.8961,47.6173],[6.8961,47.6194],[6.8939,47.6206],[6.8822,47.6205],[6.8754,47.6178],[6.8686,47.614]]]},"properties":{"id_ffco":"2016-D90-43","nom":"Le Fort de Danjoutin","_dept":"90","numero":"2016-D90-43","commune":"DANJOUTIN","echelle":"1/10000","surface":"3.01 km²","format":"A4","annee":"2016","cartographes":"Michel Stribeau","proprietaire":"9006 - ROYAL AZIMUT MONTBELIARD BELFORT ORIENTATION","niveau":"Régional","specialite":"CO à VTT","latitude":"47.6123399023","longitude":"6.88176416271","date_saisie":"15/03/2016","date_depot":"02/06/2016","valide":"Oui","ppo":"Non","type_carte":"Nouvelle carte","fond":"IGN","ref_ign":"3621 OT","obsolete":false}},{"type":"Feature","geometry":{"type":"Polygon","coordinates":[[[6.8209,47.5726],[6.8056,47.5685],[6.8047,47.5696],[6.8033,47.57],[6.803,47.5708],[6.8043,47.575],[6.804,47.5759],[6.8041,47.5792],[6.8032,47.5798],[6.8016,47.5804],[6.8036,47.5825],[6.8071,47.5841],[6.808,47.5845],[6.8194,47.5843],[6.8216,47.5832],[6.8291,47.5816],[6.829,47.5784],[6.8323,47.5763],[6.8346,47.5763],[6.8378,47.5748],[6.841,47.575],[6.841,47.5735],[6.842,47.5723],[6.8397,47.5689],[6.8384,47.5675],[6.8329,47.5661],[6.8264,47.5665],[6.8239,47.5711],[6.8209,47.5726]]]},"properties":{"id_ffco":"2015-D90-42","nom":"Le Canton","_dept":"90","numero":"2015-D90-42","commune":"bermont - 90","echelle":"1/10000","surface":"3.81 km²","format":"A4","annee":"2015","cartographes":"Alexandre GANZITTI","proprietaire":"9006 - ROYAL AZIMUT MONTBELIARD BELFORT ORIENTATION","niveau":"Régional","specialite":"CO à pied","latitude":"47.5755048772","longitude":"6.82041008575","date_saisie":"26/05/2015","date_depot":"01/01/2015","valide":"Oui","ppo":"Non","type_carte":"Reprise","base":"2000-D90-09 LE BOIS D'OYE","fond":"IGN","ref_ign":"3621 OT","obsolete":false}},{"type":"Feature","geometry":{"type":"Polygon","coordinates":[[[6.8733,47.5669],[6.873,47.5671],[6.8727,47.5673],[6.8725,47.5676],[6.8721,47.568],[6.8707,47.5699],[6.872,47.5705],[6.8721,47.5706],[6.8726,47.5719],[6.8746,47.5732],[6.8756,47.5735],[6.8781,47.5743],[6.8797,47.5752],[6.8782,47.578],[6.8805,47.5785],[6.8815,47.5786],[6.8821,47.5798],[6.8822,47.581],[6.8828,47.5816],[6.8854,47.5824],[6.8869,47.5828],[6.8897,47.5829],[6.8907,47.5834],[6.8935,47.5832],[6.8945,47.583],[6.8953,47.5828],[6.8968,47.5815],[6.8998,47.5793],[6.8997,47.5743],[6.8995,47.5724],[6.897,47.5721],[6.8963,47.5726],[6.8955,47.572],[6.8969,47.5714],[6.8962,47.5704],[6.8972,47.5692],[6.8973,47.567],[6.8969,47.5663],[6.8941,47.5656],[6.8918,47.5656],[6.8827,47.5655],[6.8746,47.566],[6.8736,47.5667],[6.8735,47.5667],[6.8733,47.5669]]]},"properties":{"id_ffco":"2015-D90-41","nom":"Les Fougerais","_dept":"90","numero":"2015-D90-41","commune":"BOUROGNE - 90","echelle":"1/10000","surface":"3.05 km²","format":"A4","annee":"2015","cartographes":"Michel stribeau","proprietaire":"9006 - ROYAL AZIMUT MONTBELIARD BELFORT ORIENTATION","niveau":"Régional","specialite":"CO à pied","latitude":"47.5734636218","longitude":"6.88716708098","date_saisie":"26/05/2015","date_depot":"01/01/2015","valide":"Oui","ppo":"Non","type_carte":"Nouvelle carte","fond":"IGN","ref_ign":"3621 OT","obsolete":false}},{"type":"Feature","geometry":{"type":"Polygon","coordinates":[[[6.8641,47.6781],[6.8644,47.6786],[6.8709,47.6805],[6.8876,47.6808],[6.8873,47.6789],[6.893,47.6756],[6.8927,47.6745],[6.8937,47.6727],[6.8879,47.6671],[6.877,47.6695],[6.8771,47.6671],[6.8677,47.6667],[6.8672,47.6669],[6.8637,47.6678],[6.8642,47.6735],[6.8641,47.6781]]]},"properties":{"id_ffco":"2014-D90-40","nom":"Le Rudolphe","_dept":"90","numero":"2014-D90-40","commune":"OFFEMONT - 90","echelle":"1/10000","surface":"2.85 km²","format":"A4","annee":"2014","cartographes":"Michel STRIBEAU","proprietaire":"9006 - ROYAL AZIMUT MONTBELIARD BELFORT ORIENTATION","niveau":"Régional","specialite":"CO à pied","latitude":"47.6738130039","longitude":"6.87756013992","date_saisie":"27/03/2014","date_depot":"29/03/2014","valide":"Oui","ppo":"Non","type_carte":"Nouvelle carte","fond":"Cadastre","ref_ign":"3621 OT","obsolete":false}},{"type":"Feature","geometry":{"type":"Polygon","coordinates":[[[6.979,47.7471],[6.9843,47.7442],[6.986,47.744],[6.9854,47.7433],[6.984,47.7429],[6.9825,47.7413],[6.9799,47.7402],[6.9768,47.7386],[6.9736,47.7381],[6.9699,47.7378],[6.969,47.7396],[6.9671,47.7404],[6.9671,47.7386],[6.9663,47.7378],[6.9647,47.7379],[6.9619,47.737],[6.959,47.7369],[6.9582,47.7374],[6.957,47.7367],[6.9533,47.7381],[6.9523,47.739],[6.953,47.7402],[6.9508,47.744],[6.9515,47.7445],[6.9539,47.7449],[6.9573,47.745],[6.9592,47.745],[6.9617,47.7458],[6.9633,47.7463],[6.9688,47.746],[6.9715,47.746],[6.9726,47.7458],[6.974,47.7461],[6.9745,47.7467],[6.9767,47.7467],[6.9783,47.7465],[6.979,47.7471]]]},"properties":{"id_ffco":"2013-D90-39","nom":"Rougemont le Château","_dept":"90","numero":"2013-D90-39","commune":"Rougemont le Château","echelle":"1/10000","surface":"1.97 km²","format":"A4","annee":"2013","cartographes":"Michel STRIBEAU","proprietaire":"9006 - ROYAL AZIMUT MONTBELIARD BELFORT ORIENTATION","niveau":"Régional","specialite":"CO à pied","latitude":"47.7420639619","longitude":"6.96730435397","date_saisie":"13/10/2013","date_depot":"30/12/2014","valide":"Oui","ppo":"Non","type_carte":"Nouvelle carte","fond":"IGN","ref_ign":"3621 OT","obsolete":false}},{"type":"Feature","geometry":{"type":"Polygon","coordinates":[[[6.8106,47.569],[6.8099,47.5696],[6.8221,47.5733],[6.8309,47.569],[6.8305,47.558],[6.8111,47.5555],[6.8077,47.5621],[6.8086,47.5615],[6.8106,47.569]]]},"properties":{"id_ffco":"2013-D90-38","nom":"Bois de Châtenois","_dept":"90","numero":"2013-D90-38","commune":"CHÂTENOIS les FORGES","echelle":"1/10000","surface":"2.59 km²","format":"A4","annee":"2013","cartographes":"Alexandre GANZITTI - RAMBO","proprietaire":"9006 - ROYAL AZIMUT MONTBELIARD BELFORT ORIENTATION","niveau":"Régional","specialite":"CO à pied","latitude":"47.5640091457","longitude":"6.81984989096","date_saisie":"25/03/2013","date_depot":"25/09/2013","valide":"Oui","ppo":"Non","type_carte":"Nouvelle carte","fond":"Ortho","obsolete":false}},{"type":"Feature","geometry":{"type":"Polygon","coordinates":[[[6.8596,47.6367],[6.8608,47.636],[6.8614,47.6355],[6.8606,47.6349],[6.8592,47.6364],[6.8592,47.6364],[6.8596,47.6367]]]},"properties":{"id_ffco":"2012-D90-37","nom":"Square du Souvenir","_dept":"90","numero":"2012-D90-37","commune":"BELFORT","echelle":"1/1000","surface":"0.01 km²","format":"A4","annee":"2012","cartographes":"Michel STRIBEAU - RAMBO","proprietaire":"9006 - ROYAL AZIMUT MONTBELIARD BELFORT ORIENTATION","niveau":"Initiation, Scolaire","specialite":"CO à pied","latitude":"47.6358099388","longitude":"6.86033819124","date_saisie":"14/10/2012","date_depot":"15/11/2012","valide":"Oui","ppo":"Non","type_carte":"Nouvelle carte","fond":"Cadastre","obsolete":false}},{"type":"Feature","geometry":{"type":"Polygon","coordinates":[[[6.8569,47.6424],[6.8565,47.6422],[6.8557,47.6424],[6.8549,47.6437],[6.8549,47.6437],[6.8561,47.6439],[6.8562,47.6439],[6.8561,47.6438],[6.8562,47.6438],[6.8561,47.6439],[6.8569,47.6424]]]},"properties":{"id_ffco":"2012-D90-36","nom":"Square Emile LECHTEN","_dept":"90","numero":"2012-D90-36","commune":"BELFORT","echelle":"1/1000","surface":"0.02 km²","format":"A4","annee":"2012","cartographes":"Alexandre GANZITTI - RAMBO","proprietaire":"9006 - ROYAL AZIMUT MONTBELIARD BELFORT ORIENTATION","niveau":"Initiation, Scolaire","specialite":"CO à pied","latitude":"47.6430452826","longitude":"6.8559499217","date_saisie":"14/10/2012","date_depot":"15/11/2012","valide":"Oui","ppo":"Non","type_carte":"Nouvelle carte","fond":"Cadastre","obsolete":false}},{"type":"Feature","geometry":{"type":"Polygon","coordinates":[[[6.8627,47.6381],[6.8623,47.6426],[6.8656,47.6421],[6.8691,47.6397],[6.8718,47.639],[6.8693,47.6371],[6.8695,47.6341],[6.8673,47.6325],[6.8636,47.6321],[6.8627,47.6381]]]},"properties":{"id_ffco":"2011-D90-35","nom":"La Citadelle","_dept":"90","numero":"2011-D90-35","commune":"BELFORT","echelle":"1/4000","surface":"0.5 km²","format":"A4","annee":"2011","cartographes":"Michel STRIBEAU- RAMBO","proprietaire":"9006 - ROYAL AZIMUT MONTBELIARD BELFORT ORIENTATION","niveau":"Régional","specialite":"CO à pied","latitude":"47.6373334036","longitude":"6.86604439773","date_saisie":"15/02/2012","date_depot":"07/11/2012","valide":"Oui","ppo":"Non","type_carte":"Nouvelle carte","fond":"Cadastre","obsolete":false}},{"type":"Feature","geometry":{"type":"Polygon","coordinates":[[[6.8684,47.6359],[6.8681,47.6359],[6.8651,47.6449],[6.8746,47.6497],[6.8784,47.6383],[6.8684,47.6359]]]},"properties":{"id_ffco":"2011-D90-34","nom":"Les Remparts de Belfort","_dept":"90","numero":"2011-D90-34","commune":"BELFORT","echelle":"1/10000","surface":"0.95 km²","format":"A4","annee":"2011","cartographes":"Michel STRIBEAU- RAMBO, Alexandre GANZITTI - RAMBO","proprietaire":"9006 - ROYAL AZIMUT MONTBELIARD BELFORT ORIENTATION","niveau":"Régional","specialite":"CO à pied","latitude":"47.6422670606","longitude":"6.87174632257","date_saisie":"15/02/2012","date_depot":"07/11/2012","valide":"Oui","ppo":"Non","type_carte":"Nouvelle carte","fond":"Ortho","obsolete":false}},{"type":"Feature","geometry":{"type":"Polygon","coordinates":[[[6.8849,47.6353],[6.8847,47.6355],[6.9025,47.6296],[6.8946,47.6232],[6.8797,47.6311],[6.8849,47.6353]]]},"properties":{"id_ffco":"2009-D90-33","nom":"Les Perches","_dept":"90","numero":"2009-D90-33","commune":"BELFORT","echelle":"1/10000","surface":"1.1 km²","format":"A4","annee":"2009","cartographes":"Jean Michel LEDI - RAMBO","proprietaire":"9006 - ROYAL AZIMUT MONTBELIARD BELFORT ORIENTATION","niveau":"Régional","specialite":"CO à pied","latitude":"47.6295700695","longitude":"6.89098430054","date_saisie":"15/02/2012","date_depot":"07/11/2012","valide":"Oui","ppo":"Non","type_carte":"Nouvelle carte","fond":"Ortho","obsolete":false}},{"type":"Feature","geometry":{"type":"Polygon","coordinates":[[[6.8945,47.655],[6.8947,47.6524],[6.8906,47.6507],[6.8875,47.6487],[6.8797,47.646],[6.8775,47.6453],[6.8739,47.6437],[6.8711,47.6425],[6.868,47.6421],[6.867,47.6445],[6.8655,47.647],[6.866,47.6488],[6.8673,47.6496],[6.872,47.6511],[6.8744,47.6517],[6.8772,47.6509],[6.8805,47.6507],[6.882,47.6511],[6.8851,47.653],[6.8863,47.6534],[6.8905,47.6548],[6.892,47.6555],[6.8928,47.6556],[6.8945,47.655]]]},"properties":{"id_ffco":"2009-D90-31","nom":"La Colline de la Miotte","_dept":"90","numero":"2009-D90-31","commune":"BELFORT","echelle":"1/7500","surface":"1.34 km²","format":"A4","annee":"2009","cartographes":"Alexandre GANZITTI - RAMBO","proprietaire":"9006 - ROYAL AZIMUT MONTBELIARD BELFORT ORIENTATION","niveau":"Régional","specialite":"CO à pied","latitude":"47.6487920592","longitude":"6.87848632583","date_saisie":"15/02/2012","date_depot":"07/11/2012","valide":"Oui","ppo":"Non","type_carte":"Nouvelle carte","fond":"Ortho","obsolete":false}},{"type":"Feature","geometry":{"type":"Polygon","coordinates":[[[6.9183,47.4884],[6.9137,47.4882],[6.914,47.4866],[6.9159,47.4866],[6.9157,47.4846],[6.9177,47.4849],[6.9176,47.4864],[6.9197,47.4861],[6.9197,47.487],[6.9193,47.4874],[6.9184,47.4876],[6.9183,47.4884]]]},"properties":{"id_ffco":"2009-D90-30","nom":"parc municipal des Cèdres","_dept":"90","numero":"2009-D90-30","commune":"Beaucourt","echelle":"1/2500","surface":"0.11 km²","format":"A4","annee":"2009","cartographes":"A Ganzitti","proprietaire":"9006 - ROYAL AZIMUT MONTBELIARD BELFORT ORIENTATION","niveau":"Initiation, Scolaire","specialite":"CO à pied","latitude":"47.4868615191","longitude":"6.91668262284","date_saisie":"30/01/2010","date_depot":"17/02/2010","valide":"Oui","ppo":"Non","type_carte":"Nouvelle carte","fond":"IGN","ref_ign":"3622 OT","obsolete":false}},{"type":"Feature","geometry":{"type":"Polygon","coordinates":[[[6.9132,47.5573],[6.9051,47.5614],[6.889,47.5564],[6.89,47.5407],[6.9131,47.542],[6.9132,47.5573]]]},"properties":{"id_ffco":"2009-D90-29","nom":"Bourogne","_dept":"90","numero":"2009-D90-29","commune":"BOUROGNE","echelle":"1/15000","surface":"3.52 km²","format":"A4","annee":"2009","cartographes":"Thierry MAITRE, Michel STRIBEAU - RAMBO","proprietaire":"9006 - ROYAL AZIMUT MONTBELIARD BELFORT ORIENTATION","niveau":"Régional","specialite":"CO à pied","latitude":"47.5503381392","longitude":"6.90140563596","date_saisie":"15/02/2012","date_depot":"01/01/2007","valide":"Oui","ppo":"Non","type_carte":"Nouvelle carte","base":"2009-D90-29 Bourogne","fond":"IGN","ref_ign":"3621 OT","obsolete":false}},{"type":"Feature","geometry":{"type":"Polygon","coordinates":[[[6.8004,47.7014],[6.7899,47.7105],[6.7613,47.7008],[6.7709,47.6898],[6.8004,47.7014]]]},"properties":{"id_ffco":"2007-D90-26","nom":"Le Bois du Fays","_dept":"90","numero":"2007-D90-26","commune":"LA CHAPELLE SOUS CHAUX","echelle":"1/15000","surface":"3.34 km²","format":"A4","annee":"2007","cartographes":"Michel STRIBEAU - RAMBO","proprietaire":"9006 - ROYAL AZIMUT MONTBELIARD BELFORT ORIENTATION","niveau":"Régional","specialite":"CO à pied","latitude":"47.7004763539","longitude":"6.78039610001","date_saisie":"15/02/2012","date_depot":"07/11/2012","valide":"Oui","ppo":"Non","type_carte":"Nouvelle carte","fond":"Ortho","obsolete":false}},{"type":"Feature","geometry":{"type":"Polygon","coordinates":[[[6.8492,47.8121],[6.8665,47.811],[6.8642,47.7982],[6.8457,47.799],[6.8492,47.8121]]]},"properties":{"id_ffco":"2007-D90-25","nom":"La Gentiane","_dept":"90","numero":"2007-D90-25","commune":"GIROMAGNY","echelle":"1/10000","surface":"1.94 km²","format":"A4","annee":"2007","cartographes":"Michel STRIBEAU - RAMBO, Alexandre GANZITTI - RAMBO","proprietaire":"9006 - ROYAL AZIMUT MONTBELIARD BELFORT ORIENTATION","niveau":"Interrégional","specialite":"CO à pied","latitude":"47.8050365885","longitude":"6.856345399","date_saisie":"15/02/2012","date_depot":"01/01/2010","valide":"Oui","ppo":"Non","type_carte":"Nouvelle carte","fond":"IGN","ref_ign":"3620 ET","obsolete":false}},{"type":"Feature","geometry":{"type":"Polygon","coordinates":[[[6.8237,47.6507],[6.8263,47.6519],[6.8248,47.6539],[6.8266,47.6549],[6.8279,47.6557],[6.8309,47.6565],[6.8341,47.6569],[6.8304,47.6582],[6.8314,47.6592],[6.8299,47.6604],[6.8328,47.6617],[6.8336,47.6627],[6.8329,47.6633],[6.8298,47.6635],[6.8297,47.6639],[6.8221,47.6635],[6.8185,47.6631],[6.8146,47.6619],[6.8132,47.6619],[6.8119,47.6624],[6.8108,47.6623],[6.8097,47.6617],[6.8078,47.6604],[6.8077,47.6589],[6.8066,47.6576],[6.8061,47.6575],[6.8045,47.6571],[6.8029,47.6563],[6.8047,47.6545],[6.8009,47.6528],[6.8047,47.6466],[6.8064,47.6473],[6.8092,47.649],[6.8123,47.6501],[6.8161,47.6503],[6.8188,47.6507],[6.8223,47.6517],[6.8237,47.6507]]]},"properties":{"id_ffco":"2009-D90-16","nom":"Le Salbert","_dept":"90","numero":"2009-D90-16","commune":"CRAVANCHE","echelle":"1/15000","surface":"2.65 km²","format":"A4","annee":"2009","cartographes":"Michel STRIBEAU - RAMBO","proprietaire":"9006 - ROYAL AZIMUT MONTBELIARD BELFORT ORIENTATION","niveau":"Régional","specialite":"CO à pied","latitude":"47.656341046","longitude":"6.81675685507","date_saisie":"15/02/2012","date_depot":"01/01/2005","valide":"Oui","ppo":"Non","type_carte":"Reprise","base":"1990-D90-02 SALBERT LOISIRS","fond":"IGN","ref_ign":"3621 OT","obsolete":false}},{"type":"Feature","geometry":null,"properties":{"id_ffco":"2002-D90-13","nom":"L'ETANG DE L'AUTRUCHE","_dept":"90","numero":"2002-D90-13","commune":"Belfort","echelle":"1/15000","surface":"14.25 km²","annee":"2002","proprietaire":"2508 - BALISE 25 BESANCON","specialite":"CO à pied","latitude":"47.6388323","longitude":"6.8622207","date_saisie":"18/04/2002","date_depot":"12/02/2016","valide":"Non","ppo":"Non","obsolete":false}},{"type":"Feature","geometry":null,"properties":{"id_ffco":"2000-D90-12","nom":"LE BOIS DES PERCHES","_dept":"90","numero":"2000-D90-12","commune":"BELFORT","echelle":"1/15000","surface":"7.7 km²","format":"A4","annee":"2000","proprietaire":"CSA 35","niveau":"Interrégional","specialite":"CO à pied","latitude":"47.6388323","longitude":"6.8622207","valide":"Non","ppo":"Non","type_carte":"Nouvelle carte","fond":"IGN","obsolete":false}},{"type":"Feature","geometry":{"type":"Polygon","coordinates":[[[6.8705,47.6198],[6.8803,47.62],[6.8946,47.6198],[6.8946,47.6138],[6.8917,47.6066],[6.8882,47.6034],[6.8821,47.6041],[6.8721,47.6051],[6.8705,47.6198]]]},"properties":{"id_ffco":"2000-D90-11","nom":"DANJOUTIN","_dept":"90","numero":"2000-D90-11","commune":"BELFORT","echelle":"1/10000","surface":"2.87 km²","format":"A4","annee":"2000","proprietaire":"CSA 35","niveau":"Interrégional","specialite":"CO à pied","latitude":"47.6124722466","longitude":"6.88247022996","date_depot":"12/02/2016","valide":"Oui","ppo":"Non","type_carte":"Nouvelle carte","fond":"IGN","obsolete":false}},{"type":"Feature","geometry":{"type":"Polygon","coordinates":[[[6.893,47.6559],[6.89,47.6565],[6.8861,47.6574],[6.8815,47.658],[6.876,47.6574],[6.8728,47.6569],[6.8615,47.6544],[6.8614,47.652],[6.8613,47.6493],[6.8612,47.6469],[6.8612,47.6439],[6.8596,47.6409],[6.8593,47.6393],[6.893,47.6559]]]},"properties":{"id_ffco":"2000-D90-10","nom":"LES HAUTS DE BELFORT","_dept":"90","numero":"2000-D90-10","commune":"BELFORT","echelle":"1/10000","surface":"2.31 km²","format":"A4","annee":"2000","proprietaire":"CSA 35","niveau":"Interrégional","specialite":"CO à pied","latitude":"47.6510518022","longitude":"6.87280020733","valide":"Oui","ppo":"Non","type_carte":"Nouvelle carte","fond":"IGN","obsolete":false}},{"type":"Feature","geometry":null,"properties":{"id_ffco":"2000-D90-09","nom":"LE BOIS D'OYE","_dept":"90","numero":"2000-D90-09","commune":"BELFORT","echelle":"1/15000","surface":"6.4 km²","annee":"2000","proprietaire":"CSA 35","niveau":"Interrégional","specialite":"CO à pied","latitude":"47.6388323","longitude":"6.8622207","valide":"Non","ppo":"Non","obsolete":false}},{"type":"Feature","geometry":null,"properties":{"id_ffco":"1976-D90-06","nom":"AUTRUCHE (L')","_dept":"90","numero":"1976-D90-06","commune":"ROPPE","echelle":"1/15000","surface":"7.25 km²","annee":"1976","proprietaire":"2508 - BALISE 25 BESANCON","specialite":"CO à pied","latitude":"47.6700252","longitude":"6.9191179","valide":"Non","ppo":"Non","obsolete":false}},{"type":"Feature","geometry":null,"properties":{"id_ffco":"1990-D90-04","nom":"MIOTTE","_dept":"90","numero":"1990-D90-04","commune":"BELFORT","echelle":"1/10000","surface":"1.5 km²","annee":"1990","proprietaire":"9004","specialite":"CO à pied","latitude":"47.6388323","longitude":"6.8622207","valide":"Non","ppo":"Non","obsolete":false}},{"type":"Feature","geometry":null,"properties":{"id_ffco":"1990-D90-03","nom":"JUSTICE","_dept":"90","numero":"1990-D90-03","commune":"BELFORT","echelle":"1/10000","surface":"2.3 km²","annee":"1990","proprietaire":"9001","specialite":"CO à pied","latitude":"47.6388323","longitude":"6.8622207","valide":"Non","ppo":"Non","obsolete":false}},{"type":"Feature","geometry":null,"properties":{"id_ffco":"1990-D90-03","nom":"DANJOUTIN","_dept":"90","numero":"1990-D90-03","commune":"BELFORT","echelle":"1/10000","surface":"3.0 km²","annee":"1990","proprietaire":"9001","specialite":"CO à pied","latitude":"47.6388323","longitude":"6.8622207","valide":"Non","ppo":"Non","obsolete":false}},{"type":"Feature","geometry":null,"properties":{"id_ffco":"1990-D90-02","nom":"SALBERT LOISIRS","_dept":"90","numero":"1990-D90-02","commune":"BELFORT","echelle":"1/10000","surface":"1.7 km²","annee":"1990","proprietaire":"2508 - BALISE 25 BESANCON","specialite":"CO à pied","latitude":"47.6388323","longitude":"6.8622207","valide":"Non","ppo":"Non","obsolete":false}},{"type":"Feature","geometry":null,"properties":{"id_ffco":"1983-D90-01","nom":"DUCHESSE","_dept":"90","numero":"1983-D90-01","commune":"BOUROGNE","echelle":"1/15000","surface":"4.5 km²","annee":"1983","proprietaire":"9001","niveau":"Interrégional","specialite":"CO à pied","latitude":"47.562023","longitude":"6.9191334","valide":"Non","ppo":"Non","obsolete":false}}]}