{"type":"FeatureCollection","features":[{"type":"Feature","geometry":{"type":"Polygon","coordinates":[[[2.2749,48.7386],[2.2785,48.7486],[2.267,48.7588],[2.2494,48.7598],[2.2497,48.7371],[2.2749,48.7386]]]},"properties":{"id_ffco":"2013-D91-99","nom":"Verrières Ville","_dept":"91","numero":"2013-D91-99","commune":"Verrières le Buisson","echelle":"1/10000","surface":"4.39 km²","format":"A3","annee":"2013","cartographes":"Frédéric Fischer","proprietaire":"91 - Essonne","niveau":"Régional","specialite":"Raid'O","contacts":"CDCO 91, cd.essonne@ffcorientation.fr","latitude":"48.7480137737","longitude":"2.26206266854","date_saisie":"25/04/2015","date_depot":"11/03/2016","valide":"Oui","ppo":"Non","type_carte":"Nouvelle carte","fond":"Cadastre","obsolete":false}},{"type":"Feature","geometry":{"type":"Polygon","coordinates":[[[2.1723,48.7347],[2.1724,48.7327],[2.1724,48.7289],[2.1768,48.729],[2.1805,48.729],[2.2073,48.7206],[2.2249,48.7219],[2.2156,48.7422],[2.1876,48.742],[2.1787,48.7379],[2.1723,48.7347]]]},"properties":{"id_ffco":"2013-D91-98","nom":"Bois de Vauhallan","_dept":"91","numero":"2013-D91-98","commune":"Bièvre","echelle":"1/10000","surface":"6.43 km²","format":"A3","annee":"2013","cartographes":"Fredéric Fischer","proprietaire":"91 - Essonne","niveau":"Régional","specialite":"Raid'O","contacts":"CDCO 91, cd.essonne@ffcorientation.fr","latitude":"48.7321414706","longitude":"2.20034460255","date_saisie":"25/04/2015","date_depot":"11/03/2016","valide":"Oui","ppo":"Non","type_carte":"Extrait","base":"2014-D91-76 Val de Bièvre","fond":"Cadastre","obsolete":false}},{"type":"Feature","geometry":{"type":"Polygon","coordinates":[[[2.3669,48.666],[2.3684,48.665],[2.3697,48.6641],[2.3713,48.6651],[2.3702,48.666],[2.3707,48.6664],[2.3699,48.6678],[2.3669,48.666]]]},"properties":{"id_ffco":"2011-D91-97","nom":"Stade des Sablons","_dept":"91","numero":"2011-D91-97","commune":"Viry Chatillon","echelle":"1/1500","surface":"0.06 km²","format":"A4","annee":"2011","cartographes":"Alain Roulleaux","proprietaire":"91 - Essonne","niveau":"Initiation, Scolaire","specialite":"CO à pied","contacts":"CDCO 91, cd.essonne@ffcorientation.fr","latitude":"48.6658671482","longitude":"2.3692880146","date_saisie":"25/04/2015","date_depot":"11/03/2016","valide":"Oui","ppo":"Non","type_carte":"Nouvelle carte","fond":"Ortho","obsolete":false}},{"type":"Feature","geometry":{"type":"Polygon","coordinates":[[[2.3634,48.6685],[2.3649,48.6677],[2.3659,48.6684],[2.3644,48.6695],[2.3633,48.6686],[2.3634,48.6685]]]},"properties":{"id_ffco":"2011-D91-96","nom":"Collège des Sablons","_dept":"91","numero":"2011-D91-96","commune":"Viry Chatillon","echelle":"1/500","surface":"0.02 km²","format":"A4","annee":"2011","cartographes":"Alain Roulleaux","proprietaire":"91 - Essonne","niveau":"Initiation, Scolaire","specialite":"CO à pied","contacts":"CDCO 91, cd.essonne@ffcorientation.fr","latitude":"48.6685613361","longitude":"2.36460717225","date_saisie":"25/04/2015","date_depot":"11/03/2016","valide":"Oui","ppo":"Non","type_carte":"Nouvelle carte","fond":"Ortho","obsolete":false}},{"type":"Feature","geometry":{"type":"Polygon","coordinates":[[[2.4482,48.6388],[2.4475,48.6384],[2.4517,48.6347],[2.4545,48.6363],[2.4502,48.6375],[2.4482,48.6388]]]},"properties":{"id_ffco":"2012-D91-95","nom":"Evry stade","_dept":"91","numero":"2012-D91-95","commune":"Evry","echelle":"1/750","surface":"0.07 km²","format":"A4","annee":"2012","cartographes":"Bruno lejeune, Alain Roulleaux","proprietaire":"91 - Essonne","niveau":"Initiation, Scolaire","specialite":"CO à pied","contacts":"CDCO 91, cd.essonne@ffcorientation.fr","latitude":"48.6365582538","longitude":"2.45103892546","date_saisie":"25/04/2015","date_depot":"11/03/2016","valide":"Oui","ppo":"Non","type_carte":"Nouvelle carte","fond":"Ortho","obsolete":false}},{"type":"Feature","geometry":{"type":"Polygon","coordinates":[[[2.44,48.6302],[2.4413,48.6315],[2.4453,48.6288],[2.443,48.6275],[2.44,48.6302]]]},"properties":{"id_ffco":"2012-D91-94","nom":"Aguado Evry","_dept":"91","numero":"2012-D91-94","commune":"Evry","echelle":"1/2000","surface":"0.08 km²","format":"A4","annee":"2012","cartographes":"Alain Roulleaux","proprietaire":"91 - Essonne","niveau":"Initiation, Scolaire","specialite":"CO à pied","contacts":"CDCO 91, cd.essonne@ffcorientation.fr","latitude":"48.6294527689","longitude":"2.44247784087","date_saisie":"25/04/2015","date_depot":"11/03/2016","valide":"Oui","ppo":"Non","type_carte":"Nouvelle carte","fond":"Ortho","obsolete":false}},{"type":"Feature","geometry":{"type":"Polygon","coordinates":[[[2.1985,48.4847],[2.199,48.4854],[2.1994,48.4858],[2.1988,48.4861],[2.1989,48.4864],[2.1995,48.4868],[2.2001,48.4868],[2.2009,48.4866],[2.202,48.4864],[2.2018,48.4861],[2.2012,48.4855],[2.201,48.4851],[2.1985,48.4847]]]},"properties":{"id_ffco":"2022-D91-93","nom":"Parc de la Juine","_dept":"91","numero":"2022-D91-93","commune":"Etrechy","echelle":"1/1500","surface":"0.04 km²","format":"A4","annee":"2022","cartographes":"Alain Roulleaux","proprietaire":"91 - Essonne","niveau":"Initiation, Scolaire","specialite":"CO à pied","contacts":"CDCO 91, cd.essonne@ffcorientation.fr","latitude":"48.4858321661","longitude":"2.20017474174","date_saisie":"25/04/2015","date_depot":"11/03/2016","valide":"Oui","ppo":"Non","type_carte":"Reprise","base":"2022-D91-93 Parc de la Juine","fond":"Ortho","obsolete":false}},{"type":"Feature","geometry":{"type":"Polygon","coordinates":[[[2.1873,48.4787],[2.1892,48.479],[2.1892,48.4795],[2.1873,48.4806],[2.1847,48.4811],[2.1838,48.4808],[2.1832,48.4799],[2.1827,48.4797],[2.1873,48.4787]]]},"properties":{"id_ffco":"2013-D91-92","nom":"Le Calvaire O précision","_dept":"91","numero":"2013-D91-92","commune":"Etrechy","echelle":"1/2000","surface":"0.07 km²","format":"A5","annee":"2013","cartographes":"Alain Godet","proprietaire":"91 - Essonne","niveau":"Initiation, Scolaire","specialite":"CO à pied","contacts":"CDCO 91, cd.essonne@ffcorientation.fr","latitude":"48.4798386664","longitude":"2.18608993349","date_saisie":"25/04/2015","date_depot":"26/09/2017","valide":"Oui","ppo":"Non","type_carte":"Extrait","base":"2008-D91-060 LE BOIS DU ROUSSAY 2","fond":"Cadastre","obsolete":false}},{"type":"Feature","geometry":{"type":"Polygon","coordinates":[[[2.1884,48.4858],[2.1875,48.484],[2.1907,48.4823],[2.1909,48.4856],[2.1902,48.4862],[2.1887,48.4863],[2.1884,48.4858]]]},"properties":{"id_ffco":"2010-D91-91","nom":"Etrechy Stade","_dept":"91","numero":"2010-D91-91","commune":"Etrechy","echelle":"1/2500","surface":"0.07 km²","format":"A5","annee":"2010","niveau":"Initiation, Scolaire","specialite":"CO à pied","contacts":"CDCO 91, cd.essonne@ffcorientation.fr","latitude":"48.4845097828","longitude":"2.18947304853","date_saisie":"25/04/2015","date_depot":"11/03/2016","valide":"Oui","ppo":"Non","type_carte":"Nouvelle carte","fond":"Ortho","obsolete":false}},{"type":"Feature","geometry":{"type":"Polygon","coordinates":[[[2.1656,48.4922],[2.1619,48.492],[2.1571,48.4834],[2.1613,48.478],[2.1729,48.4751],[2.1822,48.4776],[2.1898,48.4776],[2.1907,48.4825],[2.1891,48.4885],[2.1708,48.4928],[2.1656,48.4922]]]},"properties":{"id_ffco":"2013-D91-90","nom":"Bois du Roussay VTT","_dept":"91","numero":"2013-D91-90","commune":"Etrechy","echelle":"1/10000","surface":"3.61 km²","format":"A4","annee":"2013","cartographes":"Alain Roulleaux","proprietaire":"91 - Essonne","niveau":"Régional","specialite":"CO à VTT","contacts":"CDCO 91, cd.essonne@ffcorientation.fr","latitude":"48.4839641001","longitude":"2.17388764881","date_saisie":"25/04/2015","date_depot":"11/03/2016","valide":"Oui","ppo":"Non","type_carte":"Reprise","base":"2008-D91-060 LE BOIS DU ROUSSAY 2","fond":"Cadastre","obsolete":false}},{"type":"Feature","geometry":{"type":"Polygon","coordinates":[[[2.1992,48.461],[2.1974,48.456],[2.1964,48.4561],[2.1965,48.4566],[2.1915,48.4569],[2.1925,48.4613],[2.1992,48.461]]]},"properties":{"id_ffco":"2011-D91-89","nom":"Les Montceaux","_dept":"91","numero":"2011-D91-89","commune":"Morigny Champigny","echelle":"1/5000","surface":"0.24 km²","format":"A5","annee":"2011","cartographes":"Alain Roulleaux","proprietaire":"91 - Essonne","niveau":"Initiation, Scolaire","specialite":"CO à pied","contacts":"CDCO 91, cd.essonne@ffcorientation.fr","latitude":"48.4589464522","longitude":"2.1952453402","date_saisie":"24/04/2015","date_depot":"11/03/2016","valide":"Oui","ppo":"Non","type_carte":"Nouvelle carte","fond":"Ortho","obsolete":false}},{"type":"Feature","geometry":{"type":"Polygon","coordinates":[[[2.1075,48.4287],[2.1054,48.4293],[2.1072,48.4328],[2.1079,48.4315],[2.1078,48.4309],[2.109,48.4309],[2.1128,48.4305],[2.1139,48.4305],[2.1143,48.4294],[2.1143,48.4289],[2.1075,48.4287]]]},"properties":{"id_ffco":"2010-D91-88","nom":"La butte Surjet","_dept":"91","numero":"2010-D91-88","commune":"Saint Hilaire-Etampes","echelle":"1/5000","surface":"0.15 km²","format":"A4","annee":"2010","cartographes":"Alain Roulleaux","proprietaire":"91 - Essonne","niveau":"Initiation, Scolaire","specialite":"CO à pied","contacts":"CDCO 91, cd.essonne@ffcorientation.fr","latitude":"48.4299652005","longitude":"2.10951920553","date_saisie":"24/04/2015","date_depot":"11/03/2016","valide":"Oui","ppo":"Non","type_carte":"Nouvelle carte","fond":"Ortho","obsolete":false}},{"type":"Feature","geometry":{"type":"Polygon","coordinates":[[[2.156,48.4381],[2.1581,48.4382],[2.1605,48.4371],[2.158,48.4361],[2.1552,48.4376],[2.156,48.4381]]]},"properties":{"id_ffco":"2011-D91-87","nom":"Tour de Guinette","_dept":"91","numero":"2011-D91-87","commune":"ETAMPES","echelle":"1/2000","surface":"0.05 km²","format":"A4","annee":"2011","cartographes":"Alain Roulleaux","proprietaire":"91 - Essonne","niveau":"Initiation, Scolaire","specialite":"CO à pied","latitude":"48.4373035836","longitude":"2.15782266379","date_saisie":"24/04/2015","date_depot":"11/03/2016","valide":"Oui","ppo":"Non","type_carte":"Nouvelle carte","fond":"Ortho","obsolete":false}},{"type":"Feature","geometry":{"type":"Polygon","coordinates":[[[2.1495,48.4271],[2.1519,48.4285],[2.1524,48.4274],[2.1496,48.4268],[2.1495,48.4271]]]},"properties":{"id_ffco":"2011-D91-86","nom":"Douce France","_dept":"91","numero":"2011-D91-86","commune":"ETAMPES","echelle":"1/1000","surface":"0.02 km²","format":"A4","annee":"2011","cartographes":"Alain Roulleaux","proprietaire":"91 - Essonne","niveau":"Initiation, Scolaire","specialite":"CO à pied","contacts":"CDCO 91, cd.essonne@ffcorientation.fr","latitude":"48.4275595678","longitude":"2.15113188239","date_saisie":"24/04/2015","date_depot":"11/03/2016","valide":"Oui","ppo":"Non","type_carte":"Nouvelle carte","fond":"Cadastre","obsolete":false}},{"type":"Feature","geometry":{"type":"Polygon","coordinates":[[[2.1663,48.4294],[2.1674,48.4303],[2.1689,48.4297],[2.1682,48.4281],[2.1663,48.4294]]]},"properties":{"id_ffco":"2013-D91-85","nom":"Les Barricades","_dept":"91","numero":"2013-D91-85","commune":"ETAMPES","echelle":"1/1500","surface":"0.02 km²","format":"A4","annee":"2013","cartographes":"Alain Roulleaux","proprietaire":"91 - Essonne","niveau":"Initiation, Scolaire","specialite":"CO à pied","contacts":"CDCO 91, cd.essonne@ffcorientation.fr","latitude":"48.4293111302","longitude":"2.16770473824","date_saisie":"24/04/2015","date_depot":"11/03/2016","valide":"Oui","ppo":"Non","type_carte":"Nouvelle carte","fond":"Ortho","obsolete":false}},{"type":"Feature","geometry":{"type":"Polygon","coordinates":[[[1.9522,48.5583],[1.9956,48.5424],[2.0029,48.5373],[2.0006,48.5295],[1.9785,48.5282],[1.9648,48.5292],[1.9565,48.5358],[1.9311,48.5505],[1.9426,48.5559],[1.9522,48.5583]]]},"properties":{"id_ffco":"2013-D91-84","nom":"Saint Arnoult VTT","_dept":"91","numero":"2013-D91-84","commune":"DOURDAN","echelle":"1/20000","surface":"9.56 km²","format":"A4","annee":"2013","cartographes":"Fredéric Fischer","proprietaire":"91 - Essonne","niveau":"Régional","specialite":"CO à VTT","contacts":"CDCO 91, cd.essonne@ffcorientation.fr","latitude":"48.5419879281","longitude":"1.96863150796","date_saisie":"24/04/2015","date_depot":"11/03/2016","valide":"Oui","ppo":"Non","type_carte":"Reprise","base":"2022-D91-017 ST ARNOULD 7","fond":"Cadastre","obsolete":false}},{"type":"Feature","geometry":{"type":"Polygon","coordinates":[[[2.4787,48.5059],[2.4437,48.512],[2.4375,48.5056],[2.4441,48.4978],[2.4458,48.4924],[2.4406,48.4881],[2.4411,48.4866],[2.4413,48.4781],[2.4463,48.4754],[2.4499,48.4771],[2.453,48.4767],[2.4582,48.477],[2.4637,48.4771],[2.4704,48.4775],[2.4727,48.4787],[2.473,48.4799],[2.4709,48.4833],[2.4785,48.494],[2.4819,48.4986],[2.483,48.5019],[2.4787,48.5059]]]},"properties":{"id_ffco":"2006-D91-83","nom":"BEAUVAIS VTT","_dept":"91","numero":"2006-D91-83","commune":"Champcueil","echelle":"1/15000","surface":"9.27 km²","format":"A4","annee":"2006","cartographes":"Christian Mathelier","proprietaire":"91 - Essonne","niveau":"Régional","specialite":"CO à VTT","contacts":"CDCO 91, cd.essonne@ffcorientation.fr","latitude":"48.4940663374","longitude":"2.45880941165","date_saisie":"24/04/2015","date_depot":"11/03/2016","valide":"Oui","ppo":"Non","type_carte":"Reprise","base":"1977-D91-018 NAINVILLE LES ROCHES","fond":"Ortho","obsolete":false}},{"type":"Feature","geometry":{"type":"Polygon","coordinates":[[[2.2162,48.515],[2.2157,48.5164],[2.2171,48.5175],[2.2165,48.5189],[2.2163,48.5196],[2.2131,48.5198],[2.2135,48.5207],[2.2177,48.5211],[2.2237,48.5235],[2.2359,48.5233],[2.2449,48.5258],[2.2548,48.528],[2.2605,48.5239],[2.2511,48.5189],[2.23,48.5152],[2.2235,48.5162],[2.219,48.5155],[2.2162,48.515]]]},"properties":{"id_ffco":"2013-D91-82","nom":"Chamarande- Bois du Belvédère VTT","_dept":"91","numero":"2013-D91-82","commune":"CHAMARANDE","echelle":"1/10000","surface":"2.55 km²","format":"A4","annee":"2013","cartographes":"Alain Roulleaux","proprietaire":"91 - Essonne","niveau":"Régional","specialite":"CO à VTT","contacts":"CDCO 91, cd.essonne@ffcorientation.fr","latitude":"48.5208883622","longitude":"2.23737615799","date_saisie":"24/04/2015","date_depot":"13/12/2017","valide":"Oui","ppo":"Non","type_carte":"Extrait","base":"2013-D91-81 TORFOU VTT","fond":"Ortho","obsolete":false}},{"type":"Feature","geometry":{"type":"Polygon","coordinates":[[[2.2125,48.5132],[2.2125,48.5207],[2.2226,48.5435],[2.2428,48.5465],[2.2598,48.5467],[2.274,48.5416],[2.2698,48.5287],[2.2562,48.5219],[2.2507,48.5197],[2.2339,48.5157],[2.2125,48.5132]]]},"properties":{"id_ffco":"2013-D91-81","nom":"TORFOU VTT","_dept":"91","numero":"2013-D91-81","commune":"Torfou","echelle":"1/20000","surface":"11.85 km²","format":"A4","annee":"2013","cartographes":"Alain Roulleaux","proprietaire":"91 - Essonne","niveau":"Régional","specialite":"CO à VTT","contacts":"CDCO 91, cd.essonne@ffcorientation.fr","latitude":"48.5313433934","longitude":"2.24147680277","date_saisie":"24/04/2015","date_depot":"11/03/2016","valide":"Oui","ppo":"Non","type_carte":"Nouvelle carte","fond":"Ortho","obsolete":false}},{"type":"Feature","geometry":{"type":"Polygon","coordinates":[[[2.1204,48.6164],[2.1224,48.6163],[2.1247,48.6171],[2.126,48.6177],[2.1258,48.6188],[2.1254,48.6194],[2.1238,48.6191],[2.1203,48.6196],[2.1199,48.6192],[2.1202,48.619],[2.1203,48.6182],[2.1208,48.6179],[2.1204,48.6164]]]},"properties":{"id_ffco":"2012-D91-80","nom":"Briis sous Forges-Parc des sports","_dept":"91","numero":"2012-D91-80","commune":"Briis sous forges","echelle":"1/2000","surface":"0.11 km²","format":"A4","annee":"2012","cartographes":"Alain Roulleaux","niveau":"Initiation, Scolaire","specialite":"CO à pied","contacts":"CDCO 91, cd.essonne@ffcorientation.fr","latitude":"48.6180019606","longitude":"2.1228626613","date_saisie":"24/04/2015","date_depot":"11/03/2016","valide":"Oui","ppo":"Non","type_carte":"Nouvelle carte","fond":"Ortho","obsolete":false}},{"type":"Feature","geometry":{"type":"Polygon","coordinates":[[[2.2919,48.4388],[2.2938,48.4381],[2.2942,48.4386],[2.2974,48.4374],[2.2987,48.4392],[2.2945,48.4409],[2.2919,48.4388]]]},"properties":{"id_ffco":"2022-D91-79","nom":"Bouville- Le plan d'eau","_dept":"91","numero":"2022-D91-79","commune":"BOUVILLE","echelle":"1/2500","surface":"0.1 km²","format":"A4","annee":"2022","cartographes":"Alain Roulleaux","proprietaire":"91 - Essonne","niveau":"Initiation, Scolaire","specialite":"CO à pied","contacts":"CDCO 91, cd.essonne@ffcorientation.fr","latitude":"48.4391445511","longitude":"2.29545468959","date_saisie":"24/04/2015","date_depot":"11/03/2016","valide":"Oui","ppo":"Non","type_carte":"Reprise","base":"2022-D91-79 Bouville- Le plan d'eau","fond":"Ortho","obsolete":false}},{"type":"Feature","geometry":{"type":"Polygon","coordinates":[[[2.2813,48.4325],[2.2666,48.4395],[2.2695,48.4439],[2.2744,48.4453],[2.2829,48.4461],[2.2875,48.4456],[2.2916,48.4434],[2.2934,48.44],[2.289,48.4367],[2.2857,48.4357],[2.2813,48.4325]]]},"properties":{"id_ffco":"2015-D91-78","nom":"Bouville- Le chemin des américains","_dept":"91","numero":"2015-D91-78","commune":"BOUVILLE","echelle":"1/10000","surface":"1.89 km²","format":"A4","annee":"2015","cartographes":"Alain Roulleaux","proprietaire":"91 - Essonne","niveau":"Régional","specialite":"CO à pied","contacts":"CDCO 91, cd.essonne@ffcorientation.fr","latitude":"48.4402800646","longitude":"2.2803355437","date_saisie":"24/04/2015","date_depot":"11/03/2016","valide":"Oui","ppo":"Non","type_carte":"Nouvelle carte","fond":"Cadastre","obsolete":false}},{"type":"Feature","geometry":{"type":"Polygon","coordinates":[[[2.3657,48.6083],[2.3682,48.606],[2.3716,48.6035],[2.3727,48.6035],[2.373,48.6039],[2.3723,48.605],[2.3726,48.6059],[2.373,48.6063],[2.3697,48.6071],[2.3696,48.6075],[2.3683,48.6076],[2.3683,48.6082],[2.3657,48.6083]]]},"properties":{"id_ffco":"2011-D91-77","nom":"Bondoufle-Parc des Bordes","_dept":"91","numero":"2011-D91-77","commune":"Bondoufle","echelle":"1/2500","surface":"0.12 km²","format":"A4","annee":"2011","cartographes":"Alain Roulleaux","proprietaire":"91 - Essonne","niveau":"Initiation, Scolaire","specialite":"CO à pied","contacts":"CDCO 91, cd.essonne@ffcorientation.fr","latitude":"48.6060099948","longitude":"2.37000056819","date_saisie":"24/04/2015","date_depot":"11/03/2016","valide":"Oui","ppo":"Non","type_carte":"Nouvelle carte","fond":"Ortho","obsolete":false}},{"type":"Feature","geometry":{"type":"Polygon","coordinates":[[[2.236,48.7765],[2.2447,48.7677],[2.2488,48.7623],[2.2679,48.7596],[2.2694,48.7588],[2.2701,48.7566],[2.2774,48.7501],[2.2797,48.7474],[2.2753,48.7381],[2.2634,48.7378],[2.2542,48.738],[2.2369,48.7363],[2.2272,48.7368],[2.2183,48.7258],[2.2092,48.7262],[2.1931,48.7317],[2.1901,48.7392],[2.1875,48.7415],[2.1972,48.7473],[2.1974,48.7502],[2.1935,48.7513],[2.189,48.7532],[2.1948,48.7616],[2.2114,48.7607],[2.2199,48.7669],[2.2169,48.77],[2.2216,48.771],[2.2286,48.777],[2.236,48.7765]]]},"properties":{"id_ffco":"2014-D91-76","nom":"Val de Bièvre","_dept":"91","numero":"2014-D91-76","commune":"Bièvre","echelle":"1/20000","surface":"21.43 km²","format":"A3","annee":"2014","cartographes":"Frédéric Fischer","proprietaire":"91 - Essonne","niveau":"Départemental","specialite":"Raid'O","contacts":"CDCO 91, cd.essonne@ffcorientation.fr","latitude":"48.7496202496","longitude":"2.23034017374","date_saisie":"24/04/2015","date_depot":"11/03/2016","valide":"Oui","ppo":"Non","type_carte":"Nouvelle carte","fond":"Ortho","obsolete":false}},{"type":"Feature","geometry":{"type":"Polygon","coordinates":[[[2.1706,48.619],[2.1737,48.6178],[2.1779,48.6139],[2.1861,48.611],[2.1939,48.6108],[2.1957,48.6161],[2.1925,48.6186],[2.1735,48.6249],[2.1706,48.619]]]},"properties":{"id_ffco":"2023-D91-75","nom":"La Roche Turpin","_dept":"91","numero":"2023-D91-75","commune":"Fontenay les Briis","echelle":"1/7500","surface":"1.62 km²","format":"A4","annee":"2023","cartographes":"Frederic Fischer","proprietaire":"91 - Essonne","niveau":"Régional","specialite":"CO à pied","contacts":"CDCO 91, cd.essonne@ffcorientation.fr","latitude":"48.6171686157","longitude":"2.18338610562","date_saisie":"24/04/2015","date_depot":"11/03/2016","valide":"Oui","ppo":"Non","type_carte":"Reprise","base":"2023-D91-75 La Roche Turpin","fond":"Cadastre","obsolete":false}},{"type":"Feature","geometry":{"type":"Polygon","coordinates":[[[2.1262,48.6262],[2.1283,48.6252],[2.1305,48.6257],[2.1318,48.627],[2.1357,48.6291],[2.1382,48.631],[2.1296,48.6368],[2.1281,48.6354],[2.1269,48.6344],[2.1281,48.6339],[2.1283,48.632],[2.1288,48.6303],[2.1262,48.6262]]]},"properties":{"id_ffco":"2022-D91-74","nom":"Bois de la Garenne","_dept":"91","numero":"2022-D91-74","commune":"Briis sous Forges","echelle":"1/5000","surface":"0.57 km²","format":"A4","annee":"2022","cartographes":"Alain Roulleaux","proprietaire":"91 - Essonne","niveau":"Départemental","specialite":"CO à pied","contacts":"CDCO 91, cd.essonne@ffcorientation.fr","latitude":"48.6307645742","longitude":"2.13138399284","date_saisie":"24/04/2015","date_depot":"11/03/2016","valide":"Oui","ppo":"Non","type_carte":"Reprise","base":"2022-D91-74 Bois de la Garenne","fond":"Cadastre","obsolete":false}},{"type":"Feature","geometry":{"type":"Polygon","coordinates":[[[2.2911,48.6344],[2.2921,48.6418],[2.2994,48.6405],[2.301,48.64],[2.2994,48.6344],[2.2911,48.6344]]]},"properties":{"id_ffco":"2012-D91-73","nom":"Parc de l'Ormoy","_dept":"91","numero":"2012-D91-73","commune":"Saint Michel sur Oge","echelle":"1/3000","surface":"0.47 km²","format":"A4","annee":"2012","cartographes":"Lionel Brault","proprietaire":"91 - Essonne","niveau":"Initiation, Scolaire","specialite":"CO à pied","contacts":"CDCO 91, cd.essonne@ffcorientation.fr","latitude":"48.6377750583","longitude":"2.29572485096","date_saisie":"24/04/2015","date_depot":"11/03/2016","valide":"Oui","ppo":"Non","type_carte":"Reprise","base":"1990-D91-12 ORGE PETIT POUCET","fond":"Ortho","obsolete":false}},{"type":"Feature","geometry":{"type":"Polygon","coordinates":[[[2.1846,48.6893],[2.1838,48.6887],[2.1814,48.692],[2.193,48.6939],[2.1965,48.6944],[2.198,48.6963],[2.2082,48.699],[2.2065,48.6959],[2.2125,48.6968],[2.2219,48.6963],[2.2316,48.6969],[2.2307,48.6946],[2.2244,48.6919],[2.2219,48.693],[2.2167,48.6936],[2.2073,48.6927],[2.2046,48.6919],[2.2042,48.691],[2.2002,48.6906],[2.1904,48.6904],[2.1856,48.6905],[2.1844,48.6902],[2.1846,48.6893]]]},"properties":{"id_ffco":"2021-D91-72","nom":"Coteau de l'Yvette","_dept":"91","numero":"2021-D91-72","commune":"Orsay Villebon","echelle":"1/10000","surface":"1.55 km²","format":"A4","annee":"2021","cartographes":"Edmond Szechenyi","proprietaire":"91 - Essonne","niveau":"Départemental","specialite":"CO à pied","contacts":"CDCO 91, cd.essonne@ffcorientation.fr","latitude":"48.6939410266","longitude":"2.20651578725","date_saisie":"23/04/2015","date_depot":"11/03/2016","valide":"Oui","ppo":"Non","type_carte":"Reprise","base":"2021-D91-72 Coteau de l'Yvette","fond":"Ortho","obsolete":false}},{"type":"Feature","geometry":{"type":"Polygon","coordinates":[[[2.1844,48.6897],[2.1829,48.6901],[2.182,48.6921],[2.1929,48.6939],[2.1935,48.6962],[2.1991,48.6965],[2.2038,48.6979],[2.2065,48.6987],[2.2083,48.6989],[2.2071,48.6981],[2.2064,48.6958],[2.2057,48.695],[2.2078,48.6935],[2.2075,48.6927],[2.2045,48.692],[2.2043,48.6909],[2.2023,48.6909],[2.1953,48.6903],[2.193,48.6904],[2.1872,48.6904],[2.1857,48.6906],[2.1847,48.6904],[2.1844,48.6897]]]},"properties":{"id_ffco":"2021-D91-71","nom":"Coteau de l'Yvette ouest","_dept":"91","numero":"2021-D91-71","commune":"Orsay -Villebon","echelle":"1/10000","surface":"0.93 km²","format":"A4","annee":"2021","cartographes":"Edmond Szechenyi","proprietaire":"91 - Essonne","niveau":"Départemental","specialite":"CO à pied","contacts":"CDCO 91, cd.essonne@ffcorientation.fr","latitude":"48.6934304255","longitude":"2.19709456436","date_saisie":"23/04/2015","date_depot":"11/03/2016","valide":"Oui","ppo":"Non","type_carte":"Reprise","base":"2021-D91-72 Coteau de l'Yvette","fond":"Cadastre","obsolete":false}},{"type":"Feature","geometry":{"type":"Polygon","coordinates":[[[2.3522,48.6267],[2.35,48.6278],[2.3455,48.6292],[2.3481,48.6313],[2.3454,48.6319],[2.3457,48.6326],[2.3442,48.6329],[2.3442,48.6341],[2.3467,48.6344],[2.3466,48.6348],[2.3487,48.6351],[2.3582,48.635],[2.3582,48.6345],[2.3573,48.6329],[2.3545,48.6272],[2.3526,48.6266],[2.3522,48.6267]]]},"properties":{"id_ffco":"2015-D91-70","nom":"Bois des trous et des Joncs Marins","_dept":"91","numero":"2015-D91-70","commune":"Sainte Geneviève des Bois","echelle":"1/5000","surface":"0.64 km²","format":"A4","annee":"2015","cartographes":"Alain Roulleaux","proprietaire":"91 - Essonne","niveau":"Départemental","specialite":"CO à pied","contacts":"CDCO 91, cd.essonne@ffcorientation.fr","latitude":"48.6315868108","longitude":"2.35145419251","date_saisie":"08/04/2015","date_depot":"11/03/2016","valide":"Oui","ppo":"Non","type_carte":"Nouvelle carte","fond":"Ortho","obsolete":false}},{"type":"Feature","geometry":{"type":"Polygon","coordinates":[[[2.3346,48.69],[2.333,48.6905],[2.3329,48.6911],[2.3333,48.6916],[2.3344,48.6919],[2.3361,48.6915],[2.3371,48.6919],[2.3378,48.6921],[2.3392,48.6904],[2.3369,48.6881],[2.3357,48.686],[2.3328,48.6873],[2.3346,48.69]]]},"properties":{"id_ffco":"2009-D91-66","nom":"Stade Jean Moulin Savigny","_dept":"91","numero":"2009-D91-66","commune":"Savigny sur Orge","echelle":"1/2500","surface":"0.18 km²","format":"A4","annee":"2009","cartographes":"Arnault Deneubourg","proprietaire":"91 - Essonne","niveau":"Initiation, Scolaire","specialite":"CO à pied","contacts":"CDCO 91, cd.essonne@ffcorientation.fr","latitude":"48.6894628396","longitude":"2.33572562282","date_saisie":"25/04/2015","date_depot":"11/03/2016","valide":"Oui","ppo":"Non","type_carte":"Nouvelle carte","fond":"Ortho","obsolete":false}},{"type":"Feature","geometry":{"type":"Polygon","coordinates":[[[2.3487,48.6697],[2.3541,48.6674],[2.3521,48.6642],[2.3517,48.664],[2.3444,48.666],[2.3442,48.6669],[2.3398,48.6668],[2.3405,48.6692],[2.3469,48.6706],[2.3487,48.6697]]]},"properties":{"id_ffco":"2007-D91-64","nom":"Parc du Séminaire","_dept":"91","numero":"2007-D91-64","commune":"Morsang sur Orge","echelle":"1/4000","surface":"0.43 km²","format":"A4","annee":"2007","cartographes":"Arnault Deneubourg","proprietaire":"91 - Essonne","niveau":"Départemental","specialite":"Sprint (ISSOM)","contacts":"CDCO 91, cd.essonne@ffcorientation.fr","latitude":"48.6674815483","longitude":"2.34726915011","date_saisie":"25/04/2015","date_depot":"11/03/2016","valide":"Oui","ppo":"Non","type_carte":"Nouvelle carte","fond":"Ortho","obsolete":false}},{"type":"Feature","geometry":{"type":"Polygon","coordinates":[[[2.3717,48.648],[2.3695,48.644],[2.3782,48.6419],[2.3794,48.6444],[2.376,48.6457],[2.3752,48.6483],[2.3752,48.6484],[2.3717,48.648]]]},"properties":{"id_ffco":"2010-D91-50","nom":"Grigny Les Patios","_dept":"91","numero":"2010-D91-50","commune":"Grigny","echelle":"1/2000","surface":"0.29 km²","format":"A4","annee":"2010","cartographes":"Alain Roulleaux","proprietaire":"91 - Essonne","niveau":"Initiation, Scolaire","specialite":"CO à pied","contacts":"CDCO 91, cd.essonne@ffcorientation.fr","latitude":"48.6450063945","longitude":"2.37431897175","date_saisie":"25/04/2015","date_depot":"11/03/2016","valide":"Oui","ppo":"Non","type_carte":"Nouvelle carte","fond":"Ortho","obsolete":false}},{"type":"Feature","geometry":{"type":"Polygon","coordinates":[[[2.2729,48.5287],[2.2787,48.5357],[2.2828,48.5344],[2.2826,48.5338],[2.2871,48.5339],[2.2881,48.5357],[2.2873,48.5369],[2.2725,48.5418],[2.2708,48.5415],[2.2667,48.5426],[2.2656,48.5436],[2.261,48.545],[2.2599,48.5355],[2.2621,48.5345],[2.2628,48.5347],[2.2629,48.5314],[2.265,48.5282],[2.266,48.5291],[2.2686,48.5303],[2.2693,48.529],[2.2703,48.5285],[2.2729,48.5287]]]},"properties":{"id_ffco":"2004-D91-49","nom":"LARDY-CHEPTAINVILLE","_dept":"91","numero":"2004-D91-49","commune":"Lardy","echelle":"1/10000","surface":"2.0 km²","format":"A4","annee":"2004","cartographes":"Richard Lazarowicz","proprietaire":"91 - Essonne","niveau":"Départemental","specialite":"CO à pied","contacts":"CDCO 91, cd.essonne@ffcorientation.fr","latitude":"48.5364191892","longitude":"2.27085191976","date_saisie":"13/04/2005","date_depot":"26/04/2005","valide":"Oui","ppo":"Non","type_carte":"Reprise","base":"1990-D91-15 LARDY NORD","fond":"Ortho","obsolete":false}},{"type":"Feature","geometry":{"type":"Polygon","coordinates":[[[2.0814,48.5358],[2.0767,48.5224],[2.0831,48.523],[2.0907,48.5283],[2.0953,48.5309],[2.1,48.5342],[2.0995,48.5349],[2.1001,48.5362],[2.1007,48.5373],[2.1003,48.5385],[2.0912,48.5386],[2.0892,48.5383],[2.0875,48.5342],[2.0814,48.5365],[2.0814,48.5358]]]},"properties":{"id_ffco":"2013-D91-46","nom":"Sermaise Les hameaux","_dept":"91","numero":"2013-D91-46","commune":"Sermaise -Dourdan","echelle":"1/10000","surface":"1.65 km²","format":"A4","annee":"2013","cartographes":"Pierre Erbland, Thomas Erbland, Loan Peurey, Alain Roulleaux","proprietaire":"91 - Essonne","niveau":"Départemental","specialite":"CO à pied","contacts":"CDCO 91, cd.essonne@ffcorientation.fr","latitude":"48.531438933","longitude":"2.08801003697","date_saisie":"25/04/2015","date_depot":"11/03/2016","valide":"Oui","ppo":"Non","type_carte":"Nouvelle carte","fond":"Ortho","obsolete":false}},{"type":"Feature","geometry":{"type":"Polygon","coordinates":[[[2.2048,48.7204],[2.2123,48.7188],[2.2222,48.7187],[2.2182,48.7166],[2.2214,48.7144],[2.2215,48.7125],[2.2201,48.7087],[2.2108,48.7085],[2.2103,48.7091],[2.2053,48.7096],[2.2019,48.7134],[2.2039,48.7203],[2.2048,48.7204]]]},"properties":{"id_ffco":"2012-D91-45","nom":"Polytechnique Campus","_dept":"91","numero":"2012-D91-45","commune":"Palaiseau - Orsay","echelle":"1/4000","surface":"1.47 km²","format":"A3","annee":"2012","cartographes":"Philippe Page","proprietaire":"Ecole Polytechnique","niveau":"Régional","specialite":"CO à pied","latitude":"48.7141189807","longitude":"2.21176586718","date_saisie":"25/04/2015","date_depot":"11/03/2016","valide":"Oui","ppo":"Non","type_carte":"Nouvelle carte","fond":"Ortho","obsolete":false}},{"type":"Feature","geometry":{"type":"Polygon","coordinates":[[[2.2205,48.7102],[2.2215,48.7125],[2.2209,48.7145],[2.2179,48.7166],[2.2223,48.719],[2.2319,48.7181],[2.2313,48.7158],[2.2295,48.7161],[2.2287,48.713],[2.2269,48.7126],[2.2257,48.7093],[2.2205,48.7102]]]},"properties":{"id_ffco":"2014-D91-44","nom":"Forêt de Palaiseau","_dept":"91","numero":"2014-D91-44","commune":"Palaiseau -Orsay","echelle":"1/5000","surface":"0.61 km²","format":"A4","annee":"2014","cartographes":"Frédéric Fischer","proprietaire":"91 - Essonne","niveau":"Départemental","specialite":"CO à pied","contacts":"CDCO 91, cd.essonne@ffcorientation.fr","latitude":"48.7149123971","longitude":"2.22476973526","date_saisie":"25/04/2015","date_depot":"11/03/2016","valide":"Oui","ppo":"Non","type_carte":"Nouvelle carte","fond":"Cadastre","obsolete":false}},{"type":"Feature","geometry":{"type":"Polygon","coordinates":[[[2.1211,48.7193],[2.1124,48.7227],[2.1069,48.7287],[2.1034,48.73],[2.1056,48.7311],[2.1091,48.7304],[2.1113,48.7286],[2.1165,48.7273],[2.1194,48.729],[2.123,48.7284],[2.1258,48.7264],[2.1211,48.7193]]]},"properties":{"id_ffco":"2014-D91-43","nom":"Villiers le Bâcle","_dept":"91","numero":"2014-D91-43","commune":"Villiers le Bâcle","echelle":"1/7500","surface":"0.92 km²","format":"A4","annee":"2014","cartographes":"Frédéric Fischer","proprietaire":"91 - Essonne","niveau":"Départemental","specialite":"CO à pied","contacts":"CDCO 91, cd.essonne@ffcorientation.fr","latitude":"48.7254090418","longitude":"2.11647703346","date_saisie":"25/04/2015","date_depot":"11/03/2016","valide":"Oui","ppo":"Non","type_carte":"Nouvelle carte","fond":"Cadastre","obsolete":false}},{"type":"Feature","geometry":{"type":"Polygon","coordinates":[[[2.171,48.7337],[2.1764,48.7335],[2.1795,48.7293],[2.175,48.7288],[2.1689,48.7283],[2.1665,48.7292],[2.1667,48.7307],[2.1679,48.7323],[2.171,48.7337]]]},"properties":{"id_ffco":"2014-D91-42","nom":"Saclay","_dept":"91","numero":"2014-D91-42","commune":"Saclay village","echelle":"1/4000","surface":"0.41 km²","format":"A4","annee":"2014","cartographes":"Frederic Fischer","proprietaire":"91 - Essonne","niveau":"Départemental","specialite":"Sprint (ISSOM)","contacts":"CDCO 91, cd.essonne@ffcorientation.fr","latitude":"48.7309001889","longitude":"2.17262624968","date_saisie":"25/04/2015","date_depot":"11/03/2016","valide":"Oui","ppo":"Non","type_carte":"Nouvelle carte","fond":"Ortho","obsolete":false}},{"type":"Feature","geometry":{"type":"Polygon","coordinates":[[[2.1222,48.6948],[2.1262,48.6915],[2.1298,48.6914],[2.1296,48.6906],[2.1328,48.6901],[2.1342,48.6886],[2.1319,48.6881],[2.1317,48.6874],[2.128,48.6865],[2.1283,48.6855],[2.1398,48.6862],[2.1383,48.6888],[2.1426,48.6904],[2.1417,48.6925],[2.138,48.6957],[2.1332,48.6948],[2.1323,48.6952],[2.1274,48.6944],[2.1222,48.6948]]]},"properties":{"id_ffco":"2022-D91-41","nom":"Forêt Communale GIf","_dept":"91","numero":"2022-D91-41","commune":"Gif sur Yvette","echelle":"1/7500","surface":"0.87 km²","format":"A4","annee":"2022","cartographes":"Edmond Szechenyi","proprietaire":"91 - Essonne","niveau":"Départemental","specialite":"CO à pied","contacts":"CDCO 91, cd.essonne@ffcorientation.fr","latitude":"48.6911299404","longitude":"2.13405876406","date_saisie":"25/04/2015","date_depot":"11/03/2016","valide":"Oui","ppo":"Non","type_carte":"Reprise","base":"2022-D91-41 Forêt Communale GIf","fond":"Cadastre","obsolete":false}},{"type":"Feature","geometry":{"type":"Polygon","coordinates":[[[2.1616,48.6967],[2.1621,48.6952],[2.1593,48.6941],[2.1574,48.6954],[2.1592,48.697],[2.1616,48.6967]]]},"properties":{"id_ffco":"2012-D91-40","nom":"Parc de la grande Maison","_dept":"91","numero":"2012-D91-40","commune":"Bures sur Yvette","echelle":"1/2000","surface":"0.07 km²","format":"A4","annee":"2012","cartographes":"Edmond Szechenyi","proprietaire":"91 - Essonne","niveau":"Initiation, Scolaire","specialite":"CO à pied","contacts":"CDCO 91, cd.essonne@ffcorientation.fr","latitude":"48.695628519","longitude":"2.15983971068","date_saisie":"25/04/2015","date_depot":"11/03/2016","valide":"Oui","ppo":"Non","type_carte":"Nouvelle carte","fond":"Ortho","obsolete":false}},{"type":"Feature","geometry":{"type":"Polygon","coordinates":[[[2.1479,48.6834],[2.1474,48.6805],[2.1457,48.6782],[2.1515,48.674],[2.1567,48.6764],[2.1559,48.6772],[2.1562,48.6821],[2.1575,48.6844],[2.1596,48.6865],[2.161,48.6924],[2.1593,48.6918],[2.1505,48.6854],[2.1488,48.6837],[2.1479,48.6834]]]},"properties":{"id_ffco":"2012-D91-39","nom":"Montjay","_dept":"91","numero":"2012-D91-39","commune":"Bures sur Yvette","echelle":"1/7500","surface":"1.01 km²","format":"A4","annee":"2012","cartographes":"Edmond Szechenyi","proprietaire":"91 - Essonne","niveau":"Départemental","specialite":"CO à pied","contacts":"CDCO 91, cd.essonne@ffcorientation.fr","latitude":"48.6822687424","longitude":"2.15331104118","date_saisie":"25/04/2015","date_depot":"11/03/2016","valide":"Oui","ppo":"Non","type_carte":"Nouvelle carte","fond":"Cadastre","obsolete":false}},{"type":"Feature","geometry":{"type":"Polygon","coordinates":[[[2.1572,48.7101],[2.1667,48.7118],[2.1805,48.7094],[2.1838,48.703],[2.1834,48.6995],[2.1575,48.6994],[2.1572,48.7101]]]},"properties":{"id_ffco":"2023-D91-38","nom":"Campus Paris XII","_dept":"91","numero":"2023-D91-38","commune":"Orsay","echelle":"1/5000","surface":"2.33 km²","format":"A3","annee":"2023","cartographes":"Frederic Fischer","proprietaire":"91 - Essonne","niveau":"Départemental","specialite":"CO à pied","contacts":"CDCO 91, cd.essonne@ffcorientation.fr","latitude":"48.704974837","longitude":"2.16971449378","date_saisie":"25/04/2015","date_depot":"11/03/2016","valide":"Oui","ppo":"Non","type_carte":"Reprise","base":"2023-D91-38 Campus Paris XII","fond":"Ortho","obsolete":false}},{"type":"Feature","geometry":{"type":"Polygon","coordinates":[[[2.1642,48.7043],[2.1705,48.705],[2.1834,48.7036],[2.183,48.7014],[2.1804,48.6999],[2.1785,48.6999],[2.1783,48.6973],[2.174,48.6968],[2.164,48.6981],[2.1642,48.7043]]]},"properties":{"id_ffco":"2023-D91-37","nom":"Campus Orsay","_dept":"91","numero":"2023-D91-37","commune":"Orsay","echelle":"1/7500","surface":"0.99 km²","format":"A4","annee":"2023","cartographes":"Edmond Szechenyi","proprietaire":"91 - Essonne","niveau":"Régional","specialite":"Sprint (ISSOM)","contacts":"CDCO 91, cd.essonne@ffcorientation.fr","latitude":"48.7010965388","longitude":"2.1726538453","date_saisie":"25/04/2015","date_depot":"11/03/2016","valide":"Oui","ppo":"Non","type_carte":"Reprise","base":"2023-D91-37 Campus Orsay","fond":"Ortho","obsolete":false}},{"type":"Feature","geometry":{"type":"Polygon","coordinates":[[[2.2501,48.6638],[2.258,48.6621],[2.2576,48.6593],[2.2593,48.6588],[2.2592,48.6583],[2.2598,48.6576],[2.2572,48.657],[2.2533,48.6568],[2.2526,48.6587],[2.2529,48.6595],[2.2524,48.6598],[2.2527,48.6607],[2.2502,48.6618],[2.2501,48.6638]]]},"properties":{"id_ffco":"2011-D91-36","nom":"Bois de Monsieur ouest","_dept":"91","numero":"2011-D91-36","commune":"Nozay","echelle":"1/3000","surface":"0.31 km²","format":"A4","annee":"2011","cartographes":"Bruno Lejeune","proprietaire":"91 - Essonne","niveau":"Initiation, Scolaire","specialite":"CO à pied","contacts":"CDCO 91, cd.essonne@ffcorientation.fr","latitude":"48.6601070877","longitude":"2.25486250922","date_saisie":"25/04/2015","date_depot":"11/03/2016","valide":"Oui","ppo":"Non","type_carte":"Nouvelle carte","fond":"Ortho","obsolete":false}},{"type":"Feature","geometry":{"type":"Polygon","coordinates":[[[2.2732,48.6363],[2.2701,48.6354],[2.27,48.6346],[2.2716,48.6337],[2.2732,48.6339],[2.2748,48.6349],[2.2742,48.6356],[2.2732,48.6363]]]},"properties":{"id_ffco":"2013-D91-35","nom":"La tour de Monthléry","_dept":"91","numero":"2013-D91-35","commune":"Montlhéry","echelle":"1/2000","surface":"0.06 km²","format":"A4","annee":"2013","cartographes":"Lionel Brault","proprietaire":"91 - Essonne","niveau":"Initiation, Scolaire","specialite":"CO à pied","contacts":"CDCO 91, cd.essonne@ffcorientation.fr","latitude":"48.6349431154","longitude":"2.27233500026","date_saisie":"25/04/2015","date_depot":"11/03/2016","valide":"Oui","ppo":"Non","type_carte":"Nouvelle carte","fond":"Ortho","obsolete":false}},{"type":"Feature","geometry":{"type":"Polygon","coordinates":[[[2.0821,48.6468],[2.083,48.6502],[2.0843,48.652],[2.0924,48.6498],[2.0921,48.6489],[2.0922,48.6475],[2.0919,48.646],[2.093,48.6462],[2.0966,48.6464],[2.0981,48.6444],[2.0966,48.6436],[2.092,48.6444],[2.09,48.645],[2.0892,48.6454],[2.0863,48.6456],[2.0821,48.6468]]]},"properties":{"id_ffco":"2012-D91-34","nom":"Bois communal Limours","_dept":"91","numero":"2012-D91-34","commune":"Limours","echelle":"1/5000","surface":"0.52 km²","format":"A4","annee":"2012","cartographes":"Edmond Szechenyi","proprietaire":"91 - Essonne","niveau":"Départemental","specialite":"CO à pied","contacts":"CDCO 91, cd.essonne@ffcorientation.fr","latitude":"48.6476262591","longitude":"2.08888912939","date_saisie":"25/04/2015","date_depot":"11/03/2016","valide":"Oui","ppo":"Non","type_carte":"Nouvelle carte","fond":"Ortho","obsolete":false}},{"type":"Feature","geometry":{"type":"Polygon","coordinates":[[[2.345,48.5165],[2.3431,48.518],[2.3446,48.5187],[2.3462,48.5175],[2.345,48.5165]]]},"properties":{"id_ffco":"2013-D91-31","nom":"Parc de la Mairie Itteville","_dept":"91","numero":"2013-D91-31","commune":"Itteville","echelle":"1/1200","surface":"0.03 km²","format":"A4","annee":"2013","cartographes":"Alain Roulleaux","proprietaire":"91 - Essonne","niveau":"Initiation, Scolaire","specialite":"CO à pied","contacts":"CDCO 91, cd.essonne@ffcorientation.fr","latitude":"48.5176253035","longitude":"2.34471907521","date_saisie":"25/04/2015","date_depot":"11/03/2016","valide":"Oui","ppo":"Non","type_carte":"Nouvelle carte","fond":"Ortho","obsolete":false}},{"type":"Feature","geometry":{"type":"Polygon","coordinates":[[[2.0003,48.5288],[2.0005,48.5255],[2.0066,48.523],[2.0176,48.521],[2.0219,48.5075],[2.0128,48.5006],[2.0089,48.5059],[1.9895,48.4947],[1.9768,48.5061],[1.9625,48.5157],[1.9613,48.5223],[1.9629,48.5254],[1.9617,48.5263],[1.9618,48.5291],[1.9742,48.527],[1.992,48.5283],[2.0003,48.5288]]]},"properties":{"id_ffco":"1999-D91-28","nom":"DOURDAN \"Le Normont\" VTT","_dept":"91","numero":"1999-D91-28","commune":"DOURDAN","echelle":"1/20000","surface":"10.72 km²","format":"A4","annee":"1999","cartographes":"A. Roulleaux, P. Gremion","proprietaire":"91 - Essonne","niveau":"Interrégional","specialite":"CO à VTT","contacts":"CDCO 91, cd.essonne@ffcorientation.fr","latitude":"48.5143604705","longitude":"1.99137345451","date_saisie":"23/11/2001","date_depot":"06/12/2001","valide":"Oui","ppo":"Non","type_carte":"Reprise","base":"1983-D91-29 DOURDAN OUIE","fond":"Ortho","obsolete":false}},{"type":"Feature","geometry":{"type":"Polygon","coordinates":[[[2.0033,48.5241],[2.0094,48.5225],[2.0055,48.5189],[2.0098,48.5146],[2.0183,48.5173],[2.0192,48.5156],[2.0209,48.5117],[2.022,48.5075],[2.0122,48.5],[2.0105,48.502],[2.0123,48.5058],[2.0066,48.5078],[2.0056,48.507],[2.0046,48.5078],[2.0028,48.5061],[2.0042,48.5057],[2.0011,48.5003],[2.002,48.4992],[1.9989,48.4964],[1.9944,48.4969],[1.9897,48.4932],[1.9826,48.497],[1.9789,48.5015],[1.9819,48.5026],[1.9764,48.5064],[1.9906,48.516],[2.0033,48.5241]]]},"properties":{"id_ffco":"2020-D91-27","nom":"DOURDAN -Abbaye de l'ouie","_dept":"91","numero":"2020-D91-27","commune":"DOURDAN","echelle":"1/10000","surface":"5.71 km²","format":"A3","annee":"2020","cartographes":"A. Roulleaux, B. Lejeune, R. Ferrage, C. Mathelier","proprietaire":"91 - Essonne","niveau":"National, International","specialite":"CO à pied","contacts":"CDCO 91, cd.essonne@ffcorientation.fr","latitude":"48.5083675025","longitude":"1.99874463548","date_depot":"11/03/2016","valide":"Oui","ppo":"Non","type_carte":"Reprise","base":"2020-D91-27 DOURDAN -Abbaye de l'ouie","fond":"Ortho","obsolete":false}},{"type":"Feature","geometry":{"type":"Polygon","coordinates":[[[2.3893,48.6888],[2.3987,48.6873],[2.4036,48.6927],[2.409,48.6911],[2.4138,48.6987],[2.4074,48.701],[2.4024,48.7027],[2.3994,48.6995],[2.3912,48.6921],[2.3893,48.6888]]]},"properties":{"id_ffco":"2010-D91-25","nom":"PORT CERISES","_dept":"91","numero":"2010-D91-25","commune":"DRAVEIL BASE","echelle":"1/6000","surface":"1.54 km²","format":"A4","annee":"2010","cartographes":"Alain Roulleaux","proprietaire":"91 - Essonne","niveau":"Régional","specialite":"Sprint (ISSOM)","contacts":"CDCO 91, cd.essonne@ffcorientation.fr","latitude":"48.6948000233","longitude":"2.40180975691","date_depot":"11/03/2016","valide":"Oui","ppo":"Oui (25 postes)","type_carte":"Nouvelle carte","fond":"Ortho","obsolete":false}},{"type":"Feature","geometry":{"type":"Polygon","coordinates":[[[2.4086,48.5582],[2.412,48.5557],[2.4134,48.5564],[2.4167,48.5549],[2.4296,48.5629],[2.426,48.567],[2.4209,48.566],[2.4206,48.5664],[2.4158,48.5645],[2.4086,48.5582]]]},"properties":{"id_ffco":"2021-D91-23","nom":"PARC VILLEROY","_dept":"91","numero":"2021-D91-23","commune":"MENNECY","echelle":"1/5000","surface":"1.1 km²","format":"A3","annee":"2021","cartographes":"Alain Roulleaux","niveau":"Régional","specialite":"CO à pied","contacts":"CDCO 91, cd.essonne@ffcorientation.fr","latitude":"48.5611292945","longitude":"2.41914439222","date_depot":"11/03/2016","valide":"Oui","ppo":"Non","type_carte":"Reprise","base":"2021-D91-23 PARC VILLEROY","fond":"Ortho","obsolete":false}},{"type":"Feature","geometry":{"type":"Polygon","coordinates":[[[2.1538,48.4244],[2.1606,48.4227],[2.1681,48.4279],[2.166,48.4297],[2.1645,48.4287],[2.1635,48.4296],[2.1536,48.4272],[2.1538,48.4244]]]},"properties":{"id_ffco":"2023-D91-21","nom":"Base De Loisirs D'Etampes","_dept":"91","numero":"2023-D91-21","commune":"ETAMPES","echelle":"1/4000","surface":"0.49 km²","format":"A4","annee":"2023","cartographes":"Alain Roulleaux, Section Sportive Scolaire du collège marie Curie","proprietaire":"91 - Essonne","niveau":"Initiation, Scolaire","specialite":"CO à pied","contacts":"CDCO 91, cd.essonne@ffcorientation.fr","latitude":"48.4263497901","longitude":"2.16038900728","date_depot":"11/03/2016","valide":"Oui","ppo":"Oui (15 postes)","type_carte":"Reprise","base":"2023-D91-21 Base De Loisirs D'Etampes","fond":"Ortho","obsolete":false}},{"type":"Feature","geometry":{"type":"Polygon","coordinates":[[[2.1892,48.4778],[2.19,48.4819],[2.1874,48.4816],[2.1876,48.483],[2.1869,48.4834],[2.1884,48.4871],[2.1784,48.4904],[2.173,48.4912],[2.1682,48.4915],[2.1648,48.4897],[2.1614,48.4861],[2.1567,48.4778],[2.1582,48.4769],[2.1629,48.4804],[2.1731,48.4807],[2.1819,48.478],[2.1892,48.4778]]]},"properties":{"id_ffco":"2023-D91-113","nom":"Le bois du Roussay 3","_dept":"91","numero":"2023-D91-113","commune":"ETRECHY","echelle":"1/10000","surface":"2.44 km²","format":"A4","annee":"2023","cartographes":"Edmond szechenyi","proprietaire":"91 - Essonne","niveau":"Interrégional","specialite":"CO à pied","contacts":"CDCO 91, cd.essonne@ffcorientation.fr","latitude":"48.4843295911","longitude":"2.17434922894","date_saisie":"16/04/2019","valide":"Non","ppo":"Non","type_carte":"Reprise","base":"2023-D91-113 Le bois du Roussay 3","fond":"Ortho","obsolete":false}},{"type":"Feature","geometry":{"type":"Polygon","coordinates":[[[2.3528,48.6734],[2.3539,48.6725],[2.3553,48.6712],[2.3571,48.6719],[2.358,48.6728],[2.3588,48.6733],[2.3586,48.6742],[2.3589,48.6749],[2.3577,48.6758],[2.3561,48.6764],[2.3548,48.6751],[2.3539,48.6754],[2.3527,48.6746],[2.3535,48.6741],[2.3528,48.6734]]]},"properties":{"id_ffco":"2018-D91-112","nom":"Lycée COROT","_dept":"91","numero":"2018-D91-112","commune":"Savigny sur Orge","echelle":"1/2500","surface":"0.16 km²","format":"A4","annee":"2018","cartographes":"Alain Roulleaux","proprietaire":"91 - Essonne","niveau":"Initiation, Scolaire","specialite":"CO à pied","latitude":"48.6738255604","longitude":"2.35593687516","date_saisie":"08/12/2018","date_depot":"28/12/2018","valide":"Oui","ppo":"Non","type_carte":"Nouvelle carte","fond":"Ortho","obsolete":false}},{"type":"Feature","geometry":{"type":"Polygon","coordinates":[[[2.0035,48.5243],[2.0093,48.5324],[2.0229,48.5303],[2.0227,48.5279],[2.0191,48.5274],[2.0159,48.5279],[2.0149,48.5254],[2.0166,48.5228],[2.0162,48.5217],[2.0035,48.5243]]]},"properties":{"id_ffco":"2023-D91-111","nom":"Dourdan","_dept":"91","numero":"2023-D91-111","commune":"Dourdan","echelle":"1/4000","surface":"0.9 km²","format":"A4","annee":"2023","cartographes":"BESTEL-ROULLEAUX","proprietaire":"91 - Essonne","niveau":"National, International","specialite":"Sprint (ISSOM)","contacts":"CDCO 91, cd.essonne@ffcorientation.fr","latitude":"48.5274289549","longitude":"2.01260302823","date_saisie":"17/02/2018","date_depot":"28/12/2018","valide":"Oui","ppo":"Oui (40 postes)","type_carte":"Reprise","base":"2023-D91-111 Dourdan","fond":"Ortho","obsolete":false}},{"type":"Feature","geometry":{"type":"Polygon","coordinates":[[[2.0114,48.5253],[2.0122,48.5268],[2.015,48.5261],[2.0144,48.5241],[2.0118,48.5248],[2.0114,48.5253]]]},"properties":{"id_ffco":"2017-D91-110","nom":"Parc Lejars Rouillon","_dept":"91","numero":"2017-D91-110","commune":"Dourdan","echelle":"1/1500","surface":"0.05 km²","format":"A4","annee":"2017","cartographes":"Alain Roulleaux","proprietaire":"91 - Essonne","niveau":"O+","specialite":"CO à pied","contacts":"Mairie de Dourdan, Esplanade Jean Moulin, Gaetan Brégeon, 91410, Dourdan, 01 60 81 14 14 , https://www.mairie-dourdan.fr/","latitude":"48.5254840338","longitude":"2.01323416663","date_saisie":"26/10/2017","valide":"Non","ppo":"Oui (20 postes)","type_carte":"Nouvelle carte","fond":"Ortho","obsolete":false}},{"type":"Feature","geometry":{"type":"Polygon","coordinates":[[[2.0148,48.5288],[2.0172,48.5302],[2.0199,48.5302],[2.0201,48.5273],[2.0149,48.5278],[2.0148,48.5288]]]},"properties":{"id_ffco":"2017-D91-109","nom":"Parterre François Mitterrand","_dept":"91","numero":"2017-D91-109","commune":"Dourdan","echelle":"1/2000","surface":"0.1 km²","format":"A4","annee":"2017","cartographes":"Alain Roulleaux","proprietaire":"91 - Essonne","niveau":"O+","specialite":"CO à pied","contacts":"Mairie de Dourdan, Esplanade Jean Moulin, Gaetan Brégeon, 91410, Dourdan, 01 60 81 14 14 , https://www.mairie-dourdan.fr/","latitude":"48.528729883","longitude":"2.01775265613","date_saisie":"26/10/2017","valide":"Non","ppo":"Non","type_carte":"Nouvelle carte","fond":"Ortho","obsolete":false}},{"type":"Feature","geometry":{"type":"Polygon","coordinates":[[[2.4563,48.4962],[2.4478,48.508],[2.4418,48.5093],[2.4448,48.5135],[2.4585,48.5088],[2.4606,48.5115],[2.4787,48.5053],[2.4829,48.5018],[2.4824,48.4995],[2.4787,48.4951],[2.4693,48.4969],[2.4619,48.4967],[2.4563,48.4962]]]},"properties":{"id_ffco":"2017-D91-108","nom":"La tour du buisson VTT","_dept":"91","numero":"2017-D91-108","commune":"Champcueil","echelle":"1/15000","surface":"3.25 km²","format":"A4","annee":"2017","cartographes":"Nicolas Pinsard","proprietaire":"91 - Essonne","niveau":"Régional","specialite":"CO à VTT","contacts":"CDCO 91, cd.essonne@ffcorientation.fr","latitude":"48.5035564958","longitude":"2.46384829862","date_saisie":"22/02/2017","date_depot":"26/09/2017","valide":"Oui","ppo":"Non","type_carte":"Reprise","base":"2006-D91-83 BEAUVAIS VTT","fond":"Ortho","obsolete":false}},{"type":"Feature","geometry":{"type":"Polygon","coordinates":[[[2.0523,48.5837],[2.0564,48.5869],[2.0552,48.5878],[2.0578,48.5887],[2.0564,48.5895],[2.0548,48.5892],[2.0545,48.5896],[2.055,48.5902],[2.0563,48.5901],[2.0573,48.5911],[2.0578,48.5925],[2.0577,48.5934],[2.0596,48.5951],[2.0611,48.5963],[2.0593,48.5983],[2.0538,48.6036],[2.0497,48.6085],[2.0439,48.6066],[2.0426,48.6045],[2.0389,48.6049],[2.0386,48.6034],[2.0379,48.6035],[2.0377,48.6024],[2.0344,48.6025],[2.0339,48.6026],[2.0318,48.5945],[2.0315,48.5938],[2.0351,48.5934],[2.0356,48.5919],[2.0331,48.5894],[2.0344,48.5878],[2.037,48.5888],[2.0448,48.5851],[2.0494,48.5836],[2.0523,48.5837]]]},"properties":{"id_ffco":"2023-D91-107","nom":"ANGERVILLIERS","_dept":"91","numero":"2023-D91-107","commune":"ANGERVILLIERS","echelle":"1/10000","surface":"3.78 km²","format":"A3","annee":"2023","cartographes":"Edmond szechenyi","proprietaire":"91 - Essonne","niveau":"Régional","specialite":"CO à pied","contacts":"CDCO 91, cd.essonne@ffcorientation.fr","latitude":"48.5955861832","longitude":"2.04617044064","date_saisie":"05/11/2016","date_depot":"24/11/2016","valide":"Oui","ppo":"Non","type_carte":"Reprise","base":"2023-D91-107 ANGERVILLIERS","fond":"Ortho","obsolete":false}},{"type":"Feature","geometry":{"type":"Polygon","coordinates":[[[2.1254,48.5479],[2.1186,48.5458],[2.1171,48.5468],[2.1233,48.5495],[2.1248,48.5488],[2.1254,48.5479]]]},"properties":{"id_ffco":"2016-D91-106","nom":"SAINT CHÉRON 1","_dept":"91","numero":"2016-D91-106","commune":"SAINT CHÉRON","echelle":"1/2000","surface":"0.11 km²","format":"A4","annee":"2016","cartographes":"Bruno Lejeune, Alain Rouleaux","proprietaire":"91 - Essonne","niveau":"Initiation, Scolaire","specialite":"CO à pied","contacts":"CDCO 91, cd.essonne@ffcorientation.fr","latitude":"48.5476129941","longitude":"2.12145521029","date_saisie":"04/04/2016","date_depot":"26/09/2017","valide":"Oui","ppo":"Non","type_carte":"Nouvelle carte","fond":"Ortho","obsolete":false}},{"type":"Feature","geometry":{"type":"Polygon","coordinates":[[[2.1244,48.5496],[2.1267,48.5504],[2.1292,48.5504],[2.1301,48.5494],[2.1282,48.5487],[2.1267,48.5485],[2.1254,48.5479],[2.1244,48.5496]]]},"properties":{"id_ffco":"2016-D91-105","nom":"Saint Cheron 2","_dept":"91","numero":"2016-D91-105","commune":"SAINT CHÉRON","echelle":"1/1000","surface":"0.07 km²","format":"A4","annee":"2016","cartographes":"Bruno Lejeune, Alain Roulleaux","proprietaire":"91 - Essonne","niveau":"Initiation, Scolaire","specialite":"CO à pied","contacts":"CDCO 91, cd.essonne@ffcorientation.fr","latitude":"48.5494050642","longitude":"2.12710204891","date_saisie":"04/04/2016","date_depot":"26/09/2017","valide":"Oui","ppo":"Non","type_carte":"Nouvelle carte","fond":"Ortho","obsolete":false}},{"type":"Feature","geometry":{"type":"Polygon","coordinates":[[[2.4141,48.6208],[2.4138,48.6184],[2.4138,48.6175],[2.4162,48.6135],[2.4184,48.6142],[2.4217,48.6166],[2.4202,48.6183],[2.4141,48.6208]]]},"properties":{"id_ffco":"2015-D91-104","nom":"Courcouronnes","_dept":"91","numero":"2015-D91-104","commune":"COURCOURONNES","echelle":"1/4000","surface":"0.27 km²","format":"A4","annee":"2015","cartographes":"Alain Roulleaux","proprietaire":"91 - Essonne","niveau":"Initiation, Scolaire","specialite":"Sprint (ISSOM)","contacts":"CDCO 91, cd.essonne@ffcorientation.fr","latitude":"48.6170592778","longitude":"2.41713074121","date_saisie":"10/11/2015","date_depot":"11/03/2016","valide":"Oui","ppo":"Non","type_carte":"Nouvelle carte","fond":"Ortho","obsolete":false}},{"type":"Feature","geometry":{"type":"Polygon","coordinates":[[[2.5177,48.6982],[2.5216,48.701],[2.5223,48.7044],[2.5247,48.7052],[2.5275,48.7044],[2.5309,48.7005],[2.5319,48.6984],[2.5317,48.6967],[2.5315,48.6952],[2.5289,48.6943],[2.5258,48.6938],[2.5255,48.696],[2.5222,48.6979],[2.5177,48.6982]]]},"properties":{"id_ffco":"2015-D91-103","nom":"Le pré des agneaux Epinay sous Sénart","_dept":"91","numero":"2015-D91-103","commune":"Epinay sous sénart","echelle":"1/5000","surface":"0.71 km²","format":"A4","annee":"2015","cartographes":"Alain Roulleaux","proprietaire":"91 - Essonne","niveau":"Initiation, Scolaire","specialite":"Sprint (ISSOM)","latitude":"48.6994914951","longitude":"2.5261486356","date_saisie":"10/11/2015","date_depot":"11/03/2016","valide":"Oui","ppo":"Non","type_carte":"Nouvelle carte","fond":"Ortho","obsolete":false}},{"type":"Feature","geometry":{"type":"Polygon","coordinates":[[[2.2503,48.7514],[2.2491,48.7519],[2.2515,48.7528],[2.2528,48.7518],[2.2503,48.7514]]]},"properties":{"id_ffco":"2012-D91-102","nom":"Le sentier des Sitelles O précision","_dept":"91","numero":"2012-D91-102","commune":"VERRIERES LE BUISSON","echelle":"1/2000","surface":"0.02 km²","format":"A4","annee":"2012","cartographes":"Fredéric Fischer","proprietaire":"91 - Essonne","niveau":"Départemental","specialite":"CO à pied","contacts":"CDCO 91, cd.essonne@ffcorientation.fr","latitude":"48.7520377696","longitude":"2.25099795425","date_saisie":"25/04/2015","date_depot":"26/09/2017","valide":"Oui","ppo":"Non","type_carte":"Extrait","base":"2013-D91-022 BOIS DE VERRIERES","fond":"Cadastre","obsolete":false}},{"type":"Feature","geometry":{"type":"Polygon","coordinates":[[[1.9695,48.5196],[1.971,48.52],[1.9708,48.5191],[1.9695,48.5196]]]},"properties":{"id_ffco":"2013-D91-101","nom":"Le Grillon","_dept":"91","numero":"2013-D91-101","commune":"Sainte Mesme","echelle":"1/500","surface":"0.0 km²","format":"A4","annee":"2013","cartographes":"Frédéric Fischer","proprietaire":"91 - Essonne","niveau":"Départemental","specialite":"CO à pied","contacts":"CDCO 91, cd.essonne@ffcorientation.fr","latitude":"48.5195749084","longitude":"1.97044730186","date_saisie":"25/04/2015","date_depot":"26/09/2017","valide":"Oui","ppo":"Non","type_carte":"Extrait","base":"2021-D91-069 La belette 2","fond":"Ortho","obsolete":false}},{"type":"Feature","geometry":{"type":"Polygon","coordinates":[[[2.2454,48.6855],[2.2421,48.677],[2.2471,48.6733],[2.2744,48.6699],[2.2785,48.6765],[2.2701,48.6786],[2.2454,48.6855]]]},"properties":{"id_ffco":"2023-D91-100","nom":"Rocher de Saulx","_dept":"91","numero":"2023-D91-100","commune":"Saulx les Chartreux","echelle":"1/10000","surface":"2.57 km²","format":"A4","annee":"2023","cartographes":"ROULLEAUX","proprietaire":"91 - Essonne","niveau":"Régional","specialite":"CO à pied","contacts":"CDCO 91, cd.essonne@ffcorientation.fr","latitude":"48.6768391027","longitude":"2.25883038206","date_saisie":"25/04/2015","date_depot":"26/09/2017","valide":"Oui","ppo":"Non","type_carte":"Reprise","base":"2023-D91-100 Rocher de Saulx","fond":"Ortho","obsolete":false}},{"type":"Feature","geometry":{"type":"Polygon","coordinates":[[[2.4179,48.6758],[2.4213,48.6759],[2.4254,48.6772],[2.4281,48.6767],[2.4299,48.6771],[2.4287,48.6784],[2.4291,48.6786],[2.4284,48.6793],[2.4298,48.68],[2.4304,48.6807],[2.4416,48.6719],[2.432,48.6655],[2.4283,48.6682],[2.4253,48.6658],[2.4183,48.6698],[2.4169,48.6692],[2.4148,48.6716],[2.4174,48.6729],[2.417,48.6748],[2.4176,48.6751],[2.4179,48.6758]]]},"properties":{"id_ffco":"2014-D91-09","nom":"CHENE ANTIN","_dept":"91","numero":"2014-D91-09","commune":"DRAVEIL","echelle":"1/10000","surface":"1.74 km²","format":"A4","annee":"2014","cartographes":"Alain Roulleaux","proprietaire":"91 - Essonne","niveau":"Départemental","specialite":"CO à pied","contacts":"CDCO 91, cd.essonne@ffcorientation.fr","latitude":"48.6723286642","longitude":"2.42841197813","date_depot":"11/03/2016","valide":"Oui","ppo":"Non","type_carte":"Nouvelle carte","fond":"Ortho","obsolete":false}},{"type":"Feature","geometry":{"type":"Polygon","coordinates":[[[1.9769,48.5074],[1.963,48.5155],[1.9629,48.5177],[1.9613,48.5215],[1.9634,48.5248],[1.9704,48.5271],[1.9764,48.5265],[1.98,48.5277],[1.9917,48.5281],[1.9969,48.5204],[1.9769,48.5074]]]},"properties":{"id_ffco":"2021-D91-069","nom":"La belette 2","_dept":"91","numero":"2021-D91-069","commune":"Dourdan","echelle":"1/10000","surface":"3.87 km²","format":"A3","annee":"2021","cartographes":"Alain Roulleaux, Frederic Fischer","proprietaire":"91 - Essonne","niveau":"Régional","specialite":"CO à pied","contacts":"CDCO 91, cd.essonne@ffcorientation.fr","latitude":"48.5194211745","longitude":"1.97831108279","date_saisie":"09/08/2010","date_depot":"22/09/2010","valide":"Oui","ppo":"Non","type_carte":"Reprise","base":"2021-D91-069 La belette 2","fond":"Ortho","obsolete":false}},{"type":"Feature","geometry":{"type":"Polygon","coordinates":[[[2.2959,48.5598],[2.2981,48.5587],[2.2992,48.5606],[2.2968,48.5618],[2.2959,48.5598]]]},"properties":{"id_ffco":"2009-D91-068","nom":"stade marolles","_dept":"91","numero":"2009-D91-068","commune":"Marolles en Hurepoix","echelle":"1/750","surface":"0.05 km²","format":"A4","annee":"2009","cartographes":"A Deneubourg","proprietaire":"91 - Essonne","niveau":"Initiation, Scolaire","specialite":"CO à pied","contacts":"CDCO 91, cd.essonne@ffcorientation.fr","latitude":"48.5602346869","longitude":"2.29751995387","date_saisie":"09/08/2010","date_depot":"22/09/2010","valide":"Oui","ppo":"Non","type_carte":"Nouvelle carte","fond":"Ortho","obsolete":false}},{"type":"Feature","geometry":{"type":"Polygon","coordinates":[[[2.3056,48.5652],[2.3068,48.5668],[2.3083,48.5662],[2.3074,48.5646],[2.3068,48.5648],[2.3066,48.5646],[2.3056,48.5652]]]},"properties":{"id_ffco":"2009-D91-067","nom":"Collège de MAROLLES","_dept":"91","numero":"2009-D91-067","commune":"Marolles en Hurepoix","echelle":"1/1000","surface":"0.03 km²","format":"A4","annee":"2009","cartographes":"B Lejeune","proprietaire":"91 - Essonne","niveau":"Initiation, Scolaire","specialite":"CO à pied","contacts":"CDCO 91, cd.essonne@ffcorientation.fr","latitude":"48.5656411721","longitude":"2.30694377771","date_saisie":"09/08/2010","date_depot":"22/09/2010","valide":"Oui","ppo":"Non","type_carte":"Nouvelle carte","fond":"Ortho","obsolete":false}},{"type":"Feature","geometry":{"type":"Polygon","coordinates":[[[2.3154,48.674],[2.3127,48.676],[2.3114,48.6757],[2.3099,48.6738],[2.3079,48.6757],[2.3083,48.6767],[2.3119,48.6781],[2.3163,48.6743],[2.3154,48.674]]]},"properties":{"id_ffco":"2009-D91-065","nom":"Epinay /s Orge - Parc des templiers","_dept":"91","numero":"2009-D91-065","commune":"Epinay sur Orge","echelle":"1/3000","surface":"0.12 km²","format":"A4","annee":"2009","cartographes":"A Roulleaux","proprietaire":"91 - Essonne","niveau":"Initiation, Scolaire","specialite":"CO à pied","contacts":"CDCO 91, cd.essonne@ffcorientation.fr","latitude":"48.6760108334","longitude":"2.31136002012","date_saisie":"09/08/2010","date_depot":"22/09/2010","valide":"Oui","ppo":"Non","type_carte":"Nouvelle carte","fond":"Ortho","obsolete":false}},{"type":"Feature","geometry":{"type":"Polygon","coordinates":[[[2.2186,48.643],[2.2227,48.6458],[2.2239,48.6452],[2.2235,48.6443],[2.2259,48.6433],[2.2249,48.6426],[2.2264,48.6415],[2.2257,48.641],[2.2239,48.642],[2.2226,48.6402],[2.2186,48.643]]]},"properties":{"id_ffco":"2009-D91-063","nom":"PARC DES CELESTINS","_dept":"91","numero":"2009-D91-063","commune":"Marcoussis","echelle":"1/2000","surface":"0.17 km²","format":"A4","annee":"2009","cartographes":"A Deneubourg","proprietaire":"91 - Essonne","niveau":"Initiation, Scolaire","specialite":"CO à pied","contacts":"CDCO 91, cd.essonne@ffcorientation.fr","latitude":"48.6429571186","longitude":"2.22246707975","date_saisie":"09/08/2010","date_depot":"22/09/2010","valide":"Oui","ppo":"Non","type_carte":"Nouvelle carte","fond":"Ortho","obsolete":false}},{"type":"Feature","geometry":{"type":"Polygon","coordinates":[[[2.2237,48.7408],[2.215,48.7364],[2.2122,48.7366],[2.2092,48.7389],[2.2095,48.7402],[2.2114,48.7416],[2.2092,48.7433],[2.2091,48.7459],[2.2007,48.7487],[2.2031,48.7498],[2.2169,48.7483],[2.2218,48.7444],[2.2234,48.7427],[2.2237,48.7408]]]},"properties":{"id_ffco":"2009-D91-062","nom":"LES BOIS BRÛLES","_dept":"91","numero":"2009-D91-062","commune":"Igny","echelle":"1/5000","surface":"1.21 km²","format":"A4","annee":"2009","cartographes":"A Roulleaux","proprietaire":"91 - Essonne","niveau":"Départemental","specialite":"CO à pied","contacts":"CDCO 91, cd.essonne@ffcorientation.fr","latitude":"48.7434258901","longitude":"2.21415552499","date_saisie":"19/03/2010","date_depot":"26/03/2010","valide":"Oui","ppo":"Non","type_carte":"Reprise","base":"1999-D91-30 IGNY -  LES BOIS BRULES","fond":"Ortho","obsolete":false}},{"type":"Feature","geometry":{"type":"Polygon","coordinates":[[[2.1733,48.6868],[2.1737,48.6914],[2.1724,48.6929],[2.1686,48.6927],[2.1667,48.6924],[2.1642,48.6914],[2.1624,48.6896],[2.1615,48.6886],[2.1621,48.6879],[2.1679,48.687],[2.1733,48.6868]]]},"properties":{"id_ffco":"2009-D91-061","nom":"Les Ulis - Parc nord","_dept":"91","numero":"2009-D91-061","commune":"Les Ulis","echelle":"1/4000","surface":"0.46 km²","format":"A4","annee":"2009","cartographes":"E Szechenyi, A Roulleaux","proprietaire":"91 - Essonne","niveau":"Régional","specialite":"CO à pied","contacts":"CDCO 91, cd.essonne@ffcorientation.fr","latitude":"48.6897176771","longitude":"2.16848883153","date_saisie":"19/03/2010","date_depot":"26/03/2010","valide":"Oui","ppo":"Non","type_carte":"Nouvelle carte","fond":"Ortho","obsolete":false}},{"type":"Feature","geometry":{"type":"Polygon","coordinates":[[[2.1707,48.4927],[2.1813,48.4894],[2.1881,48.4868],[2.1907,48.4847],[2.1908,48.4805],[2.1897,48.4773],[2.1815,48.4779],[2.1801,48.4786],[2.1801,48.4798],[2.179,48.4801],[2.1696,48.4806],[2.161,48.481],[2.1595,48.4836],[2.1597,48.4863],[2.1662,48.4903],[2.1702,48.4927],[2.1707,48.4927]]]},"properties":{"id_ffco":"2008-D91-060","nom":"LE BOIS DU ROUSSAY 2","_dept":"91","numero":"2008-D91-060","commune":"Etrechy","echelle":"1/10000","surface":"2.5 km²","format":"A4","annee":"2008","cartographes":"A Godet, B Lejeune","proprietaire":"91 - Essonne","niveau":"Départemental","specialite":"CO à pied","contacts":"CDCO 91, cd.essonne@ffcorientation.fr","latitude":"48.4846916806","longitude":"2.17570180876","date_saisie":"19/03/2010","date_depot":"26/03/2010","valide":"Oui","ppo":"Non","type_carte":"Reprise","base":"2008-D91-060 LE BOIS DU ROUSSAY 2","fond":"Ortho","obsolete":false}},{"type":"Feature","geometry":{"type":"Polygon","coordinates":[[[2.2629,48.5854],[2.2651,48.5844],[2.2696,48.5837],[2.2722,48.5863],[2.2689,48.5879],[2.2672,48.5882],[2.2666,48.5876],[2.2644,48.5861],[2.2629,48.5854]]]},"properties":{"id_ffco":"2008-D91-059","nom":"Bois de la Galanderie","_dept":"91","numero":"2008-D91-059","commune":"La Norville","echelle":"1/2500","surface":"0.19 km²","format":"A4","annee":"2008","cartographes":"B Lejeune","proprietaire":"91 - Essonne","niveau":"Départemental","specialite":"CO à pied","contacts":"CDCO 91, cd.essonne@ffcorientation.fr","latitude":"48.5858408574","longitude":"2.26786167465","date_saisie":"10/11/2009","date_depot":"17/11/2009","valide":"Oui","ppo":"Non","type_carte":"Nouvelle carte","fond":"Ortho","obsolete":false}},{"type":"Feature","geometry":{"type":"Polygon","coordinates":[[[2.1521,48.6192],[2.157,48.6189],[2.1646,48.6096],[2.1619,48.6081],[2.1639,48.6073],[2.1573,48.6047],[2.1543,48.6076],[2.1548,48.6108],[2.153,48.6122],[2.1539,48.6138],[2.1538,48.6146],[2.1521,48.6192]]]},"properties":{"id_ffco":"2008-D91-058","nom":"Parc de Fontenay les Briis","_dept":"91","numero":"2008-D91-058","commune":"Fontenay les Briis","echelle":"1/5000","surface":"0.82 km²","format":"A4","annee":"2008","cartographes":"G Goret","proprietaire":"91 - Essonne","niveau":"Départemental","specialite":"CO à pied","contacts":"CDCO 91, cd.essonne@ffcorientation.fr","latitude":"48.6118104207","longitude":"2.15784936844","date_saisie":"10/11/2009","date_depot":"17/11/2009","valide":"Oui","ppo":"Non","type_carte":"Nouvelle carte","fond":"Ortho","obsolete":false}},{"type":"Feature","geometry":{"type":"Polygon","coordinates":[[[2.2131,48.5196],[2.2162,48.5196],[2.2165,48.5184],[2.2215,48.5163],[2.2262,48.5164],[2.2325,48.5156],[2.2388,48.5164],[2.2464,48.5184],[2.2411,48.5254],[2.2367,48.5234],[2.2357,48.5225],[2.2341,48.5231],[2.227,48.5229],[2.2242,48.523],[2.2186,48.5211],[2.218,48.5206],[2.2141,48.5204],[2.2131,48.5196]]]},"properties":{"id_ffco":"2025-D91-057","nom":"L'allée Royale","_dept":"91","numero":"2025-D91-057","commune":"Chamarande","echelle":"1/7500","surface":"1.5 km²","format":"A4","annee":"2025","cartographes":"A Roulleaux","proprietaire":"91 - Essonne","niveau":"Régional","specialite":"CO à pied","contacts":"CDCO 91, cd.essonne@ffcorientation.fr","latitude":"48.5197497518","longitude":"2.23155059816","date_saisie":"10/11/2009","date_depot":"17/11/2009","valide":"Oui","ppo":"Non","type_carte":"Reprise","base":"2025-D91-057 L'allée Royale","fond":"Ortho","obsolete":false}},{"type":"Feature","geometry":{"type":"Polygon","coordinates":[[[2.1847,48.6925],[2.1924,48.6937],[2.1921,48.6917],[2.1903,48.6884],[2.1899,48.6885],[2.1897,48.6904],[2.1861,48.6903],[2.184,48.691],[2.185,48.6915],[2.1847,48.6925]]]},"properties":{"id_ffco":"2020-D91-053","nom":"Bois de la Cyprenne","_dept":"91","numero":"2020-D91-053","commune":"Orsay","echelle":"1/5000","surface":"0.18 km²","format":"A4","annee":"2020","cartographes":"N Rauturier","proprietaire":"Mairie d'Orsay","niveau":"Initiation, Scolaire","specialite":"CO à pied","contacts":"CDCO 91, cd.essonne@ffcorientation.fr","latitude":"48.6915801907","longitude":"2.18882034167","date_saisie":"04/11/2009","date_depot":"06/11/2009","valide":"Oui","ppo":"Non","type_carte":"Reprise","base":"2020-D91-053 Bois de la Cyprenne","fond":"Cadastre","obsolete":false}},{"type":"Feature","geometry":{"type":"Polygon","coordinates":[[[2.4698,48.4976],[2.4728,48.4993],[2.4812,48.4972],[2.4831,48.5016],[2.4788,48.5056],[2.4742,48.5067],[2.4704,48.5083],[2.4664,48.5065],[2.4693,48.5015],[2.4685,48.4993],[2.4698,48.499],[2.4698,48.4976]]]},"properties":{"id_ffco":"2021-D91-052","nom":"Le ROCHER du DUC","_dept":"91","numero":"2021-D91-052","commune":"Champcueil","echelle":"1/7500","surface":"0.92 km²","format":"A4","annee":"2021","cartographes":"G Goret","proprietaire":"91 - Essonne","niveau":"Départemental","specialite":"CO à pied","contacts":"CDCO 91, cd.essonne@ffcorientation.fr","latitude":"48.5025519909","longitude":"2.47467448647","date_saisie":"04/11/2009","date_depot":"06/11/2009","valide":"Oui","ppo":"Non","type_carte":"Reprise","base":"2021-D91-052 Le ROCHER du DUC","fond":"Ortho","obsolete":false}},{"type":"Feature","geometry":{"type":"Polygon","coordinates":[[[2.3032,48.3919],[2.3055,48.3929],[2.3069,48.3926],[2.3066,48.3918],[2.308,48.3915],[2.3104,48.3911],[2.3114,48.3906],[2.3105,48.3898],[2.3078,48.3871],[2.3099,48.387],[2.3095,48.3859],[2.3051,48.386],[2.3032,48.3919]]]},"properties":{"id_ffco":"2007-D91-051","nom":"Valpuiseaux Moque-Bouteille","_dept":"91","numero":"2007-D91-051","commune":"Valpuiseaux","echelle":"1/4000","surface":"0.28 km²","format":"A4","annee":"2007","cartographes":"A Roulleaux","proprietaire":"91 - Essonne","niveau":"Initiation, Scolaire","specialite":"CO à pied","contacts":"CDCO 91, cd.essonne@ffcorientation.fr","latitude":"48.3893690786","longitude":"2.30685389292","date_saisie":"04/11/2009","date_depot":"06/11/2009","valide":"Oui","ppo":"Non","type_carte":"Nouvelle carte","fond":"Cadastre","obsolete":false}},{"type":"Feature","geometry":{"type":"Polygon","coordinates":[[[2.447,48.5108],[2.4588,48.509],[2.467,48.5072],[2.4681,48.5087],[2.4723,48.5078],[2.4753,48.5062],[2.4788,48.5053],[2.483,48.5018],[2.4821,48.4982],[2.4813,48.4976],[2.4695,48.4976],[2.4641,48.4981],[2.4566,48.4964],[2.447,48.5108]]]},"properties":{"id_ffco":"2025-D91-048","nom":"Grands Avaux","_dept":"91","numero":"2025-D91-048","commune":"Champcueil","echelle":"1/10000","surface":"2.55 km²","format":"A4","annee":"2025","cartographes":"Alain Roulleaux, Edmond Szechenyi","proprietaire":"91 - Essonne","niveau":"Régional","specialite":"CO à pied","contacts":"CDCO 91, cd.essonne@ffcorientation.fr","latitude":"48.5031210724","longitude":"2.46529791464","date_saisie":"03/12/2006","date_depot":"28/12/2006","valide":"Oui","ppo":"Non","type_carte":"Reprise","base":"2025-D91-048 Grands Avaux","fond":"Ortho","obsolete":false}},{"type":"Feature","geometry":{"type":"Polygon","coordinates":[[[2.2107,48.5096],[2.2139,48.5127],[2.2145,48.5129],[2.2149,48.5126],[2.216,48.5125],[2.2172,48.5129],[2.218,48.5128],[2.2184,48.513],[2.2182,48.5136],[2.2219,48.516],[2.2237,48.5162],[2.2252,48.5162],[2.228,48.5155],[2.2305,48.5144],[2.2297,48.5124],[2.2288,48.5126],[2.2282,48.5123],[2.2281,48.5115],[2.2265,48.5113],[2.2244,48.51],[2.2237,48.5094],[2.2233,48.508],[2.222,48.5068],[2.2196,48.5049],[2.2115,48.5082],[2.2107,48.5096]]]},"properties":{"id_ffco":"2022-D91-032","nom":"DOMAINE DE CHAMARANDE","_dept":"91","numero":"2022-D91-032","commune":"CHAMARANDE","echelle":"1/5000","surface":"0.94 km²","format":"A3","annee":"2022","cartographes":"Alain Roulleaux","proprietaire":"91 - Essonne","niveau":"Régional","specialite":"Sprint (ISSOM)","contacts":"CDCO 91, cd.essonne@ffcorientation.fr","latitude":"48.5109973627","longitude":"2.2203995734","date_depot":"11/03/2016","valide":"Oui","ppo":"Non","type_carte":"Reprise","base":"2022-D91-032 DOMAINE DE CHAMARANDE","fond":"Ortho","obsolete":false}},{"type":"Feature","geometry":{"type":"Polygon","coordinates":[[[2.2307,48.7758],[2.2344,48.7762],[2.2374,48.7756],[2.2427,48.7722],[2.2445,48.7663],[2.2503,48.7614],[2.2614,48.7593],[2.2635,48.7554],[2.2613,48.7527],[2.258,48.7511],[2.2539,48.7471],[2.2496,48.7417],[2.2432,48.7405],[2.236,48.7421],[2.2325,48.7453],[2.2246,48.7527],[2.2236,48.7555],[2.2245,48.7591],[2.2293,48.7635],[2.2343,48.7676],[2.2307,48.7716],[2.2307,48.7758]]]},"properties":{"id_ffco":"2013-D91-022","nom":"BOIS DE VERRIERES","_dept":"91","numero":"2013-D91-022","commune":"VERRIERES LE BUISSON","echelle":"1/15000","surface":"6.31 km²","format":"A4","annee":"2013","cartographes":"Frederic Fischer","proprietaire":"91 - Essonne","niveau":"Interrégional","specialite":"CO à pied","contacts":"CDCO 91, cd.essonne@ffcorientation.fr","latitude":"48.7562808069","longitude":"2.24146246242","date_depot":"11/03/2016","valide":"Oui","ppo":"Non","type_carte":"Reprise","base":"2013-D91-022 BOIS DE VERRIERES","fond":"Ortho","obsolete":false}},{"type":"Feature","geometry":{"type":"Polygon","coordinates":[[[1.9502,48.5586],[1.9267,48.5481],[1.9687,48.5308],[1.9765,48.5288],[1.9872,48.5308],[1.9872,48.5333],[1.9895,48.5343],[1.9947,48.5364],[2.0019,48.5353],[2.0019,48.536],[1.9992,48.5378],[2.0001,48.5387],[1.9946,48.5428],[1.9502,48.5586]]]},"properties":{"id_ffco":"2022-D91-017","nom":"ST ARNOULD 7","_dept":"91","numero":"2022-D91-017","commune":"DOURDAN","echelle":"1/15000","surface":"8.74 km²","format":"A3","annee":"2022","cartographes":"Alain Roulleaux, Edmond Szechenyi","proprietaire":"91 - Essonne","niveau":"Régional","specialite":"CO à pied","contacts":"CDCO 91, cd.essonne@ffcorientation.fr","latitude":"48.5433445439","longitude":"1.96452908512","date_depot":"03/08/1994","valide":"Oui","ppo":"Non","type_carte":"Reprise","base":"2022-D91-017 ST ARNOULD 7","fond":"Cadastre","obsolete":false}}]}