{"type":"FeatureCollection","features":[{"type":"Feature","geometry":{"type":"Polygon","coordinates":[[[2.3079,48.9337],[2.3076,48.9343],[2.308,48.9359],[2.3066,48.9387],[2.3121,48.9381],[2.3137,48.938],[2.3137,48.9387],[2.3139,48.9393],[2.3149,48.94],[2.311,48.9411],[2.3117,48.9417],[2.3155,48.9407],[2.3173,48.9429],[2.3209,48.9415],[2.3215,48.942],[2.3199,48.9427],[2.3198,48.9434],[2.3205,48.9435],[2.3214,48.9446],[2.3237,48.9443],[2.3243,48.9451],[2.3257,48.9449],[2.3248,48.9435],[2.324,48.9435],[2.3235,48.942],[2.3221,48.9415],[2.3216,48.9411],[2.3232,48.9404],[2.3236,48.9395],[2.3157,48.9385],[2.3145,48.9378],[2.3172,48.937],[2.3185,48.936],[2.3195,48.9346],[2.3079,48.9337]]]},"properties":{"id_ffco":"2022-D92-76","nom":"PARC DEPARTEMENTAL DES CHANTERAINES","_dept":"92","numero":"2022-D92-76","commune":"VILLENEUVE-LA-GARENNE","echelle":"1/5000","surface":"0.66 km²","format":"A4","annee":"2022","cartographes":"Stéphane Ruffio","proprietaire":"Département des Hauts-de-Seine","niveau":"Initiation, Scolaire","specialite":"Sprint (ISSOM)","contacts":"Stephane RUFFIO, Conseil Général des Hauts-de-Seine Direction des Actions Sportives, 28 boulevard Emile Zola , 92020, NANTERRE, 01 41 37 13 53","latitude":"48.9385082265","longitude":"2.31564087691","date_saisie":"18/06/2024","valide":"Non","ppo":"Non","type_carte":"Reprise","base":"2016-D92-50 PARC DEPARTEMENTAL DES CHANTERAINES","fond":"Ortho","obsolete":false}},{"type":"Feature","geometry":{"type":"Polygon","coordinates":[[[2.1934,48.9044],[2.1995,48.9007],[2.2,48.9021],[2.1983,48.9032],[2.1994,48.904],[2.2025,48.9031],[2.2029,48.9034],[2.1999,48.906],[2.2044,48.9081],[2.2028,48.909],[2.1992,48.9077],[2.1967,48.9064],[2.1944,48.905],[2.1935,48.9046],[2.1934,48.9044]]]},"properties":{"id_ffco":"2021-D92-75","nom":"Parc départemental du Chemin de l'Ile","_dept":"92","numero":"2021-D92-75","commune":"Nanterre","echelle":"1/2500","surface":"0.27 km²","format":"A4","annee":"2021","cartographes":"Stéphane Ruffio","proprietaire":"Département des Hauts-de-Seine","niveau":"Initiation, Scolaire","specialite":"Sprint (ISSOM)","contacts":"Stephane RUFFIO, Conseil Général des Hauts-de-Seine Direction des Actions Sportives, 28 boulevard Emile Zola , 92020, NANTERRE, 01 41 37 13 53","latitude":"48.9050869171","longitude":"2.19880946579","date_saisie":"25/05/2024","date_depot":"25/07/2024","valide":"Oui","ppo":"Non","type_carte":"Reprise","base":"2018-D92-069 PARC DEPARTEMENTALE DU CHEMIN DE L'ILE","fond":"Ortho","obsolete":false}},{"type":"Feature","geometry":{"type":"Polygon","coordinates":[[[2.2052,48.8391],[2.2037,48.838],[2.2028,48.8371],[2.202,48.837],[2.2009,48.8371],[2.2,48.8373],[2.1989,48.8377],[2.1983,48.8382],[2.1973,48.8389],[2.1966,48.8393],[2.1977,48.8394],[2.1996,48.8395],[2.2009,48.8395],[2.2052,48.8391]]]},"properties":{"id_ffco":"2021-D92-72","nom":"PARC DEPARTEMENTAL DU PRE SAINT JEAN","_dept":"92","numero":"2021-D92-72","commune":"SAINT-CLOUD","echelle":"1/2500","surface":"0.11 km²","format":"A4","annee":"2021","cartographes":"Stéphane Ruffio","proprietaire":"Département des Hauts-de-Seine","niveau":"Initiation, Scolaire","specialite":"Sprint (ISSOM)","contacts":"Stephane RUFFIO, Conseil Général des Hauts-de-Seine Direction des Actions Sportives, 28 boulevard Emile Zola , 92020, NANTERRE, 01 41 37 13 53","latitude":"48.8384387484","longitude":"2.20097952079","date_saisie":"18/06/2024","date_depot":"25/07/2024","valide":"Oui","ppo":"Non","type_carte":"Reprise","base":"2015-D92-49 PARC DEPARTEMENTAL DU PRE SAINT JEAN","fond":"Ortho","obsolete":false}},{"type":"Feature","geometry":{"type":"Polygon","coordinates":[[[2.2213,48.9201],[2.2231,48.919],[2.2252,48.9208],[2.2268,48.9224],[2.2298,48.9238],[2.2371,48.9274],[2.2425,48.9301],[2.241,48.9315],[2.2376,48.9299],[2.2326,48.9275],[2.2307,48.9262],[2.2281,48.9243],[2.2239,48.9217],[2.2216,48.9203],[2.2213,48.9201]]]},"properties":{"id_ffco":"2019-D92-70","nom":"Parc départemental Pierre Lagravère","_dept":"92","numero":"2019-D92-70","commune":"Colombes","echelle":"1/4000","surface":"0.31 km²","format":"A4","annee":"2019","cartographes":"Stéphane Ruffio","proprietaire":"Département des Hauts-de-Seine","niveau":"Initiation, Scolaire","specialite":"Sprint (ISSOM)","contacts":"Stephane RUFFIO, Conseil Général des Hauts-de-Seine Direction des Actions Sportives, 28 boulevard Emile Zola , 92020, NANTERRE, 01 41 37 13 53","latitude":"48.9260102262","longitude":"2.2325642304","date_saisie":"03/05/2020","date_depot":"09/10/2020","valide":"Oui","ppo":"Non","type_carte":"Reprise","base":"2014-D92-43 PARC DEPARTEMENTAL PIERRE LAGRAVERE","fond":"Ortho","obsolete":false}},{"type":"Feature","geometry":{"type":"Polygon","coordinates":[[[2.2504,48.8247],[2.2507,48.8243],[2.2506,48.8242],[2.2507,48.8241],[2.2503,48.824],[2.2506,48.8235],[2.2515,48.823],[2.2519,48.8228],[2.2528,48.8232],[2.2538,48.8236],[2.2557,48.8246],[2.257,48.8253],[2.2581,48.826],[2.2597,48.8273],[2.2599,48.8282],[2.2601,48.8291],[2.2602,48.8299],[2.2591,48.8303],[2.2578,48.8296],[2.2558,48.8283],[2.2537,48.8267],[2.2518,48.8255],[2.2504,48.8247]]]},"properties":{"id_ffco":"2017-D92-67","nom":"PARC DEPARTEMENTAL DE L'ILE SAINT GERMAIN","_dept":"92","numero":"2017-D92-67","commune":"ISSY LES MOULINEAUX","echelle":"1/3500","surface":"0.24 km²","format":"A4","annee":"2017","cartographes":"Stéphane RUFFIO","proprietaire":"DEPARTEMENT DES HAUTS-DE-SEINE","niveau":"Départemental","specialite":"CO à pied","latitude":"48.8263924491","longitude":"2.25561304565","date_saisie":"26/07/2017","date_depot":"26/09/2017","valide":"Oui","ppo":"Non","type_carte":"Nouvelle carte","fond":"Cadastre","obsolete":false}},{"type":"Feature","geometry":{"type":"Polygon","coordinates":[[[2.215,48.8918],[2.2142,48.8919],[2.2122,48.8934],[2.2123,48.894],[2.2154,48.8958],[2.216,48.8958],[2.2166,48.8956],[2.2171,48.8956],[2.2174,48.8953],[2.2173,48.8951],[2.2172,48.8947],[2.2174,48.8946],[2.218,48.8944],[2.2183,48.8943],[2.2192,48.894],[2.2198,48.8938],[2.2203,48.8936],[2.2208,48.8934],[2.2211,48.8933],[2.2213,48.8933],[2.2217,48.8932],[2.2219,48.893],[2.222,48.8925],[2.2223,48.8921],[2.2228,48.8919],[2.2235,48.8922],[2.2239,48.8924],[2.2239,48.8926],[2.2247,48.8925],[2.2254,48.8923],[2.2258,48.892],[2.2261,48.8918],[2.2262,48.8914],[2.2262,48.8912],[2.2262,48.8908],[2.2261,48.8906],[2.2256,48.8904],[2.2251,48.8901],[2.2249,48.8899],[2.2248,48.8902],[2.2246,48.8904],[2.2241,48.8905],[2.2236,48.8905],[2.2231,48.8905],[2.223,48.8905],[2.2227,48.8904],[2.2226,48.8904],[2.2226,48.8905],[2.2219,48.8906],[2.2216,48.8907],[2.2214,48.8905],[2.2212,48.8905],[2.2212,48.8907],[2.2209,48.8907],[2.2206,48.8908],[2.2204,48.8907],[2.2201,48.8906],[2.2198,48.8907],[2.2195,48.891],[2.219,48.8911],[2.2186,48.8913],[2.2181,48.8915],[2.2176,48.8916],[2.2174,48.8916],[2.2172,48.8915],[2.2169,48.8914],[2.2167,48.8913],[2.2166,48.8913],[2.2167,48.8915],[2.2158,48.892],[2.2156,48.892],[2.2152,48.892],[2.215,48.8918]]]},"properties":{"id_ffco":"2017-D92-58","nom":"PARC DEPARTEMENTAL ANDRE MALRAUX","_dept":"92","numero":"2017-D92-58","commune":"NANTERRE","echelle":"1/3500","surface":"0.3 km²","format":"A4","annee":"2017","cartographes":"Stéphane RUFFIO","proprietaire":"DEPARTEMENT DES HAUTS-DE-SEINE","niveau":"Départemental","specialite":"CO à pied","latitude":"48.8927316359","longitude":"2.21868940524","date_saisie":"26/07/2017","date_depot":"26/09/2017","valide":"Oui","ppo":"Non","type_carte":"Nouvelle carte","fond":"Cadastre","obsolete":false}},{"type":"Feature","geometry":{"type":"Polygon","coordinates":[[[2.2182,48.8705],[2.2177,48.8701],[2.2167,48.8699],[2.2164,48.8698],[2.2144,48.8697],[2.2135,48.8697],[2.2121,48.8699],[2.2107,48.87],[2.2102,48.87],[2.2096,48.871],[2.2089,48.8717],[2.2072,48.8728],[2.207,48.8731],[2.2069,48.8738],[2.207,48.874],[2.2087,48.8748],[2.2097,48.8749],[2.21,48.8748],[2.2103,48.8747],[2.2144,48.8746],[2.2171,48.8744],[2.2174,48.8732],[2.2182,48.8705]]]},"properties":{"id_ffco":"2016-D92-57","nom":"PROMENADE JACQUES BAUMEL PARTIE SUD OUEST","_dept":"92","numero":"2016-D92-57","commune":"RUEIL-MALMAISON SURESNES","echelle":"1/3000","surface":"0.36 km²","format":"A4","annee":"2016","cartographes":"Stéphane RUFFIO","proprietaire":"DEPARTEMENT DES HAUTS-DE-SEINE","niveau":"Départemental","specialite":"CO à pied","latitude":"48.8723509179","longitude":"2.21286117388","date_saisie":"11/05/2016","date_depot":"24/11/2016","valide":"Oui","ppo":"Non","type_carte":"Nouvelle carte","fond":"Ortho","obsolete":false}},{"type":"Feature","geometry":{"type":"Polygon","coordinates":[[[2.2141,48.8696],[2.2104,48.87],[2.2097,48.8709],[2.2089,48.8717],[2.2079,48.8723],[2.2073,48.8728],[2.2064,48.8736],[2.2065,48.8752],[2.2135,48.8752],[2.2141,48.8696]]]},"properties":{"id_ffco":"2016-D92-56","nom":"PROMENADE JACQUES BAUMEL PARTIE OUEST","_dept":"92","numero":"2016-D92-56","commune":"RUEIL-MALMAISON SURESNES","echelle":"1/2500","surface":"0.25 km²","format":"A4","annee":"2016","cartographes":"Stéphanes RUFFIO","proprietaire":"DEPARTEMENT DES HAUTS-DE-SEINE","niveau":"Départemental","specialite":"CO à pied","latitude":"48.8728243384","longitude":"2.21071786058","date_saisie":"11/05/2016","date_depot":"24/11/2016","valide":"Oui","ppo":"Non","type_carte":"Nouvelle carte","fond":"Ortho","obsolete":false}},{"type":"Feature","geometry":{"type":"Polygon","coordinates":[[[2.2182,48.8705],[2.2176,48.8699],[2.2169,48.8698],[2.2164,48.8696],[2.2156,48.8692],[2.2153,48.869],[2.2148,48.869],[2.2144,48.8691],[2.2141,48.8694],[2.214,48.8697],[2.2107,48.87],[2.2102,48.8708],[2.2102,48.8721],[2.2181,48.8719],[2.2182,48.8705]]]},"properties":{"id_ffco":"2016-D92-55","nom":"PROMENADE JACQUES BAUMEL SUD - PARC DES LANDES ET ABBE FRANCK STOCK","_dept":"92","numero":"2016-D92-55","commune":"SURESNES","echelle":"1/2000","surface":"0.15 km²","format":"A4","annee":"2016","cartographes":"Stéphanes RUFFIO","proprietaire":"DEPARTEMENT DES HAUTS-DE-SEINE","niveau":"Départemental","specialite":"CO à pied","contacts":"Stephane RUFFIO, Conseil Général des Hauts-de-Seine Direction des Actions Sportives, 28 boulevard Emile Zola , 92020, NANTERRE, 01 41 37 13 53","latitude":"48.870826062","longitude":"2.21423851611","date_saisie":"11/05/2016","date_depot":"24/11/2016","valide":"Oui","ppo":"Non","type_carte":"Nouvelle carte","fond":"Ortho","obsolete":false}},{"type":"Feature","geometry":{"type":"Polygon","coordinates":[[[2.2542,48.8043],[2.2531,48.8051],[2.2503,48.8055],[2.2484,48.8038],[2.2474,48.803],[2.2458,48.8027],[2.2437,48.8022],[2.2422,48.8019],[2.242,48.8011],[2.2417,48.8007],[2.2409,48.8006],[2.2401,48.7996],[2.2394,48.7989],[2.2387,48.7978],[2.2384,48.7974],[2.2374,48.7965],[2.2359,48.7955],[2.2349,48.7954],[2.2338,48.7961],[2.2324,48.7975],[2.2325,48.7965],[2.2325,48.7956],[2.2321,48.795],[2.2323,48.794],[2.2321,48.7926],[2.2321,48.7917],[2.2326,48.7911],[2.2329,48.7901],[2.2335,48.7896],[2.235,48.7895],[2.2357,48.7893],[2.2363,48.7891],[2.2376,48.7893],[2.2426,48.7902],[2.2477,48.7909],[2.25,48.7913],[2.2513,48.7918],[2.2522,48.7924],[2.2523,48.7943],[2.2527,48.7964],[2.2539,48.7996],[2.2556,48.8017],[2.2572,48.8033],[2.2542,48.8043]]]},"properties":{"id_ffco":"2016-D92-54","nom":"Tapis vert (Meudon","_dept":"92","numero":"2016-D92-54","commune":"Meudon","echelle":"1/10000","surface":"1.84 km²","format":"A4","annee":"2016","cartographes":"Mathelier Christian","proprietaire":"9213 - LEPLESSIS ORIENTATION AVENTURE","niveau":"Départemental","specialite":"CO à pied","contacts":"MATHELIER CDCO 92, 24 rue amedee Usséglio, 92350, LE PLESSIS ROBINSON, 07 61 27 42 54, christian.mathelier@gmail.com","latitude":"48.7964398927","longitude":"2.24460974111","date_saisie":"25/03/2017","date_depot":"13/12/2017","valide":"Oui","ppo":"Non","type_carte":"Nouvelle carte","fond":"Cadastre","obsolete":false}},{"type":"Feature","geometry":{"type":"Polygon","coordinates":[[[2.2571,48.8031],[2.2561,48.8022],[2.255,48.8008],[2.2539,48.7992],[2.2527,48.7963],[2.2525,48.7952],[2.2525,48.7938],[2.2528,48.7918],[2.2546,48.7921],[2.254,48.7935],[2.2532,48.7938],[2.2548,48.7953],[2.2549,48.796],[2.2555,48.7957],[2.256,48.7954],[2.2564,48.7952],[2.2577,48.7949],[2.2589,48.7945],[2.2579,48.7947],[2.259,48.7922],[2.2625,48.7915],[2.2628,48.7914],[2.2638,48.7919],[2.2645,48.7924],[2.2655,48.7928],[2.266,48.7931],[2.2654,48.7993],[2.2648,48.7996],[2.2639,48.8],[2.2632,48.8002],[2.2627,48.8005],[2.262,48.8008],[2.2613,48.8014],[2.2603,48.8022],[2.2593,48.8031],[2.2571,48.8031]]]},"properties":{"id_ffco":"2016-D92-53","nom":"Clamart","_dept":"92","numero":"2016-D92-53","commune":"CLAMART","echelle":"1/5000","surface":"0.85 km²","format":"A4","annee":"2016","cartographes":"Frédéric FISCHER, Christian MATHELIER","proprietaire":"9213 - LEPLESSIS ORIENTATION AVENTURE","niveau":"Départemental","specialite":"CO à pied","contacts":"Christian MATHELIER CDCO92, 24 rue Amédée Usséglio , 92350, LE PLESSIS ROBINSON, 07 61 27 42 54, christian.mathelier@gmail.com","latitude":"48.7970581449","longitude":"2.2595648671","date_saisie":"03/02/2016","date_depot":"13/12/2017","valide":"Oui","ppo":"Non","type_carte":"Nouvelle carte","fond":"Cadastre","obsolete":false}},{"type":"Feature","geometry":{"type":"Polygon","coordinates":[[[2.2522,48.793],[2.2508,48.7917],[2.2417,48.7917],[2.2415,48.8007],[2.2421,48.8011],[2.242,48.8019],[2.2445,48.8023],[2.2461,48.8027],[2.2475,48.8029],[2.2485,48.8037],[2.2565,48.8032],[2.2553,48.8019],[2.2541,48.8003],[2.253,48.7985],[2.2523,48.7964],[2.252,48.795],[2.2522,48.793]]]},"properties":{"id_ffco":"2016-D92-52","nom":"Meudon - Orphelinat","_dept":"92","numero":"2016-D92-52","commune":"MEUDON","echelle":"1/5000","surface":"1.06 km²","format":"A4","annee":"2016","cartographes":"Christian MATHELIER","proprietaire":"9213 - LEPLESSIS ORIENTATION AVENTURE","niveau":"Départemental","specialite":"CO à pied","contacts":"Christian MATHELIER CDCO92, 24 rue Amédée Usséglio , 92350, LE PLESSIS ROBINSON, 07 61 27 42 54, christian.mathelier@gmail.com","latitude":"48.7977223823","longitude":"2.24766955664","date_saisie":"03/02/2016","date_depot":"13/12/2017","valide":"Oui","ppo":"Non","type_carte":"Nouvelle carte","fond":"Cadastre","obsolete":false}},{"type":"Feature","geometry":{"type":"Polygon","coordinates":[[[2.2947,48.7484],[2.2941,48.7481],[2.294,48.748],[2.2939,48.7478],[2.294,48.7477],[2.294,48.7477],[2.2938,48.7475],[2.294,48.7474],[2.2938,48.7473],[2.2937,48.7472],[2.2934,48.7471],[2.2933,48.747],[2.2932,48.747],[2.2929,48.7468],[2.2934,48.7465],[2.293,48.7463],[2.2928,48.7463],[2.2927,48.7462],[2.2923,48.7461],[2.2918,48.746],[2.2914,48.7459],[2.2909,48.7458],[2.2904,48.7458],[2.2903,48.7457],[2.2899,48.7455],[2.2897,48.7454],[2.2893,48.7452],[2.2891,48.7451],[2.2884,48.7448],[2.2883,48.7447],[2.288,48.7445],[2.2867,48.7459],[2.2866,48.7459],[2.2859,48.7459],[2.2853,48.7465],[2.2851,48.7467],[2.285,48.7468],[2.285,48.7469],[2.2851,48.7471],[2.2853,48.7472],[2.2853,48.7473],[2.2853,48.7474],[2.2854,48.7475],[2.2856,48.7475],[2.2859,48.7473],[2.286,48.7473],[2.2863,48.7471],[2.2865,48.747],[2.2867,48.7469],[2.287,48.747],[2.2872,48.7469],[2.2871,48.7468],[2.2872,48.7467],[2.2876,48.747],[2.2877,48.747],[2.288,48.7466],[2.2883,48.7467],[2.2888,48.7469],[2.2883,48.7473],[2.2885,48.7475],[2.289,48.7471],[2.2891,48.7472],[2.2895,48.7469],[2.2899,48.7464],[2.2902,48.7465],[2.2903,48.7466],[2.2904,48.7467],[2.2906,48.7469],[2.2907,48.7469],[2.2909,48.747],[2.2912,48.7471],[2.2913,48.7472],[2.2915,48.7472],[2.2917,48.7473],[2.2918,48.7475],[2.2918,48.7476],[2.292,48.7476],[2.2921,48.7478],[2.2922,48.7479],[2.2924,48.748],[2.2926,48.748],[2.2928,48.748],[2.2929,48.7481],[2.2931,48.7482],[2.2933,48.7483],[2.2936,48.7484],[2.2938,48.7484],[2.2941,48.7486],[2.2943,48.7487],[2.2947,48.7484]]]},"properties":{"id_ffco":"2015-D92-51","nom":"Parc Heller 2","_dept":"92","numero":"2015-D92-51","commune":"ANTONY","echelle":"1/2500","surface":"0.11 km²","format":"A4","annee":"2015","cartographes":"CAP ORIENTATION","proprietaire":"92 - Hauts-de-Seine","niveau":"Départemental","specialite":"CO à pied","contacts":"Christian MATHELIER CDCO92, 24 rue Amédée Usséglio , 92350, LE PLESSIS ROBINSON, 07 61 27 42 54, christian.mathelier@gmail.com","latitude":"48.7465129917","longitude":"2.28964329344","date_saisie":"03/02/2016","date_depot":"11/03/2016","valide":"Oui","ppo":"Non","type_carte":"Nouvelle carte","fond":"Ortho","obsolete":false}},{"type":"Feature","geometry":{"type":"Polygon","coordinates":[[[2.327,48.945],[2.3251,48.9454],[2.3247,48.9455],[2.3243,48.9456],[2.3239,48.9456],[2.3238,48.9453],[2.3241,48.9452],[2.3235,48.9443],[2.3214,48.9447],[2.3207,48.9439],[2.3206,48.9435],[2.3204,48.9435],[2.3199,48.9435],[2.3196,48.9433],[2.3193,48.9427],[2.3186,48.9428],[2.3179,48.943],[2.3174,48.943],[2.3164,48.942],[2.3152,48.9407],[2.3139,48.9411],[2.3141,48.9415],[2.3139,48.9416],[2.3138,48.9417],[2.3135,48.9414],[2.3131,48.9414],[2.3127,48.9415],[2.3122,48.9417],[2.3117,48.9418],[2.3114,48.9417],[2.3111,48.9414],[2.3109,48.9413],[2.3108,48.9412],[2.3146,48.94],[2.3141,48.9397],[2.3137,48.9392],[2.3135,48.939],[2.3134,48.9387],[2.3134,48.9386],[2.3132,48.9382],[2.3127,48.9382],[2.3112,48.9384],[2.3088,48.9386],[2.3071,48.9387],[2.3073,48.9379],[2.3082,48.9363],[2.3082,48.9358],[2.3079,48.9347],[2.3078,48.9341],[2.3081,48.9335],[2.31,48.9337],[2.3137,48.9342],[2.3166,48.9344],[2.3185,48.9344],[2.3196,48.9346],[2.3191,48.9354],[2.3182,48.9364],[2.3165,48.9373],[2.3154,48.9377],[2.3159,48.9383],[2.3182,48.9388],[2.3202,48.939],[2.3218,48.9392],[2.3233,48.9393],[2.3237,48.9394],[2.3241,48.9394],[2.324,48.9401],[2.3236,48.9406],[2.3225,48.9412],[2.3229,48.9415],[2.3234,48.9417],[2.3237,48.9417],[2.3237,48.9424],[2.3237,48.9428],[2.3241,48.9433],[2.3248,48.9434],[2.3255,48.945],[2.3261,48.9449],[2.3268,48.9447],[2.327,48.945]]]},"properties":{"id_ffco":"2016-D92-50","nom":"PARC DEPARTEMENTAL DES CHANTERAINES","_dept":"92","numero":"2016-D92-50","commune":"VILLENEUVE-LA-GARENNE","echelle":"1/5000","surface":"0.73 km²","format":"A3","annee":"2016","cartographes":"CAP ORIENTATION, Stéphane RUFFIO","proprietaire":"DEPARTEMENT DES HAUTS-DE-SEINE","niveau":"Régional","specialite":"CO à pied","contacts":"Stephane RUFFIO, Conseil Général des Hauts-de-Seine Direction des Actions Sportives, 28 boulevard Emile Zola , 92020, NANTERRE, 01 41 37 13 53","latitude":"48.9388027804","longitude":"2.31612681584","date_saisie":"03/02/2016","date_depot":"11/03/2016","valide":"Oui","ppo":"Non","type_carte":"Nouvelle carte","fond":"Ortho","obsolete":false}},{"type":"Feature","geometry":{"type":"Polygon","coordinates":[[[2.1962,48.8393],[2.1968,48.8394],[2.198,48.8395],[2.1995,48.8395],[2.2009,48.8395],[2.2053,48.8392],[2.2053,48.8391],[2.2051,48.8388],[2.2041,48.8382],[2.2033,48.8375],[2.2028,48.837],[2.202,48.8369],[2.2011,48.837],[2.2003,48.8372],[2.1995,48.8375],[2.1989,48.8377],[2.198,48.8383],[2.1971,48.8388],[2.1962,48.8393]]]},"properties":{"id_ffco":"2015-D92-49","nom":"PARC DEPARTEMENTAL DU PRE SAINT JEAN","_dept":"92","numero":"2015-D92-49","commune":"SAINT-CLOUD","echelle":"1/2500","surface":"0.12 km²","format":"A4","annee":"2015","cartographes":"Stéphane RUFFIO","proprietaire":"DEPARTEMENT DES HAUTS-DE-SEINE","niveau":"Régional","specialite":"CO à pied","contacts":"Stephane RUFFIO, Conseil Général des Hauts-de-Seine Direction des Actions Sportives, 28 boulevard Emile Zola, 92020, NANTERRE, 01 41 37 13 53","latitude":"48.838456029","longitude":"2.20101858209","date_saisie":"08/12/2015","date_depot":"11/03/2016","valide":"Oui","ppo":"Non","type_carte":"Nouvelle carte","fond":"Ortho","obsolete":false}},{"type":"Feature","geometry":{"type":"Polygon","coordinates":[[[2.3146,48.9401],[2.311,48.9411],[2.3111,48.9412],[2.3114,48.9416],[2.3116,48.9417],[2.3119,48.9417],[2.3129,48.9413],[2.3132,48.9413],[2.3135,48.9413],[2.3137,48.9414],[2.3138,48.9414],[2.3136,48.9411],[2.3152,48.9407],[2.3173,48.9429],[2.3183,48.943],[2.3185,48.9429],[2.3193,48.9427],[2.3203,48.9423],[2.321,48.942],[2.3217,48.9416],[2.3221,48.9414],[2.3224,48.9413],[2.3227,48.9411],[2.3229,48.9393],[2.3221,48.9392],[2.3212,48.9391],[2.3203,48.939],[2.3195,48.9389],[2.3184,48.9387],[2.316,48.9383],[2.3157,48.938],[2.3141,48.938],[2.3136,48.938],[2.3138,48.9385],[2.3133,48.9387],[2.3134,48.9389],[2.3141,48.9397],[2.3146,48.9401]]]},"properties":{"id_ffco":"2016-D92-48","nom":"PARC DEPARTEMENTAL DES CHANTERAINES - LES HAUTES BORNES","_dept":"92","numero":"2016-D92-48","commune":"VILLENEUVE-LA-GARENNE","echelle":"1/3000","surface":"0.26 km²","format":"A4","annee":"2016","cartographes":"CAP ORIENTATION, Stéphane RUFFIO","proprietaire":"DEPARTEMENT DES HAUTS-DE-SEINE","niveau":"Régional","specialite":"CO à pied","contacts":"Stephane RUFFIO, Conseil Général des Hauts-de-Seine Direction des Actions Sportives, 28 boulevard Emile Zola , 92020, NANTERRE, 01 41 37 13 53","latitude":"48.9403907803","longitude":"2.31779487397","date_saisie":"03/02/2016","date_depot":"11/03/2016","valide":"Oui","ppo":"Non","type_carte":"Nouvelle carte","fond":"Ortho","obsolete":false}},{"type":"Feature","geometry":{"type":"Polygon","coordinates":[[[2.327,48.945],[2.3251,48.9455],[2.3247,48.9456],[2.3244,48.9456],[2.3239,48.9456],[2.3239,48.9454],[2.324,48.9453],[2.324,48.9452],[2.324,48.945],[2.3239,48.9448],[2.3237,48.9447],[2.3236,48.9446],[2.3236,48.9444],[2.3213,48.9447],[2.3208,48.9441],[2.3205,48.9435],[2.3198,48.9435],[2.3194,48.9429],[2.319,48.9424],[2.3201,48.942],[2.3211,48.9414],[2.3224,48.9413],[2.3229,48.9416],[2.3236,48.9418],[2.3235,48.9422],[2.3237,48.9427],[2.324,48.9431],[2.3241,48.9433],[2.3246,48.9433],[2.3249,48.9439],[2.3255,48.945],[2.3269,48.9447],[2.327,48.945]]]},"properties":{"id_ffco":"2016-D92-47","nom":"PARC DEPARTEMENTAL DES CHANTERAINES - LES FIANCES","_dept":"92","numero":"2016-D92-47","commune":"VILLENEUVE-LA-GARENNE","echelle":"1/2500","surface":"0.12 km²","format":"A4","annee":"2016","cartographes":"CAP ORIENTATION, Stéphane RUFFIO","proprietaire":"DEPARTEMENT DES HAUTS-DE-SEINE","niveau":"Régional","specialite":"CO à pied","contacts":"Stephane RUFFIO, Conseil Général des Hauts-de-Seine Direction des Actions Sportives, 28 boulevard Emile Zola , 92020, NANTERRE, 01 41 37 13 53","latitude":"48.9433484243","longitude":"2.32252904118","date_saisie":"03/02/2016","date_depot":"11/03/2016","valide":"Oui","ppo":"Non","type_carte":"Nouvelle carte","fond":"Ortho","obsolete":false}},{"type":"Feature","geometry":{"type":"Polygon","coordinates":[[[2.3066,48.9387],[2.3092,48.9385],[2.3121,48.9382],[2.3134,48.938],[2.3145,48.9379],[2.3156,48.9376],[2.3169,48.9371],[2.3177,48.9367],[2.3186,48.936],[2.3188,48.9356],[2.3175,48.9344],[2.3168,48.9343],[2.3141,48.934],[2.3103,48.9337],[2.3089,48.9336],[2.3083,48.9337],[2.3081,48.9337],[2.3078,48.9341],[2.3077,48.9344],[2.3078,48.9348],[2.308,48.9354],[2.3081,48.9356],[2.3082,48.9359],[2.3066,48.9387]]]},"properties":{"id_ffco":"2016-D92-46","nom":"PARC DEPARTEMENTAL DES CHANTERAINES - LES TILLIERS","_dept":"92","numero":"2016-D92-46","commune":"VILLENEUVE-LA-GARENNE","echelle":"1/3000","surface":"0.34 km²","format":"A4","annee":"2016","cartographes":"CAP ORIENTATION , Stéphane RUFFIO","proprietaire":"DEPARTEMENT DES HAUTS-DE-SEINE","niveau":"Régional","specialite":"CO à pied","contacts":"Stephane RUFFIO, Conseil Général des Hauts-de-Seine Direction des Actions Sportives, 28 boulevard Emile Zola , 92020, NANTERRE, 01 41 37 13 53","latitude":"48.9360332349","longitude":"2.31232979934","date_saisie":"03/02/2016","date_depot":"11/03/2016","valide":"Oui","ppo":"Non","type_carte":"Nouvelle carte","fond":"Ortho","obsolete":false}},{"type":"Feature","geometry":{"type":"Polygon","coordinates":[[[2.2206,48.7933],[2.2251,48.7908],[2.2244,48.7904],[2.2229,48.7906],[2.2224,48.7907],[2.2219,48.7909],[2.2216,48.7912],[2.2213,48.7917],[2.2208,48.7921],[2.2204,48.7926],[2.2202,48.7929],[2.2206,48.7933]]]},"properties":{"id_ffco":"2014-D92-45","nom":"Parc du tronchet","_dept":"92","numero":"2014-D92-45","commune":"Meudon","echelle":"1/2000","surface":"0.04 km²","format":"A4","annee":"2014","cartographes":"André LORTOLARY","proprietaire":"92 - Hauts-de-Seine","niveau":"Initiation, Scolaire","specialite":"CO à pied","latitude":"48.7916149081","longitude":"2.22242723193","date_saisie":"10/11/2015","date_depot":"11/03/2016","valide":"Oui","ppo":"Non","type_carte":"Nouvelle carte","fond":"Cadastre","obsolete":false}},{"type":"Feature","geometry":{"type":"Polygon","coordinates":[[[2.2115,48.8924],[2.2161,48.895],[2.2185,48.8954],[2.224,48.8941],[2.2273,48.8934],[2.229,48.8925],[2.2312,48.8922],[2.2333,48.8928],[2.2363,48.8937],[2.2399,48.8941],[2.2423,48.8947],[2.2453,48.8934],[2.2474,48.8911],[2.25,48.8899],[2.2507,48.8891],[2.2498,48.8875],[2.2485,48.8862],[2.2455,48.8861],[2.2419,48.8863],[2.2389,48.8862],[2.2359,48.8868],[2.234,48.8882],[2.2331,48.8906],[2.2271,48.8906],[2.2244,48.8899],[2.2204,48.8907],[2.2167,48.8914],[2.212,48.8922],[2.211,48.8923],[2.2115,48.8924]]]},"properties":{"id_ffco":"2015-D92-44","nom":"La Défense","_dept":"92","numero":"2015-D92-44","commune":"NANTERRE","echelle":"1/4000","surface":"1.43 km²","format":"+","annee":"2015","cartographes":"David BARRANGER, Matthieu BARTHELEMY","proprietaire":"92 - Hauts-de-Seine","niveau":"Régional","specialite":"CO à pied","contacts":"Christian MATHELIER CDCO92, 24 rue Amédée Usséglio , 92350, LE PLESSIS ROBINSON, 07 61 27 42 54, christian.mathelier@gmail.com","latitude":"48.8908793385","longitude":"2.23434993558","date_saisie":"29/12/2015","date_depot":"28/04/2017","valide":"Oui","ppo":"Non","type_carte":"Nouvelle carte","fond":"Cadastre","obsolete":false}},{"type":"Feature","geometry":{"type":"Polygon","coordinates":[[[2.2214,48.9202],[2.2233,48.9213],[2.2268,48.9235],[2.2288,48.9249],[2.2299,48.9258],[2.2309,48.9265],[2.2329,48.9276],[2.2348,48.9288],[2.237,48.9298],[2.2381,48.9304],[2.2396,48.931],[2.2417,48.9318],[2.2431,48.9308],[2.2412,48.9298],[2.2406,48.9293],[2.2395,48.9288],[2.2368,48.9274],[2.2328,48.9254],[2.2309,48.9245],[2.2276,48.9228],[2.2262,48.9219],[2.225,48.9209],[2.2238,48.92],[2.2229,48.9192],[2.2223,48.9195],[2.2214,48.9202]]]},"properties":{"id_ffco":"2014-D92-43","nom":"PARC DEPARTEMENTAL PIERRE LAGRAVERE","_dept":"92","numero":"2014-D92-43","commune":"COLOMBES","echelle":"1/4000","surface":"0.31 km²","format":"A4","annee":"2014","cartographes":"Stéphane RUFFIO","proprietaire":"DEPARTEMENT DES HAUTS-DE-SEINE","niveau":"Régional","specialite":"CO à pied","contacts":"Stephane RUFFIO, Conseil Général des Hauts-de-Seine Direction des Actions Sportives, 28 boulevard Emile Zola, 92020, NANTERRE, 01 41 37 13 53","latitude":"48.9263446334","longitude":"2.23294616414","date_saisie":"08/12/2015","date_depot":"11/03/2016","valide":"Oui","ppo":"Non","type_carte":"Nouvelle carte","fond":"Ortho","obsolete":false}},{"type":"Feature","geometry":{"type":"Polygon","coordinates":[[[2.2167,48.8958],[2.2172,48.8947],[2.2182,48.8942],[2.2192,48.8939],[2.2201,48.8947],[2.2219,48.894],[2.2213,48.8931],[2.2222,48.8921],[2.2234,48.8919],[2.2243,48.8925],[2.2259,48.8919],[2.2264,48.8911],[2.2264,48.8905],[2.2252,48.8899],[2.2246,48.8905],[2.2233,48.8907],[2.2221,48.8907],[2.2213,48.8908],[2.2204,48.8911],[2.2195,48.8909],[2.2167,48.8911],[2.2161,48.8917],[2.2154,48.892],[2.2125,48.8937],[2.2155,48.8954],[2.2167,48.8958]]]},"properties":{"id_ffco":"2021-D92-074","nom":"PARC DEPARTEMENTAL ANDRE MALRAUX","_dept":"92","numero":"2021-D92-074","commune":"NANTERRE","echelle":"1/3500","surface":"0.28 km²","format":"A4","annee":"2021","cartographes":"Stéphane Ruffio","proprietaire":"Département des Hauts-de-Seine","niveau":"Initiation, Scolaire","specialite":"Sprint (ISSOM)","contacts":"Stephane RUFFIO, Conseil Général des Hauts-de-Seine Direction des Actions Sportives, 28 boulevard Emile Zola , 92020, NANTERRE, 01 41 37 13 53","latitude":"48.8926811761","longitude":"2.21912980502","date_saisie":"18/06/2024","date_depot":"25/07/2024","valide":"Oui","ppo":"Non","type_carte":"Reprise","base":"2017-D92-58 PARC DEPARTEMENTAL ANDRE MALRAUX","fond":"Ortho","obsolete":false}},{"type":"Feature","geometry":{"type":"Polygon","coordinates":[[[2.2521,48.823],[2.251,48.8234],[2.2506,48.8245],[2.2522,48.8254],[2.2529,48.8257],[2.2553,48.8273],[2.2567,48.8285],[2.2571,48.8289],[2.2594,48.8301],[2.2599,48.8299],[2.2597,48.829],[2.2596,48.8279],[2.2594,48.8274],[2.2586,48.8266],[2.257,48.8255],[2.2555,48.8246],[2.2541,48.8238],[2.253,48.8235],[2.2521,48.823]]]},"properties":{"id_ffco":"2021-D92-073","nom":"PARC DEPARTEMENTAL DE L'ILE SAINT GERMAIN","_dept":"92","numero":"2021-D92-073","commune":"ISSY LES MOULINEAUX","echelle":"1/3500","surface":"0.19 km²","format":"A4","annee":"2021","cartographes":"Stéphane Ruffio","proprietaire":"Département des Hauts-de-Seine","niveau":"Initiation, Scolaire","specialite":"Sprint (ISSOM)","contacts":"Stephane RUFFIO, Conseil Général des Hauts-de-Seine Direction des Actions Sportives, 28 boulevard Emile Zola , 92020, NANTERRE, 01 41 37 13 53","latitude":"48.8263128046","longitude":"2.25564500944","date_saisie":"18/06/2024","date_depot":"25/07/2024","valide":"Oui","ppo":"Non","type_carte":"Reprise","base":"2017-D92-67 PARC DEPARTEMENTAL DE L'ILE SAINT GERMAIN","fond":"Ortho","obsolete":false}},{"type":"Feature","geometry":{"type":"Polygon","coordinates":[[[2.1528,48.8315],[2.1552,48.832],[2.1562,48.831],[2.1596,48.8308],[2.1595,48.829],[2.1601,48.8283],[2.1643,48.8286],[2.1653,48.8268],[2.1608,48.8261],[2.1611,48.825],[2.1529,48.8233],[2.1504,48.8244],[2.1481,48.8313],[2.1528,48.8315]]]},"properties":{"id_ffco":"2021-D92-071","nom":"Domaine Départemental du Haras de Jardy","_dept":"92","numero":"2021-D92-071","commune":"VAUCRESSON","echelle":"1/5000","surface":"0.72 km²","format":"A4","annee":"2021","cartographes":"Stéphane Ruffio","proprietaire":"Département des Hauts-de-Seine","niveau":"Initiation, Scolaire","specialite":"Sprint (ISSOM)","contacts":"Stephane RUFFIO, Conseil Général des Hauts-de-Seine Direction des Actions Sportives, 28 boulevard Emile Zola , 92020, NANTERRE, 01 41 37 13 53","latitude":"48.8276782879","longitude":"2.15538256314","date_saisie":"15/06/2024","date_depot":"25/07/2024","valide":"Oui","ppo":"Non","type_carte":"Nouvelle carte","fond":"Cadastre","obsolete":false}},{"type":"Feature","geometry":{"type":"Polygon","coordinates":[[[2.2594,48.7732],[2.2586,48.7707],[2.2584,48.7707],[2.2578,48.7709],[2.2571,48.771],[2.2566,48.7711],[2.2563,48.771],[2.2563,48.7707],[2.2573,48.7675],[2.2573,48.7668],[2.2601,48.7663],[2.2622,48.7664],[2.2638,48.7666],[2.2656,48.7669],[2.2666,48.7671],[2.2672,48.7679],[2.2673,48.7683],[2.2668,48.7699],[2.2666,48.7703],[2.2666,48.7708],[2.2643,48.7708],[2.2628,48.7708],[2.2615,48.771],[2.2605,48.7712],[2.2609,48.7723],[2.2615,48.7728],[2.263,48.7729],[2.2637,48.7737],[2.2642,48.7743],[2.265,48.7743],[2.2674,48.7734],[2.2671,48.7729],[2.2667,48.7723],[2.2667,48.7719],[2.2678,48.7716],[2.2685,48.7714],[2.2689,48.7712],[2.2689,48.777],[2.2667,48.7771],[2.2659,48.7763],[2.2643,48.7758],[2.2625,48.7755],[2.2608,48.7748],[2.2592,48.7746],[2.2594,48.7732]]]},"properties":{"id_ffco":"2019-D92-068","nom":"DOMAINE DEPARTEMENTAL DE LA VALLEE AUX LOUPS","_dept":"92","numero":"2019-D92-068","commune":"CHATENAY MALABRY","echelle":"1/4000","surface":"0.6 km²","format":"A4","annee":"2019","cartographes":"Stephane RUFFIO","proprietaire":"Département des hauts de Seine","niveau":"Départemental","specialite":"CO à pied","latitude":"48.7710004185","longitude":"2.26289853509","date_saisie":"08/02/2019","date_depot":"02/04/2019","valide":"Oui","ppo":"Non","type_carte":"Nouvelle carte","fond":"Cadastre","obsolete":false}},{"type":"Feature","geometry":{"type":"Polygon","coordinates":[[[2.2617,48.7796],[2.2629,48.7801],[2.2636,48.7811],[2.2643,48.7822],[2.2655,48.7827],[2.2666,48.7829],[2.2677,48.7828],[2.268,48.7828],[2.2678,48.7825],[2.2678,48.782],[2.268,48.7809],[2.2686,48.7809],[2.2686,48.7812],[2.2694,48.7813],[2.2695,48.7809],[2.2699,48.7807],[2.2702,48.7806],[2.2702,48.781],[2.2705,48.7811],[2.2704,48.7812],[2.2706,48.7814],[2.2711,48.7813],[2.2716,48.7814],[2.2724,48.7815],[2.2729,48.7815],[2.2732,48.7811],[2.2733,48.7808],[2.2733,48.7804],[2.2735,48.7796],[2.2727,48.779],[2.272,48.7794],[2.2713,48.7792],[2.2706,48.7789],[2.2704,48.7785],[2.2701,48.7781],[2.2696,48.7781],[2.2685,48.7778],[2.2676,48.7774],[2.2672,48.7773],[2.2651,48.7779],[2.2636,48.7782],[2.262,48.7786],[2.2614,48.7787],[2.2617,48.7796]]]},"properties":{"id_ffco":"2019-D92-066","nom":"PARC DEPARTEMENTALE HENRI SELLIER","_dept":"92","numero":"2019-D92-066","commune":"LE PLESSIS ROBINSON","echelle":"1/3000","surface":"0.31 km²","format":"A4","annee":"2019","cartographes":"Stephane RUFFIO","proprietaire":"Département des hauts de Seine","niveau":"Régional","specialite":"CO à pied","latitude":"48.7799627104","longitude":"2.26729109899","date_saisie":"08/02/2019","date_depot":"02/04/2019","valide":"Oui","ppo":"Non","type_carte":"Nouvelle carte","fond":"Cadastre","obsolete":false}},{"type":"Feature","geometry":{"type":"Polygon","coordinates":[[[2.3008,48.7623],[2.2998,48.7624],[2.2953,48.7614],[2.2937,48.7612],[2.291,48.7614],[2.2919,48.7643],[2.2918,48.7648],[2.2865,48.7711],[2.2862,48.7725],[2.2863,48.7732],[2.2869,48.7736],[2.2881,48.7739],[2.2943,48.7752],[2.2951,48.7755],[2.2957,48.7765],[2.2971,48.7766],[2.3033,48.7775],[2.3071,48.7669],[2.3068,48.7662],[2.306,48.7651],[2.3048,48.764],[2.3043,48.7632],[2.3037,48.7629],[2.3021,48.7625],[2.3008,48.7623]]]},"properties":{"id_ffco":"2019-D92-065","nom":"DOMAINE DEPARTEMENTALE DE SCEAUX","_dept":"92","numero":"2019-D92-065","commune":"Sceaux","echelle":"1/5000","surface":"1.88 km²","format":"A3","annee":"2019","cartographes":"Stephane RUFFIO","proprietaire":"Département des hauts de Seine","niveau":"National, International","specialite":"CO à pied","contacts":"Stephane RUFFIO, Conseil Général des Hauts-de-Seine Direction des Actions Sportives, 28 boulevard Emile Zola , 92020, NANTERRE, 01 41 37 13 53","latitude":"48.7693063558","longitude":"2.29736238734","date_saisie":"08/02/2019","date_depot":"02/04/2019","valide":"Oui","ppo":"Non","type_carte":"Nouvelle carte","fond":"Cadastre","obsolete":false}},{"type":"Feature","geometry":{"type":"Polygon","coordinates":[[[2.2496,48.7749],[2.2517,48.7748],[2.2539,48.7749],[2.2557,48.7749],[2.2573,48.7748],[2.2591,48.7748],[2.2611,48.7749],[2.262,48.7751],[2.2628,48.7755],[2.2641,48.7758],[2.2655,48.7761],[2.2663,48.7766],[2.2668,48.7771],[2.2693,48.778],[2.2704,48.7784],[2.2717,48.7792],[2.2735,48.7798],[2.2739,48.7805],[2.2734,48.7817],[2.2727,48.7823],[2.2717,48.7829],[2.2715,48.7834],[2.2716,48.784],[2.2724,48.7853],[2.2726,48.7857],[2.272,48.786],[2.2711,48.7864],[2.27,48.7866],[2.2684,48.7865],[2.267,48.7865],[2.2657,48.7865],[2.2643,48.7863],[2.2617,48.7861],[2.2608,48.7861],[2.2607,48.787],[2.2597,48.7867],[2.2579,48.7858],[2.2577,48.7858],[2.2562,48.7853],[2.2548,48.7849],[2.2541,48.7846],[2.2538,48.7839],[2.2532,48.7832],[2.2528,48.7816],[2.2524,48.7807],[2.2513,48.7792],[2.2508,48.7782],[2.2504,48.7775],[2.25,48.7768],[2.2498,48.7759],[2.2496,48.7749]]]},"properties":{"id_ffco":"2017-D92-059","nom":"LE PLESSIS ROBINSON","_dept":"92","numero":"2017-D92-059","commune":"LE PLESSIS ROBINSON","echelle":"1/5000","surface":"1.7 km²","format":"A3","annee":"2017","cartographes":"Frédéric FISCHER, Stéphane RUFFIO, Christian MATHELIER","proprietaire":"92 - Hauts-de-Seine","niveau":"Départemental","specialite":"CO à pied","contacts":"Christian MATHELIER // MATHELIER, 24 rue Amédée Usséglio, 92350, LE PLESSIS ROBINSON, 07 61 27 42 54, christian.mathelier@gmail.com","latitude":"48.780687539","longitude":"2.26162591003","date_saisie":"23/08/2017","date_depot":"13/12/2017","valide":"Oui","ppo":"Non","type_carte":"Nouvelle carte","fond":"Cadastre","obsolete":false}}]}