{"type":"FeatureCollection","features":[{"type":"Feature","geometry":null,"properties":{"id_ffco":"2283","nom":"PARC H.SELLIER","_dept":"92","numero":"1990-D92-926","commune":"PLESSIS ROBINSON","echelle":"1/2000","surface":"0.6 km²","annee":"1990","proprietaire":"IF - Île de France","specialite":"CO à pied","latitude":"48.7810905","longitude":"2.2632793","valide":"Non","ppo":"Non","obsolete":true}},{"type":"Feature","geometry":{"type":"Polygon","coordinates":[[[2.1937,48.9046],[2.1959,48.9058],[2.198,48.907],[2.2,48.9078],[2.2005,48.9072],[2.198,48.9052],[2.2003,48.9037],[2.1989,48.9024],[2.1981,48.9017],[2.1937,48.9044],[2.1937,48.9046]]]},"properties":{"id_ffco":"9007","nom":"PARC DEPARTEMENTAL DU CHEMIN DE L'ÎLE","_dept":"92","numero":"2012-D92-38","commune":"NANTERRE","echelle":"1/2500","surface":"0.15 km²","format":"A4","annee":"2012","cartographes":"Stéphane RUFFIO","proprietaire":"DEPARTEMENT DES HAUTS-DE-SEINE","niveau":"Régional","specialite":"CO à pied","contacts":"Stephane RUFFIO, Conseil Général des Hauts-de-Seine Direction des Actions Sportives, 28 boulevard Emile Zola , 92020, NANTERRE, 01 41 37 13 53","latitude":"48.9045994732","longitude":"2.19742518898","date_saisie":"08/12/2015","date_depot":"11/03/2016","valide":"Oui","ppo":"Non","type_carte":"Nouvelle carte","fond":"Ortho","obsolete":true}},{"type":"Feature","geometry":null,"properties":{"id_ffco":"5053","nom":"FORÊT DOMANAILE DE RUEIL MALMAISON","_dept":"92","numero":"2008-D92-29","commune":"Rueil Malmaison","echelle":"1/7500","surface":"2.2 km²","format":"+","annee":"2008","cartographes":"Y Mareigner,F Mareigner","proprietaire":"CG92","niveau":"Régional","specialite":"CO à pied","latitude":"48.8773946","longitude":"2.1791329","date_saisie":"09/08/2010","valide":"Non","ppo":"Non","obsolete":true}},{"type":"Feature","geometry":null,"properties":{"id_ffco":"5052","nom":"FORET DOMANIALE DE FAUSSES REPOSES HARAS DE JARDY","_dept":"92","numero":"2008-D92-27","commune":"Marnes la Coquette","echelle":"1/10000","surface":"5.28 km²","format":"+","annee":"2008","cartographes":"S Ruffio","proprietaire":"CG92","niveau":"Régional","specialite":"CO à pied","latitude":"48.830109","longitude":"2.1761813","date_saisie":"09/08/2010","valide":"Non","ppo":"Non","obsolete":true}},{"type":"Feature","geometry":{"type":"Polygon","coordinates":[[[2.1964,48.8393],[2.1984,48.8395],[2.2007,48.8395],[2.2023,48.8394],[2.2039,48.8393],[2.2053,48.8391],[2.2045,48.8386],[2.2038,48.8381],[2.2034,48.8377],[2.2028,48.8373],[2.2025,48.8369],[2.2016,48.837],[2.2006,48.8371],[2.1997,48.8374],[2.1988,48.8379],[2.1979,48.8384],[2.1964,48.8392],[2.1964,48.8393]]]},"properties":{"id_ffco":"3652","nom":"PARC des SPORTS du PRE SAINT JEAN","_dept":"92","numero":"2003-D92-22","commune":"Saint Cloud","echelle":"1/2500","surface":"0.11 km²","annee":"2003","proprietaire":"7501","specialite":"CO à pied","latitude":"48.8384474052","longitude":"2.20097602004","date_saisie":"05/05/2003","valide":"Non","ppo":"Non","obsolete":true}},{"type":"Feature","geometry":null,"properties":{"id_ffco":"3617","nom":"LA PETITE ROSERAIE","_dept":"92","numero":"2002-D92-20","commune":"Châtenay Malabry","echelle":"1/2500","surface":"0.8 km²","annee":"2002","proprietaire":"IF - Île de France","specialite":"CO à pied","latitude":"48.766136","longitude":"2.2607524","date_saisie":"21/02/2003","date_depot":"24/02/2003","valide":"Non","ppo":"Non","obsolete":true}},{"type":"Feature","geometry":null,"properties":{"id_ffco":"733","nom":"CHENE DES MISSIONS (LE)","_dept":"92","numero":"1977-D92-17","commune":"MEUDON LA FORET","echelle":"1/10000","surface":"6.0 km²","annee":"1977","proprietaire":"IF - Île de France","specialite":"CO à pied","latitude":"48.7909542","longitude":"2.2209838","valide":"Non","ppo":"Non","obsolete":true}},{"type":"Feature","geometry":null,"properties":{"id_ffco":"732","nom":"MEUDON CLAMART - 2","_dept":"92","numero":"1977-D92-16","commune":"MEUDON LA FORET","echelle":"1/15000","surface":"12.5 km²","annee":"1977","proprietaire":"IF - Île de France","specialite":"CO à pied","latitude":"48.7909542","longitude":"2.2209838","valide":"Non","ppo":"Non","obsolete":true}},{"type":"Feature","geometry":null,"properties":{"id_ffco":"2286","nom":"PARC H.SELLIER boussole","_dept":"92","numero":"1990-D92-09","commune":"PLESSIS ROBINSON","echelle":"1/2500","surface":"0.1 km²","annee":"1990","proprietaire":"IF - Île de France","specialite":"CO à pied","latitude":"48.7810905","longitude":"2.2632793","valide":"Non","ppo":"Non","obsolete":true}},{"type":"Feature","geometry":null,"properties":{"id_ffco":"2285","nom":"PARC H.SELLIER _toile","_dept":"92","numero":"1990-D92-08","commune":"PLESSIS ROBINSON","echelle":"1/2500","surface":"0.1 km²","annee":"1990","proprietaire":"IF - Île de France","specialite":"CO à pied","latitude":"48.7810905","longitude":"2.2632793","valide":"Non","ppo":"Non","obsolete":true}},{"type":"Feature","geometry":null,"properties":{"id_ffco":"2284","nom":"PARC H.SELLIER d_couvt.","_dept":"92","numero":"1990-D92-07","commune":"PLESSIS ROBINSON","echelle":"1/5000","surface":"0.1 km²","annee":"1990","proprietaire":"IF - Île de France","specialite":"CO à pied","latitude":"48.7810905","longitude":"2.2632793","valide":"Non","ppo":"Non","obsolete":true}},{"type":"Feature","geometry":{"type":"Polygon","coordinates":[[[2.1938,48.9043],[2.1938,48.9046],[2.1942,48.9048],[2.1944,48.905],[2.1947,48.9052],[2.195,48.9053],[2.1954,48.9055],[2.1967,48.9064],[2.1971,48.9066],[2.198,48.907],[2.1991,48.9075],[2.1999,48.9078],[2.2005,48.9072],[2.1979,48.9053],[2.1985,48.9047],[2.2,48.9039],[2.2007,48.9035],[2.2002,48.9033],[2.1997,48.9033],[2.1988,48.9035],[2.1985,48.9037],[2.198,48.9034],[2.1983,48.9032],[2.1988,48.9029],[2.199,48.9026],[2.199,48.9023],[2.1986,48.902],[2.1981,48.9016],[2.1938,48.9043]]]},"properties":{"id_ffco":"11378","nom":"PARC DEPARTEMENTALE DU CHEMIN DE L'ILE","_dept":"92","numero":"2018-D92-069","commune":"NANTERRE","echelle":"1/2500","surface":"0.15 km²","format":"A4","annee":"2018","cartographes":"Stéphane RUFFIO","proprietaire":"Département des hauts de Seine","niveau":"Départemental","specialite":"CO à pied","latitude":"48.9046139236","longitude":"2.1973228295","date_saisie":"08/02/2019","date_depot":"02/04/2019","valide":"Oui","ppo":"Non","type_carte":"Reprise","base":"2012-D92-38 PARC DEPARTEMENTAL DU CHEMIN DE L'ÎLE","fond":"Cadastre","obsolete":true}},{"type":"Feature","geometry":null,"properties":{"id_ffco":"2282","nom":"PARC H.SELLIER score","_dept":"92","numero":"1990-D92-06","commune":"PLESSIS ROBINSON","echelle":"1/5000","surface":"0.1 km²","annee":"1990","proprietaire":"IF - Île de France","specialite":"CO à pied","latitude":"48.7810905","longitude":"2.2632793","valide":"Non","ppo":"Non","obsolete":true}},{"type":"Feature","geometry":null,"properties":{"id_ffco":"2281","nom":"PARC ST CLOUD","_dept":"92","numero":"1990-D92-05","commune":"SAINT CLOUD","echelle":"1/10000","surface":"1.9 km²","annee":"1990","proprietaire":"IF - Île de France","specialite":"CO à pied","latitude":"48.8439011","longitude":"2.2194466","valide":"Non","ppo":"Non","obsolete":true}},{"type":"Feature","geometry":null,"properties":{"id_ffco":"2280","nom":"PARC SCEAUX","_dept":"92","numero":"1990-D92-04","commune":"SCEAUX","echelle":"1/7500","surface":"1.8 km²","annee":"1990","proprietaire":"IF - Île de France","specialite":"CO à pied","latitude":"48.7789021","longitude":"2.2913004","valide":"Non","ppo":"Non","obsolete":true}},{"type":"Feature","geometry":null,"properties":{"id_ffco":"5056","nom":"PARC DEPARTEMENTAL DE SCEAUX","_dept":"92","numero":"2009-D92-034","commune":"Sceaux","echelle":"1/5000","surface":"1.82 km²","format":"A3","annee":"2009","cartographes":"Y Mareigner,F Mareigner","proprietaire":"CG92","niveau":"National, International","specialite":"CO à pied","latitude":"48.7789021","longitude":"2.2913004","date_saisie":"09/08/2010","date_depot":"22/09/2010","valide":"Non","ppo":"Non","obsolete":true}},{"type":"Feature","geometry":null,"properties":{"id_ffco":"5055","nom":"PARC DEPARTEMENTAL DE L'ÎLE SAINT GERMAIN","_dept":"92","numero":"2009-D92-033","commune":"Issy les Moulineaux","echelle":"1/2500","surface":"0.2 km²","format":"+","annee":"2009","cartographes":"Y Mareigner,F Mareigner","proprietaire":"CG92","niveau":"Initiation, Scolaire","specialite":"CO à pied","latitude":"48.8230697","longitude":"2.2733936","date_saisie":"09/08/2010","date_depot":"22/09/2010","valide":"Non","ppo":"Non","fond":"Cadastre","obsolete":true}},{"type":"Feature","geometry":null,"properties":{"id_ffco":"5054","nom":"PARC DEPARTEMENTAL HENRI SELLIER","_dept":"92","numero":"2009-D92-032","commune":"Le Plessis Robinson","echelle":"1/3000","surface":"0.3 km²","format":"A4","annee":"2009","cartographes":"Y Mareigner,F Mareigner","proprietaire":"CG92","niveau":"Régional","specialite":"CO à pied","latitude":"48.7810905","longitude":"2.2632793","date_saisie":"09/08/2010","date_depot":"22/09/2010","valide":"Non","ppo":"Non","obsolete":true}},{"type":"Feature","geometry":null,"properties":{"id_ffco":"4911","nom":"PARC DEPARTEMENTAL DU PRE SAINT-JEAN","_dept":"92","numero":"2008-D92-030","commune":"Saint-Cloud","echelle":"1/2500","surface":"0.13 km²","format":"A4","annee":"2008","cartographes":"Y Mareigner,F Mareigner","proprietaire":"CG92","niveau":"Initiation, Scolaire","specialite":"CO à pied","latitude":"48.8439011","longitude":"2.2194466","date_saisie":"19/03/2010","date_depot":"26/03/2010","valide":"Non","ppo":"Non","obsolete":true}},{"type":"Feature","geometry":null,"properties":{"id_ffco":"2279","nom":"PARC FORESTIER CLAMART","_dept":"92","numero":"1990-D92-03","commune":"CLAMART","echelle":"1/5000","surface":"0.2 km²","annee":"1990","proprietaire":"9502 - ATHLETIC CLUB DE BEAUCHAMP","specialite":"CO à pied","latitude":"48.7991176","longitude":"2.2624685","valide":"Non","ppo":"Non","obsolete":true}},{"type":"Feature","geometry":null,"properties":{"id_ffco":"4910","nom":"PARC DEPARTEMENTAL DES HARAS DE JARDY","_dept":"92","numero":"2008-D92-028","commune":"Marnes-La-Coquette","echelle":"1/5000","surface":"0.75 km²","format":"A4","annee":"2008","cartographes":"Y Mareigner,F Mareigner","proprietaire":"CG92","niveau":"Initiation, Scolaire","specialite":"CO à pied","latitude":"48.830109","longitude":"2.1761813","date_saisie":"19/03/2010","date_depot":"26/03/2010","valide":"Non","ppo":"Non","obsolete":true}},{"type":"Feature","geometry":null,"properties":{"id_ffco":"4909","nom":"Parc Départemental des Chanteraines","_dept":"92","numero":"2005-D92-026","commune":"Villeneuve-La-Garenne","echelle":"1/5000","surface":"0.7 km²","format":"A3","annee":"2005","cartographes":"Y Mareigner,F Mareigner","proprietaire":"CG92","niveau":"Départemental","specialite":"CO à pied","latitude":"48.9365939","longitude":"2.3317549","date_saisie":"19/03/2010","date_depot":"26/03/2010","valide":"Non","ppo":"Non","obsolete":true}},{"type":"Feature","geometry":null,"properties":{"id_ffco":"4908","nom":"Parc Départemental des Chanteraines - Les Hautes Bornes","_dept":"92","numero":"2005-D92-025","commune":"Villeneuve-La-Garenne","echelle":"1/3000","surface":"0.24 km²","format":"A4","annee":"2005","cartographes":"Y Mareigner,F Mareigner","proprietaire":"CG92","niveau":"Initiation, Scolaire","specialite":"CO à pied","latitude":"48.9365939","longitude":"2.3317549","date_saisie":"19/03/2010","date_depot":"26/03/2010","valide":"Non","ppo":"Non","obsolete":true}},{"type":"Feature","geometry":null,"properties":{"id_ffco":"4907","nom":"Parc Départemental des Chanteraines - Les Fiancés","_dept":"92","numero":"2005-D92-024","commune":"Villeneuve-La-Garenne","echelle":"1/2500","surface":"0.12 km²","format":"A4","annee":"2005","cartographes":"Y Mareigner,F Mareigner","proprietaire":"CG92","niveau":"Initiation, Scolaire","specialite":"CO à pied","latitude":"48.9365939","longitude":"2.3317549","date_saisie":"19/03/2010","date_depot":"26/03/2010","valide":"Non","ppo":"Non","obsolete":true}},{"type":"Feature","geometry":null,"properties":{"id_ffco":"4906","nom":"Parc Départemental des Chanteraines - Les Tilliers","_dept":"92","numero":"2005-D92-023","commune":"Villeneuve-La-Garenne","echelle":"1/3500","surface":"0.34 km²","format":"A4","annee":"2005","cartographes":"Y Mareigner,F Mareigner","proprietaire":"CG92","niveau":"Initiation, Scolaire","specialite":"CO à pied","latitude":"48.9365939","longitude":"2.3317549","date_saisie":"19/03/2010","date_depot":"26/03/2010","valide":"Non","ppo":"Non","obsolete":true}},{"type":"Feature","geometry":null,"properties":{"id_ffco":"2278","nom":"FORET DLE MALMAISON","_dept":"92","numero":"1990-D92-02","commune":"GARCHES","echelle":"1/10000","surface":"0.4 km²","annee":"1990","proprietaire":"IF - Île de France","specialite":"CO à pied","latitude":"48.844662","longitude":"2.1874144","valide":"Non","ppo":"Non","obsolete":true}},{"type":"Feature","geometry":null,"properties":{"id_ffco":"1281","nom":"MEUDON CLAMART","_dept":"92","numero":"1983-D92-01","commune":"MEUDON","echelle":"1/15000","surface":"4.5 km²","annee":"1983","proprietaire":"IF - Île de France","niveau":"Interrégional","specialite":"CO à pied","latitude":"48.8123155","longitude":"2.2381535","valide":"Non","ppo":"Non","obsolete":true}},{"type":"Feature","geometry":null,"properties":{"id_ffco":"491","nom":"Parc Départemental Henri Sellier","_dept":"92","numero":"????-D92-0011","commune":"Anthony","surface":"None km²","latitude":"48.7536648","longitude":"2.2971119","valide":"Non","ppo":"Oui","obsolete":true}},{"type":"Feature","geometry":null,"properties":{"id_ffco":"493","nom":"Parc des Chanteraines","_dept":"92","numero":"????-D92-0010","surface":"None km²","latitude":"48.828508","longitude":"2.2188068","valide":"Non","ppo":"Oui","obsolete":true}},{"type":"Feature","geometry":null,"properties":{"id_ffco":"492","nom":"Parc Départemental de Sceaux","_dept":"92","numero":"????-D92-000","commune":"Sceaux","surface":"None km²","latitude":"48.7789021","longitude":"2.2913004","valide":"Non","ppo":"Oui","obsolete":true}}]}