{"type":"FeatureCollection","features":[{"type":"Feature","geometry":{"type":"Polygon","coordinates":[[[2.5455,48.8452],[2.5461,48.8452],[2.5461,48.8445],[2.5465,48.8446],[2.5466,48.8448],[2.5469,48.8448],[2.5481,48.8448],[2.549,48.8448],[2.5494,48.8454],[2.5491,48.8464],[2.5489,48.8466],[2.5486,48.8465],[2.5484,48.8467],[2.5456,48.8462],[2.5456,48.8459],[2.5455,48.8452]]]},"properties":{"id_ffco":"14694","nom":"ENSEMBLE SCOLAIRE FRANCOISE CABRINI","_dept":"93","numero":"2024-D93-41","commune":"Noisy-le-Grand","echelle":"1/1500","surface":"0.05 km²","format":"A4","annee":"2024","cartographes":"Hervé Quinquenel","proprietaire":"9404 - ASSOCIATION SPORTIVE DE L'IGN","niveau":"Initiation, Scolaire","specialite":"Sprint (ISSOM)","latitude":"48.8456403871","longitude":"2.54748734992","date_saisie":"19/10/2024","date_depot":"05/03/2025","valide":"Oui","ppo":"Non","type_carte":"Nouvelle carte","fond":"Ortho","obsolete":false}},{"type":"Feature","geometry":{"type":"Polygon","coordinates":[[[2.4491,48.8559],[2.4501,48.855],[2.452,48.855],[2.4557,48.8558],[2.4574,48.856],[2.4572,48.8574],[2.456,48.8574],[2.4559,48.8586],[2.4569,48.859],[2.4557,48.8589],[2.4553,48.8591],[2.4557,48.8605],[2.4562,48.8606],[2.4562,48.8615],[2.4554,48.8623],[2.4548,48.8619],[2.4553,48.8615],[2.455,48.8611],[2.4541,48.8608],[2.454,48.8595],[2.4532,48.8595],[2.4526,48.8596],[2.4516,48.8583],[2.4503,48.8583],[2.4494,48.8587],[2.4489,48.8585],[2.4498,48.8579],[2.4504,48.8577],[2.4504,48.857],[2.4498,48.8567],[2.4492,48.8568],[2.4491,48.8559]]]},"properties":{"id_ffco":"14693","nom":"PARC DES BEAUMONTS","_dept":"93","numero":"2022-D93-40","commune":"Montreuil","echelle":"1/4000","surface":"0.24 km²","format":"A4","annee":"2022","cartographes":"Hervé Quinquenel","proprietaire":"IF - Île de France","niveau":"Régional","specialite":"Sprint (ISSOM)","contacts":"Ligue Ile de France de Course d'Orientation, 15 Passage des Mauxins, 75019, PARIS, ligue.ile-de-france@ffcorientation.fr, http://lifco.fr/","latitude":"48.8575612709","longitude":"2.45339983517","date_saisie":"19/10/2024","date_depot":"05/03/2025","valide":"Oui","ppo":"Non","type_carte":"Nouvelle carte","fond":"Laser","obsolete":false}},{"type":"Feature","geometry":{"type":"Polygon","coordinates":[[[2.4674,48.8639],[2.4682,48.8636],[2.4689,48.8641],[2.4727,48.8634],[2.4727,48.8638],[2.4725,48.8638],[2.4727,48.8646],[2.4765,48.8641],[2.4772,48.8656],[2.4757,48.8659],[2.4751,48.8655],[2.4744,48.8658],[2.4738,48.8661],[2.4742,48.8672],[2.4707,48.8677],[2.4704,48.8678],[2.47,48.8666],[2.4676,48.8642],[2.4674,48.8639]]]},"properties":{"id_ffco":"14692","nom":"PARC MONTREAU","_dept":"93","numero":"2024-D93-39","commune":"Montreuil","echelle":"1/4000","surface":"0.18 km²","format":"A4","annee":"2024","cartographes":"Hervé Quinquenel","proprietaire":"IF - Île de France","niveau":"Régional","specialite":"Sprint (ISSOM)","contacts":"Ligue Ile de France de Course d'Orientation, 15 Passage des Mauxins, 75019, PARIS, ligue.ile-de-france@ffcorientation.fr, http://lifco.fr/","latitude":"48.865399032","longitude":"2.47214885816","date_saisie":"19/10/2024","date_depot":"05/03/2025","valide":"Oui","ppo":"Non","type_carte":"Nouvelle carte","fond":"Laser","obsolete":false}},{"type":"Feature","geometry":null,"properties":{"id_ffco":"14691","nom":"L'ILE SAINT-DENIS OUEST","_dept":"93","numero":"2024-D93-38","surface":"None km²","annee":"2024","date_saisie":"19/10/2024","valide":"Non","ppo":"Non","obsolete":false}},{"type":"Feature","geometry":null,"properties":{"id_ffco":"14690","nom":"PARC DU BEATUS","_dept":"93","numero":"2024-D93-37","surface":"None km²","annee":"2024","date_saisie":"19/10/2024","valide":"Non","ppo":"Non","obsolete":false}},{"type":"Feature","geometry":{"type":"Polygon","coordinates":[[[2.5557,48.8358],[2.5607,48.8356],[2.5606,48.8352],[2.5592,48.8345],[2.5579,48.8336],[2.5557,48.8351],[2.5552,48.8349],[2.5546,48.8343],[2.5539,48.8348],[2.5531,48.8342],[2.5506,48.836],[2.554,48.8359],[2.5557,48.8358]]]},"properties":{"id_ffco":"14689","nom":"STADE ALAIN MIMOUN","_dept":"93","numero":"2024-D93-36","commune":"Noisy-le-Grand","echelle":"1/1500","surface":"0.1 km²","format":"+","annee":"2024","cartographes":"Hervé Quinquenel","proprietaire":"9404 - ASSOCIATION SPORTIVE DE L'IGN","niveau":"Initiation, Scolaire","specialite":"Sprint (ISSOM)","contacts":"AS IGN, section CO, 73 avenue de Paris, 94165, Saint-Mandé Cedex, 0678006088, coasign@ign.fr, http://www.coasign.fr/","latitude":"48.8351426091","longitude":"2.55593191598","date_saisie":"19/10/2024","date_depot":"05/03/2025","valide":"Oui","ppo":"Non","type_carte":"Nouvelle carte","fond":"Ortho","obsolete":false}},{"type":"Feature","geometry":{"type":"Polygon","coordinates":[[[2.4806,48.8903],[2.4801,48.8889],[2.4807,48.8887],[2.4808,48.8888],[2.4817,48.8887],[2.4815,48.8884],[2.4817,48.8884],[2.4818,48.8887],[2.4817,48.8888],[2.4819,48.8891],[2.483,48.8889],[2.4832,48.8895],[2.4815,48.8901],[2.4807,48.8903],[2.4806,48.8903]]]},"properties":{"id_ffco":"14688","nom":"PARC DE LA MARE A LA VEUVE","_dept":"93","numero":"2024-D93-35","commune":"Bondy","echelle":"1/1000","surface":"0.03 km²","format":"A4","annee":"2024","cartographes":"Hervé Quinquenel","proprietaire":"9404 - ASSOCIATION SPORTIVE DE L'IGN","niveau":"Initiation, Scolaire","specialite":"Sprint (ISSOM)","contacts":"AS IGN, section CO, 73 avenue de Paris, 94165, Saint-Mandé Cedex, 0678006088, coasign@ign.fr, http://www.coasign.fr/","latitude":"48.8894320749","longitude":"2.48146965951","date_saisie":"19/10/2024","date_depot":"05/03/2025","valide":"Oui","ppo":"Non","type_carte":"Nouvelle carte","fond":"Laser","obsolete":false}},{"type":"Feature","geometry":{"type":"Polygon","coordinates":[[[2.5452,48.8893],[2.5474,48.8884],[2.5473,48.8876],[2.5477,48.8852],[2.5473,48.8844],[2.5477,48.8813],[2.5467,48.8792],[2.5421,48.8813],[2.5384,48.8827],[2.5386,48.884],[2.5405,48.885],[2.5414,48.886],[2.5431,48.8864],[2.5452,48.8893]]]},"properties":{"id_ffco":"14686","nom":"PARC FORESTIER DU BOIS DE L'ETOILE","_dept":"93","numero":"2024-D93-33","commune":"Gagny","echelle":"1/5000","surface":"0.43 km²","format":"A4","annee":"2024","cartographes":"Hervé Quinquenel","proprietaire":"9404 - ASSOCIATION SPORTIVE DE L'IGN","niveau":"Initiation, Scolaire","specialite":"Sprint (ISSOM)","contacts":"AS IGN, section CO, 73 avenue de Paris, 94165, Saint-Mandé Cedex, 0678006088, coasign@ign.fr, http://www.coasign.fr/","latitude":"48.8840020221","longitude":"2.54416037415","date_saisie":"19/10/2024","date_depot":"05/03/2025","valide":"Oui","ppo":"Non","type_carte":"Nouvelle carte","fond":"Laser","obsolete":false}},{"type":"Feature","geometry":{"type":"Polygon","coordinates":[[[2.5815,48.83],[2.5849,48.8303],[2.5858,48.8284],[2.5864,48.8273],[2.5868,48.827],[2.5862,48.8257],[2.5852,48.8254],[2.5838,48.827],[2.5813,48.8295],[2.5815,48.83]]]},"properties":{"id_ffco":"14685","nom":"BOIS DES YVRIS","_dept":"93","numero":"2024-D93-32","commune":"Noisy-le-Grand","echelle":"1/3000","surface":"0.11 km²","format":"A4","annee":"2024","cartographes":"Hervé Quinquenel","proprietaire":"9404 - ASSOCIATION SPORTIVE DE L'IGN","niveau":"Initiation, Scolaire","specialite":"Sprint (ISSOM)","latitude":"48.8281520677","longitude":"2.5842880502","date_saisie":"19/10/2024","date_depot":"05/03/2025","valide":"Oui","ppo":"Non","type_carte":"Nouvelle carte","fond":"Laser","obsolete":false}},{"type":"Feature","geometry":{"type":"Polygon","coordinates":[[[2.4881,48.89],[2.4899,48.8898],[2.4895,48.8886],[2.49,48.8885],[2.4897,48.8879],[2.4873,48.8885],[2.4876,48.8893],[2.4881,48.89]]]},"properties":{"id_ffco":"14684","nom":"COMPLEXE SPORTIF ALAIN MIMOUN","_dept":"93","numero":"2024-D93-31","commune":"Bondy","echelle":"1/1000","surface":"0.03 km²","format":"A4","annee":"2024","cartographes":"Hervé Quinquenel","proprietaire":"9404 - ASSOCIATION SPORTIVE DE L'IGN","niveau":"Initiation, Scolaire","specialite":"Sprint (ISSOM)","contacts":"AS IGN, section CO, 73 avenue de Paris, 94165, Saint-Mandé Cedex, 0678006088, coasign@ign.fr, http://www.coasign.fr/","latitude":"48.8889960866","longitude":"2.48872144539","date_saisie":"19/10/2024","date_depot":"05/03/2025","valide":"Oui","ppo":"Non","type_carte":"Nouvelle carte","fond":"Ortho","obsolete":false}},{"type":"Feature","geometry":{"type":"Polygon","coordinates":[[[2.4877,48.9151],[2.4877,48.9149],[2.4873,48.9141],[2.4869,48.9141],[2.4863,48.9132],[2.4889,48.9137],[2.4915,48.914],[2.4918,48.9152],[2.4896,48.9155],[2.4885,48.9158],[2.4885,48.9166],[2.4874,48.9168],[2.4866,48.9155],[2.4843,48.9161],[2.4844,48.9159],[2.4869,48.9153],[2.4877,48.9151]]]},"properties":{"id_ffco":"14683","nom":"PARC DU BOIS DE BONDY","_dept":"93","numero":"2024-D93-30","commune":"Bondy","echelle":"1/2000","surface":"0.08 km²","format":"A4","annee":"2024","cartographes":"Hervé Quinquenel","proprietaire":"9404 - ASSOCIATION SPORTIVE DE L'IGN","niveau":"Initiation, Scolaire","specialite":"Sprint (ISSOM)","contacts":"AS IGN, section CO, 73 avenue de Paris, 94165, Saint-Mandé Cedex, 0678006088, coasign@ign.fr, http://www.coasign.fr/","latitude":"48.9148456352","longitude":"2.4887892856","date_saisie":"19/10/2024","date_depot":"05/03/2025","valide":"Oui","ppo":"Non","type_carte":"Nouvelle carte","fond":"Ortho","obsolete":false}},{"type":"Feature","geometry":{"type":"Polygon","coordinates":[[[2.5047,48.883],[2.5041,48.881],[2.5065,48.8808],[2.5069,48.8818],[2.5063,48.8819],[2.5066,48.8829],[2.505,48.883],[2.5047,48.883]]]},"properties":{"id_ffco":"14682","nom":"PARC DE LA GARENNE","_dept":"93","numero":"2024-D93-29","commune":"Villemomble","echelle":"1/1500","surface":"0.04 km²","format":"A4","annee":"2024","cartographes":"Hervé Quinquenel","proprietaire":"9404 - ASSOCIATION SPORTIVE DE L'IGN","niveau":"Initiation, Scolaire","specialite":"Sprint (ISSOM)","contacts":"AS IGN, section CO, 73 avenue de Paris, 94165, Saint-Mandé Cedex, 0678006088, coasign@ign.fr, http://www.coasign.fr/","latitude":"48.8818415389","longitude":"2.50546873369","date_saisie":"19/10/2024","date_depot":"05/03/2025","valide":"Oui","ppo":"Non","type_carte":"Nouvelle carte","fond":"Ortho","obsolete":false}},{"type":"Feature","geometry":{"type":"Polygon","coordinates":[[[2.5394,48.8659],[2.541,48.8612],[2.5427,48.8619],[2.5417,48.8655],[2.5425,48.8669],[2.5462,48.8699],[2.5483,48.87],[2.5493,48.8697],[2.5507,48.8703],[2.549,48.8723],[2.5494,48.8725],[2.5492,48.873],[2.5386,48.8692],[2.5394,48.8659]]]},"properties":{"id_ffco":"14681","nom":"PARC DES 33HA","_dept":"93","numero":"2024-D93-28","commune":"Neuilly-sur-Marne","echelle":"1/4000","surface":"0.36 km²","format":"A3","annee":"2024","cartographes":"Hervé Quinquenel","proprietaire":"9404 - ASSOCIATION SPORTIVE DE L'IGN","niveau":"Initiation, Scolaire","specialite":"Sprint (ISSOM)","contacts":"AS IGN, section CO, 73 avenue de Paris, 94165, Saint-Mandé Cedex, 0678006088, coasign@ign.fr, http://www.coasign.fr/","latitude":"48.8682514004","longitude":"2.54329199367","date_saisie":"19/10/2024","date_depot":"05/03/2025","valide":"Oui","ppo":"Non","type_carte":"Nouvelle carte","fond":"Ortho","obsolete":false}},{"type":"Feature","geometry":{"type":"Polygon","coordinates":[[[2.4878,48.8725],[2.4865,48.8717],[2.4866,48.8713],[2.4872,48.8709],[2.4887,48.872],[2.4891,48.8718],[2.4902,48.8725],[2.4912,48.8725],[2.4918,48.8733],[2.4916,48.874],[2.492,48.8747],[2.4908,48.8751],[2.4899,48.8746],[2.4887,48.8737],[2.4871,48.873],[2.4877,48.8726],[2.4878,48.8725]]]},"properties":{"id_ffco":"14680","nom":"PARC DECESARI","_dept":"93","numero":"2024-D93-27","commune":"Rosny-sous-Bois","echelle":"1/2500","surface":"0.08 km²","format":"A4","annee":"2024","cartographes":"Hervé Quinquenel","proprietaire":"9404 - ASSOCIATION SPORTIVE DE L'IGN","niveau":"Initiation, Scolaire","specialite":"Sprint (ISSOM)","contacts":"AS IGN, section CO, 73 avenue de Paris, 94165, Saint-Mandé Cedex, 0678006088, coasign@ign.fr, http://www.coasign.fr/","latitude":"48.8730768411","longitude":"2.48945766022","date_saisie":"19/10/2024","date_depot":"05/03/2025","valide":"Oui","ppo":"Non","type_carte":"Nouvelle carte","fond":"Laser","obsolete":false}},{"type":"Feature","geometry":{"type":"Polygon","coordinates":[[[2.4868,48.8608],[2.4847,48.8667],[2.4852,48.8674],[2.4845,48.8678],[2.4851,48.8697],[2.485,48.8701],[2.4839,48.8695],[2.4816,48.8688],[2.4793,48.8691],[2.4794,48.871],[2.478,48.8721],[2.4758,48.8724],[2.479,48.8732],[2.4802,48.8734],[2.4826,48.8745],[2.4827,48.8751],[2.4811,48.8774],[2.4857,48.8776],[2.4871,48.8779],[2.4905,48.8789],[2.4952,48.8813],[2.4974,48.8792],[2.4993,48.8807],[2.5026,48.8823],[2.5029,48.8832],[2.5072,48.8831],[2.5071,48.8816],[2.5092,48.881],[2.508,48.8799],[2.5104,48.879],[2.5111,48.8807],[2.5139,48.879],[2.5152,48.8784],[2.5217,48.8763],[2.5241,48.8756],[2.5252,48.8745],[2.5249,48.8726],[2.522,48.8702],[2.5177,48.8679],[2.5174,48.8671],[2.5179,48.8665],[2.5197,48.8664],[2.5202,48.865],[2.519,48.8643],[2.5193,48.8618],[2.5196,48.8594],[2.5212,48.8589],[2.522,48.8547],[2.5226,48.8523],[2.5176,48.8518],[2.5137,48.8504],[2.5136,48.8514],[2.5122,48.8525],[2.5086,48.8534],[2.5084,48.854],[2.5071,48.8549],[2.5056,48.8571],[2.5041,48.8574],[2.4972,48.8601],[2.4972,48.8604],[2.4959,48.8604],[2.4907,48.8597],[2.49,48.8609],[2.488,48.8608],[2.4868,48.8608]]]},"properties":{"id_ffco":"14679","nom":"ROSNY SOUS BOIS NEUILLY PLAISANCE","_dept":"93","numero":"2024-D93-26","commune":"NEUILLY-PLAISANCE","echelle":"1/10000","surface":"7.15 km²","format":"A3","annee":"2024","cartographes":"Hervé Quinquenel","proprietaire":"9404 - ASSOCIATION SPORTIVE DE L'IGN","niveau":"Initiation, Scolaire","specialite":"CO à pied","contacts":"AS IGN, section CO, 73 avenue de Paris, 94165, Saint-Mandé Cedex, 0678006088, coasign@ign.fr, http://www.coasign.fr/","latitude":"48.8683447208","longitude":"2.50373764898","date_saisie":"19/10/2024","date_depot":"05/03/2025","valide":"Oui","ppo":"Non","type_carte":"Nouvelle carte","fond":"Ortho","obsolete":false}},{"type":"Feature","geometry":{"type":"Polygon","coordinates":[[[2.5492,48.9061],[2.5487,48.9053],[2.5477,48.9049],[2.5467,48.9051],[2.5469,48.906],[2.5481,48.9061],[2.5492,48.9061]]]},"properties":{"id_ffco":"13631","nom":"Collège Romain Rolland Clichy-sous-Bois","_dept":"93","numero":"2022-D93-25","commune":"Clichy-sous-Bois","echelle":"1/1000","surface":"0.02 km²","format":"A4","annee":"2022","cartographes":"Hervé Quinquenel","proprietaire":"9404 - ASSOCIATION SPORTIVE DE L'IGN","niveau":"Initiation, Scolaire","specialite":"Sprint (ISSOM)","contacts":"AS IGN, section CO, 73 avenue de Paris, 94165, Saint-Mandé Cedex, 0678006088, coasign@ign.fr, http://www.coasign.fr/","latitude":"48.9055788466","longitude":"2.54780883854","date_saisie":"26/10/2022","date_depot":"12/01/2023","valide":"Oui","ppo":"Non","type_carte":"Nouvelle carte","fond":"Ortho","obsolete":false}},{"type":"Feature","geometry":{"type":"Polygon","coordinates":[[[2.4475,48.9011],[2.4478,48.9009],[2.4481,48.9008],[2.455,48.9021],[2.4555,48.9011],[2.4565,48.9013],[2.4561,48.9024],[2.4603,48.9033],[2.46,48.9039],[2.458,48.9041],[2.4582,48.9049],[2.4533,48.904],[2.4497,48.9035],[2.4492,48.9028],[2.4487,48.9018],[2.448,48.9013],[2.4475,48.9011]]]},"properties":{"id_ffco":"12959","nom":"Parc départemental de la Bergère","_dept":"93","numero":"2021-D93-24","commune":"Bobigny","echelle":"1/4000","surface":"0.2 km²","format":"A4","annee":"2021","cartographes":"Hervé Quinquenel","proprietaire":"9404 - ASSOCIATION SPORTIVE DE L'IGN","niveau":"Régional","specialite":"Sprint (ISSOM)","contacts":"AS IGN, section CO, 73 avenue de Paris, 94165, Saint-Mandé Cedex, 0678006088, coasign@ign.fr, http://www.coasign.fr/","latitude":"48.9028542685","longitude":"2.45386829429","date_saisie":"17/10/2021","date_depot":"12/01/2022","valide":"Oui","ppo":"Non","type_carte":"Reprise","base":"1988-D93-05 Parc de la Bergère","fond":"Laser","obsolete":false}},{"type":"Feature","geometry":{"type":"Polygon","coordinates":[[[2.5645,48.8982],[2.5644,48.8967],[2.567,48.8961],[2.5689,48.8953],[2.5719,48.8953],[2.5716,48.8964],[2.5697,48.8971],[2.5689,48.8973],[2.5683,48.8987],[2.5661,48.8987],[2.5645,48.8982]]]},"properties":{"id_ffco":"14678","nom":"Parc Jean VALJEAN","_dept":"93","numero":"2024-D93-21","commune":"MONTFERMEIL","echelle":"1/3000","surface":"0.12 km²","format":"A5","annee":"2024","cartographes":"Hervé Quinquenel","proprietaire":"9404 - ASSOCIATION SPORTIVE DE L'IGN","niveau":"Initiation, Scolaire","specialite":"Sprint (ISSOM)","contacts":"AS IGN, section CO, 73 avenue de Paris, 94165, Saint-Mandé Cedex, 0678006088, coasign@ign.fr, http://www.coasign.fr/","latitude":"48.8969448602","longitude":"2.56784388394","date_saisie":"19/10/2024","date_depot":"05/03/2025","valide":"Non","ppo":"Non","type_carte":"Nouvelle carte","fond":"Ortho","obsolete":false}},{"type":"Feature","geometry":{"type":"Polygon","coordinates":[[[2.543,48.8618],[2.541,48.8611],[2.5396,48.8658],[2.5403,48.8661],[2.5401,48.8673],[2.5384,48.8691],[2.5486,48.8728],[2.5509,48.8701],[2.5491,48.8698],[2.5461,48.87],[2.5423,48.8667],[2.5417,48.8656],[2.5422,48.8635],[2.543,48.8618]]]},"properties":{"id_ffco":"14098","nom":"Parc des 33 ha","_dept":"93","numero":"2023-D93-20","commune":"Neuilly-sur-Marne","echelle":"1/4000","surface":"0.33 km²","format":"A3","annee":"2023","cartographes":"Hervé Quinquenel","proprietaire":"9404 - ASSOCIATION SPORTIVE DE L'IGN","niveau":"Départemental","specialite":"Sprint (ISSOM)","contacts":"AS IGN, section CO, 73 avenue de Paris, 94165, Saint-Mandé Cedex, 0678006088, coasign@ign.fr, http://www.coasign.fr/","latitude":"48.8682453719","longitude":"2.54353498427","date_saisie":"06/10/2023","date_depot":"15/02/2024","valide":"Oui","ppo":"Non","type_carte":"Nouvelle carte","fond":"Ortho","obsolete":false}},{"type":"Feature","geometry":{"type":"Polygon","coordinates":[[[2.5029,48.9695],[2.4954,48.9648],[2.5095,48.9545],[2.511,48.9552],[2.5251,48.9573],[2.5268,48.9579],[2.5254,48.9593],[2.5235,48.9615],[2.5212,48.9634],[2.5175,48.9652],[2.5134,48.9666],[2.5029,48.9695]]]},"properties":{"id_ffco":"11897","nom":"Villepinte Parc du Sausset sprint","_dept":"93","numero":"2020-D93-19","commune":"Villepinte","echelle":"1/5000","surface":"2.07 km²","format":"A3","annee":"2020","cartographes":"Frédéric Fischer","proprietaire":"7512 - RAID ORIENTATION DE PARIS","niveau":"Régional","specialite":"Sprint (ISSOM)","contacts":"DRUZETIC Stéphane, president@raid-o-paris.org // RO PARIS, https://www.raid-o-paris.org/ // THEMINES Anthony, anthony.themines@ffcorientation.fr","latitude":"48.9618403735","longitude":"2.51069445157","date_saisie":"06/01/2020","date_depot":"08/10/2020","valide":"Oui","ppo":"Non","type_carte":"Nouvelle carte","fond":"Cadastre","obsolete":false}},{"type":"Feature","geometry":{"type":"Polygon","coordinates":[[[2.5024,48.9691],[2.4954,48.9649],[2.5093,48.9546],[2.5111,48.9551],[2.5252,48.9572],[2.5263,48.9578],[2.5255,48.9592],[2.5238,48.9614],[2.5212,48.9634],[2.5171,48.9654],[2.5104,48.9675],[2.5031,48.9696],[2.5024,48.9691]]]},"properties":{"id_ffco":"11895","nom":"Villepinte Parc du Sausset","_dept":"93","numero":"2020-D93-18","commune":"Villepinte","echelle":"1/10000","surface":"2.07 km²","format":"A4","annee":"2020","cartographes":"Frédéric Fischer","proprietaire":"7512 - RAID ORIENTATION DE PARIS","niveau":"Régional","specialite":"CO à pied","contacts":"DRUZETIC Stéphane, president@raid-o-paris.org // RO PARIS, https://www.raid-o-paris.org/ // THEMINES Anthony, anthony.themines@ffcorientation.fr","latitude":"48.9618574735","longitude":"2.51072400576","date_saisie":"06/01/2020","date_depot":"08/10/2020","valide":"Oui","ppo":"Non","type_carte":"Nouvelle carte","fond":"Cadastre","obsolete":false}},{"type":"Feature","geometry":{"type":"Polygon","coordinates":[[[2.5724,48.8371],[2.578,48.8374],[2.582,48.8381],[2.5801,48.8442],[2.5785,48.8485],[2.5766,48.8478],[2.5719,48.8452],[2.5718,48.8444],[2.5735,48.8426],[2.5728,48.8393],[2.5723,48.8375],[2.5724,48.8371]]]},"properties":{"id_ffco":"11670","nom":"Champy - Butte Verte","_dept":"93","numero":"2019-D93-17","commune":"Noisy-le-Grand","echelle":"1/4000","surface":"0.63 km²","format":"A4","annee":"2019","cartographes":"Hervé Quinquenel","proprietaire":"9404 - ASSOCIATION SPORTIVE DE L'IGN","niveau":"Régional","specialite":"Sprint (ISSOM)","contacts":"AS IGN, section CO, 73 avenue de Paris, 94165, Saint-Mandé Cedex, 0678006088, coasign@ign.fr, http://www.coasign.fr/","latitude":"48.8420656581","longitude":"2.57674889456","date_saisie":"15/09/2019","date_depot":"14/02/2020","valide":"Oui","ppo":"Non","type_carte":"Nouvelle carte","fond":"Cadastre","obsolete":false}},{"type":"Feature","geometry":{"type":"Polygon","coordinates":[[[2.395,48.949],[2.3936,48.9478],[2.393,48.9477],[2.3919,48.948],[2.3909,48.9477],[2.3904,48.9471],[2.3908,48.9458],[2.3904,48.9454],[2.3874,48.9446],[2.389,48.9381],[2.3891,48.9362],[2.3879,48.9344],[2.3986,48.9348],[2.4029,48.936],[2.4047,48.9383],[2.4074,48.9401],[2.4135,48.945],[2.4128,48.9464],[2.4104,48.9495],[2.411,48.9513],[2.4113,48.9528],[2.4095,48.9551],[2.4081,48.9561],[2.4086,48.9568],[2.408,48.9588],[2.402,48.9606],[2.4008,48.9605],[2.3934,48.9545],[2.3974,48.9536],[2.3959,48.9514],[2.3969,48.9499],[2.3958,48.9492],[2.395,48.949]]]},"properties":{"id_ffco":"10946","nom":"LA COURNEUVE Parc Georges Valbon","_dept":"93","numero":"2018-D93-16","commune":"LA COURNEUVE","echelle":"1/10000","surface":"3.4 km²","format":"A3","annee":"2018","cartographes":"Rémi Lequint ISOHYPSE CARTOGRAPHIE","proprietaire":"7512 - RAID ORIENTATION DE PARIS","niveau":"Régional","specialite":"CO à pied","contacts":"DRUZETIC Stéphane, president@raid-o-paris.org // RO PARIS, https://www.raid-o-paris.org/ // THEMINES Anthony, anthony.themines@ffcorientation.fr","latitude":"48.9463916151","longitude":"2.40049391539","date_saisie":"08/10/2018","date_depot":"14/02/2020","valide":"Oui","ppo":"Non","type_carte":"Reprise","base":"2004-D93-10 Parc Départemental de la Courneuve","fond":"Ortho","obsolete":false}},{"type":"Feature","geometry":{"type":"Polygon","coordinates":[[[2.5418,48.8401],[2.5432,48.8385],[2.5486,48.8384],[2.5509,48.8403],[2.5555,48.8405],[2.5555,48.8411],[2.5508,48.8439],[2.5495,48.8449],[2.548,48.8433],[2.5441,48.8432],[2.5419,48.8406],[2.5418,48.8401]]]},"properties":{"id_ffco":"10879","nom":"LE MONT D'EST","_dept":"93","numero":"2018-D93-15","commune":"Noisy-le-Grand","echelle":"1/4000","surface":"0.4 km²","format":"A4","annee":"2018","cartographes":"Hervé Quinquenel","proprietaire":"9404 - ASSOCIATION SPORTIVE DE L'IGN","niveau":"National, International","specialite":"Sprint (ISSOM)","contacts":"AS IGN, section CO, 73 avenue de Paris, 94165, Saint-Mandé Cedex, 0678006088, coasign@ign.fr, http://www.coasign.fr/","latitude":"48.8411833953","longitude":"2.54793294307","date_saisie":"21/08/2018","date_depot":"05/12/2018","valide":"Oui","ppo":"Non","type_carte":"Nouvelle carte","fond":"Ortho","obsolete":false}},{"type":"Feature","geometry":{"type":"Polygon","coordinates":[[[2.4832,48.9543],[2.4859,48.9562],[2.4875,48.955],[2.4912,48.9578],[2.4951,48.9597],[2.4963,48.9605],[2.4991,48.9624],[2.496,48.9642],[2.4948,48.9642],[2.4897,48.961],[2.4894,48.9605],[2.4889,48.9603],[2.4884,48.9603],[2.483,48.9567],[2.4821,48.9558],[2.4824,48.9551],[2.4832,48.9543]]]},"properties":{"id_ffco":"9489","nom":"Parc Robert Ballanger","_dept":"93","numero":"2009-D93-13","commune":"Aulnay-sous-Bois","echelle":"1/4500","surface":"0.47 km²","format":"A3","annee":"2009","cartographes":"Besbot François","proprietaire":"SARL CAP Orientation","niveau":"Initiation, Scolaire","specialite":"Sprint (ISSOM)","contacts":"Service des espaces verts, 72 rue Auguste Renoir, 93600, Aulnay-sous-Bois, 0148796650","latitude":"48.9594820811","longitude":"2.49070585298","date_saisie":"20/03/2016","date_depot":"26/09/2017","valide":"Oui","ppo":"Oui (47 postes)","type_carte":"Nouvelle carte","fond":"Cadastre","obsolete":false}}]}