{"type":"FeatureCollection","features":[{"type":"Feature","geometry":{"type":"Polygon","coordinates":[[[2.5465,48.8552],[2.5467,48.8548],[2.5438,48.8544],[2.5421,48.8536],[2.5404,48.8533],[2.5367,48.8539],[2.5369,48.8541],[2.5463,48.8552],[2.5465,48.8552]]]},"properties":{"id_ffco":"12246","nom":"La Haute Île","_dept":"93","numero":"2020-D93-23","commune":"Neuilly-sur-Marne","echelle":"1/3000","surface":"0.06 km²","format":"A4","annee":"2020","cartographes":"Hervé Quinquenel","proprietaire":"9404 - ASSOCIATION SPORTIVE DE L'IGN","niveau":"Initiation, Scolaire","specialite":"Sprint (ISSOM)","latitude":"48.8541787832","longitude":"2.54150552166","date_saisie":"30/10/2020","date_depot":"08/07/2021","valide":"Oui","ppo":"Non","type_carte":"Nouvelle carte","fond":"Ortho","obsolete":true}},{"type":"Feature","geometry":{"type":"Polygon","coordinates":[[[2.5762,48.8373],[2.5775,48.8372],[2.5778,48.8357],[2.5813,48.8354],[2.5824,48.8356],[2.582,48.8376],[2.5818,48.8379],[2.582,48.8382],[2.5805,48.8423],[2.5804,48.8425],[2.5799,48.8424],[2.5794,48.8416],[2.5788,48.8412],[2.5785,48.8408],[2.5782,48.8402],[2.5782,48.8398],[2.5779,48.8393],[2.5769,48.8391],[2.5767,48.8387],[2.5769,48.8381],[2.5763,48.8379],[2.5761,48.8375],[2.5762,48.8373]]]},"properties":{"id_ffco":"8273","nom":"La Butte Verte","_dept":"93","numero":"2011-D93-14","commune":"Noisy-le-Grand","echelle":"1/4000","surface":"0.21 km²","format":"A4","annee":"2011","cartographes":"Hervé Quinquenel","proprietaire":"9404 - ASSOCIATION SPORTIVE DE L'IGN","niveau":"Régional","specialite":"Sprint (ISSOM)","contacts":"AS IGN, section CO, 73 avenue de Paris, 94165, Saint-Mandé Cedex, 0678006088, coasign@ign.fr, http://www.coasign.fr/","latitude":"48.8382832719","longitude":"2.57963933201","date_saisie":"13/04/2015","valide":"Oui","ppo":"Non","type_carte":"Nouvelle carte","fond":"Ortho","obsolete":true}},{"type":"Feature","geometry":{"type":"Polygon","coordinates":[[[2.4018,48.961],[2.4102,48.9583],[2.41,48.9561],[2.409,48.9559],[2.4088,48.9553],[2.4098,48.9544],[2.4096,48.9528],[2.4095,48.9511],[2.4101,48.9499],[2.4116,48.9496],[2.4121,48.9477],[2.4138,48.9463],[2.4129,48.9445],[2.4102,48.9416],[2.4074,48.9395],[2.4041,48.9373],[2.4024,48.9356],[2.3984,48.9349],[2.3887,48.9354],[2.3883,48.9375],[2.3872,48.9445],[2.3902,48.946],[2.3898,48.9466],[2.3939,48.9478],[2.3955,48.9494],[2.3972,48.9496],[2.3975,48.9509],[2.3963,48.9526],[2.3979,48.9531],[2.3928,48.9544],[2.4002,48.9607],[2.4018,48.961]]]},"properties":{"id_ffco":"494","nom":"Parc Départemental de la Courneuve","_dept":"93","numero":"2004-D93-10","commune":"La Courneuve/St. Denis","echelle":"1/10000","surface":"3.49 km²","format":"A4","annee":"2004","cartographes":"G Renard,D Buzon","niveau":"Départemental","specialite":"CO à pied","contacts":"Maison du Parc (gratuit), 01 43 11 13 00","latitude":"48.946614815","longitude":"2.40057469913","valide":"Non","ppo":"Oui (100 postes)","obsolete":true}},{"type":"Feature","geometry":{"type":"Polygon","coordinates":[[[2.5551,48.9132],[2.5546,48.9128],[2.554,48.9124],[2.5546,48.9098],[2.5539,48.9095],[2.5543,48.9088],[2.5588,48.9053],[2.5607,48.9062],[2.5616,48.906],[2.5634,48.9043],[2.5685,48.9066],[2.5688,48.9063],[2.5701,48.9067],[2.5708,48.9076],[2.5724,48.9078],[2.5734,48.9075],[2.574,48.9074],[2.5746,48.9073],[2.5748,48.907],[2.5767,48.9069],[2.5774,48.907],[2.578,48.9074],[2.5784,48.9085],[2.5797,48.909],[2.5796,48.9092],[2.5783,48.9096],[2.5776,48.9099],[2.5777,48.9101],[2.5772,48.9106],[2.5773,48.9115],[2.5772,48.9123],[2.5765,48.9132],[2.5746,48.9137],[2.574,48.9136],[2.572,48.9142],[2.5707,48.9151],[2.5641,48.9136],[2.5557,48.9133],[2.5551,48.9132]]]},"properties":{"id_ffco":"3163","nom":"Forêt Régionale de Bondy","_dept":"93","numero":"1996-D93-09","commune":"Clichy-sous-Bois","echelle":"1/10000","surface":"1.4 km²","format":"A4","annee":"1996","cartographes":"Patrick Saint-Upéry","proprietaire":"93 - Seine-Saint-Denis","niveau":"Départemental","specialite":"CO à pied","latitude":"48.9100287195","longitude":"2.56601937933","valide":"Oui","ppo":"Non","type_carte":"Nouvelle carte","fond":"Cadastre","obsolete":true}},{"type":"Feature","geometry":null,"properties":{"id_ffco":"2292","nom":"COLLEGE H.DE BALZAC","_dept":"93","numero":"1990-D93-08","commune":"NEUILLY S/MARNE","echelle":"1/2000","surface":"0.5 km²","annee":"1990","proprietaire":"7507","specialite":"CO à pied","latitude":"48.8569931","longitude":"2.5291997","valide":"Non","ppo":"Non","obsolete":true}},{"type":"Feature","geometry":{"type":"Polygon","coordinates":[[[2.5467,48.9377],[2.5481,48.938],[2.5487,48.9372],[2.5473,48.9368],[2.5487,48.934],[2.5547,48.9356],[2.5608,48.937],[2.5625,48.9341],[2.5661,48.9356],[2.5658,48.9364],[2.5682,48.9372],[2.5686,48.9385],[2.5663,48.9424],[2.5544,48.9395],[2.549,48.9382],[2.5467,48.9377]]]},"properties":{"id_ffco":"2291","nom":"PARC FORESTIER DE SEVRAN","_dept":"93","numero":"1990-D93-07","commune":"Sevran","echelle":"1/10000","surface":"0.78 km²","format":"A4","annee":"1990","cartographes":"Daniel Prost,Patrick Saint-Upéry","proprietaire":"93 - Seine-Saint-Denis","niveau":"Départemental","specialite":"CO à pied","latitude":"48.9379673736","longitude":"2.55894737975","valide":"Oui","ppo":"Non","type_carte":"Nouvelle carte","fond":"Cadastre","obsolete":true}},{"type":"Feature","geometry":{"type":"Polygon","coordinates":[[[2.5553,48.9132],[2.5544,48.9126],[2.5546,48.9096],[2.554,48.9093],[2.5546,48.9087],[2.5591,48.9053],[2.5601,48.906],[2.5615,48.906],[2.5631,48.9044],[2.568,48.9066],[2.5686,48.9063],[2.5697,48.9065],[2.5726,48.9078],[2.5741,48.9072],[2.5758,48.907],[2.5776,48.9073],[2.5783,48.9085],[2.5793,48.9089],[2.5774,48.9099],[2.5774,48.9118],[2.5762,48.9133],[2.5742,48.9138],[2.5734,48.9138],[2.5721,48.9142],[2.5707,48.9151],[2.5643,48.9135],[2.5564,48.9133],[2.5553,48.9132]]]},"properties":{"id_ffco":"2290","nom":"Forêt Départementale de Bondy","_dept":"93","numero":"1989-D93-06","commune":"Clichy-sous-Bois","echelle":"1/10000","surface":"1.38 km²","format":"A4","annee":"1989","proprietaire":"IF - Île de France","niveau":"Départemental","specialite":"CO à pied","latitude":"48.9100332733","longitude":"2.56606419403","valide":"Oui","ppo":"Non","type_carte":"Nouvelle carte","fond":"Cadastre","obsolete":true}},{"type":"Feature","geometry":{"type":"Polygon","coordinates":[[[2.4486,48.9016],[2.449,48.9023],[2.4495,48.9036],[2.4533,48.904],[2.456,48.9045],[2.4589,48.9049],[2.4601,48.9051],[2.4585,48.9042],[2.4585,48.9036],[2.4586,48.9031],[2.448,48.901],[2.4486,48.9016]]]},"properties":{"id_ffco":"2289","nom":"Parc de la Bergère","_dept":"93","numero":"1988-D93-05","commune":"Bobigny","echelle":"1/4000","surface":"0.16 km²","format":"A4","annee":"1988","cartographes":"Patrick Saint-Upéry","proprietaire":"IF - Île de France","niveau":"Départemental","specialite":"CO à pied","latitude":"48.9030985655","longitude":"2.45365626449","valide":"Oui","ppo":"Non","type_carte":"Nouvelle carte","fond":"Cadastre","obsolete":true}},{"type":"Feature","geometry":{"type":"Polygon","coordinates":[[[2.395,48.9481],[2.3963,48.9488],[2.3974,48.9502],[2.3979,48.9509],[2.3984,48.9516],[2.3992,48.9521],[2.3999,48.9522],[2.4008,48.952],[2.4025,48.9509],[2.406,48.9481],[2.4052,48.9475],[2.4058,48.946],[2.4047,48.9451],[2.4078,48.9429],[2.4081,48.94],[2.4053,48.9381],[2.4042,48.9374],[2.4032,48.9375],[2.4028,48.938],[2.4021,48.9379],[2.4014,48.937],[2.3996,48.9359],[2.3976,48.9354],[2.3973,48.9366],[2.3925,48.9362],[2.3896,48.936],[2.3886,48.936],[2.3891,48.9372],[2.3886,48.9383],[2.3881,48.9402],[2.3874,48.9431],[2.3892,48.9435],[2.39,48.9443],[2.3928,48.9461],[2.3942,48.9473],[2.395,48.9481]]]},"properties":{"id_ffco":"8483","nom":"Le Parc de la Courneuve","_dept":"93","numero":"1985-D93-04","commune":"La Courneuve","echelle":"1/7500","surface":"1.77 km²","format":"A4","annee":"1985","cartographes":"Patrick Saint-Upéry","niveau":"Départemental","specialite":"CO à pied","latitude":"48.9427758584","longitude":"2.3981020642","date_saisie":"22/06/2015","valide":"Oui","ppo":"Non","type_carte":"Nouvelle carte","fond":"Cadastre","obsolete":true}},{"type":"Feature","geometry":null,"properties":{"id_ffco":"2288","nom":"PARC DE LA COURNEUVE","_dept":"93","numero":"1990-D93-03","commune":"COURNEUVE","echelle":"1/10000","surface":"2.5 km²","annee":"1990","proprietaire":"IF - Île de France","specialite":"CO à pied","latitude":"48.9418351609","longitude":"2.39858359639","valide":"Non","ppo":"Non","obsolete":true}},{"type":"Feature","geometry":null,"properties":{"id_ffco":"2287","nom":"PARC FORESTIER BONDY","_dept":"93","numero":"1990-D93-02","commune":"BONDY","echelle":"1/10000","surface":"0.6 km²","annee":"1990","proprietaire":"IF - Île de France","specialite":"CO à pied","latitude":"48.9021604","longitude":"2.482633","valide":"Non","ppo":"Non","obsolete":true}}]}