{"type":"FeatureCollection","features":[{"type":"Feature","geometry":{"type":"Polygon","coordinates":[[[2.5717,48.7542],[2.561,48.7539],[2.5635,48.7565],[2.5562,48.7597],[2.5564,48.7645],[2.5523,48.7652],[2.5601,48.7712],[2.5618,48.7717],[2.5629,48.7708],[2.5644,48.7707],[2.567,48.7709],[2.5682,48.7705],[2.5712,48.7711],[2.5737,48.7716],[2.5749,48.768],[2.5763,48.7686],[2.5767,48.7681],[2.5775,48.7678],[2.5795,48.7681],[2.5807,48.768],[2.5809,48.7691],[2.5816,48.7689],[2.5821,48.7682],[2.5838,48.7684],[2.5837,48.7691],[2.5836,48.7704],[2.5849,48.771],[2.5854,48.7701],[2.589,48.77],[2.5902,48.7717],[2.5922,48.7712],[2.5934,48.7716],[2.5953,48.7723],[2.5963,48.7723],[2.5967,48.7723],[2.5981,48.7726],[2.5979,48.7733],[2.5996,48.7736],[2.601,48.7702],[2.6023,48.7663],[2.5958,48.7653],[2.5968,48.7623],[2.5976,48.7599],[2.591,48.7609],[2.5887,48.7592],[2.59,48.755],[2.5828,48.7547],[2.5717,48.7542]]]},"properties":{"id_ffco":"4912","nom":"LE CHENE NOTRE-DAME","_dept":"94","numero":"2008-D94-9","commune":"La Queue-en-Brie","echelle":"1/7500","surface":"5.01 km²","format":"A3","annee":"2008","cartographes":"F Gruselle,H Quinquenel","proprietaire":"9404 - ASSOCIATION SPORTIVE DE L'IGN","niveau":"Régional","specialite":"CO à pied","contacts":"AS IGN, section CO, 73 avenue de Paris, 94165, Saint-Mandé Cedex, 0678006088, coasign@ign.fr, http://www.coasign.fr/","latitude":"48.7633690205","longitude":"2.57690528409","date_saisie":"19/03/2010","date_depot":"26/03/2010","valide":"Oui","ppo":"Non","type_carte":"Nouvelle carte","fond":"Ortho","obsolete":false}},{"type":"Feature","geometry":{"type":"Polygon","coordinates":[[[2.5417,48.7767],[2.5387,48.7825],[2.5376,48.782],[2.537,48.7812],[2.5335,48.7826],[2.5287,48.7809],[2.5198,48.7809],[2.518,48.7795],[2.5165,48.7795],[2.5151,48.779],[2.5144,48.7781],[2.5138,48.7768],[2.5149,48.7757],[2.5125,48.7743],[2.5119,48.7732],[2.5117,48.7712],[2.5129,48.7695],[2.5124,48.7675],[2.5144,48.7654],[2.5151,48.7634],[2.5199,48.7622],[2.5231,48.7628],[2.5243,48.7602],[2.5275,48.76],[2.5266,48.7579],[2.5304,48.7588],[2.537,48.7639],[2.5408,48.7662],[2.5402,48.7673],[2.5407,48.7687],[2.541,48.7705],[2.54,48.7719],[2.5387,48.7729],[2.5372,48.7743],[2.5396,48.7749],[2.539,48.7763],[2.5408,48.7766],[2.5417,48.7767]]]},"properties":{"id_ffco":"15381","nom":"Sucy-en-Brie","_dept":"94","numero":"2025-D94-31","commune":"Sucy-en-Brie","echelle":"1/10000","surface":"4.18 km²","format":"A4","annee":"2025","cartographes":"Hervé Quinquenel","proprietaire":"9404 - ASSOCIATION SPORTIVE DE L'IGN","niveau":"Initiation, Scolaire","specialite":"CO à pied","contacts":"AS IGN, section CO, 73 avenue de Paris, 94165, Saint-Mandé Cedex, 0678006088, coasign@ign.fr, http://www.coasign.fr/","latitude":"48.7712580797","longitude":"2.52701113787","date_saisie":"27/12/2025","valide":"Non","ppo":"Non","type_carte":"Nouvelle carte","fond":"Ortho","obsolete":false}},{"type":"Feature","geometry":{"type":"Polygon","coordinates":[[[2.4806,48.8583],[2.4837,48.8586],[2.4843,48.8605],[2.4862,48.859],[2.4866,48.8586],[2.486,48.8581],[2.4859,48.858],[2.4863,48.8567],[2.4864,48.8558],[2.4867,48.8557],[2.4867,48.8553],[2.4882,48.8552],[2.4888,48.8534],[2.489,48.8525],[2.4895,48.8513],[2.4885,48.8505],[2.489,48.85],[2.4886,48.849],[2.4876,48.8484],[2.4879,48.8476],[2.4851,48.8474],[2.4832,48.8487],[2.4821,48.8489],[2.4798,48.849],[2.4785,48.8487],[2.4777,48.8488],[2.4768,48.8499],[2.4751,48.8508],[2.4733,48.8518],[2.4742,48.853],[2.4739,48.8539],[2.4735,48.854],[2.4735,48.8542],[2.4723,48.855],[2.4721,48.8564],[2.472,48.8577],[2.4741,48.8581],[2.476,48.8583],[2.4782,48.8584],[2.4802,48.8583],[2.4804,48.8583],[2.4806,48.8583]]]},"properties":{"id_ffco":"14696","nom":"Val de Fontenay","_dept":"94","numero":"2024-D94-30","commune":"Fontenay-sous-Bois","echelle":"1/5000","surface":"1.17 km²","format":"A3","annee":"2024","cartographes":"Hervé Quinquenel","proprietaire":"9404 - ASSOCIATION SPORTIVE DE L'IGN","niveau":"Initiation, Scolaire","specialite":"Sprint (ISSOM)","contacts":"AS IGN, section CO, 73 avenue de Paris, 94165, Saint-Mandé Cedex, 0678006088, coasign@ign.fr, http://www.coasign.fr/","latitude":"48.8536135944","longitude":"2.48117324587","date_saisie":"19/10/2024","date_depot":"05/03/2025","valide":"Oui","ppo":"Non","type_carte":"Nouvelle carte","fond":"Ortho","obsolete":false}},{"type":"Feature","geometry":{"type":"Polygon","coordinates":[[[2.5564,48.7642],[2.5561,48.76],[2.5573,48.7593],[2.5601,48.758],[2.5636,48.7565],[2.561,48.7539],[2.5689,48.7542],[2.582,48.7485],[2.5908,48.752],[2.59,48.755],[2.5888,48.7595],[2.5916,48.7609],[2.5924,48.7618],[2.592,48.7635],[2.5914,48.7646],[2.596,48.7654],[2.6023,48.7665],[2.5997,48.7736],[2.5979,48.7733],[2.5979,48.7726],[2.5935,48.7716],[2.592,48.7711],[2.5903,48.7717],[2.5893,48.7711],[2.5888,48.77],[2.5853,48.7703],[2.5857,48.7687],[2.582,48.7682],[2.5817,48.7689],[2.5808,48.7689],[2.5806,48.768],[2.5773,48.7678],[2.5762,48.7685],[2.5748,48.7681],[2.5737,48.7715],[2.568,48.7674],[2.5648,48.7648],[2.5627,48.7632],[2.5578,48.7646],[2.5571,48.7643],[2.5564,48.7642]]]},"properties":{"id_ffco":"14653","nom":"Forêt de Notre-Dame 2","_dept":"94","numero":"2024-D94-29","commune":"La Queue-en-Brie","echelle":"1/10000","surface":"4.73 km²","format":"A3","annee":"2024","cartographes":"Hervé Quinquenel","proprietaire":"9404 - ASSOCIATION SPORTIVE DE L'IGN","niveau":"Régional","specialite":"CO à pied","contacts":"AS IGN, section CO, 73 avenue de Paris, 94165, Saint-Mandé Cedex, 0678006088, coasign@ign.fr, http://www.coasign.fr/","latitude":"48.761234267","longitude":"2.57906561724","date_saisie":"28/09/2024","date_depot":"05/03/2025","valide":"Oui","ppo":"Non","type_carte":"Reprise","base":"2008-D94-9 LE CHENE NOTRE-DAME","fond":"Laser","obsolete":false}},{"type":"Feature","geometry":{"type":"Polygon","coordinates":[[[2.4235,48.8459],[2.423,48.843],[2.4247,48.8418],[2.4301,48.8412],[2.4384,48.8404],[2.4394,48.8445],[2.445,48.844],[2.4474,48.8436],[2.4474,48.8439],[2.4465,48.8447],[2.4469,48.8469],[2.447,48.8475],[2.4458,48.848],[2.4442,48.8494],[2.4441,48.8505],[2.44,48.8507],[2.4378,48.8508],[2.4361,48.8509],[2.4335,48.8492],[2.4326,48.8486],[2.4307,48.8475],[2.428,48.8473],[2.4254,48.8469],[2.4241,48.8463],[2.4235,48.8459]]]},"properties":{"id_ffco":"14328","nom":"Vincennes","_dept":"94","numero":"2024-D94-28","commune":"Vincennes","echelle":"1/4000","surface":"1.29 km²","format":"A3","annee":"2024","cartographes":"Hervé Quinquenel","proprietaire":"9404 - ASSOCIATION SPORTIVE DE L'IGN","niveau":"Initiation, Scolaire","specialite":"Sprint (ISSOM)","latitude":"48.8455975465","longitude":"2.43529815877","date_saisie":"22/01/2024","date_depot":"26/06/2024","valide":"Oui","ppo":"Non","type_carte":"Nouvelle carte","fond":"Ortho","obsolete":false}},{"type":"Feature","geometry":{"type":"Polygon","coordinates":[[[2.41,48.8028],[2.408,48.8027],[2.4071,48.8027],[2.4071,48.8032],[2.4079,48.8032],[2.4091,48.8034],[2.4095,48.8035],[2.41,48.8028]]]},"properties":{"id_ffco":"13912","nom":"Square Charles-Fourier","_dept":"94","numero":"2023-D94-27","commune":"Vitry-sur-Seine","echelle":"1/1000","surface":"0.01 km²","format":"A4","annee":"2023","cartographes":"Hervé Quinquenel","proprietaire":"9404 - ASSOCIATION SPORTIVE DE L'IGN","niveau":"Initiation, Scolaire","specialite":"Sprint (ISSOM)","latitude":"48.8030168311","longitude":"2.40849567707","date_saisie":"01/04/2023","date_depot":"05/03/2025","valide":"Oui","ppo":"Non","type_carte":"Nouvelle carte","fond":"Ortho","obsolete":false}},{"type":"Feature","geometry":{"type":"Polygon","coordinates":[[[2.4286,48.7756],[2.4355,48.7759],[2.4355,48.772],[2.4332,48.7681],[2.4338,48.7556],[2.4289,48.7548],[2.4216,48.7609],[2.4269,48.7638],[2.4268,48.7706],[2.4238,48.7702],[2.4235,48.7722],[2.4247,48.776],[2.4286,48.7756]]]},"properties":{"id_ffco":"13537","nom":"Parc de Choisy Paris Val de Marne","_dept":"94","numero":"2022-D94-26","commune":"Choisy-le-Roi","echelle":"1/4000","surface":"1.49 km²","format":"+","annee":"2022","cartographes":"Tiago Aires,Hervé Quinquenel","proprietaire":"IF - Île de France","niveau":"Régional","specialite":"Sprint (ISSOM)","contacts":"Ligue Ile de France de Course d'Orientation, 15 Passage des Mauxins, 75019, PARIS, 0603176058, ligue.ile-de-france@ffcorientation.fr, http://lifco.fr/","latitude":"48.7660563382","longitude":"2.42950576258","date_saisie":"25/08/2022","date_depot":"19/07/2023","valide":"Oui","ppo":"Non","type_carte":"Reprise","base":"2007-D94-8 Parc Interdépartemental des Sports - Paris / Val-de-Marne","fond":"Laser","obsolete":false}},{"type":"Feature","geometry":{"type":"Polygon","coordinates":[[[2.3788,48.7957],[2.3797,48.7946],[2.3808,48.795],[2.3801,48.7958],[2.3805,48.7959],[2.3799,48.7966],[2.3792,48.7964],[2.3795,48.7959],[2.379,48.7957],[2.3788,48.7957]]]},"properties":{"id_ffco":"12824","nom":"Collège Jean Perrin Vitry-sur-Seine","_dept":"94","numero":"2021-D94-25","commune":"Vitry-sur-Seine","echelle":"1/1000","surface":"0.02 km²","format":"A4","annee":"2021","cartographes":"Hervé Quinquenel","proprietaire":"9404 - ASSOCIATION SPORTIVE DE L'IGN","niveau":"Initiation, Scolaire","specialite":"CO à pied","latitude":"48.7955493342","longitude":"2.379809369","date_saisie":"04/07/2021","date_depot":"08/07/2021","valide":"Oui","ppo":"Non","type_carte":"Nouvelle carte","fond":"Ortho","obsolete":false}},{"type":"Feature","geometry":{"type":"Polygon","coordinates":[[[2.5304,48.759],[2.5332,48.7571],[2.5337,48.7574],[2.5348,48.7567],[2.5358,48.7572],[2.5368,48.7567],[2.5406,48.7582],[2.5409,48.758],[2.5451,48.7597],[2.5446,48.7615],[2.5393,48.7622],[2.5378,48.7628],[2.5366,48.7601],[2.5336,48.7613],[2.5329,48.761],[2.5304,48.759]]]},"properties":{"id_ffco":"12753","nom":"Parc municipal des sports de Sucy-en-Brie","_dept":"94","numero":"2021-D94-24","commune":"Sucy-en-Brie","echelle":"1/4000","surface":"0.41 km²","format":"A4","annee":"2021","cartographes":"Hervé Quinquenel","proprietaire":"9404 - ASSOCIATION SPORTIVE DE L'IGN","niveau":"Régional","specialite":"Sprint (ISSOM)","contacts":"AS IGN, section CO, 73 avenue de Paris, 94165, Saint-Mandé Cedex, 0678006088, coasign@ign.fr, http://www.coasign.fr/","latitude":"48.7595874802","longitude":"2.53787353915","date_saisie":"08/05/2021","date_depot":"08/07/2021","valide":"Oui","ppo":"Non","type_carte":"Reprise","base":"2007-D94-6 LE PARC DE SUCY","fond":"Ortho","obsolete":false}},{"type":"Feature","geometry":{"type":"Polygon","coordinates":[[[2.3478,48.785],[2.3502,48.7864],[2.3513,48.7867],[2.3512,48.7876],[2.3513,48.7884],[2.3504,48.7885],[2.3505,48.7892],[2.3522,48.7907],[2.3537,48.7911],[2.3537,48.7922],[2.354,48.7933],[2.3509,48.7933],[2.3497,48.7937],[2.3481,48.7931],[2.3468,48.7915],[2.3449,48.7909],[2.3457,48.7883],[2.3467,48.7867],[2.3473,48.7852],[2.3475,48.7847],[2.3478,48.785]]]},"properties":{"id_ffco":"12047","nom":"Parc des Hautes-Bruyères","_dept":"94","numero":"2020-D94-22","commune":"Villejuif","echelle":"1/4000","surface":"0.36 km²","format":"A4","annee":"2020","cartographes":"Frédéric Fischer","proprietaire":"9199 - INDIVIDUEL","niveau":"Régional","specialite":"Sprint (ISSOM)","contacts":"AS IGN, section CO, 73 avenue de Paris, 94165, Saint-Mandé Cedex, 0678006088, coasign@ign.fr, http://www.coasign.fr/","latitude":"48.7898741047","longitude":"2.34913733173","date_saisie":"14/05/2020","date_depot":"09/10/2020","valide":"Oui","ppo":"Non","type_carte":"Nouvelle carte","fond":"Ortho","obsolete":false}},{"type":"Feature","geometry":{"type":"Polygon","coordinates":[[[2.4429,48.7771],[2.4463,48.773],[2.4479,48.7715],[2.4492,48.7701],[2.4581,48.7702],[2.4591,48.772],[2.4584,48.7725],[2.4584,48.7735],[2.4573,48.7746],[2.4554,48.776],[2.4554,48.7771],[2.4549,48.782],[2.4532,48.7822],[2.4519,48.7839],[2.451,48.7849],[2.4501,48.7849],[2.4487,48.7846],[2.4473,48.7833],[2.4428,48.7779],[2.4429,48.7771]]]},"properties":{"id_ffco":"11964","nom":"Le Lac de Créteil","_dept":"94","numero":"2020-D94-21","commune":"Créteil","echelle":"1/4000","surface":"1.21 km²","format":"A3","annee":"2020","cartographes":"Frédéric Fischer","proprietaire":"9404 - ASSOCIATION SPORTIVE DE L'IGN","niveau":"Régional","specialite":"Sprint (ISSOM)","latitude":"48.7766660177","longitude":"2.45073796349","date_saisie":"03/03/2020","date_depot":"09/10/2020","valide":"Oui","ppo":"Non","type_carte":"Reprise","base":"2006-D94-5 Base de loisirs de Créteil","fond":"Ortho","obsolete":false}},{"type":"Feature","geometry":{"type":"Polygon","coordinates":[[[2.4917,48.8295],[2.4938,48.8282],[2.4941,48.8273],[2.495,48.8248],[2.4923,48.8236],[2.4898,48.8232],[2.4858,48.8218],[2.4839,48.8216],[2.4826,48.8221],[2.481,48.8263],[2.4815,48.8275],[2.4815,48.8281],[2.4845,48.8283],[2.4865,48.8285],[2.4887,48.8293],[2.4907,48.8295],[2.4917,48.8295]]]},"properties":{"id_ffco":"10936","nom":"Parc du Tremblay 2","_dept":"94","numero":"2018-D94-20","commune":"Champigny-sur-Marne","echelle":"1/5000","surface":"0.63 km²","format":"A4","annee":"2018","cartographes":"Fabien Gruselle","proprietaire":"9404 - ASSOCIATION SPORTIVE DE L'IGN","niveau":"Régional","specialite":"Sprint (ISSOM)","contacts":"AS IGN, section CO, 73 avenue de Paris, 94165, Saint-Mandé Cedex, 0678006088, coasign@ign.fr, http://www.coasign.fr/ // Parc Interdépartemental de Sports et de Loisirs Tremblay- Val-de-Marne - Paris, Accueil boulevard des Alliés, 94500, Champigny-sur-Marne, 01 48 81 89 96, sport@parc-tremblay.fr, http://www.parc-tremblay.fr/","latitude":"48.8257184755","longitude":"2.48770735159","date_saisie":"29/09/2018","date_depot":"14/02/2020","valide":"Oui","ppo":"Oui (65 postes)","type_carte":"Reprise","base":"2011-D94-11 Parc du Tremblay","fond":"Ortho","obsolete":false}},{"type":"Feature","geometry":{"type":"Polygon","coordinates":[[[2.4094,48.7391],[2.4116,48.739],[2.4139,48.7395],[2.4159,48.7406],[2.4174,48.7422],[2.418,48.7473],[2.41,48.7452],[2.4084,48.7429],[2.4092,48.7393],[2.4094,48.7391]]]},"properties":{"id_ffco":"10808","nom":"Parc des sports et de loisirs du Grand Godet","_dept":"94","numero":"2018-D94-19","commune":"Orly","echelle":"1/4000","surface":"0.45 km²","format":"A4","annee":"2018","cartographes":"Frédéric Fischer","proprietaire":"IF - Île de France","niveau":"Initiation, Scolaire","specialite":"Sprint (ISSOM)","contacts":"Ligue Ile de France de Course d'Orientation, 15 Passage des Mauxins, 75019, PARIS, 0603176058, ligue.ile-de-france@ffcorientation.fr, http://lifco.fr/","latitude":"48.7429291415","longitude":"2.41324734901","date_saisie":"27/05/2018","date_depot":"02/04/2019","valide":"Oui","ppo":"Non","type_carte":"Nouvelle carte","fond":"IGN","obsolete":false}},{"type":"Feature","geometry":{"type":"Polygon","coordinates":[[[2.391,48.8148],[2.3929,48.8128],[2.3919,48.8122],[2.3904,48.8115],[2.3887,48.8105],[2.386,48.8088],[2.3853,48.8095],[2.3849,48.8101],[2.3836,48.8111],[2.382,48.8119],[2.3815,48.8122],[2.3811,48.8128],[2.3803,48.8134],[2.3797,48.8139],[2.3788,48.8145],[2.3777,48.8156],[2.3774,48.8158],[2.3775,48.816],[2.3775,48.8163],[2.3776,48.8166],[2.3782,48.8168],[2.38,48.8171],[2.3815,48.8176],[2.384,48.8186],[2.3852,48.8172],[2.3857,48.8167],[2.3904,48.8185],[2.3931,48.8156],[2.3909,48.8149],[2.391,48.8148]]]},"properties":{"id_ffco":"10364","nom":"Mairie d'Ivry","_dept":"94","numero":"2017-D94-18","commune":"Ivry-sur-Seine","echelle":"1/4000","surface":"0.7 km²","format":"A3","annee":"2017","cartographes":"Hervé Quinquenel","proprietaire":"9404 - ASSOCIATION SPORTIVE DE L'IGN","niveau":"Régional","specialite":"Sprint (ISSOM)","contacts":"AS IGN, section CO, 73 avenue de Paris, 94165, Saint-Mandé Cedex, 0678006088, coasign@ign.fr, http://www.coasign.fr/","latitude":"48.8143471923","longitude":"2.38578229731","date_saisie":"08/10/2017","date_depot":"13/12/2017","valide":"Oui","ppo":"Non","type_carte":"Nouvelle carte","fond":"Ortho","obsolete":false}},{"type":"Feature","geometry":{"type":"Polygon","coordinates":[[[2.383,48.8136],[2.3815,48.813],[2.3815,48.8124],[2.3809,48.8131],[2.379,48.8144],[2.3781,48.8154],[2.3789,48.8157],[2.3797,48.8155],[2.3806,48.8158],[2.3824,48.8142],[2.383,48.8136]]]},"properties":{"id_ffco":"10305","nom":"Promenade des Petits Bois","_dept":"94","numero":"2017-D94-17","commune":"Ivry-sur-Seine","echelle":"1/1500","surface":"0.06 km²","format":"A4","annee":"2017","cartographes":"Hervé Quinquenel","proprietaire":"9404 - ASSOCIATION SPORTIVE DE L'IGN","niveau":"O+","specialite":"Sprint (ISSOM)","contacts":"AS IGN, section CO, 73 avenue de Paris, 94165, Saint-Mandé Cedex, 0678006088, coasign@ign.fr, http://www.coasign.fr/ // Municipalité d'Ivry-sur-Seine, Espace Gérard Philipe,  Centre Jeanne Hachette , Entrée rue Raspail à côté de la mairie, 94200,  Ivry-sur-Seine , 01.72.04.64.40, https://www.ivry94.fr/1273/parcours-permanent-de-course-d-orientation.htm","latitude":"48.8143931884","longitude":"2.38059192057","date_saisie":"05/09/2017","date_depot":"13/12/2017","valide":"Oui","ppo":"Oui (25 postes)","type_carte":"Nouvelle carte","fond":"Cadastre","url":"https://www.ivry94.fr/1273/parcours-permanent-de-course-d-orientation.htm","obsolete":false}},{"type":"Feature","geometry":{"type":"Polygon","coordinates":[[[2.559,48.7989],[2.5602,48.799],[2.5603,48.7988],[2.5614,48.7989],[2.5643,48.7961],[2.5615,48.7949],[2.5597,48.7969],[2.559,48.7987],[2.559,48.7989]]]},"properties":{"id_ffco":"10310","nom":"Parc de la Plaine des Bordes","_dept":"94","numero":"2017-D94-16","commune":"Chennevières-sur-Marne","echelle":"1/1500","surface":"0.1 km²","format":"A3","annee":"2017","cartographes":"Fabien Gruselle","proprietaire":"9404 - ASSOCIATION SPORTIVE DE L'IGN","niveau":"Initiation, Scolaire","specialite":"Sprint (ISSOM)","contacts":"AS IGN, section CO, 73 avenue de Paris, 94165, Saint-Mandé Cedex, 0678006088, coasign@ign.fr, http://www.coasign.fr/","latitude":"48.7970727598","longitude":"2.56142398041","date_saisie":"07/09/2017","date_depot":"26/09/2017","valide":"Oui","ppo":"Non","type_carte":"Nouvelle carte","fond":"Ortho","obsolete":false}},{"type":"Feature","geometry":{"type":"Polygon","coordinates":[[[2.3894,48.814],[2.3884,48.8149],[2.3875,48.8145],[2.3868,48.815],[2.3846,48.8143],[2.3843,48.8146],[2.3859,48.8152],[2.3849,48.8165],[2.3875,48.8174],[2.3889,48.816],[2.3901,48.8147],[2.3893,48.8143],[2.3894,48.814]]]},"properties":{"id_ffco":"10239","nom":"Parc des Cormailles","_dept":"94","numero":"2017-D94-15","commune":"Ivry-sur-Seine","echelle":"1/2000","surface":"0.07 km²","format":"A4","annee":"2017","cartographes":"Hervé Quinquenel","proprietaire":"9404 - ASSOCIATION SPORTIVE DE L'IGN","niveau":"O+","specialite":"Sprint (ISSOM)","contacts":"AS IGN, section CO, 73 avenue de Paris, 94165, Saint-Mandé Cedex, 0678006088, coasign@ign.fr, http://www.coasign.fr/","latitude":"48.8157147809","longitude":"2.38730609527","date_saisie":"30/06/2017","date_depot":"05/07/2017","valide":"Oui","ppo":"Non","type_carte":"Nouvelle carte","fond":"Ortho","obsolete":false}},{"type":"Feature","geometry":{"type":"Polygon","coordinates":[[[2.3859,48.8038],[2.3881,48.8038],[2.3881,48.804],[2.389,48.8043],[2.3891,48.805],[2.389,48.8053],[2.3888,48.8053],[2.3882,48.805],[2.3857,48.8043],[2.3859,48.8038]]]},"properties":{"id_ffco":"9859","nom":"Complexe Sportif Venise Gosnat","_dept":"94","numero":"2016-D94-14","commune":"Ivry-sur-Seine","echelle":"1/1000","surface":"0.02 km²","format":"A4","annee":"2016","cartographes":"Hervé Quinquenel","proprietaire":"9404 - ASSOCIATION SPORTIVE DE L'IGN","niveau":"O+","specialite":"Sprint (ISSOM)","contacts":"AS IGN, section CO, 73 avenue de Paris, 94165, Saint-Mandé Cedex, 0678006088, coasign@ign.fr, http://www.coasign.fr/","latitude":"48.8043888241","longitude":"2.38760411489","date_saisie":"15/11/2016","date_depot":"28/04/2017","valide":"Oui","ppo":"Non","type_carte":"Nouvelle carte","fond":"Ortho","obsolete":false}},{"type":"Feature","geometry":{"type":"Polygon","coordinates":[[[2.5226,48.8152],[2.5237,48.8152],[2.5266,48.8141],[2.5267,48.8137],[2.5272,48.8138],[2.5274,48.8142],[2.5276,48.815],[2.5275,48.8154],[2.5273,48.817],[2.5276,48.8172],[2.5274,48.8174],[2.5271,48.8173],[2.5269,48.8171],[2.5236,48.8172],[2.5224,48.8172],[2.5224,48.8167],[2.5221,48.8165],[2.5221,48.8162],[2.5218,48.8159],[2.5224,48.8153],[2.5226,48.8152]]]},"properties":{"id_ffco":"9797","nom":"Parc du Plateau - Ouest","_dept":"94","numero":"2016-D94-13","commune":"Champigny-sur-Marne","echelle":"1/1500","surface":"0.11 km²","format":"A3","annee":"2016","cartographes":"Fabien Gruselle","proprietaire":"9404 - ASSOCIATION SPORTIVE DE L'IGN","niveau":"Initiation, Scolaire","specialite":"Sprint (ISSOM)","contacts":"AS IGN, section CO, 73 avenue de Paris, 94165, Saint-Mandé Cedex, 0678006088, coasign@ign.fr, http://www.coasign.fr/","latitude":"48.8158628363","longitude":"2.52510710162","date_saisie":"27/10/2016","date_depot":"28/04/2017","valide":"Oui","ppo":"Non","type_carte":"Nouvelle carte","fond":"Cadastre","obsolete":false}},{"type":"Feature","geometry":{"type":"Polygon","coordinates":[[[2.3924,48.8077],[2.3938,48.8083],[2.3938,48.8083],[2.3926,48.8094],[2.392,48.8091],[2.3926,48.8084],[2.392,48.8081],[2.392,48.808],[2.3923,48.8077],[2.3924,48.8077]]]},"properties":{"id_ffco":"9695","nom":"Collège Georges Politzer","_dept":"94","numero":"2016-D94-12","commune":"Ivry-sur-Seine","echelle":"1/1000","surface":"0.01 km²","format":"A4","annee":"2016","cartographes":"Hervé Quinquenel","proprietaire":"9404 - ASSOCIATION SPORTIVE DE L'IGN","niveau":"O+","specialite":"Sprint (ISSOM)","contacts":"AS IGN, section CO, 73 avenue de Paris, 94165, Saint-Mandé Cedex, 0678006088, coasign@ign.fr, http://www.coasign.fr/","latitude":"48.8084826168","longitude":"2.39280281944","date_saisie":"29/09/2016","date_depot":"28/04/2017","valide":"Oui","ppo":"Non","type_carte":"Nouvelle carte","fond":"Cadastre","obsolete":false}},{"type":"Feature","geometry":{"type":"Polygon","coordinates":[[[2.5339,48.8024],[2.5341,48.8012],[2.5359,48.8013],[2.5357,48.8025],[2.5339,48.8024]]]},"properties":{"id_ffco":"8274","nom":"Collège Molière","_dept":"94","numero":"2010-D94-10","commune":"Chennevières-sur-Marne","echelle":"1/1000","surface":"0.02 km²","format":"A4","annee":"2010","cartographes":"Fabien Gruselle","proprietaire":"9404 - ASSOCIATION SPORTIVE DE L'IGN","niveau":"Initiation, Scolaire","specialite":"Sprint (ISSOM)","contacts":"AS IGN, section CO, 73 avenue de Paris, 94165, Saint-Mandé Cedex, 0678006088, coasign@ign.fr, http://www.coasign.fr/","latitude":"48.8018255043","longitude":"2.53491630706","date_saisie":"14/04/2015","date_depot":"28/04/2017","valide":"Oui","ppo":"Non","type_carte":"Nouvelle carte","fond":"Ortho","obsolete":false}}]}