{"type":"FeatureCollection","features":[{"type":"Feature","geometry":{"type":"Polygon","coordinates":[[[2.4267,48.7704],[2.4352,48.7728],[2.4355,48.7723],[2.4333,48.7676],[2.4335,48.7557],[2.4285,48.7547],[2.4216,48.7607],[2.4273,48.7642],[2.4267,48.7698],[2.4267,48.7704]]]},"properties":{"id_ffco":"4516","nom":"Parc Interdépartemental des Sports - Paris / Val-de-Marne","_dept":"94","numero":"2007-D94-8","commune":"Choisy le Roi","echelle":"1/6000","surface":"1.06 km²","format":"A3","annee":"2007","cartographes":"F Gruselle,C Esnault,E Malassigne","proprietaire":"9404 - ASSOCIATION SPORTIVE DE L'IGN","niveau":"Départemental","specialite":"CO à pied","latitude":"48.7630808676","longitude":"2.42957246137","date_saisie":"04/11/2009","date_depot":"06/11/2009","valide":"Oui","ppo":"Non","type_carte":"Nouvelle carte","fond":"Ortho","obsolete":true}},{"type":"Feature","geometry":{"type":"Polygon","coordinates":[[[2.5303,48.7588],[2.5331,48.7573],[2.5334,48.7573],[2.5355,48.7562],[2.5407,48.7581],[2.5452,48.7596],[2.5447,48.7617],[2.5392,48.7623],[2.5379,48.7628],[2.5373,48.7617],[2.5367,48.7617],[2.536,48.7605],[2.5334,48.7615],[2.5303,48.7588]]]},"properties":{"id_ffco":"4515","nom":"LE PARC DE SUCY","_dept":"94","numero":"2007-D94-6","commune":"Sucy en Brie","echelle":"1/5000","surface":"0.44 km²","format":"A4","annee":"2007","cartographes":"F Gruselle,E Malassigne","proprietaire":"9404 - ASSOCIATION SPORTIVE DE L'IGN","niveau":"Départemental","specialite":"CO à pied","contacts":"AS IGN, section CO, 73 avenue de Paris, 94165, Saint-Mandé Cedex, 0678006088, coasign@ign.fr, http://www.coasign.fr/","latitude":"48.7595797915","longitude":"2.53786113462","date_saisie":"04/11/2009","date_depot":"06/11/2009","valide":"Oui","ppo":"Non","type_carte":"Nouvelle carte","fond":"Ortho","obsolete":true}},{"type":"Feature","geometry":{"type":"Polygon","coordinates":[[[2.447,48.7819],[2.445,48.7795],[2.444,48.7795],[2.4427,48.7777],[2.4459,48.7732],[2.4473,48.7728],[2.4483,48.7723],[2.458,48.77],[2.459,48.7721],[2.4581,48.7725],[2.4583,48.7731],[2.4578,48.774],[2.4557,48.7758],[2.4547,48.7757],[2.4544,48.7762],[2.4544,48.7775],[2.4543,48.7786],[2.4541,48.7791],[2.4548,48.7799],[2.4545,48.7819],[2.454,48.782],[2.4528,48.7819],[2.4508,48.7823],[2.4475,48.7838],[2.4472,48.7823],[2.447,48.7819]]]},"properties":{"id_ffco":"498","nom":"Base de loisirs de Créteil","_dept":"94","numero":"2006-D94-5","commune":"Créteil","echelle":"1/6000","surface":"0.98 km²","annee":"2006","cartographes":"CAP ORIENTATION","niveau":"Initiation, Scolaire","specialite":"Sprint (ISSOM)","contacts":"Base de plein air, 01 48 98 44 56","latitude":"48.7764778667","longitude":"2.450650855","valide":"Non","ppo":"Oui (60 postes)","obsolete":true}},{"type":"Feature","geometry":{"type":"Polygon","coordinates":[[[2.4951,48.825],[2.4936,48.8243],[2.4912,48.8235],[2.4887,48.8227],[2.4868,48.8225],[2.486,48.8218],[2.4844,48.8213],[2.4835,48.8216],[2.4828,48.822],[2.4825,48.8229],[2.4825,48.8232],[2.4819,48.8238],[2.4819,48.8245],[2.4817,48.825],[2.4816,48.8256],[2.4809,48.8266],[2.4815,48.8273],[2.4814,48.8281],[2.486,48.8287],[2.4868,48.8286],[2.4878,48.8289],[2.4891,48.8292],[2.4905,48.8296],[2.4921,48.8294],[2.4934,48.8284],[2.4942,48.8272],[2.4948,48.8254],[2.4951,48.825]]]},"properties":{"id_ffco":"8271","nom":"Parc du Tremblay","_dept":"94","numero":"2011-D94-11","commune":"Champigny-sur-Marne","echelle":"1/5000","surface":"0.62 km²","format":"A4","annee":"2011","cartographes":"Fabien Gruselle","proprietaire":"9404 - ASSOCIATION SPORTIVE DE L'IGN","niveau":"Régional","specialite":"Sprint (ISSOM)","contacts":"AS IGN, section CO, 73 avenue de Paris, 94165, Saint-Mandé Cedex, 0678006088, coasign@ign.fr, http://www.coasign.fr/ // Parc Interdépartemental de Sports et de Loisirs Tremblay- Val-de-Marne - Paris, Accueil boulevard des Alliés, 94500, Champigny-sur-Marne, 01 48 81 89 96, sport@parc-tremblay.fr, http://www.parc-tremblay.fr/","latitude":"48.8257588977","longitude":"2.4876616952","date_saisie":"13/04/2015","date_depot":"28/04/2017","valide":"Oui","ppo":"Oui (65 postes)","type_carte":"Reprise","base":"2007-D94-07 Parc du Tremblay","fond":"Ortho","obsolete":true}},{"type":"Feature","geometry":{"type":"Polygon","coordinates":[[[2.4814,48.8282],[2.481,48.8271],[2.481,48.8262],[2.4815,48.8256],[2.482,48.8247],[2.4819,48.8238],[2.4825,48.8231],[2.4825,48.8225],[2.4833,48.8219],[2.4843,48.8218],[2.4847,48.822],[2.4857,48.822],[2.4862,48.8222],[2.4894,48.8229],[2.4913,48.8235],[2.4937,48.8243],[2.495,48.8249],[2.4949,48.8255],[2.4938,48.8275],[2.4933,48.8286],[2.4918,48.8294],[2.491,48.8296],[2.4901,48.8292],[2.4879,48.8287],[2.4866,48.8285],[2.4855,48.8286],[2.4814,48.8282]]]},"properties":{"id_ffco":"8272","nom":"Parc du Tremblay","_dept":"94","numero":"2007-D94-07","commune":"Champigny-sur-Marne","echelle":"1/5000","surface":"0.61 km²","format":"A4","annee":"2007","cartographes":"Cédric Esnault","proprietaire":"9404 - ASSOCIATION SPORTIVE DE L'IGN","niveau":"Initiation, Scolaire","specialite":"CO à pied","latitude":"48.825775035","longitude":"2.48766922766","date_saisie":"13/04/2015","date_depot":"28/04/2017","valide":"Oui","ppo":"Non","type_carte":"Nouvelle carte","fond":"Ortho","obsolete":true}},{"type":"Feature","geometry":{"type":"Polygon","coordinates":[[[2.4799,48.8281],[2.4853,48.8287],[2.4863,48.8287],[2.4883,48.8288],[2.4901,48.8293],[2.4916,48.8296],[2.4929,48.829],[2.4949,48.8263],[2.4961,48.8245],[2.4843,48.8211],[2.4832,48.821],[2.4834,48.8202],[2.4824,48.8203],[2.4815,48.8233],[2.4804,48.8275],[2.4799,48.8281]]]},"properties":{"id_ffco":"2295","nom":"Le Parc du Tremblay","_dept":"94","numero":"1988-D94-04","commune":"Champigny-sur-Marne","echelle":"1/5000","surface":"0.73 km²","format":"A4","annee":"1988","cartographes":"Patrick Saint-Upéry","proprietaire":"IF - Île de France","niveau":"Départemental","specialite":"CO à pied","latitude":"48.8254546585","longitude":"2.48746506317","valide":"Oui","ppo":"Non","type_carte":"Nouvelle carte","fond":"Cadastre","obsolete":true}},{"type":"Feature","geometry":null,"properties":{"id_ffco":"1282","nom":"GRANGE GROS BOIS","_dept":"94","numero":"1983-D94-03","commune":"BOISSY ST LEGER","echelle":"1/15000","surface":"6.5 km²","annee":"1983","proprietaire":"IF - Île de France","niveau":"Interrégional","specialite":"CO à pied","latitude":"48.7535944","longitude":"2.5067004","valide":"Non","ppo":"Non","obsolete":true}},{"type":"Feature","geometry":{"type":"Polygon","coordinates":[[[2.4914,48.7423],[2.4914,48.7423],[2.492,48.7416],[2.4925,48.7409],[2.4926,48.7398],[2.4945,48.7395],[2.4952,48.7375],[2.4979,48.7319],[2.5005,48.7269],[2.5004,48.7258],[2.4998,48.7241],[2.4996,48.7229],[2.5,48.7221],[2.509,48.7222],[2.5099,48.723],[2.5107,48.7222],[2.5174,48.7222],[2.5232,48.7293],[2.5258,48.7304],[2.5222,48.7324],[2.5216,48.733],[2.5148,48.7412],[2.5104,48.7469],[2.5078,48.7452],[2.5034,48.7435],[2.5001,48.7428],[2.4966,48.7424],[2.4934,48.7427],[2.4915,48.7424],[2.4914,48.7423]]]},"properties":{"id_ffco":"2294","nom":"Le Gros Bois","_dept":"94","numero":"1981-D94-02","commune":"Limeil-Brévannes","echelle":"1/10000","surface":"3.96 km²","format":"A4","annee":"1981","cartographes":"Bousser  Etienne","proprietaire":"IF - Île de France","niveau":"Régional","specialite":"CO à pied","latitude":"48.7332412865","longitude":"2.50846351282","valide":"Oui","ppo":"Non","type_carte":"Nouvelle carte","fond":"Cadastre","obsolete":true}},{"type":"Feature","geometry":null,"properties":{"id_ffco":"2293","nom":"PARC DEPARTEMENTAL","_dept":"94","numero":"1990-D94-01","commune":"CRETEIL","echelle":"1/5000","surface":"0.6 km²","annee":"1990","proprietaire":"IF - Île de France","specialite":"CO à pied","latitude":"48.789613","longitude":"2.4526276","valide":"Non","ppo":"Non","obsolete":true}},{"type":"Feature","geometry":null,"properties":{"id_ffco":"495","nom":"Parc Départemental du Plateau","_dept":"94","numero":"????-D94-0","commune":"Champigny sur Marne","surface":"None km²","latitude":"48.8172586","longitude":"2.4970468","valide":"Non","ppo":"Oui","obsolete":true}}]}