{"type":"FeatureCollection","features":[{"type":"Feature","geometry":{"type":"Polygon","coordinates":[[[2.0685,49.0291],[2.0679,49.0286],[2.0706,49.0261],[2.0722,49.0245],[2.0749,49.0234],[2.0775,49.0232],[2.0801,49.0231],[2.082,49.0232],[2.0827,49.0226],[2.0841,49.0238],[2.0897,49.0287],[2.0876,49.0292],[2.0866,49.0289],[2.085,49.0291],[2.0836,49.0298],[2.0812,49.0298],[2.0797,49.0307],[2.0785,49.0312],[2.0763,49.0311],[2.0751,49.0317],[2.0742,49.032],[2.0691,49.0295],[2.0685,49.0291]]]},"properties":{"id_ffco":"2020-D95-99","nom":"Le bois de Cergy 2","_dept":"95","numero":"2020-D95-99","commune":"cergy","echelle":"1/5000","surface":"0.97 km²","format":"A4","annee":"2020","cartographes":"Yann lahellec","proprietaire":"9510 - RAID ORIENTATION CERGY","niveau":"Régional","specialite":"CO à pied","latitude":"49.0272791339","longitude":"2.07813935012","date_saisie":"09/11/2020","date_depot":"19/07/2023","valide":"Oui","ppo":"Non","type_carte":"Reprise","base":"2018-D95-92 Le bois de Cergy","fond":"Cadastre","obsolete":false}},{"type":"Feature","geometry":{"type":"Polygon","coordinates":[[[2.3816,48.9853],[2.3793,48.9831],[2.3784,48.981],[2.3837,48.981],[2.3882,48.9805],[2.389,48.9828],[2.3886,48.9833],[2.3874,48.9843],[2.3893,48.9868],[2.3862,48.9889],[2.3844,48.9894],[2.3814,48.9876],[2.3799,48.9866],[2.3805,48.9858],[2.3815,48.9854],[2.3816,48.9853]]]},"properties":{"id_ffco":"2020-D95-98","nom":"Parc des près sous la ville","_dept":"95","numero":"2020-D95-98","commune":"Sarcelles","echelle":"1/4000","surface":"0.52 km²","format":"A4","annee":"2020","cartographes":"YANN LAHELLEC","proprietaire":"9599 - INDIVIDUEL","niveau":"Régional","specialite":"CO à pied","contacts":"YANN LAHELLEC, 36 BIS RUE DE LA REPUBLIQUE, 95570, BOUFFEMONT, 0660371674, 0660371674, ylahellec@gmail.com, https://www.roc95.fr/CryO/","latitude":"48.9845171393","longitude":"2.38430668014","date_saisie":"09/11/2020","date_depot":"18/07/2023","valide":"Oui","ppo":"Non","type_carte":"Nouvelle carte","fond":"Cadastre","obsolete":false}},{"type":"Feature","geometry":{"type":"Polygon","coordinates":[[[2.0229,49.0472],[2.015,49.0479],[2.0105,49.0451],[2.0097,49.0438],[2.0161,49.0401],[2.0175,49.0415],[2.0203,49.0405],[2.0232,49.0406],[2.027,49.0448],[2.0229,49.0472]]]},"properties":{"id_ffco":"2020-D95-97","nom":"La coulée verte","_dept":"95","numero":"2020-D95-97","commune":"cergy","echelle":"1/4000","surface":"0.72 km²","format":"A4","annee":"2020","cartographes":"YANN LAHELLEC","proprietaire":"9599 - INDIVIDUEL","niveau":"Régional","specialite":"CO à pied","contacts":"YANN LAHELLEC, 36 BIS RUE DE LA REPUBLIQUE, 95570, BOUFFEMONT, 0660371674, 0660371674, ylahellec@gmail.com, https://www.roc95.fr/CryO/","latitude":"49.0441443054","longitude":"2.01837743642","date_saisie":"28/01/2020","date_depot":"19/07/2023","valide":"Oui","ppo":"Non","type_carte":"Nouvelle carte","fond":"Cadastre","obsolete":false}},{"type":"Feature","geometry":{"type":"Polygon","coordinates":[[[2.3237,49.1224],[2.3227,49.1203],[2.3255,49.1199],[2.3276,49.1196],[2.331,49.1187],[2.3317,49.1175],[2.3322,49.1155],[2.3348,49.1131],[2.3362,49.1126],[2.343,49.1089],[2.346,49.1086],[2.3473,49.1101],[2.3497,49.1127],[2.3493,49.113],[2.3501,49.1144],[2.3492,49.115],[2.3493,49.116],[2.3487,49.1165],[2.3489,49.1174],[2.3499,49.1181],[2.3509,49.1196],[2.3546,49.1216],[2.3529,49.1271],[2.3491,49.1283],[2.348,49.1289],[2.3461,49.1294],[2.3446,49.1302],[2.3279,49.1296],[2.3261,49.1293],[2.3232,49.1228],[2.3237,49.1224]]]},"properties":{"id_ffco":"2019-D95-95","nom":"Carnelle 5 Nord-Est","_dept":"95","numero":"2019-D95-95","commune":"St-Martin-du-Tertre","echelle":"1/10000","surface":"3.55 km²","format":"A3","annee":"2019","cartographes":"Bertrand PELLIN","proprietaire":"95 - Val-d'Oise","niveau":"Régional","specialite":"CO à pied","contacts":"CDCO 95, https://cdco95.wordpress.com/","latitude":"49.121260765","longitude":"2.33950453887","date_saisie":"26/02/2019","date_depot":"19/07/2023","valide":"Oui","ppo":"Non","type_carte":"Reprise","base":"2013-D95-66 Carnelle 4","fond":"Laser","obsolete":false}},{"type":"Feature","geometry":{"type":"Polygon","coordinates":[[[2.2654,49.0997],[2.2549,49.1023],[2.2516,49.1002],[2.2477,49.1006],[2.2442,49.0981],[2.242,49.0951],[2.2473,49.0898],[2.2576,49.0904],[2.2574,49.0883],[2.2558,49.0844],[2.2691,49.0781],[2.2801,49.0798],[2.2875,49.0836],[2.2852,49.0871],[2.2824,49.0882],[2.2788,49.0886],[2.2756,49.0887],[2.2735,49.091],[2.2719,49.0924],[2.2722,49.0994],[2.2654,49.0997]]]},"properties":{"id_ffco":"2022-D95-94","nom":"L'Isle-Adam 3","_dept":"95","numero":"2022-D95-94","commune":"L'Isle-Adam","echelle":"1/15000","surface":"4.53 km²","format":"A4","annee":"2022","cartographes":"Bertrand Pellin","proprietaire":"9502 - ATHLETIC CLUB DE BEAUCHAMP","niveau":"Régional","specialite":"CO à pied","contacts":"AC Beauchamp CO, b.pellin@orange.fr, http://www.acbeauchamp-orientation.net/","latitude":"49.0902252712","longitude":"2.26429882843","date_saisie":"20/12/2021","date_depot":"12/01/2023","valide":"Oui","ppo":"Non","type_carte":"Reprise","base":"2012-D95-65 L'Isle-Adam Est 2","fond":"Cadastre","obsolete":false}},{"type":"Feature","geometry":{"type":"Polygon","coordinates":[[[2.2633,49.0453],[2.2656,49.0444],[2.2658,49.0442],[2.2681,49.0436],[2.2716,49.0426],[2.2723,49.0416],[2.2731,49.0408],[2.2741,49.041],[2.2778,49.0405],[2.2824,49.0396],[2.2794,49.0355],[2.275,49.0366],[2.2749,49.0363],[2.2742,49.0319],[2.2735,49.0294],[2.2725,49.0297],[2.272,49.0297],[2.2713,49.0302],[2.2701,49.0306],[2.2695,49.0311],[2.2673,49.032],[2.2667,49.0325],[2.2657,49.0325],[2.2645,49.0326],[2.2559,49.0354],[2.2568,49.0358],[2.2579,49.0361],[2.2597,49.0367],[2.2612,49.0373],[2.2625,49.038],[2.2635,49.0388],[2.263,49.0398],[2.2624,49.0407],[2.2624,49.0414],[2.2625,49.0423],[2.2625,49.043],[2.2633,49.0453]]]},"properties":{"id_ffco":"2020-D95-93","nom":"Le Nid d'Aigle 3","_dept":"95","numero":"2020-D95-93","commune":"Saint-Prix","echelle":"1/10000","surface":"1.49 km²","format":"A4","annee":"2020","cartographes":"Bertrand Pellin","proprietaire":"95 - Val-d'Oise","niveau":"Régional","specialite":"CO à pied","contacts":"CDCO 95, https://cdco95.wordpress.com/","latitude":"49.037371089","longitude":"2.26930505172","date_saisie":"24/10/2020","date_depot":"19/07/2023","valide":"Oui","ppo":"Non","type_carte":"Reprise","base":"2005-D95-55 Les Sapins Brûlés 2","fond":"Cadastre","obsolete":false}},{"type":"Feature","geometry":{"type":"Polygon","coordinates":[[[2.0744,49.0317],[2.0757,49.0307],[2.078,49.0312],[2.0793,49.0311],[2.0809,49.0303],[2.0838,49.0312],[2.0846,49.0293],[2.087,49.0293],[2.0897,49.0287],[2.0886,49.0272],[2.0867,49.026],[2.0853,49.0247],[2.0827,49.0228],[2.0819,49.0233],[2.0762,49.0233],[2.0733,49.024],[2.0717,49.0249],[2.0698,49.0266],[2.0691,49.0277],[2.0675,49.0289],[2.0744,49.0317]]]},"properties":{"id_ffco":"2018-D95-92","nom":"Le bois de Cergy","_dept":"95","numero":"2018-D95-92","commune":"cergy","echelle":"1/5000","surface":"0.99 km²","format":"A4","annee":"2018","cartographes":"Yann Lahellec","proprietaire":"9599 - INDIVIDUEL","niveau":"Régional","specialite":"CO à pied","contacts":"yann lahellec, 20 rue leveque, 95000, Cergy, 0660371674, carto.yann@gmail.com, http://www.rvsa.fr/","latitude":"49.0273307386","longitude":"2.07845440489","date_saisie":"08/02/2018","date_depot":"14/02/2020","valide":"Oui","ppo":"Non","type_carte":"Nouvelle carte","fond":"Cadastre","obsolete":false}},{"type":"Feature","geometry":{"type":"Polygon","coordinates":[[[2.1592,49.0178],[2.1687,49.0154],[2.166,49.0131],[2.1624,49.0148],[2.161,49.0143],[2.16,49.0146],[2.1594,49.0163],[2.1592,49.0178]]]},"properties":{"id_ffco":"2017-D95-91","nom":"Parc des sports","_dept":"95","numero":"2017-D95-91","commune":"Pierrelaye","echelle":"1/2500","surface":"0.17 km²","format":"A4","annee":"2017","cartographes":"Yann Lahellec","proprietaire":"9599 - INDIVIDUEL","niveau":"Initiation, Scolaire","specialite":"CO à pied","contacts":"YANN LAHELLEC, 36 BIS RUE DE LA REPUBLIQUE, 95570, BOUFFEMONT, 0660371674, 0660371674, ylahellec@gmail.com, https://roc95.fr/CryO/","latitude":"49.0154375274","longitude":"2.16347109232","date_saisie":"26/10/2017","date_depot":"20/05/2019","valide":"Oui","ppo":"Non","type_carte":"Nouvelle carte","fond":"Cadastre","obsolete":false}},{"type":"Feature","geometry":{"type":"Polygon","coordinates":[[[2.2201,49.0067],[2.2206,49.0089],[2.2175,49.0094],[2.2136,49.0102],[2.2099,49.0052],[2.2173,49.0028],[2.2193,49.0055],[2.2201,49.0067]]]},"properties":{"id_ffco":"2017-D95-90","nom":"Le Bois de Boissy 5","_dept":"95","numero":"2017-D95-90","commune":"Beauchamp","echelle":"1/4000","surface":"0.39 km²","format":"A4","annee":"2017","cartographes":"Bertrand Pellin","proprietaire":"95 - Val-d'Oise","niveau":"Départemental","specialite":"Sprint (ISSOM)","contacts":"CDCO 95, https://cdco95.wordpress.com/","latitude":"49.0066683264","longitude":"2.21559628395","date_saisie":"02/10/2017","date_depot":"29/03/2019","valide":"Oui","ppo":"Non","type_carte":"Reprise","base":"2007-D95-58 Le Bois de Boissy 4","fond":"Cadastre","obsolete":false}},{"type":"Feature","geometry":{"type":"Polygon","coordinates":[[[2.2345,49.1202],[2.2457,49.1229],[2.2463,49.1217],[2.2498,49.1135],[2.2492,49.1112],[2.2428,49.1114],[2.2396,49.1146],[2.2348,49.1188],[2.2345,49.1202]]]},"properties":{"id_ffco":"2016-D95-89","nom":"Bois de Cassan sud","_dept":"95","numero":"2016-D95-89","commune":"l'isle adam","echelle":"1/5000","surface":"0.88 km²","format":"A4","annee":"2016","niveau":"Initiation, Scolaire","specialite":"CO à pied","latitude":"49.1169822191","longitude":"2.24303104141","date_saisie":"02/12/2016","date_depot":"13/12/2017","valide":"Oui","ppo":"Non","type_carte":"Extrait","base":"2012-D95-65 L'Isle-Adam Est 2","fond":"Ortho","obsolete":false}},{"type":"Feature","geometry":{"type":"Polygon","coordinates":[[[2.0771,49.0271],[2.0786,49.0294],[2.0801,49.0291],[2.0809,49.0276],[2.0801,49.0261],[2.0786,49.0261],[2.077,49.0266],[2.0771,49.0271]]]},"properties":{"id_ffco":"2016-D95-88","nom":"Gymnase des touleuses","_dept":"95","numero":"2016-D95-88","commune":"Cergy","echelle":"1/1250","surface":"0.07 km²","format":"A4","annee":"2016","cartographes":"Yann Lahellec","proprietaire":"9599 - INDIVIDUEL","niveau":"Initiation, Scolaire","specialite":"CO à pied","contacts":"yann lahellec, 20 rue leveque, 95000, Cergy, 0660371674, carto.yann@gmail.com","latitude":"49.027570515","longitude":"2.07902833526","date_saisie":"18/11/2016","date_depot":"13/12/2017","valide":"Oui","ppo":"Non","type_carte":"Nouvelle carte","fond":"Ortho","obsolete":false}},{"type":"Feature","geometry":{"type":"Polygon","coordinates":[[[2.2236,48.9405],[2.2259,48.9403],[2.2269,48.9395],[2.2261,48.9392],[2.2235,48.9388],[2.2236,48.9405]]]},"properties":{"id_ffco":"2016-D95-87","nom":"Lycée Jean Jaurès","_dept":"95","numero":"2016-D95-87","commune":"Argenteuil","echelle":"1/1000","surface":"0.03 km²","format":"A4","annee":"2016","cartographes":"Yann Lahellec","proprietaire":"9599 - INDIVIDUEL","niveau":"Initiation, Scolaire","specialite":"CO à pied","contacts":"yann lahellec, 20 rue leveque, 95000, Cergy, 0660371674, carto.yann@gmail.com","latitude":"48.9397119574","longitude":"2.22488223413","date_saisie":"18/11/2016","date_depot":"29/03/2019","valide":"Oui","ppo":"Non","type_carte":"Nouvelle carte","fond":"Cadastre","obsolete":false}},{"type":"Feature","geometry":{"type":"Polygon","coordinates":[[[2.2156,49.0726],[2.2203,49.0703],[2.2197,49.0703],[2.219,49.07],[2.2181,49.0704],[2.2175,49.0696],[2.2164,49.0686],[2.2143,49.0677],[2.213,49.0676],[2.2114,49.0675],[2.2099,49.0674],[2.2101,49.0697],[2.2107,49.0706],[2.2103,49.0717],[2.21,49.0727],[2.2122,49.0727],[2.2156,49.0726]]]},"properties":{"id_ffco":"2016-D95-86","nom":"Bois des Garennes","_dept":"95","numero":"2016-D95-86","commune":"Mériel","echelle":"1/3000","surface":"0.29 km²","format":"A4","annee":"2016","cartographes":"Bertrand Pellin","proprietaire":"95 - Val-d'Oise","niveau":"Initiation, Scolaire","specialite":"CO à pied","contacts":"CDCO 95, https://cdco95.wordpress.com/","latitude":"49.0702292539","longitude":"2.21382510881","date_saisie":"06/10/2016","date_depot":"13/12/2017","valide":"Oui","ppo":"Non","type_carte":"Nouvelle carte","fond":"Laser","obsolete":false}},{"type":"Feature","geometry":{"type":"Polygon","coordinates":[[[2.2082,48.9943],[2.2064,48.9948],[2.2079,48.9972],[2.209,48.9984],[2.2082,48.9988],[2.2096,49.0002],[2.2104,48.9999],[2.2106,49.0002],[2.2113,49.0],[2.2119,49.0007],[2.2132,49.0007],[2.2127,49.0002],[2.2124,48.9999],[2.2118,48.9992],[2.2117,48.9989],[2.2113,48.9988],[2.211,48.9985],[2.2118,48.9981],[2.2121,48.9983],[2.2124,48.9982],[2.2126,48.9981],[2.2135,48.9981],[2.2139,48.9985],[2.2144,48.9991],[2.2143,48.9993],[2.2149,49.0001],[2.2153,49.0004],[2.2161,48.9999],[2.218,48.9994],[2.2181,48.9977],[2.2172,48.9974],[2.217,48.9974],[2.2163,48.9964],[2.216,48.9961],[2.2155,48.9961],[2.2149,48.9957],[2.215,48.9954],[2.2148,48.995],[2.2156,48.9946],[2.2159,48.9942],[2.2174,48.9938],[2.2174,48.9933],[2.2166,48.9928],[2.2156,48.9912],[2.2154,48.9903],[2.2144,48.9896],[2.2134,48.9894],[2.2122,48.989],[2.2104,48.9898],[2.2088,48.9905],[2.2064,48.9914],[2.2071,48.9921],[2.2082,48.9943]]]},"properties":{"id_ffco":"2016-D95-84","nom":"Bois des Eboulures 4","_dept":"95","numero":"2016-D95-84","commune":"Franconville","echelle":"1/5000","surface":"0.7 km²","format":"A4","annee":"2016","cartographes":"Bertrand Pellin","proprietaire":"95 - Val-d'Oise","niveau":"Régional","specialite":"Sprint (ISSOM)","contacts":"CDCO 95, https://cdco95.wordpress.com/","latitude":"48.9947871674","longitude":"2.2121066207","date_saisie":"24/09/2016","date_depot":"29/03/2019","valide":"Oui","ppo":"Non","type_carte":"Reprise","base":"2005-D95-56 Bois des Eboulures 2","fond":"Laser","obsolete":false}},{"type":"Feature","geometry":{"type":"Polygon","coordinates":[[[2.4852,49.139],[2.4907,49.1397],[2.4948,49.1388],[2.5003,49.1388],[2.505,49.1375],[2.5065,49.1361],[2.5069,49.1316],[2.508,49.1295],[2.5058,49.1274],[2.5184,49.1185],[2.5121,49.1102],[2.4927,49.111],[2.488,49.1181],[2.4847,49.1193],[2.4783,49.1214],[2.4852,49.139]]]},"properties":{"id_ffco":"2017-D95-83","nom":"La Borne Blanche 4","_dept":"95","numero":"2017-D95-83","commune":"Orry-la-Ville","echelle":"1/15000","surface":"6.11 km²","format":"A4","annee":"2017","cartographes":"Bertrand Pellin","proprietaire":"95 - Val-d'Oise","niveau":"Régional","specialite":"CO à pied","contacts":"CDCO 95, https://cdco95.wordpress.com/","latitude":"49.1243275209","longitude":"2.49748971347","date_saisie":"02/10/2017","date_depot":"02/04/2019","valide":"Oui","ppo":"Non","type_carte":"Reprise","base":"2008-D95-60 La Borne Blanche 3","fond":"Cadastre","obsolete":false}},{"type":"Feature","geometry":{"type":"Polygon","coordinates":[[[2.2957,49.0232],[2.2969,49.0247],[2.2988,49.0253],[2.3021,49.0253],[2.3038,49.0252],[2.3078,49.0257],[2.311,49.0261],[2.3121,49.0269],[2.3119,49.0279],[2.3108,49.0285],[2.3096,49.0294],[2.3086,49.0303],[2.3082,49.0312],[2.3088,49.0317],[2.3101,49.0326],[2.3108,49.0336],[2.3112,49.0344],[2.3098,49.0355],[2.3086,49.0371],[2.3079,49.0381],[2.3073,49.0387],[2.3059,49.0399],[2.305,49.0405],[2.3025,49.0412],[2.2994,49.0415],[2.297,49.0418],[2.2946,49.0418],[2.2937,49.0419],[2.2906,49.0439],[2.2906,49.0432],[2.2901,49.0423],[2.2901,49.0414],[2.2876,49.0376],[2.2813,49.0369],[2.28,49.0387],[2.2752,49.0397],[2.2727,49.0393],[2.2691,49.0383],[2.2691,49.0368],[2.2704,49.0346],[2.2714,49.033],[2.2734,49.0314],[2.2731,49.0294],[2.2701,49.0285],[2.2691,49.0248],[2.2711,49.0237],[2.2742,49.0211],[2.277,49.0201],[2.2782,49.0211],[2.284,49.02],[2.2859,49.0203],[2.2866,49.0201],[2.2876,49.0192],[2.2887,49.0193],[2.2908,49.0185],[2.2917,49.0195],[2.292,49.0207],[2.2929,49.0212],[2.2944,49.0219],[2.2957,49.0232]]]},"properties":{"id_ffco":"2018-D95-82","nom":"Château de la Chasse 2","_dept":"95","numero":"2018-D95-82","commune":"Montlignon","echelle":"1/10000","surface":"5.58 km²","format":"A3","annee":"2018","cartographes":"Bertrand Pellin","proprietaire":"95 - Val-d'Oise","niveau":"Régional","specialite":"CO à pied","contacts":"CDCO 95, https://cdco95.wordpress.com/","latitude":"49.0309602264","longitude":"2.28960332955","date_saisie":"27/09/2018","date_depot":"02/04/2019","valide":"Oui","ppo":"Non","type_carte":"Reprise","base":"2003-D95-54 Le Nid d'Aigle 2","fond":"Laser","obsolete":false}},{"type":"Feature","geometry":{"type":"Polygon","coordinates":[[[2.4862,49.1442],[2.4871,49.1421],[2.4887,49.1395],[2.4863,49.1392],[2.4765,49.1178],[2.4724,49.1179],[2.4661,49.1186],[2.4625,49.1234],[2.456,49.1255],[2.4488,49.1182],[2.4443,49.1243],[2.4342,49.1264],[2.4362,49.1305],[2.4331,49.132],[2.4348,49.1351],[2.4403,49.1454],[2.4659,49.1434],[2.4862,49.1442]]]},"properties":{"id_ffco":"2017-D95-81","nom":"Le Pain de Sucre 3","_dept":"95","numero":"2017-D95-81","commune":"Coye-la-Forêt","echelle":"1/10000","surface":"8.62 km²","format":"A3","annee":"2017","cartographes":"Bertrand Pellin","proprietaire":"95 - Val-d'Oise","niveau":"Régional","specialite":"CO à pied","contacts":"CDCO 95, https://cdco95.wordpress.com/","latitude":"49.1330681804","longitude":"2.46052664658","date_saisie":"24/09/2016","date_depot":"29/03/2019","valide":"Oui","ppo":"Non","type_carte":"Reprise","base":"2008-D95-59 Le Pain de Sucre 2","fond":"Laser","obsolete":false}},{"type":"Feature","geometry":{"type":"Polygon","coordinates":[[[2.1075,49.0429],[2.1109,49.0412],[2.108,49.0378],[2.1067,49.0376],[2.1066,49.0379],[2.1055,49.0377],[2.1053,49.0381],[2.1045,49.0379],[2.1045,49.0385],[2.105,49.0386],[2.1054,49.0393],[2.1047,49.0395],[2.105,49.0404],[2.1053,49.0404],[2.1052,49.0407],[2.1075,49.0429]]]},"properties":{"id_ffco":"2016-D95-80","nom":"Parc Le Nôtre","_dept":"95","numero":"2016-D95-80","commune":"St-Ouen-l'Aumône","echelle":"1/2500","surface":"0.16 km²","format":"A4","annee":"2016","cartographes":"Bertrand Pellin, Eric Boudy, Gérard Lefrançois","proprietaire":"9502 - ATHLETIC CLUB DE BEAUCHAMP","niveau":"Départemental","specialite":"Sprint (ISSOM)","contacts":"CDCO 95, https://cdco95.wordpress.com/","latitude":"49.0401035922","longitude":"2.10745487568","date_saisie":"16/05/2016","date_depot":"13/12/2017","valide":"Oui","ppo":"Non","type_carte":"Nouvelle carte","fond":"Cadastre","obsolete":false}},{"type":"Feature","geometry":{"type":"Polygon","coordinates":[[[2.0496,49.0435],[2.0463,49.0427],[2.0429,49.0414],[2.0408,49.04],[2.0427,49.0383],[2.0419,49.0382],[2.0414,49.0381],[2.0406,49.0383],[2.0396,49.0388],[2.0381,49.0393],[2.0364,49.0421],[2.0322,49.0442],[2.0346,49.045],[2.0362,49.0451],[2.0379,49.0453],[2.04,49.0452],[2.0414,49.0451],[2.0434,49.0452],[2.0447,49.045],[2.0449,49.0467],[2.0465,49.0468],[2.0471,49.0468],[2.0478,49.0467],[2.049,49.0464],[2.0494,49.0458],[2.0498,49.0451],[2.0496,49.0435]]]},"properties":{"id_ffco":"2017-D95-79","nom":"Les 12 colonnes","_dept":"95","numero":"2017-D95-79","commune":"Cergy","echelle":"1/4000","surface":"0.55 km²","format":"A4","annee":"2017","cartographes":"Yann Lahellec","proprietaire":"9599 - INDIVIDUEL","niveau":"Départemental","specialite":"CO à pied","contacts":"yann lahellec, 20 rue leveque, 95000, Cergy, 0660371674, carto.yann@gmail.com","latitude":"49.0432006627","longitude":"2.04156330801","date_saisie":"27/11/2015","date_depot":"14/02/2020","valide":"Oui","ppo":"Non","type_carte":"Nouvelle carte","fond":"IGN","obsolete":false}},{"type":"Feature","geometry":{"type":"Polygon","coordinates":[[[2.0594,49.0312],[2.0576,49.0354],[2.0556,49.0387],[2.0538,49.0408],[2.0506,49.0415],[2.0477,49.0411],[2.0462,49.0404],[2.0446,49.0393],[2.043,49.0412],[2.0438,49.0446],[2.047,49.0454],[2.0518,49.0452],[2.0553,49.0434],[2.0578,49.0424],[2.06,49.0425],[2.063,49.0427],[2.0645,49.0396],[2.0664,49.0363],[2.0669,49.0331],[2.0617,49.0308],[2.0594,49.0312]]]},"properties":{"id_ffco":"2015-D95-78","nom":"Le Village de Cergy","_dept":"95","numero":"2015-D95-78","commune":"Cergy","echelle":"1/7500","surface":"1.19 km²","format":"A4","annee":"2015","cartographes":"Yann Lahellec","proprietaire":"9599 - INDIVIDUEL","niveau":"Départemental","specialite":"CO à pied","contacts":"yann lahellec, 20 rue leveque, 95000, Cergy, 0660371674, 0660371674, carto.yann@gmail.com, http://www.rvsa.fr/","latitude":"49.0390714783","longitude":"2.05689326529","date_saisie":"27/11/2015","date_depot":"13/12/2017","valide":"Oui","ppo":"Non","type_carte":"Nouvelle carte","fond":"Ortho","obsolete":false}},{"type":"Feature","geometry":{"type":"Polygon","coordinates":[[[2.0602,49.0326],[2.0658,49.0341],[2.0678,49.0352],[2.0692,49.0354],[2.0714,49.0343],[2.0738,49.0332],[2.0747,49.0318],[2.0711,49.0305],[2.0691,49.0289],[2.0674,49.0282],[2.0657,49.0273],[2.0635,49.026],[2.0616,49.0252],[2.0605,49.0242],[2.0596,49.0235],[2.055,49.0221],[2.0529,49.0213],[2.0519,49.0218],[2.0541,49.0241],[2.0559,49.0241],[2.0567,49.0258],[2.0544,49.0274],[2.0567,49.0292],[2.0576,49.0298],[2.0576,49.0306],[2.0577,49.0316],[2.0602,49.0326]]]},"properties":{"id_ffco":"2015-D95-77","nom":"HAM - Port Cergy","_dept":"95","numero":"2015-D95-77","commune":"Cergy","echelle":"1/7500","surface":"1.01 km²","format":"A4","annee":"2015","cartographes":"Yann Lahellec","proprietaire":"9599 - INDIVIDUEL","niveau":"Départemental","specialite":"CO à pied","contacts":"YANN LAHELLEC, 36 BIS RUE DE LA REPUBLIQUE, 95570, BOUFFEMONT, 0660371674, 0660371674, ylahellec@gmail.com, https://roc95.fr/CryO/","latitude":"49.0293116468","longitude":"2.06315984106","date_saisie":"27/11/2015","date_depot":"13/12/2017","valide":"Oui","ppo":"Non","type_carte":"Nouvelle carte","fond":"Ortho","obsolete":false}},{"type":"Feature","geometry":{"type":"Polygon","coordinates":[[[1.9991,49.0237],[1.9986,49.0291],[1.9988,49.0317],[2.0,49.0321],[2.0018,49.0329],[2.0034,49.0333],[2.0043,49.0329],[2.0066,49.0329],[2.0082,49.0324],[2.0103,49.0318],[2.012,49.0317],[2.0146,49.0311],[2.0156,49.0323],[2.0155,49.034],[2.0158,49.0351],[2.0164,49.0355],[2.0391,49.0354],[2.0371,49.0333],[2.036,49.0318],[2.036,49.0304],[2.0363,49.0298],[2.0391,49.0271],[2.0408,49.025],[2.0425,49.0227],[2.0438,49.0219],[2.0457,49.0208],[2.0466,49.0199],[2.0521,49.0159],[2.0548,49.0146],[2.0566,49.0136],[2.0573,49.013],[2.0574,49.0083],[2.0064,49.0078],[2.0028,49.0114],[2.0001,49.0146],[1.9979,49.0168],[1.997,49.0184],[1.9972,49.0199],[1.9984,49.0209],[1.9996,49.0221],[1.9996,49.0228],[1.9991,49.0237]]]},"properties":{"id_ffco":"2015-D95-76","nom":"Le Bois de Boisemont","_dept":"95","numero":"2015-D95-76","commune":"Boisemont","echelle":"1/15000","surface":"9.87 km²","format":"A4","annee":"2015","cartographes":"Yann Lahellec","proprietaire":"9599 - INDIVIDUEL","niveau":"Départemental","specialite":"CO à VTT","contacts":"LAHELLEC, 20 rue leveque, 95000, CERGY, 0660371674, 0660371674, carto.yann@gmail.com, http://www.rvsa.fr/","latitude":"49.0200986396","longitude":"2.02397507404","date_saisie":"09/11/2015","date_depot":"11/03/2016","valide":"Oui","ppo":"Non","type_carte":"Nouvelle carte","fond":"IGN","obsolete":false}},{"type":"Feature","geometry":{"type":"Polygon","coordinates":[[[2.0065,49.0084],[2.008,49.0091],[2.0099,49.0098],[2.0638,49.0093],[2.064,49.0076],[2.0643,49.0056],[2.0647,49.0032],[2.0648,49.0003],[2.0639,48.9913],[2.0603,48.9916],[2.0572,48.9915],[2.0552,48.9903],[2.0541,48.9887],[2.0535,48.9863],[2.0529,48.984],[2.0524,48.983],[2.0269,48.9827],[2.0265,48.9839],[2.0261,48.9853],[2.0238,48.9896],[2.0232,48.9906],[2.0066,49.0078],[2.0065,49.0084]]]},"properties":{"id_ffco":"2015-D95-75","nom":"La Gueule Rouge","_dept":"95","numero":"2015-D95-75","commune":"Jouy le moutier","echelle":"1/15000","surface":"9.47 km²","format":"A4","annee":"2015","cartographes":"Yann Lahellec","proprietaire":"9599 - INDIVIDUEL","niveau":"Départemental","specialite":"CO à VTT","contacts":"LAHELLEC, 20 rue leveque, 95000, CERGY, 0660371674, 0660371674, carto.yann@gmail.com, http://www.rvsa.fr/","latitude":"48.9980671622","longitude":"2.03888813568","date_saisie":"09/11/2015","date_depot":"11/03/2016","valide":"Oui","ppo":"Non","type_carte":"Nouvelle carte","fond":"IGN","obsolete":false}},{"type":"Feature","geometry":{"type":"Polygon","coordinates":[[[2.0893,49.0286],[2.0854,49.025],[2.083,49.023],[2.0821,49.0235],[2.0793,49.0232],[2.0759,49.0235],[2.0735,49.0241],[2.0718,49.0251],[2.0698,49.027],[2.0677,49.0289],[2.0706,49.0306],[2.0726,49.0312],[2.0745,49.0317],[2.0749,49.0309],[2.0766,49.0308],[2.0781,49.0311],[2.0793,49.031],[2.0807,49.0303],[2.0822,49.0306],[2.0838,49.0306],[2.0843,49.0297],[2.0848,49.0289],[2.0862,49.0286],[2.0875,49.029],[2.0893,49.0286]]]},"properties":{"id_ffco":"2015-D95-74","nom":"Les Touleuses","_dept":"95","numero":"2015-D95-74","commune":"Cergy","echelle":"1/5000","surface":"0.94 km²","format":"A4","annee":"2015","cartographes":"Yann Lahellec, cap orientation","proprietaire":"9599 - INDIVIDUEL","niveau":"Régional","specialite":"Sprint (ISSOM)","contacts":"LAHELLEC, 20 rue leveque, 95000, CERGY, 0660371674, 0660371674, carto.yann@gmail.com, http://www.rvsa.fr/","latitude":"49.0273632236","longitude":"2.07810966733","date_saisie":"09/11/2015","date_depot":"11/03/2016","valide":"Oui","ppo":"Non","type_carte":"Nouvelle carte","fond":"Cadastre","obsolete":false}},{"type":"Feature","geometry":{"type":"Polygon","coordinates":[[[2.0409,49.0372],[2.0408,49.039],[2.0394,49.0397],[2.0412,49.0407],[2.0429,49.0417],[2.0441,49.0419],[2.0429,49.0432],[2.0422,49.0437],[2.0405,49.0433],[2.0393,49.0431],[2.038,49.0433],[2.0364,49.0442],[2.0332,49.0431],[2.0295,49.0433],[2.0264,49.045],[2.024,49.0454],[2.0209,49.0455],[2.019,49.0439],[2.0171,49.0414],[2.0162,49.0401],[2.016,49.0377],[2.0175,49.0358],[2.0189,49.0343],[2.0201,49.0327],[2.0211,49.0318],[2.0208,49.0311],[2.0199,49.0306],[2.0201,49.0298],[2.0203,49.0295],[2.0212,49.0295],[2.0223,49.0293],[2.0229,49.0297],[2.0259,49.0289],[2.0285,49.0286],[2.0375,49.0292],[2.0375,49.0313],[2.0374,49.032],[2.0387,49.0335],[2.0402,49.0353],[2.0412,49.0362],[2.0409,49.0372]]]},"properties":{"id_ffco":"2015-D95-73","nom":"Bois des Lieux","_dept":"95","numero":"2015-D95-73","commune":"Vauréal","echelle":"1/10000","surface":"2.68 km²","format":"A4","annee":"2015","cartographes":"Yann LAHELLEC, Bertrand PELLIN","proprietaire":"9599 - INDIVIDUEL","niveau":"Départemental","specialite":"CO à pied","contacts":"LAHELLEC, 20 rue leveque, 95000, CERGY, 0660371674, 0660371674, carto.yann@gmail.com, http://www.rvsa.fr/","latitude":"49.0371637144","longitude":"2.02889605818","date_saisie":"26/10/2015","date_depot":"11/03/2016","valide":"Oui","ppo":"Non","type_carte":"Nouvelle carte","fond":"IGN","obsolete":false}},{"type":"Feature","geometry":{"type":"Polygon","coordinates":[[[2.2163,49.0889],[2.2222,49.0881],[2.2285,49.0869],[2.2311,49.0878],[2.2354,49.0887],[2.2362,49.0849],[2.2364,49.084],[2.2462,49.0825],[2.2536,49.0788],[2.2565,49.0748],[2.2642,49.0723],[2.2652,49.07],[2.2857,49.07],[2.2931,49.0703],[2.2975,49.0707],[2.3018,49.0702],[2.3059,49.0695],[2.3083,49.0706],[2.3087,49.0729],[2.3087,49.0741],[2.3051,49.0748],[2.3028,49.0754],[2.3032,49.0772],[2.2972,49.0807],[2.2939,49.0824],[2.2869,49.0836],[2.2841,49.0894],[2.2812,49.0892],[2.279,49.0898],[2.274,49.0897],[2.2759,49.0948],[2.2759,49.097],[2.2733,49.0981],[2.2647,49.0992],[2.25,49.1032],[2.2541,49.1126],[2.2531,49.115],[2.2422,49.1148],[2.2407,49.1092],[2.2419,49.1084],[2.2407,49.106],[2.2299,49.1092],[2.2216,49.1085],[2.2182,49.1035],[2.218,49.0993],[2.2179,49.096],[2.2174,49.0933],[2.2158,49.0899],[2.2163,49.0889]]]},"properties":{"id_ffco":"2015-D95-72","nom":"L'Isle-Adam VTT","_dept":"95","numero":"2015-D95-72","commune":"L'Isle-Adam","echelle":"1/20000","surface":"15.43 km²","format":"A3","annee":"2015","cartographes":"Bruno LEBRAS","proprietaire":"95 - Val-d'Oise","niveau":"Régional","specialite":"CO à VTT","contacts":"CDCO 95, https://cdco95.wordpress.com/","latitude":"49.08942665","longitude":"2.2572586385","date_saisie":"08/07/2015","date_depot":"13/12/2017","valide":"Oui","ppo":"Non","type_carte":"Reprise","base":"2003-D95-43 Forêt de l'Isle-Adam","fond":"Ortho","obsolete":false}},{"type":"Feature","geometry":{"type":"Polygon","coordinates":[[[2.2857,49.0214],[2.2876,49.0208],[2.2931,49.0248],[2.2953,49.0255],[2.2974,49.0254],[2.3003,49.0253],[2.3048,49.0253],[2.3108,49.026],[2.3118,49.0268],[2.3114,49.028],[2.3086,49.0304],[2.3084,49.0312],[2.3106,49.0334],[2.308,49.0375],[2.308,49.0391],[2.3068,49.0411],[2.3039,49.0418],[2.3015,49.0419],[2.2968,49.042],[2.2931,49.0419],[2.292,49.0424],[2.2911,49.044],[2.2895,49.0441],[2.2849,49.0462],[2.2846,49.0479],[2.2853,49.0492],[2.2712,49.0545],[2.2696,49.0558],[2.2658,49.0554],[2.2624,49.0559],[2.2599,49.0562],[2.2571,49.056],[2.2543,49.0551],[2.2491,49.0541],[2.2495,49.0513],[2.2464,49.0508],[2.243,49.0496],[2.2414,49.0478],[2.2407,49.0466],[2.2361,49.0446],[2.2289,49.0484],[2.2241,49.0508],[2.2152,49.0522],[2.2133,49.0526],[2.209,49.0517],[2.2045,49.0501],[2.2022,49.0475],[2.2058,49.0437],[2.2091,49.0411],[2.2144,49.0393],[2.2218,49.0359],[2.2241,49.0342],[2.2238,49.0309],[2.2442,49.0224],[2.2513,49.0213],[2.2577,49.019],[2.2643,49.0175],[2.269,49.0165],[2.2718,49.0151],[2.2751,49.0136],[2.2779,49.0154],[2.2807,49.0174],[2.2784,49.019],[2.2801,49.0207],[2.2847,49.0188],[2.2857,49.0214]]]},"properties":{"id_ffco":"2015-D95-71","nom":"Montmorency VTT","_dept":"95","numero":"2015-D95-71","commune":"St-Leu-la-Forêt","echelle":"1/20000","surface":"20.72 km²","format":"A3","annee":"2015","cartographes":"Bruno LEBRAS","proprietaire":"95 - Val-d'Oise","niveau":"Départemental","specialite":"CO à VTT","contacts":"CDCO 95, https://cdco95.wordpress.com/","latitude":"49.036575675","longitude":"2.26057278394","date_saisie":"08/07/2015","date_depot":"13/12/2017","valide":"Oui","ppo":"Non","type_carte":"Reprise","base":"2005-D95-55 Les Sapins Brûlés 2","fond":"Ortho","obsolete":false}},{"type":"Feature","geometry":{"type":"Polygon","coordinates":[[[2.4748,49.1431],[2.4553,49.1429],[2.4419,49.1458],[2.4326,49.1289],[2.4343,49.1231],[2.4395,49.1217],[2.4518,49.1186],[2.4635,49.1206],[2.4711,49.1204],[2.4807,49.1191],[2.4848,49.1179],[2.4831,49.1134],[2.4845,49.1096],[2.4999,49.108],[2.5123,49.1078],[2.5208,49.117],[2.5099,49.1242],[2.5133,49.1274],[2.5095,49.1307],[2.5123,49.1357],[2.5181,49.1462],[2.4793,49.1501],[2.4893,49.1386],[2.4824,49.1386],[2.4772,49.1408],[2.4748,49.1431]]]},"properties":{"id_ffco":"2015-D95-70","nom":"Pain de sucre VTT","_dept":"95","numero":"2015-D95-70","commune":"Coye-la-Forêt","echelle":"1/15000","surface":"18.72 km²","format":"A3","annee":"2015","cartographes":"Saulius KIREILIS, Dale KIREILIENE","proprietaire":"95 - Val-d'Oise","niveau":"Régional","specialite":"CO à VTT","contacts":"CDCO 95, https://cdco95.wordpress.com/","latitude":"49.129594369","longitude":"2.48015626489","date_saisie":"08/07/2015","date_depot":"13/12/2017","valide":"Oui","ppo":"Non","type_carte":"Reprise","base":"1990-D95-16 Le Pain de Sucre","fond":"Ortho","obsolete":false}},{"type":"Feature","geometry":{"type":"Polygon","coordinates":[[[2.2138,48.9921],[2.2158,48.9914],[2.2172,48.9934],[2.2173,48.9938],[2.2146,48.9945],[2.2144,48.9946],[2.2137,48.9946],[2.2137,48.9921],[2.2138,48.9921]]]},"properties":{"id_ffco":"2015-D95-69","nom":"Bois des Eboulures 3","_dept":"95","numero":"2015-D95-69","commune":"Franconville","echelle":"1/1250","surface":"0.06 km²","format":"A4","annee":"2015","cartographes":"Bertrand PELLIN","proprietaire":"9502 - ATHLETIC CLUB DE BEAUCHAMP","niveau":"Départemental","specialite":"Sprint (ISSOM)","contacts":"CDCO 95, https://cdco95.wordpress.com/","latitude":"48.9931074704","longitude":"2.21519756385","date_saisie":"08/07/2015","date_depot":"11/03/2016","valide":"Oui","ppo":"Non","type_carte":"Reprise","base":"1981-D95-24 Le Bois des Eboulures","fond":"Ortho","obsolete":false}},{"type":"Feature","geometry":{"type":"Polygon","coordinates":[[[2.2209,48.9554],[2.2238,48.9556],[2.2249,48.9557],[2.2245,48.9569],[2.2226,48.9567],[2.2225,48.9568],[2.2222,48.9577],[2.2205,48.9584],[2.2194,48.9575],[2.2195,48.9573],[2.2189,48.957],[2.2199,48.9564],[2.2209,48.9554]]]},"properties":{"id_ffco":"2015-D95-68","nom":"Parc du Cerisier","_dept":"95","numero":"2015-D95-68","commune":"Argenteuil","echelle":"1/1500","surface":"0.08 km²","format":"A4","annee":"2015","cartographes":"Bertrand PELLIN, Eric BOUDY","proprietaire":"9502 - ATHLETIC CLUB DE BEAUCHAMP","niveau":"Départemental","specialite":"Sprint (ISSOM)","contacts":"CDCO 95, https://cdco95.wordpress.com/","latitude":"48.9566418133","longitude":"2.2217721918","date_saisie":"08/07/2015","date_depot":"11/03/2016","valide":"Oui","ppo":"Non","type_carte":"Nouvelle carte","fond":"Ortho","obsolete":false}},{"type":"Feature","geometry":{"type":"Polygon","coordinates":[[[2.2482,49.0545],[2.2547,49.0552],[2.2571,49.056],[2.2624,49.0559],[2.2705,49.0553],[2.2719,49.0549],[2.2719,49.0526],[2.2681,49.0519],[2.2648,49.0492],[2.2631,49.0462],[2.2628,49.0427],[2.2622,49.0403],[2.2638,49.039],[2.2622,49.0376],[2.2586,49.0364],[2.2567,49.0355],[2.2519,49.0309],[2.2482,49.0268],[2.2471,49.0262],[2.2476,49.0251],[2.2464,49.0239],[2.2449,49.0237],[2.2406,49.0246],[2.2257,49.0285],[2.2246,49.0301],[2.2246,49.0319],[2.2248,49.0339],[2.2245,49.0362],[2.2262,49.0393],[2.2288,49.0426],[2.2334,49.0466],[2.2372,49.0447],[2.2399,49.0459],[2.242,49.048],[2.2446,49.05],[2.2476,49.0514],[2.2506,49.0514],[2.2482,49.0545]]]},"properties":{"id_ffco":"2015-D95-67","nom":"Les Sapins Brûlés 3","_dept":"95","numero":"2015-D95-67","commune":"St-Leu-la-Forêt","echelle":"1/10000","surface":"6.7 km²","format":"A3","annee":"2015","cartographes":"Bertrand PELLIN","proprietaire":"95 - Val-d'Oise","niveau":"Régional","specialite":"CO à pied","contacts":"CDCO 95, https://cdco95.wordpress.com/","latitude":"49.0400563918","longitude":"2.24609184336","date_saisie":"08/07/2015","date_depot":"13/12/2017","valide":"Oui","ppo":"Non","type_carte":"Reprise","base":"2005-D95-55 Les Sapins Brûlés 2","fond":"Ortho","obsolete":false}},{"type":"Feature","geometry":{"type":"Polygon","coordinates":[[[2.3491,49.1006],[2.3439,49.0995],[2.3359,49.1045],[2.3349,49.1101],[2.3331,49.1113],[2.3312,49.1112],[2.3288,49.1089],[2.3238,49.1091],[2.3233,49.1068],[2.3225,49.1064],[2.3179,49.1044],[2.3171,49.1035],[2.3139,49.1022],[2.3118,49.1008],[2.3099,49.1015],[2.3088,49.1025],[2.3048,49.1058],[2.3044,49.1076],[2.3038,49.1086],[2.304,49.1089],[2.3083,49.1111],[2.3086,49.1115],[2.3081,49.1118],[2.3074,49.112],[2.3069,49.1123],[2.306,49.1126],[2.3053,49.1127],[2.3034,49.1127],[2.3022,49.1133],[2.3056,49.1205],[2.3046,49.1225],[2.3015,49.1274],[2.3015,49.128],[2.307,49.1293],[2.3118,49.1279],[2.3165,49.1308],[2.3177,49.1332],[2.3204,49.1328],[2.321,49.131],[2.3236,49.1307],[2.3264,49.1296],[2.3286,49.1307],[2.3295,49.1317],[2.3332,49.1315],[2.333,49.1306],[2.3343,49.1306],[2.3388,49.1303],[2.3435,49.1309],[2.3467,49.1288],[2.3517,49.1276],[2.354,49.1273],[2.3574,49.1267],[2.359,49.1267],[2.3592,49.1264],[2.3575,49.1247],[2.3542,49.1214],[2.3508,49.1195],[2.3491,49.118],[2.3488,49.1168],[2.3494,49.1164],[2.3498,49.1161],[2.3489,49.1152],[2.3506,49.1143],[2.35,49.1132],[2.3519,49.112],[2.3572,49.1117],[2.3573,49.1002],[2.3491,49.1006]]]},"properties":{"id_ffco":"2013-D95-66","nom":"Carnelle 4","_dept":"95","numero":"2013-D95-66","commune":"St-Martin-du-Tertre","echelle":"1/15000","surface":"10.57 km²","format":"A3","annee":"2013","cartographes":"Bertrand PELLIN","proprietaire":"95 - Val-d'Oise","niveau":"Régional","specialite":"CO à pied","contacts":"CDCO 95, https://cdco95.wordpress.com/","latitude":"49.1167566925","longitude":"2.33002598062","valide":"Oui","ppo":"Non","type_carte":"Reprise","base":"1977-D95-02 CARNELLE","fond":"Ortho","obsolete":false}},{"type":"Feature","geometry":{"type":"Polygon","coordinates":[[[2.2653,49.099],[2.2589,49.0929],[2.2572,49.0861],[2.2562,49.0825],[2.2812,49.0709],[2.2903,49.0724],[2.2948,49.0712],[2.3041,49.0702],[2.3082,49.0702],[2.3082,49.0729],[2.306,49.0744],[2.3029,49.0739],[2.3012,49.0752],[2.3025,49.0767],[2.2964,49.0811],[2.2936,49.0826],[2.2876,49.0835],[2.2854,49.0887],[2.2835,49.0902],[2.2792,49.0901],[2.274,49.0902],[2.2752,49.0957],[2.2742,49.098],[2.2728,49.0988],[2.2653,49.099]]]},"properties":{"id_ffco":"2012-D95-65","nom":"L'Isle-Adam Est 2","_dept":"95","numero":"2012-D95-65","commune":"L'Isle-Adam","echelle":"1/10000","surface":"5.87 km²","format":"A3","annee":"2012","cartographes":"Bertrand Pellin","proprietaire":"95 - Val-d'Oise","niveau":"Régional","specialite":"CO à pied","contacts":"CDCO 95, https://cdco95.wordpress.com/","latitude":"49.0827219976","longitude":"2.27801378626","date_saisie":"13/03/2012","date_depot":"07/11/2012","valide":"Oui","ppo":"Non","type_carte":"Reprise","base":"2003-D95-43 Forêt de l'Isle-Adam","fond":"Ortho","obsolete":false}},{"type":"Feature","geometry":{"type":"Polygon","coordinates":[[[2.2383,49.1158],[2.2437,49.1162],[2.2479,49.115],[2.25,49.114],[2.2491,49.1089],[2.2596,49.1049],[2.2661,49.1011],[2.2594,49.095],[2.2572,49.0835],[2.2488,49.0856],[2.2426,49.0866],[2.2402,49.0845],[2.2356,49.0845],[2.2337,49.0884],[2.2279,49.087],[2.2126,49.0889],[2.2088,49.0915],[2.2143,49.1033],[2.2332,49.1056],[2.2387,49.11],[2.2418,49.1106],[2.2416,49.1124],[2.2383,49.1158]]]},"properties":{"id_ffco":"2012-D95-64","nom":"L'Isle-Adam Ouest 2","_dept":"95","numero":"2012-D95-64","commune":"L'Isle-Adam","echelle":"1/10000","surface":"8.43 km²","format":"A3","annee":"2012","cartographes":"Matthieu Barthélémy, David Barranger","proprietaire":"95 - Val-d'Oise","niveau":"Régional","specialite":"CO à pied","contacts":"CDCO 95, https://cdco95.wordpress.com/","latitude":"49.0975048396","longitude":"2.2384291251","date_saisie":"13/03/2012","date_depot":"07/11/2012","valide":"Oui","ppo":"Non","type_carte":"Reprise","base":"2003-D95-43 Forêt de l'Isle-Adam","fond":"Ortho","obsolete":false}},{"type":"Feature","geometry":{"type":"Polygon","coordinates":[[[2.3796,49.0164],[2.3802,49.0178],[2.377,49.0185],[2.3742,49.0209],[2.373,49.0235],[2.3699,49.0252],[2.3669,49.0232],[2.3675,49.0192],[2.3652,49.018],[2.3657,49.0154],[2.3678,49.013],[2.3684,49.0123],[2.3703,49.0118],[2.3718,49.0124],[2.3728,49.0122],[2.3735,49.0127],[2.3752,49.0126],[2.3771,49.0125],[2.3784,49.0135],[2.3803,49.014],[2.3815,49.0145],[2.3828,49.014],[2.3827,49.0155],[2.3796,49.0164]]]},"properties":{"id_ffco":"2011-D95-63","nom":"Forêt d'Ecouen","_dept":"95","numero":"2011-D95-63","commune":"Ecouen","echelle":"1/7500","surface":"1.03 km²","format":"A4","annee":"2011","cartographes":"F Besbot","proprietaire":"9599 - INDIVIDUEL","niveau":"Initiation, Scolaire","specialite":"CO à pied","contacts":"Mairie Ecouen, Place de la Mairie, 95440, ECOUEN, 01 39 33 09 00","latitude":"49.0174144657","longitude":"2.372430606","date_depot":"13/12/2017","valide":"Oui","ppo":"Non","type_carte":"Nouvelle carte","fond":"Ortho","obsolete":false}},{"type":"Feature","geometry":{"type":"Polygon","coordinates":[[[2.3241,49.0234],[2.3264,49.0235],[2.3266,49.0218],[2.3338,49.0227],[2.3336,49.0222],[2.3346,49.0206],[2.336,49.0202],[2.3349,49.018],[2.3368,49.0168],[2.3406,49.0153],[2.3398,49.0123],[2.3371,49.0075],[2.3396,49.0068],[2.3381,49.0043],[2.3392,49.0042],[2.3384,48.9983],[2.3376,48.9969],[2.3334,48.9974],[2.3301,48.9983],[2.3287,48.9992],[2.3226,48.9998],[2.3226,49.0012],[2.3218,49.0012],[2.3211,49.0041],[2.3206,49.0051],[2.3176,49.0063],[2.3178,49.0078],[2.3201,49.0091],[2.3189,49.0124],[2.3194,49.0145],[2.3209,49.0153],[2.3177,49.0193],[2.3201,49.0204],[2.3214,49.0208],[2.3209,49.0214],[2.3224,49.0227],[2.3236,49.0234],[2.3241,49.0234]]]},"properties":{"id_ffco":"2009-D95-62","nom":"Le Bois des Champeaux 4","_dept":"95","numero":"2009-D95-62","commune":"Montmorency","echelle":"1/10000","surface":"3.53 km²","format":"A4","annee":"2009","cartographes":"Bertrand Pellin","proprietaire":"95 - Val-d'Oise","niveau":"Régional","specialite":"CO à pied","latitude":"49.0102923035","longitude":"2.32920841343","date_saisie":"19/03/2010","date_depot":"26/03/2010","valide":"Oui","ppo":"Non","type_carte":"Reprise","base":"1998-D95-35 Le Bois des Champeaux 3","fond":"Cadastre","obsolete":false}},{"type":"Feature","geometry":{"type":"Polygon","coordinates":[[[1.8909,49.0883],[1.8907,49.0881],[1.8906,49.0881],[1.8893,49.0867],[1.8906,49.0864],[1.892,49.0858],[1.8957,49.0848],[1.8962,49.0853],[1.896,49.0854],[1.8961,49.0859],[1.8962,49.0863],[1.8963,49.0866],[1.8953,49.0867],[1.8951,49.0862],[1.8942,49.0863],[1.8942,49.0864],[1.893,49.0867],[1.8933,49.0872],[1.8909,49.0883]]]},"properties":{"id_ffco":"2009-D95-61","nom":"Maison du Parc - Théméricourt","_dept":"95","numero":"2009-D95-61","commune":"Théméricourt","echelle":"1/2500","surface":"0.08 km²","format":"A4","annee":"2009","cartographes":"N Rauturier","proprietaire":"Parc Naturel Régional du Vexin","niveau":"Initiation, Scolaire","specialite":"CO à pied","latitude":"49.0864456459","longitude":"1.89284945312","date_saisie":"19/03/2010","date_depot":"26/03/2010","valide":"Oui","ppo":"Non","type_carte":"Nouvelle carte","fond":"Ortho","obsolete":false}},{"type":"Feature","geometry":{"type":"Polygon","coordinates":[[[2.2136,49.0105],[2.2205,49.0087],[2.2172,49.0031],[2.2102,49.0054],[2.2136,49.0105]]]},"properties":{"id_ffco":"2007-D95-58","nom":"Le Bois de Boissy 4","_dept":"95","numero":"2007-D95-58","commune":"Beauchamp","echelle":"1/4000","surface":"0.36 km²","format":"A4","annee":"2007","cartographes":"B Pellin, G Lefrançois","proprietaire":"9502 - ATHLETIC CLUB DE BEAUCHAMP","niveau":"Départemental","specialite":"CO à pied","contacts":"CDCO 95, https://cdco95.wordpress.com/","latitude":"49.006892461","longitude":"2.21539145242","date_saisie":"09/08/2010","valide":"Oui","ppo":"Non","type_carte":"Reprise","base":"1998-D95-31 Le Bois de Boissy 3","fond":"Ortho","obsolete":false}},{"type":"Feature","geometry":{"type":"Polygon","coordinates":[[[2.3931,49.112],[2.393,49.1048],[2.3977,49.1033],[2.403,49.1027],[2.4092,49.1019],[2.4111,49.1013],[2.4159,49.1013],[2.4175,49.1045],[2.4238,49.1035],[2.4298,49.1112],[2.4301,49.115],[2.4176,49.1148],[2.415,49.115],[2.4157,49.1108],[2.4155,49.1108],[2.4144,49.1106],[2.4119,49.1115],[2.4054,49.1112],[2.4008,49.1127],[2.3967,49.1124],[2.3931,49.112]]]},"properties":{"id_ffco":"2006-D95-57","nom":"Luzarches : \"Le Bois du Tremblay\"","_dept":"95","numero":"2006-D95-57","commune":"Luzarches","echelle":"1/10000","surface":"2.81 km²","format":"A4","annee":"2006","cartographes":"Bertrand Pellin, Gérard Lefrançois, Etienne Philippot, Jean-Marc Prieur","proprietaire":"9502 - ATHLETIC CLUB DE BEAUCHAMP","niveau":"Départemental","specialite":"CO à pied","contacts":"CDCO 95, https://cdco95.wordpress.com/","latitude":"49.1081889075","longitude":"2.41152583162","date_saisie":"09/08/2010","valide":"Oui","ppo":"Non","type_carte":"Nouvelle carte","base":"1998-D95-35 Le Bois des Champeaux 3","fond":"Ortho","obsolete":false}},{"type":"Feature","geometry":{"type":"Polygon","coordinates":[[[2.2146,48.9963],[2.212,48.9973],[2.21,48.9981],[2.2076,48.9932],[2.2083,48.9923],[2.2091,48.992],[2.2084,48.9911],[2.2124,48.9895],[2.2144,48.9897],[2.2167,48.9938],[2.2148,48.9946],[2.2132,48.9949],[2.2146,48.9963]]]},"properties":{"id_ffco":"2005-D95-56","nom":"Bois des Eboulures 2","_dept":"95","numero":"2005-D95-56","commune":"Franconville","echelle":"1/5000","surface":"0.38 km²","format":"A4","annee":"2005","cartographes":"M Franquet","proprietaire":"9599 - INDIVIDUEL","niveau":"Régional","specialite":"CO à pied","latitude":"48.993434455","longitude":"2.21188402814","date_saisie":"06/03/2006","date_depot":"10/11/2006","valide":"Oui","ppo":"Non","type_carte":"Reprise","base":"1981-D95-24 Le Bois des Eboulures","fond":"Cadastre","obsolete":false}},{"type":"Feature","geometry":{"type":"Polygon","coordinates":[[[2.2845,49.0491],[2.2797,49.0226],[2.2751,49.023],[2.2742,49.0214],[2.2775,49.0196],[2.2735,49.0181],[2.2643,49.0187],[2.2572,49.0215],[2.2503,49.024],[2.2409,49.0259],[2.2322,49.0286],[2.2285,49.0307],[2.2239,49.0383],[2.211,49.0424],[2.2081,49.0454],[2.2088,49.0493],[2.2128,49.0511],[2.222,49.0504],[2.2335,49.0444],[2.2371,49.045],[2.2416,49.0465],[2.2447,49.0502],[2.2476,49.0512],[2.2514,49.0512],[2.2531,49.0541],[2.2584,49.0562],[2.262,49.0559],[2.2655,49.053],[2.2845,49.0494],[2.2845,49.0491]]]},"properties":{"id_ffco":"2005-D95-55","nom":"Les Sapins Brûlés 2","_dept":"95","numero":"2005-D95-55","commune":"Saint Leu la Forêt","echelle":"1/10000","surface":"13.74 km²","format":"A3","annee":"2005","cartographes":"S Kireilis","proprietaire":"95 - Val-d'Oise","niveau":"National, International","specialite":"CO à pied","latitude":"49.0379710241","longitude":"2.25344467907","date_saisie":"06/03/2006","date_depot":"10/11/2006","valide":"Oui","ppo":"Non","type_carte":"Reprise","base":"1993-D95-23 SAPINS BRULES","fond":"Cadastre","obsolete":false}},{"type":"Feature","geometry":{"type":"Polygon","coordinates":[[[2.2612,49.031],[2.2634,49.0331],[2.2634,49.0339],[2.2728,49.0411],[2.2766,49.0422],[2.2843,49.046],[2.2852,49.0444],[2.29,49.0415],[2.2946,49.0413],[2.3013,49.0412],[2.3034,49.0412],[2.306,49.0397],[2.3067,49.0385],[2.3058,49.0376],[2.3091,49.0355],[2.3092,49.0343],[2.3113,49.0332],[2.3087,49.031],[2.3099,49.0289],[2.3127,49.0274],[2.3111,49.0259],[2.3046,49.025],[2.2993,49.0253],[2.2965,49.0248],[2.2953,49.0231],[2.2921,49.0206],[2.2885,49.0211],[2.285,49.0207],[2.2807,49.0233],[2.2788,49.0218],[2.2761,49.0218],[2.2754,49.0207],[2.2775,49.0196],[2.2768,49.0181],[2.2785,49.0164],[2.277,49.0149],[2.274,49.0157],[2.2746,49.017],[2.2732,49.0177],[2.2692,49.0175],[2.2656,49.0184],[2.2641,49.0217],[2.2624,49.0224],[2.2612,49.031]]]},"properties":{"id_ffco":"2003-D95-54","nom":"Le Nid d'Aigle 2","_dept":"95","numero":"2003-D95-54","commune":"Montlignon","echelle":"1/15000","surface":"7.45 km²","format":"A3","annee":"2003","cartographes":"Y Mareigner, F Mareigner","proprietaire":"95 - Val-d'Oise","niveau":"Interrégional","specialite":"CO à pied","contacts":"CDCO 95, https://cdco95.wordpress.com/","latitude":"49.031039862","longitude":"2.28470452048","date_saisie":"03/03/2004","date_depot":"08/03/2004","valide":"Oui","ppo":"Non","type_carte":"Nouvelle carte","fond":"IGN","obsolete":false}},{"type":"Feature","geometry":null,"properties":{"id_ffco":"2026-D95-123","nom":"Taverny","_dept":"95","numero":"2026-D95-123","commune":"Taverny","echelle":"1/4000","surface":"None km²","format":"A4","annee":"2026","cartographes":"Loïc Bernable","proprietaire":"95 - Val-d'Oise","niveau":"Régional","specialite":"Sprint (ISSOM)","date_saisie":"03/04/2026","valide":"Non","ppo":"Non","type_carte":"Nouvelle carte","fond":"Cadastre","obsolete":false}},{"type":"Feature","geometry":{"type":"Polygon","coordinates":[[[2.2631,49.039],[2.2627,49.0381],[2.2602,49.0369],[2.257,49.0358],[2.2543,49.0333],[2.2609,49.0306],[2.2605,49.0281],[2.2622,49.0263],[2.2701,49.0246],[2.2745,49.0209],[2.2762,49.0203],[2.2783,49.0219],[2.2791,49.0217],[2.2799,49.0224],[2.2849,49.0204],[2.2863,49.0203],[2.2875,49.0197],[2.2906,49.0185],[2.2919,49.0196],[2.2922,49.0207],[2.2942,49.0217],[2.2955,49.0232],[2.2975,49.0248],[2.2988,49.0253],[2.3011,49.0253],[2.3035,49.0253],[2.3052,49.0273],[2.3065,49.0292],[2.304,49.0309],[2.3011,49.033],[2.3006,49.0342],[2.2971,49.036],[2.2934,49.0372],[2.2893,49.0372],[2.2876,49.0372],[2.2833,49.0368],[2.2813,49.0369],[2.2808,49.0376],[2.2796,49.0389],[2.2769,49.0401],[2.2758,49.0413],[2.2728,49.0418],[2.2702,49.041],[2.2626,49.0424],[2.2625,49.0405],[2.2631,49.039]]]},"properties":{"id_ffco":"2026-D95-122","nom":"Château de la Chasse 3","_dept":"95","numero":"2026-D95-122","commune":"Montlignon","echelle":"1/10000","surface":"5.63 km²","format":"A3","annee":"2026","cartographes":"Bertrand Pellin","proprietaire":"95 - Val-d'Oise","niveau":"Régional","specialite":"CO à pied","contacts":"CDCO 95, https://cdco95.wordpress.com/","latitude":"49.0306961607","longitude":"2.28024348266","date_saisie":"11/10/2025","valide":"Non","ppo":"Non","type_carte":"Reprise","base":"2018-D95-82 Château de la Chasse 2","fond":"Laser","obsolete":false}},{"type":"Feature","geometry":{"type":"Polygon","coordinates":[[[2.2556,49.1444],[2.2573,49.1424],[2.2579,49.1412],[2.2585,49.1412],[2.2654,49.1437],[2.2652,49.1458],[2.2641,49.1469],[2.2638,49.1476],[2.2634,49.1478],[2.2635,49.148],[2.2633,49.1485],[2.2631,49.1486],[2.2628,49.1486],[2.2622,49.1487],[2.259,49.1462],[2.2556,49.1444]]]},"properties":{"id_ffco":"2025-D95-121","nom":"Val de Persan","_dept":"95","numero":"2025-D95-121","commune":"Persan","echelle":"1/4000","surface":"0.33 km²","format":"A4","annee":"2025","cartographes":"Bertrand Pellin","proprietaire":"95 - Val-d'Oise","niveau":"Initiation, Scolaire","specialite":"Sprint (ISSOM)","latitude":"49.1447184469","longitude":"2.26092828879","date_saisie":"09/04/2025","valide":"Non","ppo":"Non","type_carte":"Nouvelle carte","fond":"Laser","obsolete":false}},{"type":"Feature","geometry":{"type":"Polygon","coordinates":[[[2.2628,49.1493],[2.2638,49.1478],[2.267,49.1486],[2.2657,49.1505],[2.2628,49.1494],[2.2628,49.1493]]]},"properties":{"id_ffco":"2025-D95-120","nom":"Complexe Odinot","_dept":"95","numero":"2025-D95-120","commune":"Persan","echelle":"1/1500","surface":"0.05 km²","format":"A4","annee":"2025","cartographes":"Bertrand Pellin","proprietaire":"95 - Val-d'Oise","niveau":"Initiation, Scolaire","specialite":"Sprint (ISSOM)","latitude":"49.1490791547","longitude":"2.26485617587","date_saisie":"09/04/2025","valide":"Non","ppo":"Non","type_carte":"Nouvelle carte","fond":"Laser","obsolete":false}},{"type":"Feature","geometry":{"type":"Polygon","coordinates":[[[2.2641,49.1527],[2.2659,49.1534],[2.2673,49.1514],[2.2674,49.151],[2.2668,49.1509],[2.2655,49.1503],[2.2639,49.1526],[2.2641,49.1527]]]},"properties":{"id_ffco":"2025-D95-119","nom":"Parc de l'Esches","_dept":"95","numero":"2025-D95-119","commune":"Persan","echelle":"1/2000","surface":"0.05 km²","format":"A4","annee":"2025","cartographes":"Bertrand Pellin","proprietaire":"95 - Val-d'Oise","niveau":"Initiation, Scolaire","specialite":"Sprint (ISSOM)","latitude":"49.15186731","longitude":"2.26567615797","date_saisie":"09/04/2025","valide":"Non","ppo":"Non","type_carte":"Nouvelle carte","fond":"Laser","obsolete":false}},{"type":"Feature","geometry":{"type":"Polygon","coordinates":[[[2.2656,49.1505],[2.2673,49.1513],[2.2675,49.1512],[2.2689,49.1493],[2.2694,49.1484],[2.2692,49.1481],[2.2682,49.1478],[2.2676,49.1476],[2.2656,49.1504],[2.2656,49.1505]]]},"properties":{"id_ffco":"2025-D95-118","nom":"Parc Robespierre","_dept":"95","numero":"2025-D95-118","commune":"Persan","echelle":"1/2000","surface":"0.06 km²","format":"A4","annee":"2025","cartographes":"Bertrand Pellin","proprietaire":"95 - Val-d'Oise","niveau":"Initiation, Scolaire","specialite":"Sprint (ISSOM)","latitude":"49.1494361072","longitude":"2.26755078385","date_saisie":"09/04/2025","valide":"Non","ppo":"Non","type_carte":"Nouvelle carte","fond":"Laser","obsolete":false}},{"type":"Feature","geometry":null,"properties":{"id_ffco":"2025-D95-117","nom":"Bouffémont","_dept":"95","numero":"2025-D95-117","commune":"Bouffémont","surface":"None km²","annee":"2025","cartographes":"Yann Lahellec","date_saisie":"09/04/2025","valide":"Non","ppo":"Non","type_carte":"Nouvelle carte","obsolete":false}},{"type":"Feature","geometry":{"type":"Polygon","coordinates":[[[2.0829,49.035],[2.0813,49.0337],[2.0788,49.035],[2.0768,49.0356],[2.0744,49.0358],[2.0714,49.0353],[2.0694,49.0345],[2.0687,49.0333],[2.0682,49.0323],[2.0707,49.0305],[2.072,49.0303],[2.0748,49.0304],[2.0768,49.0306],[2.0783,49.0308],[2.0796,49.0303],[2.0812,49.0299],[2.0821,49.0302],[2.0838,49.0306],[2.0842,49.0311],[2.0847,49.0323],[2.0862,49.0332],[2.0829,49.035]]]},"properties":{"id_ffco":"2025-D95-116","nom":"Cergy - ILEPS","_dept":"95","numero":"2025-D95-116","commune":"Cergy","echelle":"1/4000","surface":"0.59 km²","format":"A3","annee":"2025","cartographes":"Yann Lahellec","proprietaire":"9510 - RAID ORIENTATION CERGY","niveau":"National, International","specialite":"CO à pied","latitude":"49.0327670391","longitude":"2.07668994719","date_saisie":"17/02/2024","valide":"Non","ppo":"Non","type_carte":"Reprise","base":"2020-D95-99 Le bois de Cergy 2","fond":"Laser","obsolete":false}},{"type":"Feature","geometry":{"type":"Polygon","coordinates":[[[2.3478,48.9642],[2.3479,48.9648],[2.3466,48.9655],[2.3471,48.9666],[2.3472,48.9675],[2.3485,48.9673],[2.3488,48.9686],[2.3489,48.9692],[2.35,48.971],[2.3514,48.9709],[2.3521,48.9717],[2.3532,48.9717],[2.3542,48.9713],[2.3552,48.9712],[2.3552,48.9697],[2.3556,48.9693],[2.3551,48.9681],[2.3533,48.9673],[2.352,48.9671],[2.3518,48.9662],[2.3534,48.9654],[2.3528,48.9654],[2.3517,48.9642],[2.3514,48.9638],[2.3526,48.9636],[2.3519,48.9614],[2.3515,48.9615],[2.3507,48.9606],[2.3484,48.9606],[2.346,48.9611],[2.3475,48.9642],[2.3478,48.9642]]]},"properties":{"id_ffco":"2024-D95-115","nom":"La Butte Pinson","_dept":"95","numero":"2024-D95-115","commune":"Montmagny","echelle":"1/5000","surface":"0.47 km²","format":"A4","annee":"2024","cartographes":"Bertrand Pellin","proprietaire":"95 - Val-d'Oise","niveau":"Initiation, Scolaire","specialite":"Sprint (ISSOM)","contacts":"CDCO 95, https://cdco95.wordpress.com/","latitude":"48.9661352574","longitude":"2.35058395821","date_saisie":"16/02/2024","valide":"Non","ppo":"Non","type_carte":"Nouvelle carte","fond":"Cadastre","obsolete":false}},{"type":"Feature","geometry":{"type":"Polygon","coordinates":[[[2.3291,49.0336],[2.329,49.0336],[2.3294,49.0322],[2.331,49.0323],[2.3312,49.0321],[2.3341,49.0325],[2.3341,49.0327],[2.3346,49.033],[2.3323,49.0334],[2.3325,49.0336],[2.3329,49.0336],[2.3331,49.0337],[2.3312,49.0342],[2.3295,49.0346],[2.328,49.0348],[2.327,49.0345],[2.3274,49.034],[2.3274,49.0334],[2.329,49.0335],[2.3291,49.0336]]]},"properties":{"id_ffco":"2024-D95-114","nom":"Parc des Coquelicots","_dept":"95","numero":"2024-D95-114","commune":"Domont","echelle":"1/2500","surface":"0.09 km²","format":"A4","annee":"2024","cartographes":"Quentin Drouin","proprietaire":"95 - Val-d'Oise","niveau":"Initiation, Scolaire","specialite":"Sprint (ISSOM)","latitude":"49.0334107315","longitude":"2.33051010015","date_saisie":"16/02/2024","valide":"Non","ppo":"Non","type_carte":"Nouvelle carte","fond":"Cadastre","obsolete":false}},{"type":"Feature","geometry":{"type":"Polygon","coordinates":[[[2.0523,49.0476],[2.0519,49.0463],[2.0535,49.0453],[2.0544,49.0447],[2.0532,49.0446],[2.0468,49.0447],[2.0418,49.0429],[2.0408,49.0425],[2.0403,49.0428],[2.0375,49.0452],[2.0446,49.0487],[2.0467,49.0484],[2.0496,49.0481],[2.0523,49.0479],[2.0523,49.0476]]]},"properties":{"id_ffco":"2024-D95-113","nom":"Gency","_dept":"95","numero":"2024-D95-113","commune":"Cergy","echelle":"1/4000","surface":"0.44 km²","format":"A4","annee":"2024","cartographes":"Yann Lahellec","proprietaire":"95 - Val-d'Oise","niveau":"National, International","specialite":"Sprint (ISSOM)","contacts":"CDCO 95, https://cdco95.wordpress.com/","latitude":"49.0458501492","longitude":"2.04544362135","date_saisie":"16/02/2024","date_depot":"05/03/2025","valide":"Oui","ppo":"Non","type_carte":"Nouvelle carte","fond":"Laser","obsolete":false}},{"type":"Feature","geometry":{"type":"Polygon","coordinates":[[[2.0318,49.0471],[2.0317,49.0454],[2.0384,49.0403],[2.0409,49.0419],[2.0416,49.0451],[2.0452,49.0473],[2.0445,49.0488],[2.0379,49.0492],[2.0321,49.0472],[2.0318,49.0471]]]},"properties":{"id_ffco":"2024-D95-112","nom":"Axe Majeur","_dept":"95","numero":"2024-D95-112","commune":"Cergy","echelle":"1/4000","surface":"0.55 km²","format":"A4","annee":"2024","cartographes":"Yann Lahellec","proprietaire":"95 - Val-d'Oise","niveau":"National, International","specialite":"Sprint (ISSOM)","contacts":"CDCO 95, https://cdco95.wordpress.com/","latitude":"49.0455964581","longitude":"2.03821792638","date_saisie":"16/02/2024","date_depot":"05/03/2025","valide":"Oui","ppo":"Non","type_carte":"Nouvelle carte","fond":"Laser","obsolete":false}},{"type":"Feature","geometry":{"type":"Polygon","coordinates":[[[2.0148,49.0479],[2.0226,49.0471],[2.0251,49.0459],[2.0248,49.0413],[2.0229,49.0408],[2.02,49.0419],[2.0188,49.0427],[2.0166,49.0399],[2.0096,49.044],[2.0119,49.046],[2.0148,49.0479]]]},"properties":{"id_ffco":"2023-D95-111","nom":"La coulée verte 2","_dept":"95","numero":"2023-D95-111","commune":"cergy","echelle":"1/4000","surface":"0.66 km²","format":"A4","annee":"2023","cartographes":"yann lahellec","proprietaire":"9510 - RAID ORIENTATION CERGY","niveau":"Régional","specialite":"CO à pied","contacts":"YANN LAHELLEC, 36 BIS RUE DE LA REPUBLIQUE, 95570, BOUFFEMONT, 0660371674, 0660371674, ylahellec@gmail.com, https://www.roc95.fr/CryO/","latitude":"49.0442741193","longitude":"2.01805659043","date_saisie":"13/09/2023","date_depot":"15/02/2024","valide":"Oui","ppo":"Non","type_carte":"Reprise","base":"2020-D95-97 La coulée verte","fond":"Ortho","obsolete":false}},{"type":"Feature","geometry":{"type":"Polygon","coordinates":[[[1.9972,49.0198],[1.9986,49.0201],[2.0031,49.02],[2.0083,49.0206],[2.0141,49.0181],[2.0153,49.0154],[2.0162,49.013],[2.0191,49.007],[2.0178,49.0061],[2.0146,49.0054],[2.0116,49.0045],[2.0044,49.0102],[1.9985,49.0164],[1.9972,49.0183],[1.9972,49.0198]]]},"properties":{"id_ffco":"2023-D95-110","nom":"Le bois de Boisemont","_dept":"95","numero":"2023-D95-110","commune":"Boisemont","echelle":"1/7500","surface":"1.65 km²","format":"A4","annee":"2023","cartographes":"yann lahellec","proprietaire":"9510 - RAID ORIENTATION CERGY","niveau":"Initiation, Scolaire","specialite":"CO à pied","contacts":"YANN LAHELLEC, 36 BIS RUE DE LA REPUBLIQUE, 95570, BOUFFEMONT, 0660371674, 0660371674, ylahellec@gmail.com, https://www.roc95.fr/CryO/","latitude":"49.0133809445","longitude":"2.00878235222","date_saisie":"11/09/2023","date_depot":"15/02/2024","valide":"Oui","ppo":"Non","type_carte":"Nouvelle carte","fond":"Ortho","obsolete":false}},{"type":"Feature","geometry":null,"properties":{"id_ffco":"2026-D95-109","nom":"Le Fort de Montlignon 2","_dept":"95","numero":"2026-D95-109","commune":"Montlignon","echelle":"1/10000","surface":"None km²","format":"A4","annee":"2026","cartographes":"Patrick Saint-Upéry, Bertrand Pellin, Yann Lahellec","proprietaire":"95 - Val-d'Oise","niveau":"Départemental","specialite":"CO à pied","date_saisie":"05/02/2024","valide":"Non","ppo":"Non","type_carte":"Reprise","base":"1990-D95-14 Le Fort de Montlignon","fond":"Cadastre","obsolete":false}},{"type":"Feature","geometry":{"type":"Polygon","coordinates":[[[2.2657,49.0995],[2.2658,49.0996],[2.2655,49.0998],[2.2646,49.0999],[2.2555,49.1025],[2.2487,49.0984],[2.2447,49.0918],[2.251,49.0858],[2.2692,49.0782],[2.2734,49.0783],[2.2777,49.0783],[2.2869,49.0834],[2.2852,49.0869],[2.284,49.0876],[2.2824,49.0882],[2.2814,49.0885],[2.2801,49.0887],[2.2784,49.0885],[2.2779,49.0884],[2.277,49.0885],[2.2764,49.0888],[2.2749,49.0893],[2.274,49.0897],[2.2743,49.0911],[2.2705,49.0917],[2.2697,49.0928],[2.2691,49.0937],[2.2688,49.0946],[2.2685,49.0951],[2.2683,49.0956],[2.2665,49.0976],[2.2663,49.0983],[2.2661,49.0996],[2.2657,49.0995]]]},"properties":{"id_ffco":"2025-D95-108","nom":"L'Isle-Adam 4","_dept":"95","numero":"2025-D95-108","commune":"Nerville-la-Forêt","echelle":"1/10000","surface":"4.45 km²","format":"A3","annee":"2025","cartographes":"Bertrand Pellin","proprietaire":"95 - Val-d'Oise","niveau":"Régional","specialite":"CO à pied","contacts":"CDCO 95, https://cdco95.wordpress.com/","latitude":"49.0892098801","longitude":"2.26411188288","date_saisie":"05/02/2024","valide":"Non","ppo":"Non","type_carte":"Reprise","base":"2022-D95-94 L'Isle-Adam 3","fond":"Laser","obsolete":false}},{"type":"Feature","geometry":{"type":"Polygon","coordinates":[[[2.232,49.1194],[2.2516,49.124],[2.2524,49.1237],[2.2528,49.1202],[2.2527,49.1144],[2.2516,49.1133],[2.2497,49.1137],[2.2488,49.1101],[2.2497,49.1039],[2.237,49.1073],[2.2387,49.108],[2.2391,49.1089],[2.2409,49.1088],[2.2427,49.1114],[2.2402,49.1141],[2.2393,49.115],[2.2382,49.1154],[2.2367,49.1157],[2.2357,49.1176],[2.2346,49.1186],[2.2321,49.1191],[2.232,49.1194]]]},"properties":{"id_ffco":"2023-D95-107","nom":"Bois de Cassan 2","_dept":"95","numero":"2023-D95-107","commune":"L'ISLE-ADAM","echelle":"1/10000","surface":"1.75 km²","format":"A4","annee":"2023","cartographes":"Bertrand Pellin","proprietaire":"9502 - ATHLETIC CLUB DE BEAUCHAMP","niveau":"Régional","specialite":"CO à pied","contacts":"AC Beauchamp CO, b.pellin@orange.fr, http://www.acbeauchamp-orientation.net/","latitude":"49.1151256936","longitude":"2.24494241689","date_saisie":"07/11/2023","date_depot":"24/07/2024","valide":"Oui","ppo":"Non","type_carte":"Reprise","base":"2016-D95-89 Bois de Cassan sud","fond":"Laser","obsolete":false}},{"type":"Feature","geometry":{"type":"Polygon","coordinates":[[[2.2421,49.0155],[2.2463,49.0149],[2.2534,49.0149],[2.2555,49.015],[2.2562,49.0153],[2.2567,49.0151],[2.2576,49.0162],[2.2579,49.0173],[2.258,49.0183],[2.2587,49.0221],[2.257,49.0236],[2.255,49.0242],[2.2526,49.0245],[2.2473,49.0247],[2.2448,49.0246],[2.244,49.0255],[2.2429,49.0254],[2.2425,49.0247],[2.2423,49.024],[2.2417,49.0231],[2.2414,49.0224],[2.2413,49.022],[2.2407,49.0214],[2.2392,49.0204],[2.2387,49.0174],[2.2418,49.0156],[2.2421,49.0155]]]},"properties":{"id_ffco":"2023-D95-106","nom":"St-Leu ville","_dept":"95","numero":"2023-D95-106","commune":"St-Leu-la-Forêt","echelle":"1/4000","surface":"1.36 km²","format":"A3","annee":"2023","cartographes":"Loïc Bernable","proprietaire":"9502 - ATHLETIC CLUB DE BEAUCHAMP","niveau":"Départemental","specialite":"Sprint (ISSOM)","contacts":"AC Beauchamp CO, b.pellin@orange.fr, http://www.acbeauchamp-orientation.net/","latitude":"49.0197450551","longitude":"2.24900725067","date_saisie":"14/02/2023","date_depot":"26/06/2024","valide":"Non","ppo":"Non","type_carte":"Nouvelle carte","fond":"Cadastre","obsolete":false}},{"type":"Feature","geometry":{"type":"Polygon","coordinates":[[[2.3258,48.9679],[2.3252,48.9658],[2.3239,48.9646],[2.323,48.965],[2.3218,48.9657],[2.3204,48.967],[2.3213,48.9688],[2.3219,48.9689],[2.3236,48.9684],[2.3258,48.9679]]]},"properties":{"id_ffco":"2022-D95-105","nom":"Stade intercommunal","_dept":"95","numero":"2022-D95-105","commune":"deuil la barre","echelle":"1/2000","surface":"0.12 km²","format":"A4","annee":"2022","cartographes":"yann lahellec","proprietaire":"9510 - RAID ORIENTATION CERGY","niveau":"Initiation, Scolaire","specialite":"CO à pied","contacts":"YANN LAHELLEC, 36 BIS RUE DE LA REPUBLIQUE, 95570, BOUFFEMONT, 0660371674, 0660371674, ylahellec@gmail.com, https://roc95.fr/CryO/","latitude":"48.9669346915","longitude":"2.32313297391","date_saisie":"17/12/2022","date_depot":"18/07/2023","valide":"Oui","ppo":"Non","type_carte":"Nouvelle carte","fond":"Ortho","obsolete":false}},{"type":"Feature","geometry":{"type":"Polygon","coordinates":[[[2.3283,48.9673],[2.328,48.9669],[2.3292,48.9664],[2.3307,48.966],[2.3316,48.9668],[2.3318,48.967],[2.3316,48.9672],[2.3308,48.9676],[2.3296,48.9682],[2.3283,48.9673]]]},"properties":{"id_ffco":"2022-D95-104","nom":"Parc de la galathée","_dept":"95","numero":"2022-D95-104","commune":"deuil la barre","echelle":"1/1500","surface":"0.04 km²","format":"A4","annee":"2022","cartographes":"yann lahellec","proprietaire":"9510 - RAID ORIENTATION CERGY","niveau":"Initiation, Scolaire","specialite":"CO à pied","contacts":"YANN LAHELLEC, 36 BIS RUE DE LA REPUBLIQUE, 95570, BOUFFEMONT, 0660371674, 0660371674, ylahellec@gmail.com, https://roc95.fr/CryO/","latitude":"48.9670391104","longitude":"2.32995750749","date_saisie":"17/12/2022","date_depot":"18/07/2023","valide":"Oui","ppo":"Non","type_carte":"Nouvelle carte","fond":"Ortho","obsolete":false}},{"type":"Feature","geometry":{"type":"Polygon","coordinates":[[[2.2655,49.0551],[2.2649,49.0497],[2.2645,49.0484],[2.2648,49.0472],[2.2628,49.0412],[2.2643,49.0384],[2.2585,49.036],[2.2568,49.035],[2.2476,49.0255],[2.2482,49.0242],[2.2464,49.0239],[2.2453,49.0231],[2.2416,49.0221],[2.226,49.029],[2.2245,49.0416],[2.2312,49.0447],[2.2349,49.044],[2.2382,49.0463],[2.2407,49.0468],[2.2426,49.0497],[2.2454,49.051],[2.2481,49.0506],[2.2497,49.0531],[2.2495,49.0551],[2.2542,49.0552],[2.256,49.0568],[2.2575,49.0569],[2.2583,49.0563],[2.2622,49.0562],[2.2642,49.0554],[2.2655,49.0551]]]},"properties":{"id_ffco":"2023-D95-103","nom":"Les Sapins Brûlés 4","_dept":"95","numero":"2023-D95-103","commune":"St-Leu-la-Forêt","echelle":"1/10000","surface":"6.88 km²","format":"A3","annee":"2023","cartographes":"Bertrand Pellin","proprietaire":"9502 - ATHLETIC CLUB DE BEAUCHAMP","niveau":"Régional","specialite":"CO à pied","contacts":"AC Beauchamp CO, b.pellin@orange.fr, http://www.acbeauchamp-orientation.net/","latitude":"49.039418803","longitude":"2.24556390498","date_saisie":"12/11/2022","date_depot":"19/07/2023","valide":"Oui","ppo":"Non","type_carte":"Reprise","base":"2015-D95-67 Les Sapins Brûlés 3","fond":"Ortho","obsolete":false}},{"type":"Feature","geometry":{"type":"Polygon","coordinates":[[[2.0706,49.0305],[2.0725,49.0314],[2.0765,49.0324],[2.0796,49.0331],[2.0822,49.0343],[2.0848,49.0363],[2.0791,49.0397],[2.0772,49.0389],[2.0718,49.043],[2.0691,49.0421],[2.0673,49.0428],[2.0658,49.0434],[2.0648,49.0422],[2.063,49.0405],[2.0655,49.0355],[2.0669,49.0336],[2.0706,49.0305]]]},"properties":{"id_ffco":"2022-D95-102","nom":"Cergy grand centre","_dept":"95","numero":"2022-D95-102","commune":"cergy","echelle":"1/4000","surface":"1.27 km²","format":"A3","annee":"2022","cartographes":"yann lahellec","proprietaire":"9510 - RAID ORIENTATION CERGY","niveau":"Régional","specialite":"CO à pied","latitude":"49.0369819826","longitude":"2.07264378299","date_saisie":"08/11/2022","date_depot":"12/01/2023","valide":"Oui","ppo":"Non","type_carte":"Nouvelle carte","fond":"Ortho","obsolete":false}},{"type":"Feature","geometry":{"type":"Polygon","coordinates":[[[2.1147,49.0205],[2.1128,49.0189],[2.1119,49.0174],[2.1131,49.0171],[2.1169,49.0145],[2.1206,49.0162],[2.1234,49.0148],[2.1252,49.0157],[2.1233,49.0177],[2.1261,49.0197],[2.1243,49.0214],[2.1223,49.0214],[2.1198,49.0216],[2.1166,49.0215],[2.1138,49.0215],[2.1146,49.0207],[2.1147,49.0205]]]},"properties":{"id_ffco":"2021-D95-101","nom":"Bois du Grillon 2","_dept":"95","numero":"2021-D95-101","commune":"eragny sur oise","echelle":"1/4000","surface":"0.56 km²","format":"A4","annee":"2021","cartographes":"YANN LAHELLEC","proprietaire":"9599 - INDIVIDUEL","niveau":"Régional","specialite":"CO à pied","contacts":"YANN LAHELLEC, 36 BIS RUE DE LA REPUBLIQUE, 95570, BOUFFEMONT, 0660371674, 0660371674, ylahellec@gmail.com, https://roc95.fr/CryO/","latitude":"49.0184366966","longitude":"2.11909717986","date_saisie":"12/03/2021","date_depot":"12/01/2023","valide":"Oui","ppo":"Non","type_carte":"Reprise","base":"2019-D95-96 Le bois du grillon","fond":"Ortho","obsolete":false}},{"type":"Feature","geometry":{"type":"Polygon","coordinates":[[[2.0501,49.0645],[2.0504,49.0672],[2.0525,49.0685],[2.0561,49.0679],[2.0568,49.0685],[2.0572,49.0689],[2.0581,49.0689],[2.0598,49.0678],[2.0609,49.0675],[2.0648,49.0655],[2.0655,49.0654],[2.0658,49.0645],[2.0638,49.0617],[2.0579,49.0633],[2.0562,49.0639],[2.0558,49.064],[2.0532,49.0643],[2.0502,49.0645],[2.0501,49.0645]]]},"properties":{"id_ffco":"2020-D95-100","nom":"Parc de Grouchy","_dept":"95","numero":"2020-D95-100","commune":"Osny","echelle":"1/4000","surface":"0.53 km²","format":"A4","annee":"2020","cartographes":"YANN LAHELLEC","proprietaire":"Mairie d'Osny","niveau":"Régional","specialite":"CO à pied","contacts":"YANN LAHELLEC, 36 BIS RUE DE LA REPUBLIQUE, 95570, BOUFFEMONT, 0660371674, 0660371674, ylahellec@gmail.com, https://roc95.fr/CryO/","latitude":"49.0655020403","longitude":"2.05797396604","date_saisie":"03/12/2020","date_depot":"12/01/2023","valide":"Oui","ppo":"Non","type_carte":"Nouvelle carte","fond":"Ortho","obsolete":false}}]}