{"type":"FeatureCollection","features":[{"type":"Feature","geometry":{"type":"Polygon","coordinates":[[[2.1141,49.0214],[2.1231,49.0216],[2.1257,49.0211],[2.1256,49.0194],[2.1242,49.0183],[2.1244,49.0172],[2.1256,49.0152],[2.1241,49.0145],[2.1159,49.014],[2.111,49.0168],[2.1121,49.0187],[2.1142,49.0205],[2.1141,49.0214]]]},"properties":{"id_ffco":"11554","nom":"Le bois du grillon","_dept":"95","numero":"2019-D95-96","commune":"eragny sur oise","echelle":"1/4000","surface":"0.72 km²","format":"A4","annee":"2019","cartographes":"Yann Lahellec","proprietaire":"7599 - INDIVIDUEL","niveau":"Régional","specialite":"CO à pied","contacts":"yann lahellec, 20 RUE LEVEQUE, 95000, CERGY, 0660371674, 0660371674, carto.yann@gmail.com","latitude":"49.0178817873","longitude":"2.11887777561","date_saisie":"27/06/2019","valide":"Non","ppo":"Non","type_carte":"Nouvelle carte","fond":"Cadastre","obsolete":true}},{"type":"Feature","geometry":null,"properties":{"id_ffco":"506","nom":"Domaine de Lassy","_dept":"95","numero":"2008-D95-85","commune":"Lassy","echelle":"1/3000","surface":"0.24 km²","annee":"2008","cartographes":"Franz Mareigner","contacts":"CCE Air France","latitude":"49.1009759581","longitude":"2.44155993541","valide":"Non","ppo":"Oui (30 postes)","obsolete":true}},{"type":"Feature","geometry":{"type":"Polygon","coordinates":[[[2.4851,49.1446],[2.4882,49.1537],[2.4973,49.1534],[2.5067,49.151],[2.5102,49.1506],[2.5131,49.1428],[2.5093,49.1389],[2.5081,49.1362],[2.5071,49.1332],[2.5079,49.1316],[2.5107,49.1302],[2.5062,49.1277],[2.5189,49.1184],[2.5129,49.1091],[2.492,49.1088],[2.4839,49.1141],[2.4825,49.1147],[2.4829,49.1184],[2.4762,49.1181],[2.4827,49.1327],[2.4841,49.1384],[2.4851,49.139],[2.4896,49.1395],[2.4851,49.1446]]]},"properties":{"id_ffco":"5059","nom":"La Borne Blanche 3","_dept":"95","numero":"2008-D95-60","commune":"Orry-la-Ville","echelle":"1/10000","surface":"9.96 km²","format":"A3","annee":"2008","cartographes":"S Kireilis,D Kirelienne","proprietaire":"95 - Val-d'Oise","niveau":"Régional","specialite":"CO à pied","contacts":"CDCO 95, https://cdco95.wordpress.com/","latitude":"49.1294060834","longitude":"2.49752593903","date_saisie":"09/08/2010","date_depot":"13/12/2017","valide":"Oui","ppo":"Non","type_carte":"Reprise","base":"1995-D95-29 La Borne Blanche 2","fond":"Cadastre","obsolete":true}},{"type":"Feature","geometry":{"type":"Polygon","coordinates":[[[2.4845,49.1388],[2.4766,49.1182],[2.4654,49.1207],[2.463,49.1207],[2.4557,49.1197],[2.4514,49.1183],[2.4484,49.1183],[2.4459,49.1205],[2.4416,49.1233],[2.4363,49.1241],[2.4351,49.1256],[2.4383,49.1292],[2.4371,49.1311],[2.4347,49.1327],[2.4356,49.1346],[2.4407,49.1451],[2.4615,49.1429],[2.472,49.1433],[2.4747,49.142],[2.4797,49.1396],[2.4845,49.1388]]]},"properties":{"id_ffco":"737","nom":"Le Pain de Sucre 2","_dept":"95","numero":"2008-D95-59","commune":"Chaumontel","echelle":"1/10000","surface":"8.19 km²","format":"A3","annee":"2008","cartographes":"S Kireilis,D Kirelienne","proprietaire":"95 - Val-d'Oise","niveau":"Régional","specialite":"CO à pied","contacts":"CDCO 95, https://cdco95.wordpress.com/","latitude":"49.1318264315","longitude":"2.45885644895","valide":"Oui","ppo":"Non","type_carte":"Reprise","base":"1990-D95-16 Le Pain de Sucre","fond":"Cadastre","obsolete":true}},{"type":"Feature","geometry":null,"properties":{"id_ffco":"504","nom":"Saint Witz","_dept":"95","numero":"1990-D95-51","commune":"Saint-Witz","surface":"None km²","annee":"1990","niveau":"Initiation, Scolaire","specialite":"CO à pied","latitude":"49.0615901","longitude":"2.1581351","valide":"Non","ppo":"Oui","type_carte":"Nouvelle carte","obsolete":true}},{"type":"Feature","geometry":null,"properties":{"id_ffco":"502","nom":"Eaubonne","_dept":"95","numero":"1990-D95-47","commune":"Eaubonne","surface":"None km²","annee":"1990","cartographes":"RENARD","proprietaire":"service des sports d'Eaubonne","niveau":"Initiation, Scolaire","specialite":"CO à pied","latitude":"48.9936053359","longitude":"2.27829806386","valide":"Non","ppo":"Oui","type_carte":"Nouvelle carte","obsolete":true}},{"type":"Feature","geometry":{"type":"Polygon","coordinates":[[[2.0469,49.0209],[2.0552,49.0236],[2.0603,49.028],[2.0591,49.0322],[2.0562,49.0367],[2.0543,49.0403],[2.05,49.0412],[2.0456,49.0396],[2.0399,49.0361],[2.037,49.032],[2.037,49.0301],[2.0407,49.0263],[2.043,49.0225],[2.0447,49.0216],[2.0469,49.0209]]]},"properties":{"id_ffco":"2874","nom":"Les Etangs de Cergy-Neuville 2","_dept":"95","numero":"2001-D95-46","commune":"Cergy","echelle":"1/8000","surface":"2.57 km²","format":"A4","annee":"2001","cartographes":"Franz Mareigner,Mareigner Yann","proprietaire":"9599 - INDIVIDUEL","niveau":"Départemental","specialite":"CO à pied","latitude":"49.031010595","longitude":"2.04873437145","valide":"Non","ppo":"Oui (50 postes)","type_carte":"Reprise","base":"1979-D95-04 Cergy-Neuville Base de Loisirs","fond":"Ortho","obsolete":true}},{"type":"Feature","geometry":{"type":"Polygon","coordinates":[[[2.2319,49.1197],[2.2358,49.1273],[2.2395,49.1286],[2.2442,49.1275],[2.2497,49.1242],[2.2531,49.1232],[2.2532,49.1163],[2.2549,49.1129],[2.2499,49.114],[2.2464,49.1154],[2.2441,49.1155],[2.2424,49.1149],[2.2427,49.1159],[2.2415,49.1156],[2.2403,49.1146],[2.2398,49.1151],[2.2385,49.1156],[2.2376,49.1159],[2.2373,49.1165],[2.2355,49.1189],[2.2322,49.1194],[2.2319,49.1197]]]},"properties":{"id_ffco":"3321","nom":"Bois de Cassan","_dept":"95","numero":"2001-D95-45","commune":"Ile-Adam","echelle":"1/10000","surface":"1.76 km²","format":"A4","annee":"2001","cartographes":"Franz Mareigner","proprietaire":"95 - Val-d'Oise","niveau":"Départemental","specialite":"CO à pied","contacts":"CDCO 95, https://cdco95.wordpress.com/","latitude":"49.1208969571","longitude":"2.24350370782","valide":"Non","ppo":"Non","type_carte":"Nouvelle carte","fond":"IGN","ref_ign":"2313OT","obsolete":true}},{"type":"Feature","geometry":{"type":"Polygon","coordinates":[[[2.2658,49.0995],[2.2589,49.0931],[2.2579,49.0879],[2.2565,49.0836],[2.2538,49.08],[2.2479,49.0832],[2.2402,49.0838],[2.2356,49.0877],[2.2337,49.0882],[2.2301,49.0875],[2.2284,49.0866],[2.2148,49.0884],[2.2095,49.0907],[2.2116,49.0936],[2.2148,49.0972],[2.215,49.1025],[2.2194,49.1044],[2.2289,49.1034],[2.2328,49.1073],[2.2347,49.1076],[2.2658,49.0995]]]},"properties":{"id_ffco":"2297","nom":"Forêt de l'Isle-Adam","_dept":"95","numero":"2003-D95-43","commune":"L'Isle-Adam","echelle":"1/10000","surface":"7.18 km²","annee":"2003","cartographes":"Franz Mareigner,Mareigner Yann","proprietaire":"IF - Île de France","specialite":"CO à pied","latitude":"49.0948827682","longitude":"2.23794967227","valide":"Non","ppo":"Non","type_carte":"Reprise","base":"1997-D95-30 L'ISLE ADAM","obsolete":true}},{"type":"Feature","geometry":{"type":"Polygon","coordinates":[[[2.3227,49.1064],[2.3178,49.1044],[2.3167,49.103],[2.3139,49.1021],[2.3117,49.1009],[2.3098,49.1015],[2.3087,49.1026],[2.3054,49.1053],[2.3019,49.108],[2.3076,49.1106],[2.309,49.1116],[2.3073,49.1123],[2.3105,49.1138],[2.3077,49.1155],[2.3048,49.1224],[2.3029,49.1249],[2.302,49.1258],[2.3013,49.1279],[2.3072,49.1289],[2.3114,49.1276],[2.3147,49.129],[2.3164,49.1298],[2.3171,49.13],[2.3212,49.1301],[2.3225,49.1297],[2.3237,49.1297],[2.3255,49.1291],[2.3266,49.1293],[2.3285,49.1309],[2.3336,49.1303],[2.339,49.1303],[2.3437,49.1308],[2.346,49.1295],[2.3521,49.1273],[2.3543,49.1274],[2.3576,49.1247],[2.3553,49.1221],[2.3531,49.1207],[2.3509,49.1196],[2.3497,49.1182],[2.3491,49.1178],[2.3488,49.1165],[2.3471,49.113],[2.3465,49.1129],[2.3457,49.1118],[2.3466,49.1108],[2.3477,49.1099],[2.3472,49.1094],[2.3473,49.1087],[2.3436,49.1098],[2.343,49.1098],[2.3418,49.1094],[2.3406,49.1094],[2.3361,49.11],[2.3346,49.1103],[2.3329,49.1114],[2.3312,49.1111],[2.3287,49.1096],[2.3279,49.11],[2.3273,49.1097],[2.3261,49.1102],[2.3243,49.1106],[2.3236,49.1108],[2.3223,49.1102],[2.3229,49.1093],[2.3226,49.1085],[2.3202,49.1079],[2.3212,49.1071],[2.3227,49.1066],[2.3227,49.1064]]]},"properties":{"id_ffco":"9606","nom":"Carnelle 3","_dept":"95","numero":"2000-D95-42","commune":"St-Martin-du-Tertre","echelle":"1/15000","surface":"8.2 km²","format":"A3","annee":"2000","cartographes":"Franz Mareigner,Mareigner Yann","proprietaire":"95 - Val-d'Oise","niveau":"Régional","specialite":"CO à pied","latitude":"49.1188087615","longitude":"2.32698942456","date_saisie":"15/06/2016","valide":"Non","ppo":"Non","type_carte":"Reprise","base":"1977-D95-02 CARNELLE","fond":"IGN","obsolete":true}},{"type":"Feature","geometry":null,"properties":{"id_ffco":"507","nom":"Boucle de Seine","_dept":"95","numero":"1990-D95-41","surface":"None km²","annee":"1990","niveau":"Initiation, Scolaire","specialite":"CO à pied","latitude":"49.0615901","longitude":"2.1581351","valide":"Non","ppo":"Oui","type_carte":"Nouvelle carte","fond":"IGN","obsolete":true}},{"type":"Feature","geometry":null,"properties":{"id_ffco":"503","nom":"La Vallée Verte","_dept":"95","numero":"1999-D95-38","commune":"Roissy-en-France","echelle":"1/2500","surface":"None km²","annee":"1999","niveau":"Initiation, Scolaire","specialite":"CO à pied","latitude":"49.0615901","longitude":"2.1581351","valide":"Non","ppo":"Oui (32 postes)","type_carte":"Nouvelle carte","fond":"IGN","obsolete":true}},{"type":"Feature","geometry":null,"properties":{"id_ffco":"3264","nom":"LA PORTE BAILLET N°2","_dept":"95","numero":"1999-D95-37","commune":"ISLE ADAM","echelle":"1/15000","surface":"8.0 km²","annee":"1999","proprietaire":"IF - Île de France","niveau":"Interrégional","specialite":"CO à pied","latitude":"49.1121354","longitude":"2.217277","valide":"Non","ppo":"Non","type_carte":"Reprise","base":"1993-D95-26 La Porte Baillet","obsolete":true}},{"type":"Feature","geometry":null,"properties":{"id_ffco":"505","nom":"Parc de Villiers le Bel","_dept":"95","numero":"1999-D95-36","commune":"Villiers-le-Bel","echelle":"1/2500","surface":"None km²","annee":"1999","niveau":"Initiation, Scolaire","specialite":"CO à pied","latitude":"49.0615901","longitude":"2.1581351","valide":"Non","ppo":"Oui","type_carte":"Nouvelle carte","fond":"IGN","obsolete":true}},{"type":"Feature","geometry":{"type":"Polygon","coordinates":[[[2.3174,49.0189],[2.3194,49.0203],[2.3217,49.0212],[2.3217,49.0223],[2.3234,49.0232],[2.3258,49.0222],[2.329,49.0221],[2.3338,49.0227],[2.3349,49.0206],[2.3358,49.0201],[2.3349,49.0182],[2.3402,49.0156],[2.3389,49.0123],[2.3376,49.0081],[2.3392,49.0073],[2.3387,49.0042],[2.3401,49.0039],[2.3367,48.9972],[2.333,48.9976],[2.3328,48.998],[2.3322,48.9982],[2.3324,48.9988],[2.3306,48.9991],[2.33,48.9984],[2.3285,48.9992],[2.3253,48.9992],[2.3246,48.9991],[2.3226,48.9995],[2.3226,48.9999],[2.3231,49.0013],[2.3218,49.0011],[2.3215,49.0026],[2.3209,49.004],[2.3204,49.005],[2.3177,49.0058],[2.3172,49.0062],[2.3161,49.0066],[2.3169,49.0071],[2.3172,49.008],[2.3193,49.0084],[2.3197,49.0082],[2.32,49.0086],[2.3196,49.0088],[2.3207,49.0094],[2.3206,49.0105],[2.319,49.0119],[2.3186,49.0123],[2.3194,49.0133],[2.3192,49.0143],[2.3208,49.0152],[2.3197,49.0167],[2.3193,49.0174],[2.3174,49.0189]]]},"properties":{"id_ffco":"3071","nom":"Le Bois des Champeaux 3","_dept":"95","numero":"1998-D95-35","commune":"MONTMORENCY","echelle":"1/10000","surface":"3.49 km²","format":"A4","annee":"1998","cartographes":"Patrick St-Upéry","proprietaire":"95 - Val-d'Oise","niveau":"Interrégional","specialite":"CO à pied","latitude":"49.0103226236","longitude":"2.32908612815","valide":"Non","ppo":"Non","type_carte":"Reprise","base":"1990-D95-19 Le Bois des Champeaux 2","fond":"IGN","obsolete":true}},{"type":"Feature","geometry":null,"properties":{"id_ffco":"2298","nom":"Les Etangs de Cergy-Neuville 4","_dept":"95","numero":"1997-D95-34","commune":"CERGY PONTOISE","echelle":"1/7500","surface":"None km²","annee":"1997","cartographes":"Patrick St-Upéry","proprietaire":"IF - Île de France","specialite":"CO à pied","latitude":"49.0318072925","longitude":"2.04821796592","valide":"Non","ppo":"Non","type_carte":"Reprise","obsolete":true}},{"type":"Feature","geometry":{"type":"Polygon","coordinates":[[[2.2283,49.0309],[2.2286,49.0303],[2.2294,49.0297],[2.2301,49.0293],[2.2314,49.0288],[2.2323,49.0284],[2.2335,49.0289],[2.235,49.0285],[2.2367,49.028],[2.2374,49.0276],[2.2386,49.0262],[2.2399,49.0257],[2.2412,49.0255],[2.2428,49.0254],[2.2443,49.0249],[2.2447,49.0244],[2.2468,49.0237],[2.2515,49.0225],[2.2694,49.0226],[2.2694,49.0247],[2.2626,49.0262],[2.261,49.0271],[2.2607,49.0284],[2.2608,49.0289],[2.2609,49.0306],[2.2623,49.0316],[2.264,49.0326],[2.2655,49.0326],[2.2663,49.0325],[2.2673,49.0322],[2.2679,49.0318],[2.2683,49.0322],[2.2683,49.0327],[2.2693,49.033],[2.2682,49.0391],[2.268,49.0415],[2.2635,49.0417],[2.253,49.0415],[2.2358,49.0409],[2.2282,49.041],[2.2276,49.0371],[2.2332,49.0348],[2.2332,49.034],[2.232,49.0336],[2.2313,49.0336],[2.231,49.0332],[2.2284,49.0325],[2.2283,49.0309]]]},"properties":{"id_ffco":"9603","nom":"Le Camp César 3","_dept":"95","numero":"1998-D95-33","commune":"Taverny","echelle":"1/10000","surface":"4.98 km²","format":"A4","annee":"1998","cartographes":"Patrick Saint-Upéry","proprietaire":"9502 - ATHLETIC CLUB DE BEAUCHAMP","niveau":"Régional","specialite":"CO à pied","latitude":"49.033034211","longitude":"2.24949673919","date_saisie":"14/06/2016","valide":"Non","ppo":"Non","type_carte":"Reprise","base":"1990-D95-21 Le Camp César","fond":"IGN","obsolete":true}},{"type":"Feature","geometry":{"type":"Polygon","coordinates":[[[2.2138,49.0103],[2.2173,49.0094],[2.2207,49.0088],[2.2177,49.0027],[2.2101,49.0053],[2.2136,49.0102],[2.2138,49.0103]]]},"properties":{"id_ffco":"9601","nom":"Le Bois de Boissy 3","_dept":"95","numero":"1998-D95-31","commune":"Beauchamp","echelle":"1/4000","surface":"0.38 km²","format":"A4","annee":"1998","cartographes":"Patrick Saint-Upéry","proprietaire":"9502 - ATHLETIC CLUB DE BEAUCHAMP","niveau":"Départemental","specialite":"CO à pied","latitude":"49.0066428895","longitude":"2.21555171187","date_saisie":"14/06/2016","valide":"Non","ppo":"Non","type_carte":"Reprise","base":"1989-D95-20 Bois de Boissy 2","fond":"IGN","obsolete":true}},{"type":"Feature","geometry":{"type":"Polygon","coordinates":[[[2.2171,49.1025],[2.2171,49.1053],[2.2186,49.1054],[2.2208,49.1078],[2.2332,49.1088],[2.2647,49.0994],[2.2708,49.0994],[2.2741,49.0986],[2.2771,49.0964],[2.2753,49.0916],[2.2746,49.0898],[2.2781,49.0901],[2.2806,49.0901],[2.2852,49.0901],[2.288,49.0842],[2.2952,49.0827],[2.299,49.08],[2.2943,49.0707],[2.2815,49.0711],[2.28,49.0738],[2.2738,49.0763],[2.2716,49.0674],[2.2629,49.0687],[2.2561,49.0752],[2.2535,49.0786],[2.2467,49.0837],[2.2369,49.0847],[2.2343,49.089],[2.2289,49.087],[2.2203,49.088],[2.2121,49.0894],[2.215,49.0947],[2.2175,49.0964],[2.2173,49.0985],[2.2171,49.1025]]]},"properties":{"id_ffco":"2953","nom":"L'ISLE ADAM","_dept":"95","numero":"1997-D95-30","commune":"L'ISLE ADAM","echelle":"1/15000","surface":"14.2 km²","format":"A3","annee":"1997","cartographes":"Patrick Saint-Upéry","proprietaire":"9502 - ATHLETIC CLUB DE BEAUCHAMP","niveau":"National, International","specialite":"CO à pied","latitude":"49.0891599463","longitude":"2.25521139478","valide":"Non","ppo":"Non","type_carte":"Reprise","base":"1993-D95-26 La Porte Baillet","obsolete":true}},{"type":"Feature","geometry":{"type":"Polygon","coordinates":[[[2.4906,49.1095],[2.4948,49.1088],[2.5132,49.1095],[2.5146,49.1107],[2.5156,49.1156],[2.5196,49.1178],[2.5058,49.127],[2.5083,49.1355],[2.5051,49.1375],[2.5016,49.1386],[2.4934,49.1391],[2.4905,49.1399],[2.4872,49.1392],[2.4906,49.1095]]]},"properties":{"id_ffco":"5391","nom":"La Borne Blanche 2","_dept":"95","numero":"1995-D95-29","commune":"Orry-la-Ville","echelle":"1/10000","surface":"5.37 km²","format":"+","annee":"1995","cartographes":"Patrick St-Upéry","proprietaire":"IF - Île de France","niveau":"Régional","specialite":"CO à pied","latitude":"49.1229683087","longitude":"2.5003716669","date_saisie":"01/05/2012","valide":"Non","ppo":"Non","type_carte":"Reprise","base":"1981-D95-09 La Borne Blanche","fond":"IGN","obsolete":true}},{"type":"Feature","geometry":{"type":"Polygon","coordinates":[[[2.2661,49.0998],[2.2643,49.0999],[2.2316,49.1087],[2.2221,49.1083],[2.2192,49.1053],[2.2177,49.1053],[2.2155,49.0997],[2.2174,49.0995],[2.2165,49.0978],[2.2174,49.0967],[2.2157,49.0944],[2.214,49.0943],[2.211,49.0912],[2.2126,49.0904],[2.2129,49.0899],[2.2183,49.0883],[2.2222,49.0873],[2.2262,49.0864],[2.2282,49.0868],[2.2307,49.0877],[2.2335,49.0882],[2.235,49.0885],[2.2358,49.0876],[2.2372,49.0833],[2.2549,49.0811],[2.2737,49.0826],[2.2729,49.0991],[2.2684,49.0995],[2.2661,49.0998]]]},"properties":{"id_ffco":"741","nom":"LA PORTE NOIRE","_dept":"95","numero":"1994-D95-27","commune":"ISLE ADAM","echelle":"1/15000","surface":"9.59 km²","format":"A4","annee":"1994","cartographes":"Patrick St-Upéry","proprietaire":"9502 - ATHLETIC CLUB DE BEAUCHAMP","niveau":"Interrégional","specialite":"CO à pied","latitude":"49.0942342828","longitude":"2.24384383912","valide":"Non","ppo":"Non","type_carte":"Nouvelle carte","fond":"IGN","obsolete":true}},{"type":"Feature","geometry":{"type":"Polygon","coordinates":[[[2.2352,49.1013],[2.2639,49.0999],[2.2739,49.099],[2.2761,49.0949],[2.2737,49.0901],[2.2842,49.0901],[2.2874,49.0837],[2.296,49.0818],[2.297,49.0792],[2.2982,49.0772],[2.2943,49.0755],[2.2934,49.0727],[2.2811,49.0726],[2.274,49.0764],[2.2703,49.0725],[2.2634,49.0721],[2.2576,49.0738],[2.2553,49.079],[2.2502,49.0807],[2.2457,49.0812],[2.2407,49.0809],[2.2342,49.0821],[2.2332,49.087],[2.2352,49.1013]]]},"properties":{"id_ffco":"740","nom":"La Porte Baillet","_dept":"95","numero":"1993-D95-26","commune":"L'Isle-Adam","echelle":"1/15000","surface":"9.91 km²","format":"A4","annee":"1993","cartographes":"Patrick St-Upéry","proprietaire":"9502 - ATHLETIC CLUB DE BEAUCHAMP","niveau":"Régional","specialite":"CO à pied","latitude":"49.0865860955","longitude":"2.26250587664","valide":"Non","ppo":"Non","type_carte":"Nouvelle carte","fond":"IGN","obsolete":true}},{"type":"Feature","geometry":{"type":"Polygon","coordinates":[[[2.2059,48.9973],[2.2059,48.9964],[2.207,48.9961],[2.2065,48.9948],[2.2085,48.9942],[2.2076,48.9941],[2.207,48.9932],[2.2075,48.9931],[2.2071,48.9919],[2.2064,48.9914],[2.2124,48.989],[2.2131,48.9894],[2.2141,48.9894],[2.2151,48.99],[2.2157,48.9909],[2.2161,48.9907],[2.2164,48.9912],[2.2164,48.9919],[2.2163,48.9922],[2.2172,48.9936],[2.2186,48.9931],[2.2187,48.9937],[2.2198,48.9939],[2.2201,48.9983],[2.2197,48.9998],[2.2076,49.0025],[2.2055,49.0001],[2.2059,48.9973]]]},"properties":{"id_ffco":"2308","nom":"Le Bois des Eboulures","_dept":"95","numero":"1981-D95-24","commune":"FRANCONVILLE","echelle":"1/5000","surface":"1.12 km²","format":"A4","annee":"1981","cartographes":"Patrick St-Upéry","proprietaire":"9502 - ATHLETIC CLUB DE BEAUCHAMP","niveau":"Départemental","specialite":"CO à pied","latitude":"48.9960685861","longitude":"2.21250169972","valide":"Non","ppo":"Non","type_carte":"Nouvelle carte","fond":"IGN","obsolete":true}},{"type":"Feature","geometry":null,"properties":{"id_ffco":"739","nom":"SAPINS BRULES","_dept":"95","numero":"1993-D95-23","commune":"ST LEU LA FORET","echelle":"1/15000","surface":"8.0 km²","annee":"1993","proprietaire":"9502 - ATHLETIC CLUB DE BEAUCHAMP","specialite":"CO à pied","latitude":"49.0129745","longitude":"2.2521031","valide":"Non","ppo":"Non","type_carte":"Reprise","base":"1990-D95-21 Le Camp César","obsolete":true}},{"type":"Feature","geometry":{"type":"Polygon","coordinates":[[[2.2467,49.0233],[2.2516,49.0233],[2.251,49.0255],[2.2539,49.0257],[2.26,49.0231],[2.2624,49.0237],[2.262,49.0262],[2.2608,49.0279],[2.2607,49.0287],[2.261,49.0307],[2.263,49.0321],[2.2627,49.0311],[2.2672,49.0305],[2.268,49.0319],[2.2682,49.0328],[2.2684,49.0383],[2.2663,49.0385],[2.2631,49.0386],[2.2526,49.0414],[2.2478,49.0398],[2.2403,49.0417],[2.2301,49.0411],[2.2287,49.0389],[2.228,49.0371],[2.2329,49.035],[2.233,49.034],[2.2321,49.0336],[2.2313,49.0338],[2.2309,49.0333],[2.229,49.0327],[2.2279,49.0306],[2.2325,49.0283],[2.2371,49.0265],[2.2407,49.0253],[2.2431,49.025],[2.244,49.0245],[2.2467,49.0233]]]},"properties":{"id_ffco":"13819","nom":"Le Camp César","_dept":"95","numero":"1990-D95-21","commune":"TAVERNY","echelle":"1/10000","surface":"4.42 km²","format":"A4","annee":"1990","cartographes":"Patrick Saint-Upéry","proprietaire":"9502 - ATHLETIC CLUB DE BEAUCHAMP","niveau":"Régional","specialite":"CO à pied","latitude":"49.0331321038","longitude":"2.2478748287","date_saisie":"01/02/2023","valide":"Non","ppo":"Non","type_carte":"Reprise","base":"1990-D95-11 LE CAMP CESAR","obsolete":true}},{"type":"Feature","geometry":null,"properties":{"id_ffco":"2307","nom":"Bois de Boissy 2","_dept":"95","numero":"1989-D95-20","commune":"TAVERNY","echelle":"1/4000","surface":"0.4 km²","format":"A4","annee":"1989","cartographes":"Patrick St-Upéry","proprietaire":"IF - Île de France","specialite":"CO à pied","latitude":"49.0075591601","longitude":"2.21548896348","valide":"Non","ppo":"Non","obsolete":true}},{"type":"Feature","geometry":null,"properties":{"id_ffco":"2306","nom":"Le Bois des Champeaux 2","_dept":"95","numero":"1990-D95-19","commune":"MONTMORENCY","echelle":"1/10000","surface":"3.4 km²","format":"A4","annee":"1990","proprietaire":"IF - Île de France","niveau":"Régional","specialite":"CO à pied","latitude":"48.9887649","longitude":"2.3187058","valide":"Non","ppo":"Non","type_carte":"Reprise","base":"1979-D95-06 Champeaux","fond":"IGN","obsolete":true}},{"type":"Feature","geometry":null,"properties":{"id_ffco":"738","nom":"PIERRE TURQUAISE","_dept":"95","numero":"1977-D95-18","commune":"COURCELLES","echelle":"1/15000","surface":"5.4 km²","annee":"1977","proprietaire":"IF - Île de France","specialite":"CO à pied","latitude":"49.0775617","longitude":"2.0036015","valide":"Non","ppo":"Non","obsolete":true}},{"type":"Feature","geometry":{"type":"Polygon","coordinates":[[[2.4764,49.141],[2.4694,49.139],[2.4613,49.1404],[2.4613,49.1407],[2.4603,49.1408],[2.4527,49.1434],[2.4506,49.1434],[2.4432,49.145],[2.4406,49.145],[2.4358,49.1346],[2.4371,49.1276],[2.4379,49.1224],[2.4394,49.1226],[2.44,49.1232],[2.4423,49.1246],[2.4443,49.1239],[2.4446,49.122],[2.4467,49.1183],[2.4517,49.1178],[2.4557,49.1204],[2.4579,49.1223],[2.4627,49.1221],[2.4628,49.1232],[2.4648,49.1225],[2.464,49.1211],[2.4652,49.12],[2.4658,49.1189],[2.4671,49.1182],[2.4696,49.118],[2.4712,49.1176],[2.4851,49.1188],[2.4935,49.1185],[2.4993,49.1224],[2.4984,49.1231],[2.4998,49.1238],[2.4995,49.1314],[2.4936,49.1355],[2.4913,49.1379],[2.4913,49.1387],[2.4896,49.1399],[2.488,49.1392],[2.4846,49.1389],[2.4837,49.1387],[2.4816,49.1389],[2.4802,49.1395],[2.4764,49.141]]]},"properties":{"id_ffco":"5390","nom":"Le Pain de Sucre","_dept":"95","numero":"1990-D95-16","commune":"Coye-la-Forêt","echelle":"1/15000","surface":"10.38 km²","format":"A4","annee":"1990","cartographes":"Patrick St-Upéry","proprietaire":"95 - Val-d'Oise","niveau":"Régional","specialite":"CO à pied","latitude":"49.130166824","longitude":"2.46670181255","date_saisie":"01/05/2012","valide":"Non","ppo":"Non","type_carte":"Nouvelle carte","fond":"IGN","ref_ign":"404","obsolete":true}},{"type":"Feature","geometry":{"type":"Polygon","coordinates":[[[2.2909,49.0132],[2.29,49.011],[2.2901,49.01],[2.2896,49.0062],[2.2954,49.0057],[2.2964,49.0064],[2.297,49.0065],[2.2984,49.0069],[2.3005,49.0146],[2.2971,49.0152],[2.294,49.0149],[2.2932,49.0139],[2.2925,49.0136],[2.2909,49.0132]]]},"properties":{"id_ffco":"2305","nom":"Le Fort de Montlignon","_dept":"95","numero":"1990-D95-14","commune":"Montlignon","echelle":"1/5000","surface":"0.63 km²","format":"A5","annee":"1990","cartographes":"Patrick St-Upéry","proprietaire":"IF - Île de France","niveau":"Initiation, Scolaire","specialite":"CO à pied","latitude":"49.0104166587","longitude":"2.29488508404","valide":"Non","ppo":"Non","type_carte":"Nouvelle carte","fond":"IGN","obsolete":true}},{"type":"Feature","geometry":null,"properties":{"id_ffco":"2304","nom":"CHATEAU CHASSE","_dept":"95","numero":"1990-D95-13","commune":"MONTLIGNON","echelle":"1/7500","surface":"2.5 km²","annee":"1990","proprietaire":"IF - Île de France","specialite":"CO à pied","latitude":"49.0063189","longitude":"2.2832211","valide":"Non","ppo":"Non","obsolete":true}},{"type":"Feature","geometry":null,"properties":{"id_ffco":"736","nom":"NID D'AIGLE","_dept":"95","numero":"1977-D95-12","commune":"MONTLIGNON","echelle":"1/15000","surface":"12.0 km²","annee":"1977","proprietaire":"IF - Île de France","specialite":"CO à pied","latitude":"49.0063189","longitude":"2.2832211","valide":"Non","ppo":"Non","obsolete":true}},{"type":"Feature","geometry":{"type":"Polygon","coordinates":[[[2.2597,49.023],[2.2626,49.0231],[2.2625,49.0261],[2.2615,49.027],[2.2607,49.0286],[2.261,49.0305],[2.2631,49.0322],[2.2646,49.0325],[2.2665,49.0326],[2.2679,49.0318],[2.2683,49.0326],[2.2694,49.0334],[2.2682,49.0384],[2.2635,49.0386],[2.253,49.0414],[2.2476,49.0397],[2.2401,49.0416],[2.2297,49.0412],[2.228,49.0372],[2.2326,49.0352],[2.2336,49.0342],[2.2321,49.0337],[2.2312,49.0339],[2.2305,49.0333],[2.2289,49.0329],[2.2285,49.0317],[2.2279,49.0311],[2.2284,49.0302],[2.2302,49.0292],[2.2322,49.0282],[2.234,49.0289],[2.2365,49.0278],[2.239,49.0257],[2.2407,49.0253],[2.2424,49.0254],[2.2443,49.0244],[2.247,49.0239],[2.2496,49.0244],[2.2498,49.0239],[2.2507,49.0243],[2.2508,49.0256],[2.2537,49.0259],[2.2597,49.023]]]},"properties":{"id_ffco":"2303","nom":"LE CAMP CESAR","_dept":"95","numero":"1990-D95-11","commune":"TAVERNY","echelle":"1/10000","surface":"4.31 km²","format":"A4","annee":"1990","proprietaire":"IF - Île de France","niveau":"Régional","specialite":"CO à pied","latitude":"49.0332647909","longitude":"2.24786737591","valide":"Non","ppo":"Non","type_carte":"Nouvelle carte","fond":"IGN","obsolete":true}},{"type":"Feature","geometry":null,"properties":{"id_ffco":"2302","nom":"Le Bois de Boissy 1","_dept":"95","numero":"1982-D95-10","commune":"TAVERNY","echelle":"1/4000","surface":"0.6 km²","format":"A4","annee":"1982","cartographes":"Patrick St-Upéry","proprietaire":"IF - Île de France","specialite":"CO à pied","latitude":"49.0078969676","longitude":"2.21600394761","valide":"Non","ppo":"Non","obsolete":true}},{"type":"Feature","geometry":{"type":"Polygon","coordinates":[[[2.3058,49.1003],[2.3038,49.102],[2.302,49.105],[2.3005,49.1075],[2.307,49.11],[2.3106,49.1126],[2.3105,49.1138],[2.3188,49.1176],[2.3243,49.112],[2.3117,49.1053],[2.3107,49.1048],[2.3098,49.1039],[2.3092,49.1028],[2.3058,49.1003]]]},"properties":{"id_ffco":"14919","nom":"Carnelle","_dept":"95","numero":"1975-D95-1","commune":"Presles","echelle":"1/10000","surface":"1.34 km²","format":"A4","annee":"1975","cartographes":"Richard Piloudault","proprietaire":"95 - Val-d'Oise","niveau":"Régional","specialite":"CO à pied","contacts":"CDCO 95, https://cdco95.wordpress.com/","latitude":"49.1093574891","longitude":"2.31207102339","date_saisie":"01/03/2025","valide":"Non","ppo":"Non","fond":"IGN","obsolete":true}},{"type":"Feature","geometry":{"type":"Polygon","coordinates":[[[2.519,49.1185],[2.5143,49.1149],[2.5141,49.1136],[2.5133,49.1123],[2.5133,49.1101],[2.5128,49.1096],[2.5117,49.1095],[2.5069,49.1103],[2.502,49.1103],[2.4987,49.1099],[2.497,49.1101],[2.4958,49.1106],[2.495,49.109],[2.4911,49.1096],[2.4914,49.1113],[2.4915,49.1118],[2.4925,49.1131],[2.4907,49.1133],[2.4906,49.1136],[2.4911,49.1136],[2.4906,49.1168],[2.4897,49.1171],[2.4921,49.1179],[2.4866,49.1202],[2.4864,49.1207],[2.4796,49.121],[2.4827,49.1266],[2.4955,49.1233],[2.4984,49.1235],[2.5033,49.1257],[2.5056,49.1277],[2.5064,49.1267],[2.519,49.1185]]]},"properties":{"id_ffco":"2301","nom":"La Borne Blanche","_dept":"95","numero":"1981-D95-09","commune":"Orry-la-Ville","echelle":"1/10000","surface":"3.29 km²","format":"A4","annee":"1981","cartographes":"Michel Bousquet,J. Castaing,G. Prive","proprietaire":"95 - Val-d'Oise","niveau":"Régional","specialite":"CO à pied","latitude":"49.1181324447","longitude":"2.50081135674","valide":"Non","ppo":"Non","type_carte":"Nouvelle carte","fond":"IGN","obsolete":true}},{"type":"Feature","geometry":{"type":"Polygon","coordinates":[[[2.2446,49.0243],[2.2455,49.0242],[2.2458,49.0245],[2.2476,49.0246],[2.2475,49.0248],[2.2467,49.0258],[2.2476,49.0262],[2.2488,49.0279],[2.2569,49.0359],[2.2617,49.0375],[2.2636,49.0387],[2.2634,49.0393],[2.2624,49.0406],[2.2626,49.042],[2.2626,49.0434],[2.2595,49.0436],[2.2564,49.0435],[2.2558,49.0427],[2.2564,49.0424],[2.2476,49.0397],[2.2365,49.0427],[2.2333,49.0431],[2.2307,49.0428],[2.2299,49.0427],[2.2291,49.042],[2.2281,49.0401],[2.2276,49.0393],[2.2264,49.0383],[2.2262,49.0372],[2.2262,49.0364],[2.2261,49.0359],[2.2276,49.0362],[2.2306,49.036],[2.2328,49.0348],[2.2321,49.0343],[2.2314,49.0338],[2.2311,49.0338],[2.231,49.0334],[2.2288,49.033],[2.2285,49.0328],[2.2267,49.0326],[2.2246,49.0319],[2.2257,49.0311],[2.227,49.0306],[2.2282,49.0303],[2.2292,49.0298],[2.2299,49.0293],[2.231,49.0288],[2.2321,49.0283],[2.2332,49.0288],[2.2344,49.0287],[2.2365,49.028],[2.2383,49.0267],[2.2395,49.0258],[2.241,49.0253],[2.242,49.0257],[2.2439,49.0251],[2.2446,49.0243]]]},"properties":{"id_ffco":"9602","nom":"Montmorency","_dept":"95","numero":"1979-D95-08","commune":"Taverny","echelle":"1/10000","surface":"3.42 km²","format":"A4","annee":"1979","cartographes":"G. Prive,Michel Bousquet,J.M. Nevoux","proprietaire":"95 - Val-d'Oise","niveau":"Régional","specialite":"CO à pied","latitude":"49.0352321779","longitude":"2.24311174853","date_saisie":"14/06/2016","valide":"Non","ppo":"Non","type_carte":"Reprise","base":"1979-D95-07 MONTMORENCY","fond":"IGN","obsolete":true}},{"type":"Feature","geometry":{"type":"Polygon","coordinates":[[[2.264,49.0554],[2.2664,49.0542],[2.2658,49.05],[2.2639,49.0482],[2.2625,49.0427],[2.2623,49.0406],[2.2637,49.0389],[2.2618,49.0374],[2.2575,49.0362],[2.2567,49.0355],[2.2481,49.0271],[2.247,49.0259],[2.247,49.0246],[2.246,49.0246],[2.2438,49.025],[2.2421,49.0257],[2.2388,49.0265],[2.2369,49.0273],[2.2338,49.0277],[2.233,49.028],[2.2302,49.0289],[2.2278,49.0304],[2.2264,49.031],[2.2252,49.0317],[2.2273,49.0326],[2.2299,49.0327],[2.2333,49.034],[2.2333,49.0352],[2.2283,49.0373],[2.2259,49.0372],[2.2273,49.0388],[2.2287,49.0414],[2.2297,49.0427],[2.2333,49.0432],[2.239,49.0461],[2.2404,49.0468],[2.2426,49.0489],[2.245,49.0501],[2.2486,49.0511],[2.2505,49.0513],[2.2517,49.0538],[2.2558,49.0551],[2.2573,49.0561],[2.261,49.0562],[2.264,49.0554]]]},"properties":{"id_ffco":"735","nom":"MONTMORENCY","_dept":"95","numero":"1979-D95-07","commune":"TAVERNY","echelle":"1/15000","surface":"5.72 km²","format":"A4","annee":"1979","cartographes":"G. Prive,Michel Bousquet","proprietaire":"95 - Val-d'Oise","specialite":"CO à pied","latitude":"49.0403098488","longitude":"2.24718212376","valide":"Non","ppo":"Non","type_carte":"Nouvelle carte","fond":"IGN","ref_ign":"L'Isle-Adam 5.6","obsolete":true}},{"type":"Feature","geometry":{"type":"Polygon","coordinates":[[[2.3191,49.0176],[2.3247,49.0185],[2.3243,49.0201],[2.324,49.0211],[2.3258,49.022],[2.3268,49.0222],[2.3287,49.022],[2.3315,49.0223],[2.334,49.023],[2.3344,49.0221],[2.3349,49.0202],[2.334,49.0193],[2.3354,49.019],[2.3346,49.0178],[2.3398,49.0155],[2.3397,49.0145],[2.3399,49.0137],[2.3386,49.0116],[2.3376,49.0105],[2.3378,49.0103],[2.3373,49.0095],[2.3374,49.0083],[2.3362,49.0077],[2.3382,49.0069],[2.3379,49.0065],[2.3383,49.0063],[2.338,49.0043],[2.3371,49.0019],[2.335,49.002],[2.3321,49.0017],[2.3302,49.0018],[2.3262,49.0034],[2.3219,49.0051],[2.3224,49.0037],[2.321,49.0037],[2.3209,49.0048],[2.3205,49.0054],[2.3206,49.0065],[2.3211,49.0082],[2.3202,49.0101],[2.3183,49.0122],[2.3194,49.0136],[2.3191,49.0142],[2.3207,49.0153],[2.3199,49.0168],[2.3191,49.0176]]]},"properties":{"id_ffco":"2300","nom":"Champeaux","_dept":"95","numero":"1979-D95-06","commune":"MONTMORENCY","echelle":"1/10000","surface":"2.58 km²","format":"A4","annee":"1979","cartographes":"J.M. Nevoux,Michel Bousquet,G. Prive","specialite":"CO à pied","latitude":"49.0118139051","longitude":"2.32940059716","valide":"Non","ppo":"Non","type_carte":"Nouvelle carte","obsolete":true}},{"type":"Feature","geometry":{"type":"Polygon","coordinates":[[[2.0467,49.032],[2.0443,49.0294],[2.0504,49.0268],[2.0532,49.0294],[2.0467,49.032]]]},"properties":{"id_ffco":"2299","nom":"Centre Balnéaire","_dept":"95","numero":"1979-D95-05","commune":"CERGY PONTOISE","echelle":"1/4000","surface":"0.18 km²","annee":"1979","proprietaire":"IF - Île de France","specialite":"CO à pied","latitude":"49.0294112768","longitude":"2.04866189785","valide":"Non","ppo":"Non","type_carte":"Nouvelle carte","obsolete":true}},{"type":"Feature","geometry":null,"properties":{"id_ffco":"501","nom":"Cergy-Neuville Base de Loisirs","_dept":"95","numero":"1979-D95-04","commune":"Cergy cedex","echelle":"1/5000","surface":"None km²","annee":"1979","contacts":"base de plein air et de loisirs, 01 30 30 21 55","latitude":"49.0525005","longitude":"2.0388296","valide":"Non","ppo":"Oui","obsolete":true}},{"type":"Feature","geometry":{"type":"Polygon","coordinates":[[[2.2875,49.0836],[2.2805,49.0737],[2.2587,49.0833],[2.2585,49.0908],[2.2658,49.0916],[2.2694,49.0914],[2.2706,49.0906],[2.2732,49.0901],[2.2745,49.0896],[2.2793,49.0888],[2.2828,49.0877],[2.2864,49.0863],[2.2875,49.0836]]]},"properties":{"id_ffco":"9600","nom":"Forêt domaniale de L'Ile-Adam","_dept":"95","numero":"1978-D95-03","commune":"Nerville-la-Forêt","echelle":"1/10000","surface":"2.6 km²","format":"A4","annee":"1978","cartographes":"R. Pilourdault","proprietaire":"95 - Val-d'Oise","niveau":"Régional","specialite":"CO à pied","latitude":"49.0838810735","longitude":"2.27286561052","date_saisie":"14/06/2016","valide":"Non","ppo":"Non","type_carte":"Nouvelle carte","fond":"IGN","ref_ign":"L'Isle-Adam 1.2","obsolete":true}},{"type":"Feature","geometry":null,"properties":{"id_ffco":"734","nom":"CARNELLE","_dept":"95","numero":"1977-D95-02","commune":"BEAUMONT/OISE","echelle":"1/15000","surface":"6.0 km²","annee":"1977","proprietaire":"IF - Île de France","specialite":"CO à pied","latitude":"49.1202853226","longitude":"2.32402085742","valide":"Non","ppo":"Non","obsolete":true}}]}