{"type":"FeatureCollection","features":[{"type":"Feature","geometry":null,"properties":{"id_ffco":"2023-D96-15","nom":"Stade de Dzoumogné","_dept":"96","numero":"2023-D96-15","echelle":"1/1500","surface":"None km²","annee":"2023","cartographes":"Géodézic (Pierre Martinez)","date_saisie":"08/10/2025","valide":"Non","ppo":"Non","obsolete":false}},{"type":"Feature","geometry":null,"properties":{"id_ffco":"2023-D96-14","nom":"Poroani (Malavoune)","_dept":"96","numero":"2023-D96-14","echelle":"1/4000","surface":"None km²","annee":"2023","cartographes":"Géodézic (Pierre Martinez)","date_saisie":"08/10/2025","valide":"Non","ppo":"Non","obsolete":false}},{"type":"Feature","geometry":null,"properties":{"id_ffco":"2023-D96-13","nom":"Musicale Plage","_dept":"96","numero":"2023-D96-13","echelle":"1/3000","surface":"None km²","annee":"2023","cartographes":"Géodézic (Pierre Martinez)","date_saisie":"08/10/2025","valide":"Non","ppo":"Non","obsolete":false}},{"type":"Feature","geometry":null,"properties":{"id_ffco":"2023-D96-12","nom":"M'TsangaBeach","_dept":"96","numero":"2023-D96-12","echelle":"1/2000","surface":"None km²","annee":"2023","cartographes":"Géodézic (Pierre Martinez)","date_saisie":"08/10/2025","valide":"Non","ppo":"Non","obsolete":false}},{"type":"Feature","geometry":null,"properties":{"id_ffco":"2023-D96-11","nom":"Pointe de Bandrélé","_dept":"96","numero":"2023-D96-11","echelle":"1/3000","surface":"None km²","annee":"2023","cartographes":"Géodézic (Pierre Martinez)","date_saisie":"08/10/2025","valide":"Non","ppo":"Non","obsolete":false}},{"type":"Feature","geometry":null,"properties":{"id_ffco":"2023-D96-10","nom":"Collège de Passamainty","_dept":"96","numero":"2023-D96-10","echelle":"1/1000","surface":"None km²","annee":"2023","cartographes":"Géodézic (Pierre Martinez)","date_saisie":"08/10/2025","valide":"Non","ppo":"Non","obsolete":false}},{"type":"Feature","geometry":null,"properties":{"id_ffco":"2023-D96-09","nom":"Collège de Kwalé","_dept":"96","numero":"2023-D96-09","echelle":"1/1500","surface":"None km²","annee":"2023","cartographes":"Géodézic (Pierre Martinez)","date_saisie":"08/10/2025","valide":"Non","ppo":"Non","obsolete":false}},{"type":"Feature","geometry":null,"properties":{"id_ffco":"2023-D96-08","nom":"Plage Sohoa","_dept":"96","numero":"2023-D96-08","echelle":"1/2500","surface":"None km²","annee":"2023","cartographes":"Géodézic (Pierre Martinez)","date_saisie":"08/10/2025","valide":"Non","ppo":"Non","obsolete":false}},{"type":"Feature","geometry":null,"properties":{"id_ffco":"2023-D96-07","nom":"Stade Trévani - Koungou","_dept":"96","numero":"2023-D96-07","echelle":"1/2000","surface":"None km²","annee":"2023","cartographes":"Géodézic (Pierre Martinez)","date_saisie":"08/10/2025","valide":"Non","ppo":"Non","obsolete":false}},{"type":"Feature","geometry":null,"properties":{"id_ffco":"2023-D96-06","nom":"Collège de Kawéni 1","_dept":"96","numero":"2023-D96-06","echelle":"1/1000","surface":"None km²","annee":"2023","cartographes":"Géodézic (Pierre Martinez)","date_saisie":"08/10/2025","valide":"Non","ppo":"Non","obsolete":false}},{"type":"Feature","geometry":null,"properties":{"id_ffco":"2023-D96-05","nom":"Pointe de Mahabou","_dept":"96","numero":"2023-D96-05","echelle":"1/2500","surface":"None km²","annee":"2023","cartographes":"Géodézic (Pierre Martinez)","date_saisie":"08/10/2025","valide":"Non","ppo":"Non","obsolete":false}},{"type":"Feature","geometry":null,"properties":{"id_ffco":"2023-D96-04","nom":"Retenue collinaire Dzoumogné","_dept":"96","numero":"2023-D96-04","echelle":"1/2000","surface":"None km²","annee":"2023","date_saisie":"08/10/2025","valide":"Non","ppo":"Non","obsolete":false}},{"type":"Feature","geometry":null,"properties":{"id_ffco":"2023-D96-03","nom":"Bambo Ouest - Boueni","_dept":"96","numero":"2023-D96-03","echelle":"1/3000","surface":"None km²","annee":"2023","cartographes":"Géodézic (Pierre Martinez)","date_saisie":"08/10/2025","valide":"Non","ppo":"Non","obsolete":false}},{"type":"Feature","geometry":null,"properties":{"id_ffco":"2023-D96-02","nom":"Collège M'Tsangamouji (Malavoune)","_dept":"96","numero":"2023-D96-02","echelle":"1/4000","surface":"None km²","annee":"2023","cartographes":"Géodézic (Pierre Martinez)","date_saisie":"08/10/2025","valide":"Non","ppo":"Non","obsolete":false}},{"type":"Feature","geometry":null,"properties":{"id_ffco":"2023-D96-01","nom":"Collège Majicavo","_dept":"96","numero":"2023-D96-01","echelle":"1/1000","surface":"None km²","annee":"2023","cartographes":"Géodézic (Pierre Martinez)","date_saisie":"08/10/2025","valide":"Non","ppo":"Non","obsolete":false}}]}