{"type":"FeatureCollection","features":[{"type":"Feature","geometry":{"type":"Polygon","coordinates":[[[55.3397,-21.2644],[55.3426,-21.278],[55.347,-21.2806],[55.3609,-21.2793],[55.3556,-21.2757],[55.3535,-21.2717],[55.3529,-21.2663],[55.3541,-21.2618],[55.3459,-21.2606],[55.3402,-21.2597],[55.3397,-21.2644]]]},"properties":{"id_ffco":"2013-D97-422","nom":"L'étang salé Gros Piton","_dept":"97","numero":"2013-D97-422","commune":"Saint Louis","echelle":"1/10000","surface":"2.99 km²","format":"A4","annee":"2013","niveau":"Initiation, Scolaire","specialite":"CO à pied","contacts":"Conseil Général de la Réunion, http://www.cg974.fr/ // Office du tourisme du Sud, http://www.sud.reunion.fr/ // Office National des Forêts, http://www.onf.fr/ // Ville Etang Salé, http://www.letangsale.fr/","latitude":"-21.2705355117","longitude":"55.3479368852","date_saisie":"13/07/2017","valide":"Non","ppo":"Oui (27 postes)","type_carte":"Nouvelle carte","obsolete":false}},{"type":"Feature","geometry":{"type":"Polygon","coordinates":[[[55.3393,-21.2639],[55.3416,-21.2766],[55.3458,-21.2803],[55.3514,-21.2811],[55.3569,-21.2801],[55.3611,-21.2792],[55.3537,-21.2721],[55.3523,-21.2706],[55.3536,-21.2685],[55.3532,-21.2656],[55.3541,-21.262],[55.3501,-21.261],[55.3456,-21.2607],[55.3414,-21.2606],[55.3401,-21.2597],[55.339,-21.2623],[55.3393,-21.2639]]]},"properties":{"id_ffco":"2013-D97-421","nom":"L'Etang Salé jardin d'oiseaux","_dept":"97","numero":"2013-D97-421","commune":"Saint Louis","echelle":"1/2000","surface":"3.23 km²","format":"A4","annee":"2013","niveau":"Initiation, Scolaire","specialite":"CO à pied","contacts":"Conseil Général de la Réunion, http://www.cg974.fr/ // Office du tourisme du Sud, http://www.sud.reunion.fr/ // Office National des Forêts, http://www.onf.fr/ // Ville Etang Salé, http://www.letangsale.fr/","latitude":"-21.2709072161","longitude":"55.3480818827","date_saisie":"04/05/2017","valide":"Non","ppo":"Oui (8 postes)","type_carte":"Nouvelle carte","obsolete":false}},{"type":"Feature","geometry":null,"properties":{"id_ffco":"1993-D97-414","nom":"TROUBLANTS","_dept":"97","numero":"1993-D97-414","commune":"SAINT BENOIT","echelle":"1/15000","surface":"0.0 km²","annee":"1993","proprietaire":"RE","specialite":"CO à pied","valide":"Non","ppo":"Non","obsolete":false}},{"type":"Feature","geometry":null,"properties":{"id_ffco":"1985-D97-413","nom":"BRAS PONTHO","_dept":"97","numero":"1985-D97-413","commune":"PLAINE CAFRES","echelle":"1/15000","surface":"0.0 km²","annee":"1985","proprietaire":"RE","niveau":"Interrégional","specialite":"CO à pied","latitude":"-21.222976","longitude":"55.556346","valide":"Non","ppo":"Non","obsolete":false}},{"type":"Feature","geometry":null,"properties":{"id_ffco":"1993-D97-412","nom":"BRAS SEC","_dept":"97","numero":"1993-D97-412","commune":"SAINT FRANCOIS","echelle":"1/10000","surface":"1.2 km²","annee":"1993","proprietaire":"RE","specialite":"CO à pied","latitude":"14.6817939","longitude":"-61.0005643","valide":"Non","ppo":"Non","obsolete":false}},{"type":"Feature","geometry":null,"properties":{"id_ffco":"1993-D97-411","nom":"CHAPELLE POINTUE","_dept":"97","numero":"1993-D97-411","commune":"SAINT GILLES","echelle":"1/5000","surface":"0.4 km²","annee":"1993","proprietaire":"RE","specialite":"CO à pied","latitude":"50.8301436","longitude":"4.3402184","valide":"Non","ppo":"Non","obsolete":false}},{"type":"Feature","geometry":null,"properties":{"id_ffco":"1993-D97-410","nom":"COLORADO","_dept":"97","numero":"1993-D97-410","commune":"LA MONTAGNE","echelle":"1/5000","surface":"0.7 km²","annee":"1993","proprietaire":"RE","specialite":"CO à pied","latitude":"47.9815432","longitude":"-4.0852244","valide":"Non","ppo":"Non","obsolete":false}},{"type":"Feature","geometry":null,"properties":{"id_ffco":"1985-D97-410","nom":"PITON MAIDO","_dept":"97","numero":"1985-D97-410","commune":"LE PORT","echelle":"1/15000","surface":"4.2 km²","annee":"1985","niveau":"Interrégional","specialite":"CO à pied","latitude":"43.1354523","longitude":"5.9024323","valide":"Non","ppo":"Non","obsolete":false}},{"type":"Feature","geometry":null,"properties":{"id_ffco":"1985-D97-409","nom":"PLAINE DES CAFRES","_dept":"97","numero":"1985-D97-409","commune":"PLAINE CAFRES","echelle":"1/15000","surface":"24.0 km²","annee":"1985","proprietaire":"RE","niveau":"Interrégional","specialite":"CO à pied","latitude":"-21.222976","longitude":"55.556346","valide":"Non","ppo":"Non","obsolete":false}},{"type":"Feature","geometry":null,"properties":{"id_ffco":"1993-D97-408","nom":"BRULE","_dept":"97","numero":"1993-D97-408","commune":"SAINT FRANCOIS","echelle":"1/10000","surface":"1.2 km²","annee":"1993","proprietaire":"RE","specialite":"CO à pied","latitude":"14.6817939","longitude":"-61.0005643","valide":"Non","ppo":"Non","obsolete":false}},{"type":"Feature","geometry":null,"properties":{"id_ffco":"1993-D97-407","nom":"JARDIN DE L'ETAT","_dept":"97","numero":"1993-D97-407","commune":"SAINT DENIS","echelle":"1/1500","surface":"0.4 km²","annee":"1993","proprietaire":"RE","specialite":"CO à pied","latitude":"14.6817939","longitude":"-61.0005643","valide":"Non","ppo":"Non","obsolete":false}},{"type":"Feature","geometry":null,"properties":{"id_ffco":"1993-D97-406","nom":"GROS PITON","_dept":"97","numero":"1993-D97-406","commune":"ETANG SALE","echelle":"1/10000","surface":"2.8 km²","annee":"1993","proprietaire":"RE","specialite":"CO à pied","valide":"Non","ppo":"Non","obsolete":false}},{"type":"Feature","geometry":null,"properties":{"id_ffco":"1993-D97-405","nom":"HAUTS DE SAINT LEU","_dept":"97","numero":"1993-D97-405","commune":"SAINT LEU","echelle":"1/5000","surface":"0.5 km²","annee":"1993","proprietaire":"RE","specialite":"CO à pied","latitude":"49.2542349","longitude":"2.466902","valide":"Non","ppo":"Non","obsolete":false}},{"type":"Feature","geometry":null,"properties":{"id_ffco":"1993-D97-404","nom":"NEZ DE BOEUF","_dept":"97","numero":"1993-D97-404","commune":"SAINT BENOIT","echelle":"1/10000","surface":"0.8 km²","annee":"1993","proprietaire":"RE","specialite":"CO à pied","valide":"Non","ppo":"Non","obsolete":false}},{"type":"Feature","geometry":null,"properties":{"id_ffco":"1993-D97-403","nom":"FORET SOUS LE VENT","_dept":"97","numero":"1993-D97-403","commune":"SAINT PAUL","echelle":"1/10000","surface":"0.8 km²","annee":"1993","proprietaire":"RE","specialite":"CO à pied","latitude":"49.2542349","longitude":"2.466902","valide":"Non","ppo":"Non","obsolete":false}},{"type":"Feature","geometry":null,"properties":{"id_ffco":"1985-D97-402","nom":"FORET DE L'ETANG SALE","_dept":"97","numero":"1985-D97-402","commune":"ETANG SALE","echelle":"1/15000","surface":"6.0 km²","format":"A4","annee":"1985","proprietaire":"RE","niveau":"Interrégional","specialite":"CO à pied","valide":"Non","ppo":"Non","type_carte":"Nouvelle carte","obsolete":false}},{"type":"Feature","geometry":null,"properties":{"id_ffco":"1993-D97-401","nom":"FILAOS","_dept":"97","numero":"1993-D97-401","commune":"SAINT GILLES","echelle":"1/5000","surface":"0.6 km²","annee":"1993","proprietaire":"RE","specialite":"CO à pied","latitude":"50.8301436","longitude":"4.3402184","valide":"Non","ppo":"Non","obsolete":false}},{"type":"Feature","geometry":null,"properties":{"id_ffco":"1995-D97-400","nom":"COLLEGE ST JOSEPH","_dept":"97","numero":"1995-D97-400","echelle":"1/8333","surface":"0.0 km²","annee":"1995","proprietaire":"RE","specialite":"CO à pied","latitude":"44.85441","longitude":"-0.57243","valide":"Non","ppo":"Non","obsolete":false}},{"type":"Feature","geometry":null,"properties":{"id_ffco":"1995-D97-400","nom":"MONTAGNE CHEMIN NEUF","_dept":"97","numero":"1995-D97-400","echelle":"1/10000","surface":"0.0 km²","annee":"1995","proprietaire":"RE","specialite":"CO à pied","latitude":"44.85441","longitude":"-0.57243","valide":"Non","ppo":"Non","obsolete":false}},{"type":"Feature","geometry":null,"properties":{"id_ffco":"1995-D97-400","nom":"PLAINE CAFRES","_dept":"97","numero":"1995-D97-400","echelle":"1/20000","surface":"0.0 km²","annee":"1995","proprietaire":"RE","specialite":"CO à pied","latitude":"44.85441","longitude":"-0.57243","valide":"Non","ppo":"Non","obsolete":false}},{"type":"Feature","geometry":null,"properties":{"id_ffco":"1995-D97-400","nom":"ANSE DES CASCADES","_dept":"97","numero":"1995-D97-400","echelle":"1/5000","surface":"0.0 km²","annee":"1995","proprietaire":"RE","specialite":"CO à pied","latitude":"44.85441","longitude":"-0.57243","valide":"Non","ppo":"Non","obsolete":false}},{"type":"Feature","geometry":null,"properties":{"id_ffco":"1995-D97-400","nom":"ST PAUL BOUT ETANG","_dept":"97","numero":"1995-D97-400","echelle":"1/10000","surface":"0.0 km²","annee":"1995","proprietaire":"RE","specialite":"CO à pied","latitude":"44.85441","longitude":"-0.57243","valide":"Non","ppo":"Non","obsolete":false}},{"type":"Feature","geometry":null,"properties":{"id_ffco":"1995-D97-400","nom":"PETITE PLAINE","_dept":"97","numero":"1995-D97-400","echelle":"1/5000","surface":"0.0 km²","annee":"1995","proprietaire":"RE","specialite":"CO à pied","latitude":"44.85441","longitude":"-0.57243","valide":"Non","ppo":"Non","obsolete":false}},{"type":"Feature","geometry":null,"properties":{"id_ffco":"1983-D97-301","nom":"SAVANE KOUROU","_dept":"97","numero":"1983-D97-301","commune":"KOUROU","echelle":"1/15000","surface":"4.5 km²","annee":"1983","proprietaire":"CS/3ème REI.KOUROU","niveau":"Interrégional","specialite":"CO à pied","valide":"Non","ppo":"Non","obsolete":false}}]}