{"type":"FeatureCollection","features":[{"type":"Feature","geometry":{"type":"Polygon","coordinates":[[[166.3637,-22.1373],[166.3678,-22.1392],[166.3664,-22.1416],[166.3623,-22.1396],[166.3629,-22.138],[166.3637,-22.1373]]]},"properties":{"id_ffco":"2014-D98-97","nom":"STADES PAITA","_dept":"98","numero":"2014-D98-97","commune":"PAITA Nouvelle Calédonie","echelle":"1/2500","surface":"0.15 km²","format":"A4","annee":"2014","cartographes":"Ariel Llambrich","proprietaire":"9802 - ATLAS","niveau":"Initiation, Scolaire","specialite":"CO à pied","latitude":"-22.1394105242","longitude":"166.365000325","date_saisie":"11/11/2018","date_depot":"04/12/2018","valide":"Oui","ppo":"Non","type_carte":"Nouvelle carte","fond":"Ortho","obsolete":false}},{"type":"Feature","geometry":{"type":"Polygon","coordinates":[[[166.4439,-22.2927],[166.4466,-22.2937],[166.4455,-22.2952],[166.4449,-22.2952],[166.4447,-22.2955],[166.4442,-22.2953],[166.4442,-22.2949],[166.4433,-22.2949],[166.4425,-22.295],[166.4423,-22.2944],[166.4439,-22.2927]]]},"properties":{"id_ffco":"2013-D98-96","nom":"PARC BRUNELET NOUMEA","_dept":"98","numero":"2013-D98-96","commune":"NOUMEA Nouvelle Calédonie","echelle":"1/1500","surface":"0.08 km²","format":"A4","annee":"2013","cartographes":"Ariel LLAMBRICH","proprietaire":"9802 - ATLAS","niveau":"Initiation, Scolaire","specialite":"CO à pied","latitude":"-22.2941040865","longitude":"166.444396398","date_saisie":"11/11/2018","date_depot":"04/12/2018","valide":"Oui","ppo":"Non","type_carte":"Nouvelle carte","fond":"Ortho","obsolete":false}},{"type":"Feature","geometry":{"type":"Polygon","coordinates":[[[166.445,-22.2999],[166.4451,-22.3026],[166.4437,-22.3026],[166.4433,-22.301],[166.442,-22.3011],[166.4419,-22.3003],[166.445,-22.2999]]]},"properties":{"id_ffco":"2015-D98-95","nom":"IRD NOUMEA","_dept":"98","numero":"2015-D98-95","commune":"NOUMEA Nouvelle Calédonie","echelle":"1/2000","surface":"0.06 km²","format":"A4","annee":"2015","cartographes":"Ariel Llambrich","proprietaire":"9802 - ATLAS","niveau":"Initiation, Scolaire","specialite":"CO à pied","latitude":"-22.3011092626","longitude":"166.443878164","date_saisie":"11/11/2018","date_depot":"04/12/2018","valide":"Oui","ppo":"Non","type_carte":"Nouvelle carte","fond":"Ortho","obsolete":false}},{"type":"Feature","geometry":{"type":"Polygon","coordinates":[[[166.4722,-22.279],[166.4728,-22.2799],[166.4729,-22.2812],[166.4726,-22.2821],[166.4709,-22.2829],[166.4703,-22.2794],[166.4712,-22.2793],[166.4722,-22.279]]]},"properties":{"id_ffco":"2018-D98-86","nom":"MANGROVE OUEMO","_dept":"98","numero":"2018-D98-86","commune":"NOUMEA Nouvelle Calédonie","echelle":"1/1500","surface":"0.08 km²","format":"A4","annee":"2018","cartographes":"Ariel LLAMBRICH","proprietaire":"9802 - ATLAS","niveau":"Départemental","specialite":"CO à pied","latitude":"-22.2808214557","longitude":"166.471621289","date_saisie":"09/11/2018","date_depot":"04/12/2018","valide":"Oui","ppo":"Non","type_carte":"Nouvelle carte","fond":"Ortho","obsolete":false}},{"type":"Feature","geometry":null,"properties":{"id_ffco":"2008-D98-54","nom":"Ecole Marie EMERANTE - 98831 TOUHO Nouvelle-Calédonie","_dept":"98","numero":"2008-D98-54","commune":"Touho","echelle":"1/1000","surface":"0.12 km²","format":"A5","annee":"2008","cartographes":"Ariel Llambrich","proprietaire":"9899 - INDIVIDUEL","niveau":"Initiation, Scolaire","specialite":"CO à pied","date_saisie":"17/11/2009","date_depot":"24/11/2009","valide":"Non","ppo":"Non","type_carte":"Nouvelle carte","fond":"Ortho","obsolete":false}},{"type":"Feature","geometry":null,"properties":{"id_ffco":"2008-D98-53","nom":"Ecole publique - 98815 HIENGHENE Nouvelle-Calédonie","_dept":"98","numero":"2008-D98-53","commune":"Hienghene","echelle":"1/1000","surface":"0.14 km²","format":"A5","annee":"2008","cartographes":"Ariel Llambrich","proprietaire":"J.S Province nord","niveau":"Initiation, Scolaire","specialite":"CO à pied","date_saisie":"17/11/2009","date_depot":"24/11/2009","valide":"Non","ppo":"Non","type_carte":"Nouvelle carte","fond":"Ortho","obsolete":false}},{"type":"Feature","geometry":null,"properties":{"id_ffco":"2004-D98-28","nom":"KWA WE DARE","_dept":"98","numero":"2004-D98-28","commune":"Nouméa","echelle":"1/7500","surface":"1.4 km²","annee":"2004","cartographes":"A Llambrich","proprietaire":"9801 - CONVERGENCE","niveau":"Départemental","specialite":"CO à pied","latitude":"-22.2758","longitude":"166.458","date_saisie":"14/12/2005","date_depot":"16/01/2006","valide":"Non","ppo":"Non","obsolete":false}},{"type":"Feature","geometry":null,"properties":{"id_ffco":"2004-D98-27","nom":"Quen Toro","_dept":"98","numero":"2004-D98-27","commune":"Nouméa","echelle":"1/5000","surface":"0.84 km²","annee":"2004","cartographes":"A Llambrich","proprietaire":"9801 - CONVERGENCE","niveau":"Départemental","specialite":"CO à pied","latitude":"-22.2758","longitude":"166.458","date_saisie":"14/12/2005","date_depot":"16/01/2006","valide":"Non","ppo":"Non","obsolete":false}},{"type":"Feature","geometry":null,"properties":{"id_ffco":"2004-D98-26","nom":"Plateau de Tango . Ouest","_dept":"98","numero":"2004-D98-26","commune":"Nouméa","echelle":"1/10000","surface":"1.8 km²","annee":"2004","cartographes":"A Llambrich","proprietaire":"9801 - CONVERGENCE","niveau":"Départemental","specialite":"CO à pied","latitude":"-22.2758","longitude":"166.458","date_saisie":"14/12/2005","date_depot":"16/01/2006","valide":"Non","ppo":"Non","obsolete":false}},{"type":"Feature","geometry":null,"properties":{"id_ffco":"2004-D98-25","nom":"YALA RANCH","_dept":"98","numero":"2004-D98-25","commune":"Nouméa","echelle":"1/5000","surface":"0.5 km²","annee":"2004","cartographes":"A LLambrich","proprietaire":"9801 - CONVERGENCE","specialite":"CO à VTT","latitude":"-22.2758","longitude":"166.458","date_saisie":"09/12/2004","date_depot":"10/12/2004","valide":"Non","ppo":"Non","obsolete":false}},{"type":"Feature","geometry":null,"properties":{"id_ffco":"2004-D98-24","nom":"OUENAROU","_dept":"98","numero":"2004-D98-24","commune":"Nouméa","echelle":"1/5000","surface":"1.78 km²","annee":"2004","cartographes":"A LLambrich","proprietaire":"9801 - CONVERGENCE","specialite":"CO à pied","latitude":"-22.2758","longitude":"166.458","date_saisie":"09/12/2004","date_depot":"25/03/2005","valide":"Non","ppo":"Non","obsolete":false}},{"type":"Feature","geometry":null,"properties":{"id_ffco":"2004-D98-23","nom":"Pont Gaüzère","_dept":"98","numero":"2004-D98-23","commune":"Nouméa","echelle":"1/10000","surface":"3.26 km²","format":"A5","annee":"2004","cartographes":"D Plockyn","proprietaire":"9801 - CONVERGENCE","specialite":"CO à pied","latitude":"-22.2758","longitude":"166.458","date_saisie":"09/12/2004","date_depot":"10/12/2004","valide":"Non","ppo":"Non","obsolete":false}},{"type":"Feature","geometry":null,"properties":{"id_ffco":"2003-D98-22","nom":"Boulari","_dept":"98","numero":"2003-D98-22","commune":"Mont Dore","echelle":"1/2000","surface":"0.12 km²","annee":"2003","proprietaire":"9801 - CONVERGENCE","specialite":"CO à pied","date_saisie":"28/08/2003","date_depot":"05/09/2003","valide":"Non","ppo":"Non","obsolete":false}},{"type":"Feature","geometry":null,"properties":{"id_ffco":"2002-D98-21","nom":"Le Champ De Bataille","_dept":"98","numero":"2002-D98-21","commune":"Mont Dore","echelle":"1/10000","surface":"3.0 km²","format":"A4","annee":"2002","proprietaire":"9801 - CONVERGENCE","specialite":"CO à pied","date_saisie":"19/05/2003","date_depot":"20/05/2003","valide":"Non","ppo":"Non","obsolete":false}},{"type":"Feature","geometry":null,"properties":{"id_ffco":"2002-D98-20","nom":"KUTO","_dept":"98","numero":"2002-D98-20","commune":"VAO - Ile des Pins","echelle":"1/7500","surface":"0.62 km²","annee":"2002","proprietaire":"9801 - CONVERGENCE","specialite":"CO à pied","latitude":"-22.6658429","longitude":"167.4960078","date_saisie":"19/05/2003","date_depot":"20/05/2003","valide":"Non","ppo":"Non","obsolete":false}},{"type":"Feature","geometry":null,"properties":{"id_ffco":"2002-D98-19","nom":"QUEN TORO","_dept":"98","numero":"2002-D98-19","commune":"Nouméa","echelle":"1/5000","surface":"0.75 km²","annee":"2002","proprietaire":"9801 - CONVERGENCE","specialite":"CO à pied","latitude":"-22.2758","longitude":"166.458","date_saisie":"19/05/2003","date_depot":"20/05/2003","valide":"Non","ppo":"Non","obsolete":false}},{"type":"Feature","geometry":null,"properties":{"id_ffco":"2002-D98-18","nom":"KUENDU BEACH","_dept":"98","numero":"2002-D98-18","commune":"Nouméa","echelle":"1/7500","surface":"2.4 km²","annee":"2002","proprietaire":"9801 - CONVERGENCE","specialite":"CO à pied","latitude":"-22.2758","longitude":"166.458","date_saisie":"21/05/2002","date_depot":"10/06/2002","valide":"Non","ppo":"Non","obsolete":false}},{"type":"Feature","geometry":{"type":"Polygon","coordinates":[[[166.3734,-22.1888],[166.3748,-22.1839],[166.3747,-22.1832],[166.3654,-22.1835],[166.3577,-22.1853],[166.3577,-22.1942],[166.3638,-22.197],[166.3689,-22.1914],[166.3734,-22.1888]]]},"properties":{"id_ffco":"2025-D98-173","nom":"Toro","_dept":"98","numero":"2025-D98-173","commune":"PAITA Nouvelle-Calédonie","echelle":"1/7500","surface":"1.79 km²","format":"A4","annee":"2025","cartographes":"Silvère Dervillez","proprietaire":"9802 - ATLAS","niveau":"Départemental","specialite":"CO à pied","contacts":"Atlas, 3 rue de l'Orphelinat, 98800, Nouméa, atlasconc@gmail.com","latitude":"-22.1889340692","longitude":"166.365069588","date_saisie":"06/09/2025","date_depot":"22/01/2026","valide":"Oui","ppo":"Non","type_carte":"Nouvelle carte","fond":"IGN","ref_ign":"DITTT","obsolete":false}},{"type":"Feature","geometry":{"type":"Polygon","coordinates":[[[166.435,-22.293],[166.4355,-22.2903],[166.437,-22.2888],[166.4387,-22.2885],[166.4408,-22.2883],[166.4422,-22.2898],[166.4441,-22.2885],[166.4474,-22.2895],[166.4478,-22.2914],[166.447,-22.2927],[166.4488,-22.2931],[166.4472,-22.3043],[166.4439,-22.3028],[166.4391,-22.3028],[166.4361,-22.3035],[166.4347,-22.3037],[166.4343,-22.3025],[166.436,-22.3016],[166.4376,-22.3016],[166.4385,-22.2989],[166.438,-22.2962],[166.436,-22.2947],[166.4352,-22.2947],[166.435,-22.293]]]},"properties":{"id_ffco":"2025-D98-172","nom":"Nouméa Sud","_dept":"98","numero":"2025-D98-172","commune":"NOUMEA Nouvelle Calédonie","echelle":"1/8000","surface":"1.86 km²","format":"A4","annee":"2025","cartographes":"Anne Leroy","proprietaire":"9802 - ATLAS","niveau":"Départemental","specialite":"CO à pied","contacts":"Atlas, 3 rue de l'Orphelinat, 98800, Nouméa, atlasconc@gmail.com","latitude":"-22.2958379924","longitude":"166.44215627","date_saisie":"14/04/2025","date_depot":"17/09/2025","valide":"Oui","ppo":"Non","type_carte":"Nouvelle carte","fond":"IGN","obsolete":false}},{"type":"Feature","geometry":{"type":"Polygon","coordinates":[[[167.4431,-22.6554],[167.4428,-22.647],[167.4406,-22.6432],[167.4364,-22.6443],[167.4347,-22.6406],[167.4248,-22.6444],[167.4193,-22.6426],[167.4201,-22.6447],[167.4211,-22.6451],[167.4214,-22.6489],[167.4206,-22.6504],[167.4195,-22.651],[167.4196,-22.6522],[167.4205,-22.6527],[167.4237,-22.6516],[167.425,-22.6509],[167.4249,-22.6489],[167.4282,-22.6484],[167.4317,-22.6501],[167.4336,-22.652],[167.4343,-22.6538],[167.4359,-22.6548],[167.4383,-22.654],[167.4399,-22.6529],[167.442,-22.6537],[167.4431,-22.6554]]]},"properties":{"id_ffco":"2025-D98-171","nom":"Kuto Kutéma","_dept":"98","numero":"2025-D98-171","commune":"ILE DES PINS Nouvelle-Calédonie","echelle":"1/10000","surface":"2.17 km²","format":"A4","annee":"2025","cartographes":"Silvère Dervillez","niveau":"Départemental","specialite":"CO à pied","contacts":"Atlas, 3 rue de l'Orphelinat, 98800, Nouméa, atlasconc@gmail.com","latitude":"-22.647680764","longitude":"167.432590456","date_saisie":"14/04/2025","date_depot":"17/09/2025","valide":"Oui","ppo":"Non","type_carte":"Nouvelle carte","fond":"IGN","obsolete":false}},{"type":"Feature","geometry":{"type":"Polygon","coordinates":[[[166.4396,-22.2815],[166.4423,-22.2811],[166.4423,-22.2801],[166.4488,-22.2809],[166.4494,-22.2818],[166.4502,-22.2822],[166.4513,-22.283],[166.4513,-22.2835],[166.4515,-22.2843],[166.4515,-22.2854],[166.4493,-22.2856],[166.4493,-22.2871],[166.4481,-22.2881],[166.447,-22.2887],[166.444,-22.2884],[166.4445,-22.2856],[166.4445,-22.2845],[166.4429,-22.2846],[166.4425,-22.2857],[166.4406,-22.2863],[166.4391,-22.2854],[166.4399,-22.2839],[166.4396,-22.2815]]]},"properties":{"id_ffco":"2025-D98-170","nom":"Orphelinat","_dept":"98","numero":"2025-D98-170","commune":"NOUMEA Nouvelle Calédonie","echelle":"1/5000","surface":"0.76 km²","format":"A4","annee":"2025","cartographes":"Silvère Dervillez","proprietaire":"9802 - ATLAS","niveau":"Départemental","specialite":"CO à pied","contacts":"Atlas, 3 rue de l'Orphelinat, 98800, Nouméa, atlasconc@gmail.com","latitude":"-22.2840332627","longitude":"166.445499272","date_saisie":"14/04/2025","date_depot":"17/09/2025","valide":"Oui","ppo":"Non","type_carte":"Reprise","base":"2020-D98-162 TRIANON SAINTE MARIE","fond":"IGN","obsolete":false}},{"type":"Feature","geometry":null,"properties":{"id_ffco":"2002-D98-17","nom":"NOSOE","_dept":"98","numero":"2002-D98-17","commune":"Boulouparis","echelle":"1/10000","surface":"6.6 km²","annee":"2002","proprietaire":"9801 - CONVERGENCE","specialite":"CO à pied","date_saisie":"21/05/2002","date_depot":"10/06/2002","valide":"Non","ppo":"Non","obsolete":false}},{"type":"Feature","geometry":{"type":"Polygon","coordinates":[[[166.3871,-22.2596],[166.3895,-22.2627],[166.3903,-22.2638],[166.3908,-22.2636],[166.3919,-22.2641],[166.3924,-22.2644],[166.3925,-22.2646],[166.3928,-22.2644],[166.3925,-22.2634],[166.3921,-22.2625],[166.3921,-22.2624],[166.3935,-22.2624],[166.395,-22.2616],[166.3954,-22.2607],[166.3949,-22.2591],[166.3948,-22.2587],[166.393,-22.2582],[166.3915,-22.2562],[166.3902,-22.2559],[166.3897,-22.2561],[166.391,-22.2584],[166.3909,-22.2594],[166.3896,-22.2602],[166.3882,-22.2593],[166.3876,-22.2585],[166.3862,-22.259],[166.3871,-22.2596]]]},"properties":{"id_ffco":"2024-D98-169","nom":"Kuendu Beach","_dept":"98","numero":"2024-D98-169","commune":"NOUMEA Nouvelle-Calédonie","echelle":"1/4000","surface":"0.38 km²","format":"A4","annee":"2024","cartographes":"Silvère Dervillez","proprietaire":"9802 - ATLAS","niveau":"Initiation, Scolaire","specialite":"CO à pied","latitude":"-22.2603562177","longitude":"166.391507963","date_saisie":"12/02/2024","date_depot":"09/07/2024","valide":"Oui","ppo":"Non","type_carte":"Nouvelle carte","fond":"IGN","obsolete":false}},{"type":"Feature","geometry":{"type":"Polygon","coordinates":[[[166.453,-22.278],[166.4518,-22.2753],[166.4525,-22.2749],[166.4529,-22.2753],[166.4535,-22.2759],[166.4539,-22.2761],[166.4543,-22.2765],[166.4539,-22.2775],[166.4545,-22.278],[166.4543,-22.2781],[166.453,-22.278]]]},"properties":{"id_ffco":"2023-D98-168","nom":"Météo","_dept":"98","numero":"2023-D98-168","commune":"Nouméa","echelle":"1/1500","surface":"0.05 km²","format":"A4","annee":"2023","cartographes":"Anne Leroy, Alexandre Peltier","proprietaire":"9802 - ATLAS","niveau":"Initiation, Scolaire","specialite":"CO à pied","latitude":"-22.2765748476","longitude":"166.453129117","date_saisie":"14/03/2023","date_depot":"09/07/2024","valide":"Oui","ppo":"Non","type_carte":"Nouvelle carte","fond":"IGN","ref_ign":"www.georep.nc","obsolete":false}},{"type":"Feature","geometry":{"type":"Polygon","coordinates":[[[166.5876,-22.2384],[166.5868,-22.2396],[166.585,-22.2387],[166.583,-22.2422],[166.5838,-22.246],[166.5859,-22.2477],[166.5892,-22.2476],[166.59,-22.2461],[166.5905,-22.2449],[166.5908,-22.2434],[166.5902,-22.2422],[166.5888,-22.2408],[166.5888,-22.2386],[166.5876,-22.2384]]]},"properties":{"id_ffco":"2023-D98-167","nom":"Goumba","_dept":"98","numero":"2023-D98-167","commune":"Mont Dore","echelle":"1/5000","surface":"0.59 km²","format":"A4","annee":"2023","cartographes":"Silvère Dervillez","proprietaire":"9802 - ATLAS","niveau":"Départemental","specialite":"CO à pied","latitude":"-22.2433810542","longitude":"166.586849012","date_saisie":"14/03/2023","date_depot":"09/07/2024","valide":"Oui","ppo":"Non","type_carte":"Nouvelle carte","fond":"IGN","ref_ign":"www.georep.nc","obsolete":false}},{"type":"Feature","geometry":{"type":"Polygon","coordinates":[[[166.4436,-22.2929],[166.4452,-22.2915],[166.4455,-22.292],[166.4465,-22.2924],[166.4456,-22.2934],[166.4446,-22.2931],[166.4436,-22.2929]]]},"properties":{"id_ffco":"2023-D98-166","nom":"Tennis Club Receiving","_dept":"98","numero":"2023-D98-166","commune":"Nouméa","echelle":"1/1000","surface":"0.03 km²","format":"A4","annee":"2023","cartographes":"Silvère Dervillez","proprietaire":"9802 - ATLAS","niveau":"Initiation, Scolaire","specialite":"CO à pied","latitude":"-22.2925495916","longitude":"166.445116661","date_saisie":"13/03/2023","date_depot":"09/07/2024","valide":"Oui","ppo":"Non","type_carte":"Nouvelle carte","fond":"IGN","ref_ign":"https://georep.nc/","obsolete":false}},{"type":"Feature","geometry":{"type":"Polygon","coordinates":[[[166.0636,-21.8768],[166.067,-21.8731],[166.0687,-21.8722],[166.0746,-21.8756],[166.0751,-21.8758],[166.0747,-21.8774],[166.0719,-21.8775],[166.0688,-21.8797],[166.0636,-21.8768]]]},"properties":{"id_ffco":"2022-D98-165","nom":"Hippodrome de Boulouparis","_dept":"98","numero":"2022-D98-165","commune":"Boulouparis","echelle":"1/5000","surface":"0.52 km²","format":"A4","annee":"2022","cartographes":"Silvère Dervillez","niveau":"Départemental","specialite":"CO à pied","latitude":"-21.8759698817","longitude":"166.069228064","date_saisie":"26/11/2022","date_depot":"15/02/2023","valide":"Oui","ppo":"Non","type_carte":"Nouvelle carte","fond":"IGN","ref_ign":"https://georep.nc/","obsolete":false}},{"type":"Feature","geometry":{"type":"Polygon","coordinates":[[[165.9763,-21.9453],[165.9859,-21.9501],[165.9852,-21.9412],[165.99,-21.9387],[165.9931,-21.939],[165.9941,-21.9307],[165.992,-21.9262],[165.9749,-21.9256],[165.9763,-21.9453]]]},"properties":{"id_ffco":"2022-D98-164","nom":"Aigue Marine","_dept":"98","numero":"2022-D98-164","commune":"BOULOUPARIS","echelle":"1/10000","surface":"3.67 km²","format":"A4","annee":"2022","cartographes":"Silvère Dervillez, Sylvie Cristofoli","proprietaire":"9802 - ATLAS","niveau":"Départemental","specialite":"CO à pied","latitude":"-21.9353093241","longitude":"165.983575254","date_saisie":"01/11/2022","date_depot":"15/02/2023","valide":"Oui","ppo":"Non","type_carte":"Nouvelle carte","fond":"IGN","ref_ign":"https://georep.nc/","obsolete":false}},{"type":"Feature","geometry":{"type":"Polygon","coordinates":[[[166.4683,-22.278],[166.4716,-22.2781],[166.4728,-22.2794],[166.4727,-22.2798],[166.4736,-22.2818],[166.4712,-22.2827],[166.4668,-22.2828],[166.4666,-22.2797],[166.4674,-22.2792],[166.4678,-22.2783],[166.4683,-22.278]]]},"properties":{"id_ffco":"2022-D98-163","nom":"Parc Urbain de Sainte Marie","_dept":"98","numero":"2022-D98-163","commune":"NOUMEA","echelle":"1/3000","surface":"0.31 km²","format":"A4","annee":"2022","cartographes":"Ariel Llambrich, Alexandre Peltier","niveau":"Départemental","specialite":"CO à pied","latitude":"-22.2805275276","longitude":"166.469850136","date_saisie":"01/11/2022","date_depot":"15/02/2023","valide":"Oui","ppo":"Non","type_carte":"Reprise","base":"2018-D98-86 MANGROVE OUEMO","fond":"IGN","ref_ign":"https://georep.nc/","obsolete":false}},{"type":"Feature","geometry":{"type":"Polygon","coordinates":[[[166.457,-22.287],[166.4549,-22.2875],[166.4525,-22.2889],[166.4443,-22.2888],[166.4439,-22.2783],[166.4456,-22.2761],[166.4487,-22.2754],[166.4495,-22.2726],[166.4544,-22.2701],[166.4581,-22.2739],[166.4593,-22.2741],[166.4606,-22.2771],[166.4598,-22.2779],[166.4603,-22.2792],[166.4581,-22.2814],[166.4586,-22.2847],[166.457,-22.287]]]},"properties":{"id_ffco":"2020-D98-162","nom":"TRIANON SAINTE MARIE","_dept":"98","numero":"2020-D98-162","commune":"NOUMEA Nouvelle-Calédonie","echelle":"1/9000","surface":"2.55 km²","format":"A3","annee":"2020","cartographes":"Ariel Llambrich","proprietaire":"9802 - ATLAS","niveau":"Départemental","specialite":"CO à pied","latitude":"-22.2804318514","longitude":"166.451846074","date_saisie":"21/07/2020","date_depot":"02/09/2020","valide":"Oui","ppo":"Non","type_carte":"Nouvelle carte","fond":"Ortho","obsolete":false}},{"type":"Feature","geometry":{"type":"Polygon","coordinates":[[[166.4486,-22.276],[166.4499,-22.276],[166.4509,-22.2772],[166.4547,-22.2848],[166.4568,-22.2853],[166.4575,-22.2867],[166.4553,-22.2875],[166.4528,-22.2891],[166.4508,-22.2895],[166.4509,-22.2907],[166.4474,-22.2906],[166.4444,-22.2879],[166.4438,-22.2785],[166.4454,-22.2768],[166.4486,-22.276]]]},"properties":{"id_ffco":"2020-D98-161","nom":"MONTS COFFYN VENUS","_dept":"98","numero":"2020-D98-161","commune":"NOUMEA Nouvelle-Calédonie","echelle":"1/6000","surface":"1.45 km²","format":"A4","annee":"2020","cartographes":"Ariel Llambrich","proprietaire":"9802 - ATLAS","niveau":"Départemental","specialite":"CO à pied","latitude":"-22.2836735042","longitude":"166.449134655","date_saisie":"21/07/2020","date_depot":"02/09/2020","valide":"Oui","ppo":"Non","type_carte":"Nouvelle carte","fond":"Ortho","obsolete":false}},{"type":"Feature","geometry":{"type":"Polygon","coordinates":[[[166.4506,-22.2722],[166.4514,-22.2722],[166.4531,-22.2714],[166.4555,-22.2716],[166.4578,-22.274],[166.4588,-22.2739],[166.4606,-22.2764],[166.4588,-22.2777],[166.4604,-22.279],[166.4582,-22.2808],[166.4583,-22.2845],[166.457,-22.286],[166.4546,-22.2854],[166.4496,-22.2777],[166.4495,-22.2754],[166.4506,-22.2722]]]},"properties":{"id_ffco":"2020-D98-160","nom":"FAUBOURG BLANCHOT","_dept":"98","numero":"2020-D98-160","commune":"NOUMEA Nouvelle-Calédonie","echelle":"1/6000","surface":"1.18 km²","format":"A4","annee":"2020","cartographes":"Ariel Llambrich","proprietaire":"9802 - ATLAS","niveau":"Départemental","specialite":"CO à pied","latitude":"-22.2780083732","longitude":"166.454869013","date_saisie":"21/07/2020","date_depot":"02/09/2020","valide":"Oui","ppo":"Non","type_carte":"Nouvelle carte","fond":"Ortho","obsolete":false}},{"type":"Feature","geometry":null,"properties":{"id_ffco":"2002-D98-16","nom":"OUAMENIE","_dept":"98","numero":"2002-D98-16","commune":"Boulouparis","echelle":"1/15000","surface":"8.6 km²","annee":"2002","proprietaire":"9801 - CONVERGENCE","specialite":"CO à pied","date_saisie":"21/05/2002","date_depot":"10/06/2002","valide":"Non","ppo":"Non","obsolete":false}},{"type":"Feature","geometry":{"type":"Polygon","coordinates":[[[166.3576,-22.1267],[166.3573,-22.1277],[166.3566,-22.1284],[166.3568,-22.1288],[166.3583,-22.1291],[166.3583,-22.1295],[166.3598,-22.1291],[166.36,-22.1291],[166.3609,-22.1286],[166.3607,-22.1281],[166.3601,-22.1278],[166.3596,-22.1273],[166.3589,-22.1273],[166.358,-22.1268],[166.3576,-22.1267]]]},"properties":{"id_ffco":"2020-D98-159","nom":"COLLEGE Gabriel PAITA","_dept":"98","numero":"2020-D98-159","commune":"PAITA Nouvelle-Calédonie","echelle":"1/2000","surface":"0.08 km²","format":"A4","annee":"2020","proprietaire":"9802 - ATLAS","niveau":"Initiation, Scolaire","specialite":"CO à pied","latitude":"-22.1281945596","longitude":"166.358679106","date_saisie":"25/05/2020","date_depot":"03/06/2020","valide":"Oui","ppo":"Non","type_carte":"Nouvelle carte","fond":"Ortho","obsolete":false}},{"type":"Feature","geometry":{"type":"Polygon","coordinates":[[[166.4653,-22.2109],[166.4667,-22.2113],[166.4674,-22.2134],[166.467,-22.2144],[166.4674,-22.2148],[166.4683,-22.215],[166.4712,-22.2143],[166.4721,-22.2165],[166.4716,-22.2168],[166.4717,-22.2171],[166.4711,-22.2174],[166.4711,-22.2178],[166.4697,-22.2183],[166.4678,-22.2166],[166.464,-22.2131],[166.4653,-22.2109]]]},"properties":{"id_ffco":"2020-D98-158","nom":"PARCOURS AGATHE NERINE","_dept":"98","numero":"2020-D98-158","commune":"DUMBEA Nouvelle-Calédonie","echelle":"1/4000","surface":"0.25 km²","format":"A4","annee":"2020","cartographes":"Ariel Llambrich","proprietaire":"9802 - ATLAS","niveau":"O+","specialite":"CO à pied","latitude":"-22.2148641153","longitude":"166.468091567","date_saisie":"10/03/2020","date_depot":"03/06/2020","valide":"Oui","ppo":"Non","type_carte":"Nouvelle carte","fond":"Ortho","obsolete":false}},{"type":"Feature","geometry":{"type":"Polygon","coordinates":[[[166.4773,-22.2053],[166.4769,-22.2078],[166.4745,-22.208],[166.475,-22.2071],[166.4752,-22.2055],[166.4758,-22.2053],[166.4773,-22.2053]]]},"properties":{"id_ffco":"2019-D98-157","nom":"AUTEUIL","_dept":"98","numero":"2019-D98-157","commune":"DUMBEA Nouvelle-Calédonie","echelle":"1/2000","surface":"0.06 km²","format":"A4","annee":"2019","cartographes":"Ariel Llambrich","proprietaire":"9802 - ATLAS","niveau":"Initiation, Scolaire","specialite":"CO à pied","latitude":"-22.206614823","longitude":"166.476052005","date_saisie":"21/09/2019","date_depot":"25/09/2019","valide":"Oui","ppo":"Non","type_carte":"Nouvelle carte","fond":"Ortho","obsolete":false}},{"type":"Feature","geometry":{"type":"Polygon","coordinates":[[[165.953,-21.8335],[165.9567,-21.8298],[165.9606,-21.8296],[165.9615,-21.8273],[165.9694,-21.829],[165.9694,-21.8336],[165.9706,-21.8358],[165.9698,-21.8372],[165.9699,-21.8387],[165.9694,-21.8398],[165.9691,-21.8413],[165.9655,-21.8431],[165.9612,-21.8442],[165.9572,-21.8411],[165.9584,-21.8347],[165.953,-21.8335]]]},"properties":{"id_ffco":"2019-D98-156","nom":"Ouaménie - Na Couéta","_dept":"98","numero":"2019-D98-156","commune":"Boulouparis","echelle":"1/10000","surface":"2.1 km²","format":"A4","annee":"2019","cartographes":"Marian Cortita","proprietaire":"9803 - OLYMPIQUE DE NOUMEA","niveau":"Régional","specialite":"CO à pied","contacts":"Laurent MAILLOT - CO2, Olympique de Noumea - 57 rue Taragnat - Sainte Marie, BP 12579, 98802, Noumea Cedex, +687 744090, president@co2.nc","latitude":"-21.8355154088","longitude":"165.963139761","date_saisie":"06/09/2019","valide":"Non","ppo":"Non","type_carte":"Nouvelle carte","fond":"Cadastre","obsolete":false}},{"type":"Feature","geometry":{"type":"Polygon","coordinates":[[[166.4505,-22.1997],[166.4543,-22.1976],[166.4669,-22.1993],[166.4756,-22.2082],[166.473,-22.2151],[166.4675,-22.2177],[166.4627,-22.2142],[166.4535,-22.208],[166.4505,-22.1997]]]},"properties":{"id_ffco":"2019-D98-155","nom":"KOUTIO","_dept":"98","numero":"2019-D98-155","commune":"DUMBEA Nouvelle-Calédonie","echelle":"1/7500","surface":"3.46 km²","format":"A3","annee":"2019","cartographes":"Ariel Llambrich","proprietaire":"9802 - ATLAS","niveau":"Départemental","specialite":"CO à pied","latitude":"-22.2067337972","longitude":"166.463439639","date_saisie":"21/09/2019","date_depot":"25/09/2019","valide":"Oui","ppo":"Non","type_carte":"Nouvelle carte","fond":"Ortho","obsolete":false}},{"type":"Feature","geometry":{"type":"Polygon","coordinates":[[[166.3899,-22.1693],[166.3964,-22.1719],[166.3975,-22.1743],[166.3887,-22.1743],[166.387,-22.1729],[166.388,-22.1696],[166.3899,-22.1693]]]},"properties":{"id_ffco":"2019-D98-154","nom":"NOURE","_dept":"98","numero":"2019-D98-154","commune":"DUMBEA Nouvelle-Calédonie","echelle":"1/4000","surface":"0.41 km²","format":"A4","annee":"2019","cartographes":"Ariel Llambrich","proprietaire":"9802 - ATLAS","niveau":"Départemental","specialite":"CO à pied","latitude":"-22.1722788269","longitude":"166.391671652","date_saisie":"21/09/2019","date_depot":"25/09/2019","valide":"Oui","ppo":"Non","type_carte":"Nouvelle carte","fond":"Ortho","obsolete":false}},{"type":"Feature","geometry":{"type":"Polygon","coordinates":[[[165.3163,-21.578],[165.3213,-21.5775],[165.3227,-21.5785],[165.326,-21.5782],[165.3262,-21.5774],[165.331,-21.5773],[165.327,-21.5857],[165.3201,-21.5843],[165.3145,-21.583],[165.3157,-21.5806],[165.3171,-21.5799],[165.3163,-21.578]]]},"properties":{"id_ffco":"2018-D98-153","nom":"MOUEARA","_dept":"98","numero":"2018-D98-153","commune":"BOURAIL Nouvelle-Calédonie","echelle":"1/10000","surface":"1.04 km²","format":"A4","annee":"2018","cartographes":"Marian COTIRTA","proprietaire":"9802 - ATLAS","niveau":"Départemental","specialite":"CO à pied","latitude":"-21.5811119331","longitude":"165.322922739","date_saisie":"20/11/2018","date_depot":"03/12/2018","valide":"Oui","ppo":"Non","type_carte":"Nouvelle carte","fond":"Ortho","obsolete":false}},{"type":"Feature","geometry":{"type":"Polygon","coordinates":[[[166.3691,-22.137],[166.371,-22.1398],[166.3705,-22.1413],[166.3681,-22.1451],[166.3656,-22.143],[166.3663,-22.1414],[166.3627,-22.1396],[166.3628,-22.1389],[166.3637,-22.1376],[166.3676,-22.1392],[166.3691,-22.137]]]},"properties":{"id_ffco":"2018-D98-152","nom":"ARENE DU SUD","_dept":"98","numero":"2018-D98-152","commune":"PAITA Nouvelle Calédonie","echelle":"1/4000","surface":"0.37 km²","format":"A4","annee":"2018","cartographes":"Ariel LLAMBRICH","proprietaire":"9802 - ATLAS","niveau":"Départemental","specialite":"CO à pied","latitude":"-22.1406588931","longitude":"166.367355913","date_saisie":"25/10/2018","date_depot":"03/12/2018","valide":"Oui","ppo":"Non","type_carte":"Nouvelle carte","fond":"Ortho","obsolete":false}},{"type":"Feature","geometry":{"type":"Polygon","coordinates":[[[166.3735,-22.1603],[166.3705,-22.1575],[166.3678,-22.1585],[166.3674,-22.1601],[166.3658,-22.1608],[166.3657,-22.1619],[166.3634,-22.1613],[166.3649,-22.1643],[166.3675,-22.1649],[166.3694,-22.1638],[166.3693,-22.1627],[166.3714,-22.1616],[166.3737,-22.161],[166.3735,-22.1603]]]},"properties":{"id_ffco":"2018-D98-151","nom":"RIVLAND","_dept":"98","numero":"2018-D98-151","commune":"PAITA Nouvelle Calédonie","echelle":"1/5000","surface":"0.41 km²","format":"A4","annee":"2018","cartographes":"Marian COTIRTA","proprietaire":"9802 - ATLAS","niveau":"Départemental","specialite":"CO à pied","latitude":"-22.1613140643","longitude":"166.368559526","date_saisie":"03/09/2018","date_depot":"03/12/2018","valide":"Oui","ppo":"Non","type_carte":"Nouvelle carte","fond":"Ortho","obsolete":false}},{"type":"Feature","geometry":{"type":"Polygon","coordinates":[[[166.4876,-22.2344],[166.4864,-22.2364],[166.4841,-22.2374],[166.4826,-22.2386],[166.4815,-22.2403],[166.4802,-22.2433],[166.4791,-22.2428],[166.4794,-22.2407],[166.4782,-22.2399],[166.4792,-22.2379],[166.48,-22.2368],[166.4817,-22.2358],[166.4833,-22.2362],[166.4834,-22.2348],[166.4867,-22.2348],[166.4876,-22.2344]]]},"properties":{"id_ffco":"2018-D98-150","nom":"COMPLEXE SPORTIF MERIGNAC - TINA","_dept":"98","numero":"2018-D98-150","commune":"NOUMEA Nouvelle Caédonie","echelle":"1/5000","surface":"0.32 km²","format":"A4","annee":"2018","cartographes":"Marian COTIRTA","proprietaire":"9802 - ATLAS","niveau":"Départemental","specialite":"CO à pied","latitude":"-22.2380999453","longitude":"166.481969087","date_saisie":"01/10/2018","date_depot":"03/12/2018","valide":"Oui","ppo":"Non","type_carte":"Nouvelle carte","fond":"Ortho","obsolete":false}},{"type":"Feature","geometry":{"type":"Polygon","coordinates":[[[166.097,-21.9551],[166.0888,-21.9528],[166.0882,-21.9558],[166.0899,-21.9566],[166.0893,-21.9579],[166.0825,-21.9567],[166.0826,-21.9608],[166.0893,-21.9611],[166.0897,-21.964],[166.0827,-21.9748],[166.0757,-21.975],[166.0751,-21.9769],[166.0764,-21.9774],[166.0732,-21.983],[166.075,-21.9851],[166.0749,-21.9875],[166.0777,-21.9884],[166.0794,-21.988],[166.0809,-21.9859],[166.0831,-21.9871],[166.0856,-21.9856],[166.0846,-21.9828],[166.0915,-21.9805],[166.0936,-21.9805],[166.095,-21.9777],[166.0955,-21.9736],[166.0957,-21.9696],[166.095,-21.968],[166.0991,-21.9645],[166.1009,-21.9651],[166.102,-21.9632],[166.0974,-21.9617],[166.0935,-21.9594],[166.0943,-21.9574],[166.097,-21.9566],[166.097,-21.9551]]]},"properties":{"id_ffco":"2018-D98-149","nom":"PARSEVAL","_dept":"98","numero":"2018-D98-149","commune":"BOULOUPARIS Nouvelle-Calédonie","echelle":"1/10000","surface":"4.55 km²","format":"A3","annee":"2018","cartographes":"Marian COTIRTA","proprietaire":"9802 - ATLAS","niveau":"Départemental","specialite":"CO à pied","latitude":"-21.9720099506","longitude":"166.087365377","date_saisie":"10/11/2018","date_depot":"03/12/2018","valide":"Oui","ppo":"Non","type_carte":"Nouvelle carte","fond":"Ortho","obsolete":false}},{"type":"Feature","geometry":{"type":"Polygon","coordinates":[[[165.1585,-21.3532],[165.1587,-21.3545],[165.1583,-21.357],[165.1567,-21.3572],[165.1562,-21.3563],[165.1562,-21.3544],[165.1558,-21.3538],[165.1556,-21.3531],[165.1561,-21.3529],[165.1583,-21.353],[165.1585,-21.3532]]]},"properties":{"id_ffco":"2018-D98-148","nom":"COLLEGE VOUDJO POYA","_dept":"98","numero":"2018-D98-148","commune":"POYA","echelle":"1/2000","surface":"0.11 km²","format":"A4","annee":"2018","cartographes":"Ariel LLAMBRICH","proprietaire":"9802 - ATLAS","niveau":"Initiation, Scolaire","specialite":"CO à pied","latitude":"-21.3548865329","longitude":"165.157304257","date_saisie":"11/11/2018","date_depot":"03/12/2018","valide":"Oui","ppo":"Non","type_carte":"Nouvelle carte","fond":"Ortho","obsolete":false}},{"type":"Feature","geometry":{"type":"Polygon","coordinates":[[[166.4668,-22.263],[166.4681,-22.2628],[166.4692,-22.2638],[166.4689,-22.2646],[166.4686,-22.2667],[166.4667,-22.2668],[166.4666,-22.2655],[166.4669,-22.2644],[166.4668,-22.263]]]},"properties":{"id_ffco":"2018-D98-147","nom":"NUMA DALY","_dept":"98","numero":"2018-D98-147","commune":"NOUMEA Nouvelle-Calédonie","echelle":"1/2000","surface":"0.09 km²","format":"A4","annee":"2018","cartographes":"Ariel Llambrich","proprietaire":"9802 - ATLAS","niveau":"Départemental","specialite":"CO à pied","latitude":"-22.264853803","longitude":"166.467787663","date_saisie":"18/11/2018","date_depot":"03/12/2018","valide":"Oui","ppo":"Non","type_carte":"Nouvelle carte","fond":"Ortho","obsolete":false}},{"type":"Feature","geometry":{"type":"Polygon","coordinates":[[[166.4675,-22.2161],[166.4683,-22.216],[166.4688,-22.2165],[166.4696,-22.2164],[166.4705,-22.2158],[166.4717,-22.2156],[166.4722,-22.2166],[166.4717,-22.2169],[166.4717,-22.2172],[166.471,-22.218],[166.4699,-22.2185],[166.4685,-22.2171],[166.4675,-22.2164],[166.4675,-22.2161]]]},"properties":{"id_ffco":"2018-D98-146","nom":"COMPLEXE SPORTIF KOUTIO","_dept":"98","numero":"2018-D98-146","commune":"DUMBEA Nouvelle-Calédonie","echelle":"1/1500","surface":"0.08 km²","format":"A4","annee":"2018","cartographes":"Ariel Llambrich","proprietaire":"9802 - ATLAS","niveau":"Initiation, Scolaire","specialite":"CO à pied","latitude":"-22.2169372822","longitude":"166.470137095","date_saisie":"18/11/2018","date_depot":"03/12/2018","valide":"Oui","ppo":"Non","type_carte":"Nouvelle carte","fond":"Ortho","obsolete":false}},{"type":"Feature","geometry":{"type":"Polygon","coordinates":[[[166.399,-22.2646],[166.3982,-22.266],[166.3987,-22.2665],[166.3978,-22.2687],[166.3967,-22.2675],[166.3964,-22.2672],[166.3943,-22.2659],[166.3957,-22.264],[166.3965,-22.2645],[166.3971,-22.2641],[166.398,-22.2641],[166.399,-22.2646]]]},"properties":{"id_ffco":"2018-D98-145","nom":"NOUVILLE","_dept":"98","numero":"2018-D98-145","commune":"NOUMEA Nouvelle-Calédonie","echelle":"1/2000","surface":"0.14 km²","format":"A4","annee":"2018","cartographes":"Ariel Llambrich","proprietaire":"9802 - ATLAS","niveau":"Départemental","specialite":"CO à pied","latitude":"-22.2659080804","longitude":"166.396892232","date_saisie":"18/11/2018","date_depot":"03/12/2018","valide":"Oui","ppo":"Non","type_carte":"Nouvelle carte","fond":"Cadastre","obsolete":false}},{"type":"Feature","geometry":{"type":"Polygon","coordinates":[[[166.4487,-22.1564],[166.4473,-22.1565],[166.4452,-22.1573],[166.4446,-22.1579],[166.4446,-22.1589],[166.4449,-22.1594],[166.4454,-22.1592],[166.4463,-22.1588],[166.4479,-22.1585],[166.4489,-22.1586],[166.4493,-22.1588],[166.4495,-22.1603],[166.45,-22.1601],[166.4506,-22.1607],[166.4509,-22.1605],[166.4487,-22.1564]]]},"properties":{"id_ffco":"2018-D98-144","nom":"PARC FAYARD","_dept":"98","numero":"2018-D98-144","commune":"DUMBEA Nouvelle-Calédonie","echelle":"1/2500","surface":"0.12 km²","format":"A4","annee":"2018","cartographes":"Ariel Llambrich","proprietaire":"9802 - ATLAS","niveau":"Départemental","specialite":"CO à pied","latitude":"-22.1580829567","longitude":"166.447482136","date_saisie":"18/11/2018","date_depot":"03/12/2018","valide":"Oui","ppo":"Non","type_carte":"Nouvelle carte","fond":"Ortho","obsolete":false}},{"type":"Feature","geometry":{"type":"Polygon","coordinates":[[[166.4529,-22.2077],[166.4553,-22.2096],[166.4538,-22.2115],[166.453,-22.2118],[166.4524,-22.212],[166.4515,-22.2118],[166.4509,-22.2122],[166.4509,-22.2126],[166.4505,-22.2125],[166.4499,-22.2112],[166.45,-22.2104],[166.4507,-22.2103],[166.4506,-22.2096],[166.4502,-22.2092],[166.4507,-22.2086],[166.4519,-22.2075],[166.4529,-22.2077]]]},"properties":{"id_ffco":"2018-D98-143","nom":"MEDIPOLE","_dept":"98","numero":"2018-D98-143","commune":"DUMBEA Nouvelle-Calédonie","echelle":"1/2500","surface":"0.19 km²","format":"A4","annee":"2018","cartographes":"Ariel Llambrich","proprietaire":"9802 - ATLAS","niveau":"Départemental","specialite":"CO à pied","latitude":"-22.2099806253","longitude":"166.45233311","date_saisie":"18/11/2018","date_depot":"03/12/2018","valide":"Oui","ppo":"Non","type_carte":"Nouvelle carte","fond":"Ortho","obsolete":false}},{"type":"Feature","geometry":{"type":"Polygon","coordinates":[[[166.48,-22.2423],[166.4805,-22.2424],[166.4803,-22.2431],[166.4801,-22.243],[166.48,-22.2423]]]},"properties":{"id_ffco":"2018-D98-142","nom":"MOH KASIM","_dept":"98","numero":"2018-D98-142","commune":"NOUMEA Nouvelle-Calédonie","echelle":"1/1500","surface":"0.0 km²","format":"A4","annee":"2018","cartographes":"Ariel Llambrich","proprietaire":"9802 - ATLAS","niveau":"O+","specialite":"CO à pied","latitude":"-22.2426266634","longitude":"166.480235605","date_saisie":"17/11/2018","date_depot":"03/12/2018","valide":"Oui","ppo":"Non","type_carte":"Nouvelle carte","fond":"Ortho","obsolete":false}},{"type":"Feature","geometry":{"type":"Polygon","coordinates":[[[166.4574,-22.2864],[166.4546,-22.2871],[166.4544,-22.2886],[166.4538,-22.2887],[166.4545,-22.2907],[166.4551,-22.2914],[166.4553,-22.2924],[166.4545,-22.294],[166.4532,-22.2945],[166.4547,-22.2956],[166.4569,-22.297],[166.4579,-22.2961],[166.4586,-22.2949],[166.4597,-22.293],[166.4594,-22.289],[166.4579,-22.2878],[166.4574,-22.2864]]]},"properties":{"id_ffco":"2017-D98-141","nom":"TUBAND","_dept":"98","numero":"2017-D98-141","commune":"NOUMEA Nouvelle-Calédonie","echelle":"1/4000","surface":"0.49 km²","format":"A4","annee":"2017","cartographes":"Ariel Llambrich","proprietaire":"9802 - ATLAS","niveau":"Départemental","specialite":"CO à pied","latitude":"-22.2915911796","longitude":"166.456791799","date_saisie":"17/11/2018","date_depot":"03/12/2018","valide":"Oui","ppo":"Non","type_carte":"Nouvelle carte","fond":"Ortho","obsolete":false}},{"type":"Feature","geometry":{"type":"Polygon","coordinates":[[[166.4807,-22.244],[166.4808,-22.2466],[166.4794,-22.2475],[166.4794,-22.2484],[166.4802,-22.2503],[166.4832,-22.2524],[166.4838,-22.2525],[166.485,-22.2522],[166.4859,-22.2515],[166.4878,-22.2515],[166.4906,-22.2506],[166.4907,-22.2495],[166.4893,-22.2479],[166.488,-22.2474],[166.4861,-22.2477],[166.4861,-22.2473],[166.487,-22.2468],[166.4867,-22.2461],[166.484,-22.2458],[166.4818,-22.2441],[166.4807,-22.244]]]},"properties":{"id_ffco":"2017-D98-140","nom":"GOLF DE TINA","_dept":"98","numero":"2017-D98-140","commune":"NOUMEA Nouvelle-Calédonie","echelle":"1/5000","surface":"0.64 km²","format":"A4","annee":"2017","cartographes":"Eric CHARLES, Lucie KREWCUN","proprietaire":"9802 - ATLAS","niveau":"Départemental","specialite":"CO à pied","latitude":"-22.2487264459","longitude":"166.484441301","date_saisie":"17/11/2018","date_depot":"03/12/2018","valide":"Oui","ppo":"Non","type_carte":"Nouvelle carte","fond":"Ortho","obsolete":false}},{"type":"Feature","geometry":{"type":"Polygon","coordinates":[[[166.1793,-21.9695],[166.1851,-21.9698],[166.1856,-21.9714],[166.1856,-21.9729],[166.1825,-21.9755],[166.1807,-21.9746],[166.179,-21.9739],[166.1792,-21.972],[166.1781,-21.9705],[166.1793,-21.9695]]]},"properties":{"id_ffco":"2017-D98-139","nom":"COL DE MO","_dept":"98","numero":"2017-D98-139","commune":"BOULOUPARIS Nouvelle-Calédonie","echelle":"1/7500","surface":"0.36 km²","format":"A4","annee":"2017","cartographes":"Eric CHARLES, Lucie KREWCUN","proprietaire":"9802 - ATLAS","niveau":"Départemental","specialite":"CO à pied","latitude":"-21.9720879973","longitude":"166.182035264","date_saisie":"17/11/2018","date_depot":"03/12/2018","valide":"Oui","ppo":"Non","type_carte":"Nouvelle carte","fond":"Ortho","obsolete":false}},{"type":"Feature","geometry":{"type":"Polygon","coordinates":[[[166.7308,-22.1502],[166.7327,-22.1488],[166.7387,-22.1505],[166.7387,-22.1528],[166.7401,-22.1544],[166.7422,-22.1579],[166.7428,-22.1657],[166.7435,-22.1688],[166.7411,-22.1696],[166.7384,-22.1653],[166.7362,-22.1628],[166.7335,-22.1623],[166.7322,-22.159],[166.7324,-22.1551],[166.7303,-22.1521],[166.7308,-22.1502]]]},"properties":{"id_ffco":"2017-D98-138","nom":"OUENAROU PPRB","_dept":"98","numero":"2017-D98-138","commune":"MONT DORE Nouvelle-Calédonie","echelle":"1/10000","surface":"1.64 km²","format":"A4","annee":"2017","cartographes":"Ariel Llambrich, Eric Charles, Lucie Krewcun","proprietaire":"9802 - ATLAS","niveau":"Départemental","specialite":"CO à pied","latitude":"-22.1581580524","longitude":"166.737217584","date_saisie":"17/11/2018","date_depot":"03/12/2018","valide":"Oui","ppo":"Non","type_carte":"Nouvelle carte","fond":"Ortho","obsolete":false}},{"type":"Feature","geometry":{"type":"Polygon","coordinates":[[[166.2186,-22.014],[166.2165,-22.0129],[166.2164,-22.0121],[166.2166,-22.0114],[166.2157,-22.0109],[166.215,-22.0125],[166.2112,-22.0104],[166.2122,-22.0085],[166.2144,-22.0081],[166.2135,-22.0069],[166.219,-22.0053],[166.22,-22.009],[166.2221,-22.0121],[166.222,-22.0126],[166.2234,-22.0137],[166.2275,-22.0186],[166.2283,-22.0196],[166.2273,-22.0205],[166.223,-22.0182],[166.2216,-22.0176],[166.2219,-22.016],[166.2186,-22.014]]]},"properties":{"id_ffco":"2026-D98-1372","nom":"La Tontouta Aéroport","_dept":"98","numero":"2026-D98-1372","commune":"PAITA Nouvelle Calédonie","echelle":"1/4000","surface":"0.91 km²","format":"+","annee":"2026","cartographes":"Pierre Martinez","proprietaire":"NC - Calédonienne","niveau":"Départemental","specialite":"CO à pied","contacts":"Ligue Calédonienne de Course d'orientation, lcco@lagoon.nc","latitude":"-22.0120947904","longitude":"166.219303881","date_saisie":"10/02/2026","valide":"Non","ppo":"Non","type_carte":"Nouvelle carte","fond":"IGN","obsolete":false}},{"type":"Feature","geometry":{"type":"Polygon","coordinates":[[[166.5165,-22.2252],[166.5178,-22.2255],[166.5188,-22.2263],[166.5202,-22.2282],[166.5205,-22.229],[166.5171,-22.23],[166.5153,-22.2293],[166.5161,-22.227],[166.5165,-22.2252]]]},"properties":{"id_ffco":"2020-D98-1371","nom":"BOULARI PPO 2020","_dept":"98","numero":"2020-D98-1371","commune":"MONT DORE Nouvelle Calédonie","echelle":"1/1500","surface":"0.17 km²","format":"A3","annee":"2020","cartographes":"Ariel Llambrich","proprietaire":"9802 - ATLAS","niveau":"Initiation, Scolaire","specialite":"CO à pied","latitude":"-22.227880442","longitude":"166.51770123","date_saisie":"21/07/2020","date_depot":"15/02/2023","valide":"Oui","ppo":"Oui (20 postes)","type_carte":"Reprise","base":"2017-D98-137 BOULARI","fond":"Ortho","obsolete":false}},{"type":"Feature","geometry":{"type":"Polygon","coordinates":[[[166.5141,-22.2271],[166.5158,-22.2274],[166.5165,-22.2253],[166.5178,-22.2256],[166.5197,-22.2277],[166.5203,-22.2285],[166.5203,-22.2291],[166.5177,-22.2301],[166.5155,-22.2302],[166.5146,-22.2286],[166.5135,-22.2282],[166.5141,-22.2271]]]},"properties":{"id_ffco":"2017-D98-137","nom":"BOULARI","_dept":"98","numero":"2017-D98-137","commune":"MONT DORE Nouvelle-Calédonie","echelle":"1/2500","surface":"0.22 km²","format":"A4","annee":"2017","cartographes":"Ariel Llambrich","proprietaire":"9802 - ATLAS","niveau":"Départemental","specialite":"CO à pied","latitude":"-22.2280913969","longitude":"166.517120054","date_saisie":"17/11/2018","date_depot":"03/12/2018","valide":"Oui","ppo":"Non","type_carte":"Nouvelle carte","fond":"Ortho","obsolete":false}},{"type":"Feature","geometry":{"type":"Polygon","coordinates":[[[166.4329,-22.2375],[166.4352,-22.2377],[166.4355,-22.2373],[166.4363,-22.2383],[166.4359,-22.2386],[166.435,-22.2392],[166.4345,-22.2392],[166.4328,-22.2386],[166.4328,-22.2376],[166.4329,-22.2375]]]},"properties":{"id_ffco":"2017-D98-136","nom":"ECOLE GUSTAVE LODS","_dept":"98","numero":"2017-D98-136","commune":"NOUMEA Nouvelle-Calédonie","echelle":"1/1500","surface":"0.05 km²","format":"A4","annee":"2017","cartographes":"Ariel Llambrich","proprietaire":"9802 - ATLAS","niveau":"Initiation, Scolaire","specialite":"CO à pied","latitude":"-22.2382721329","longitude":"166.434453304","date_saisie":"17/11/2018","date_depot":"28/12/2018","valide":"Oui","ppo":"Non","type_carte":"Nouvelle carte","fond":"Ortho","obsolete":false}},{"type":"Feature","geometry":{"type":"Polygon","coordinates":[[[166.225,-21.6178],[166.2259,-21.6186],[166.2258,-21.6207],[166.2271,-21.6206],[166.2271,-21.6199],[166.2286,-21.6196],[166.2292,-21.6192],[166.2294,-21.6186],[166.2295,-21.6169],[166.2264,-21.6173],[166.2253,-21.6177],[166.225,-21.6178]]]},"properties":{"id_ffco":"2017-D98-135","nom":"COLLEGE ROUGE THIO","_dept":"98","numero":"2017-D98-135","commune":"THIO Nouvelle-Calédonie","echelle":"1/2500","surface":"0.12 km²","format":"A4","annee":"2017","cartographes":"Ariel Llambrich","proprietaire":"9802 - ATLAS","niveau":"Initiation, Scolaire","specialite":"CO à pied","latitude":"-21.6185633435","longitude":"166.227428309","date_saisie":"17/11/2018","date_depot":"03/12/2018","valide":"Oui","ppo":"Non","type_carte":"Nouvelle carte","fond":"Ortho","obsolete":false}},{"type":"Feature","geometry":{"type":"Polygon","coordinates":[[[166.4395,-22.279],[166.4404,-22.2836],[166.4393,-22.2838],[166.4381,-22.2838],[166.4369,-22.2829],[166.4357,-22.2828],[166.4347,-22.2842],[166.4339,-22.2841],[166.4329,-22.2842],[166.4324,-22.2838],[166.4323,-22.2829],[166.433,-22.282],[166.435,-22.2807],[166.4371,-22.2796],[166.4395,-22.279]]]},"properties":{"id_ffco":"2017-D98-134","nom":"QUARTIER GRIBEAUVAL","_dept":"98","numero":"2017-D98-134","commune":"NOUMEA Nouvelle-Calédonie","echelle":"1/3000","surface":"0.29 km²","format":"A4","annee":"2017","cartographes":"Eric CHARLES","proprietaire":"9802 - ATLAS","niveau":"Départemental","specialite":"CO à pied","latitude":"-22.2819181981","longitude":"166.436734646","date_saisie":"17/11/2018","date_depot":"03/12/2018","valide":"Oui","ppo":"Non","type_carte":"Nouvelle carte","fond":"Ortho","obsolete":false}},{"type":"Feature","geometry":{"type":"Polygon","coordinates":[[[166.4226,-22.1374],[166.4255,-22.1375],[166.4267,-22.1386],[166.4283,-22.1385],[166.4319,-22.1408],[166.4329,-22.1428],[166.4309,-22.1462],[166.4286,-22.149],[166.4291,-22.152],[166.4259,-22.152],[166.4222,-22.15],[166.4203,-22.1497],[166.4189,-22.1483],[166.4193,-22.1466],[166.4201,-22.1455],[166.4196,-22.1429],[166.4197,-22.1403],[166.4207,-22.1381],[166.4226,-22.1374]]]},"properties":{"id_ffco":"2017-D98-133","nom":"COL DE KATIRAMONA","_dept":"98","numero":"2017-D98-133","commune":"DUMBEA Nouvelle-Calédonie","echelle":"1/7500","surface":"1.63 km²","format":"A4","annee":"2017","cartographes":"Eric CHARLES","proprietaire":"9802 - ATLAS","niveau":"Départemental","specialite":"CO à pied","latitude":"-22.1443752545","longitude":"166.425341699","date_saisie":"16/11/2018","date_depot":"03/12/2018","valide":"Oui","ppo":"Non","type_carte":"Nouvelle carte","fond":"Ortho","obsolete":false}},{"type":"Feature","geometry":{"type":"Polygon","coordinates":[[[165.8229,-21.699],[165.8282,-21.7014],[165.8309,-21.7026],[165.832,-21.7042],[165.8311,-21.7062],[165.8302,-21.7072],[165.83,-21.7086],[165.8279,-21.708],[165.8276,-21.7074],[165.8254,-21.707],[165.8254,-21.7057],[165.8248,-21.7051],[165.8226,-21.7038],[165.8219,-21.7017],[165.8215,-21.6998],[165.8229,-21.699]]]},"properties":{"id_ffco":"2016-D98-132","nom":"Stade Xavier MEDIARA","_dept":"98","numero":"2016-D98-132","commune":"LA FOA Nouvelle-Calédonie","echelle":"1/5000","surface":"0.62 km²","format":"A4","annee":"2016","cartographes":"Ariel Llambrich","proprietaire":"9802 - ATLAS","niveau":"Initiation, Scolaire","specialite":"CO à pied","latitude":"-21.7036642246","longitude":"165.826780044","date_saisie":"16/11/2018","date_depot":"03/12/2018","valide":"Oui","ppo":"Non","type_carte":"Nouvelle carte","fond":"Ortho","obsolete":false}},{"type":"Feature","geometry":{"type":"Polygon","coordinates":[[[164.9246,-21.1009],[164.9285,-21.1056],[164.9295,-21.1056],[164.9317,-21.109],[164.93,-21.1092],[164.9263,-21.1113],[164.92,-21.1135],[164.9187,-21.114],[164.9121,-21.1136],[164.9117,-21.1094],[164.9106,-21.1073],[164.9096,-21.1054],[164.9175,-21.1028],[164.9246,-21.1009]]]},"properties":{"id_ffco":"2016-D98-131","nom":"LYCEE M. ROCARD","_dept":"98","numero":"2016-D98-131","commune":"POUEMBOUT Nouvelle-Calédonie","echelle":"1/10000","surface":"2.08 km²","format":"A4","annee":"2016","cartographes":"Ariel Llambrich","proprietaire":"9802 - ATLAS","niveau":"Initiation, Scolaire","specialite":"CO à pied","latitude":"-21.1077834083","longitude":"164.920042761","date_saisie":"16/11/2018","date_depot":"03/12/2018","valide":"Oui","ppo":"Non","type_carte":"Nouvelle carte","fond":"Ortho","obsolete":false}},{"type":"Feature","geometry":{"type":"Polygon","coordinates":[[[166.4758,-22.3148],[166.4759,-22.3153],[166.4745,-22.3158],[166.4733,-22.3158],[166.4726,-22.3156],[166.4724,-22.3146],[166.4721,-22.3139],[166.4717,-22.3133],[166.4715,-22.3127],[166.4717,-22.3123],[166.4723,-22.3123],[166.473,-22.312],[166.4733,-22.3111],[166.4736,-22.3109],[166.4742,-22.3107],[166.4743,-22.311],[166.4739,-22.3119],[166.4739,-22.3129],[166.4744,-22.3138],[166.4749,-22.3143],[166.4754,-22.3147],[166.4758,-22.3148]]]},"properties":{"id_ffco":"2016-D98-130","nom":"UERE OUEST","_dept":"98","numero":"2016-D98-130","commune":"NOUMEA Nouvelle-Calédonie","echelle":"1/3500","surface":"0.12 km²","format":"A4","annee":"2016","cartographes":"Ariel Llambrich","proprietaire":"9802 - ATLAS","niveau":"Initiation, Scolaire","specialite":"CO à pied","latitude":"-22.3138254194","longitude":"166.473495859","date_saisie":"16/11/2018","date_depot":"03/12/2018","valide":"Oui","ppo":"Non","type_carte":"Nouvelle carte","fond":"Ortho","obsolete":false}},{"type":"Feature","geometry":null,"properties":{"id_ffco":"2000-D98-13","nom":"LES BOIS DU SUD","_dept":"98","numero":"2000-D98-13","commune":"Nouméa","echelle":"1/10000","surface":"2.5 km²","annee":"2000","proprietaire":"9801 - CONVERGENCE","niveau":"Interrégional","specialite":"CO à pied","latitude":"-22.2758","longitude":"166.458","valide":"Non","ppo":"Non","obsolete":false}},{"type":"Feature","geometry":{"type":"Polygon","coordinates":[[[166.4757,-22.315],[166.4764,-22.3148],[166.477,-22.3149],[166.4781,-22.3141],[166.4785,-22.3136],[166.4786,-22.313],[166.479,-22.3128],[166.4795,-22.313],[166.4808,-22.314],[166.4812,-22.3144],[166.4814,-22.3148],[166.4811,-22.3151],[166.4806,-22.3154],[166.4799,-22.3157],[166.479,-22.3157],[166.4787,-22.3154],[166.4783,-22.3152],[166.4779,-22.315],[166.4772,-22.3153],[166.4766,-22.3153],[166.4758,-22.3153],[166.4757,-22.315]]]},"properties":{"id_ffco":"2016-D98-129","nom":"UERE EST","_dept":"98","numero":"2016-D98-129","commune":"NOUMEA Nouvelle-Calédonie","echelle":"1/2500","surface":"0.09 km²","format":"A4","annee":"2016","cartographes":"Ariel Llambrich","proprietaire":"9802 - ATLAS","niveau":"Initiation, Scolaire","specialite":"CO à pied","latitude":"-22.3145032511","longitude":"166.479135879","date_saisie":"16/11/2018","date_depot":"03/12/2018","valide":"Oui","ppo":"Non","type_carte":"Nouvelle carte","fond":"Ortho","obsolete":false}},{"type":"Feature","geometry":{"type":"Polygon","coordinates":[[[166.4005,-22.2614],[166.4026,-22.2613],[166.4054,-22.2612],[166.407,-22.2617],[166.4091,-22.2623],[166.4083,-22.2636],[166.406,-22.264],[166.4025,-22.2651],[166.3995,-22.2632],[166.4005,-22.2614]]]},"properties":{"id_ffco":"2016-D98-128","nom":"UNIVERSITE DE LA NOUVELLE-CALEDONIE","_dept":"98","numero":"2016-D98-128","commune":"NOUMEA Nouvelle-Calédonie","echelle":"1/3000","surface":"0.28 km²","format":"A3","annee":"2016","cartographes":"Ariel Llambrich","proprietaire":"9802 - ATLAS","niveau":"Départemental","specialite":"CO à pied","latitude":"-22.2628830405","longitude":"166.40399066","date_saisie":"16/11/2018","date_depot":"03/12/2018","valide":"Oui","ppo":"Non","type_carte":"Nouvelle carte","fond":"Ortho","obsolete":false}},{"type":"Feature","geometry":{"type":"Polygon","coordinates":[[[166.1277,-21.8909],[166.1322,-21.8877],[166.1311,-21.8823],[166.1298,-21.8797],[166.1287,-21.8774],[166.1301,-21.8757],[166.1327,-21.8759],[166.1369,-21.8742],[166.1382,-21.8716],[166.1405,-21.8718],[166.1429,-21.8751],[166.1432,-21.8782],[166.1434,-21.8813],[166.1456,-21.8825],[166.1463,-21.8868],[166.1423,-21.8896],[166.1401,-21.8904],[166.1359,-21.8887],[166.1329,-21.8927],[166.1293,-21.8944],[166.128,-21.8927],[166.1277,-21.8909]]]},"properties":{"id_ffco":"2016-D98-127","nom":"OUENGHI EST","_dept":"98","numero":"2016-D98-127","commune":"BOULOUPARIS Nouvelle-Calédonie","echelle":"1/10000","surface":"2.68 km²","format":"A4","annee":"2016","cartographes":"Marian COTIRTA","proprietaire":"9802 - ATLAS","niveau":"Départemental","specialite":"CO à pied","latitude":"-21.8827298909","longitude":"166.13707697","date_saisie":"15/11/2018","date_depot":"03/12/2018","valide":"Oui","ppo":"Non","type_carte":"Nouvelle carte","fond":"Ortho","obsolete":false}},{"type":"Feature","geometry":{"type":"Polygon","coordinates":[[[166.949,-22.2532],[166.9462,-22.2578],[166.9456,-22.2701],[166.9478,-22.2718],[166.9543,-22.2731],[166.9587,-22.2779],[166.9613,-22.2801],[166.9658,-22.2778],[166.9676,-22.2754],[166.9667,-22.2685],[166.9587,-22.2591],[166.9528,-22.2534],[166.949,-22.2532]]]},"properties":{"id_ffco":"2016-D98-126","nom":"PLAINE DES LACS","_dept":"98","numero":"2016-D98-126","commune":"YATE Nouvelle-Calédonie","echelle":"1/15000","surface":"4.04 km²","format":"A4","annee":"2016","cartographes":"Marian COTIRTA","proprietaire":"9802 - ATLAS","niveau":"Départemental","specialite":"CO à pied","latitude":"-22.2666986982","longitude":"166.955926694","date_saisie":"15/11/2018","date_depot":"03/12/2018","valide":"Oui","ppo":"Non","type_carte":"Nouvelle carte","fond":"Ortho","obsolete":false}},{"type":"Feature","geometry":{"type":"Polygon","coordinates":[[[166.4507,-22.3083],[166.4501,-22.3076],[166.4507,-22.3075],[166.4511,-22.3075],[166.4514,-22.3077],[166.4515,-22.308],[166.4511,-22.3084],[166.4507,-22.3083]]]},"properties":{"id_ffco":"2018-D98-125","nom":"PARC GEORGES GUERLAIN","_dept":"98","numero":"2018-D98-125","commune":"NOUMEA Nouvelle-Calédonie","echelle":"1/500","surface":"0.01 km²","format":"A4","annee":"2018","cartographes":"Ariel Llambrich","proprietaire":"9802 - ATLAS","niveau":"Initiation, Scolaire","specialite":"CO à pied","latitude":"-22.3078716955","longitude":"166.450860059","date_saisie":"15/11/2018","date_depot":"03/12/2018","valide":"Oui","ppo":"Non","type_carte":"Nouvelle carte","fond":"Ortho","obsolete":false}},{"type":"Feature","geometry":{"type":"Polygon","coordinates":[[[166.8154,-22.2867],[166.8163,-22.2825],[166.8188,-22.2824],[166.8216,-22.2844],[166.8263,-22.2927],[166.8269,-22.296],[166.8212,-22.2984],[166.8207,-22.3022],[166.816,-22.3008],[166.8131,-22.3022],[166.8079,-22.304],[166.8056,-22.3033],[166.8044,-22.3044],[166.8017,-22.2995],[166.7992,-22.2977],[166.8,-22.2951],[166.8027,-22.2932],[166.8058,-22.2881],[166.8092,-22.2905],[166.8101,-22.2902],[166.8116,-22.2887],[166.8139,-22.2892],[166.8154,-22.2889],[166.8154,-22.2867]]]},"properties":{"id_ffco":"2016-D98-124","nom":"RIVIERE BLEUE - PRONY","_dept":"98","numero":"2016-D98-124","commune":"MONT DORE Nouvelle-Calédonie","echelle":"1/10000","surface":"3.86 km²","format":"A4","annee":"2016","cartographes":"Marian COTIRTA","proprietaire":"9802 - ATLAS","niveau":"Départemental","specialite":"CO à pied","latitude":"-22.2945094258","longitude":"166.813593069","date_saisie":"15/11/2018","date_depot":"03/12/2018","valide":"Oui","ppo":"Non","type_carte":"Nouvelle carte","fond":"Ortho","obsolete":false}},{"type":"Feature","geometry":{"type":"Polygon","coordinates":[[[165.3345,-21.5785],[165.343,-21.5806],[165.3479,-21.5807],[165.3503,-21.5816],[165.3539,-21.5815],[165.3618,-21.5838],[165.3627,-21.5869],[165.3578,-21.5966],[165.3499,-21.595],[165.3432,-21.5942],[165.3389,-21.5911],[165.3344,-21.5887],[165.3324,-21.5878],[165.3345,-21.5785]]]},"properties":{"id_ffco":"2018-D98-123","nom":"MARAIS FOURNIER","_dept":"98","numero":"2018-D98-123","commune":"BOURAIL Nouvelle-Calédonie","echelle":"1/12500","surface":"4.07 km²","format":"A4","annee":"2018","cartographes":"Marian COTIRTA","proprietaire":"9802 - ATLAS","niveau":"Départemental","specialite":"CO à pied","latitude":"-21.5873772973","longitude":"165.347758428","date_saisie":"15/11/2018","date_depot":"03/12/2018","valide":"Oui","ppo":"Non","type_carte":"Nouvelle carte","fond":"Ortho","obsolete":false}},{"type":"Feature","geometry":{"type":"Polygon","coordinates":[[[165.3688,-21.584],[165.3774,-21.5828],[165.3821,-21.5798],[165.3816,-21.5773],[165.3768,-21.5767],[165.3731,-21.5771],[165.3712,-21.5744],[165.3716,-21.5699],[165.3664,-21.5683],[165.3631,-21.5674],[165.3597,-21.5708],[165.3585,-21.5732],[165.3592,-21.5774],[165.3603,-21.5798],[165.3654,-21.5837],[165.3688,-21.584]]]},"properties":{"id_ffco":"2016-D98-122","nom":"NO BOUAOU","_dept":"98","numero":"2016-D98-122","commune":"BOURAIL Nouvelle-Calédonie","echelle":"1/10000","surface":"2.61 km²","format":"A4","annee":"2016","cartographes":"Marian COTIRTA","proprietaire":"9802 - ATLAS","niveau":"Départemental","specialite":"CO à pied","latitude":"-21.5767462196","longitude":"165.368297354","date_saisie":"15/11/2018","date_depot":"03/12/2018","valide":"Oui","ppo":"Non","type_carte":"Nouvelle carte","fond":"Ortho","obsolete":false}},{"type":"Feature","geometry":{"type":"Polygon","coordinates":[[[165.4746,-21.5399],[165.4742,-21.5333],[165.4777,-21.5328],[165.4805,-21.5316],[165.4812,-21.5337],[165.4812,-21.5363],[165.4825,-21.5388],[165.4813,-21.54],[165.4786,-21.5412],[165.4746,-21.5399]]]},"properties":{"id_ffco":"2016-D98-121","nom":"FERME DE NEMEARA","_dept":"98","numero":"2016-D98-121","commune":"BOURAIL Nouvelle-Calédonie","echelle":"1/7500","surface":"0.64 km²","format":"A4","annee":"2016","cartographes":"Marian COTIRTA","proprietaire":"9802 - ATLAS","niveau":"Départemental","specialite":"CO à pied","latitude":"-21.5366633941","longitude":"165.478102165","date_saisie":"15/11/2018","date_depot":"04/12/2018","valide":"Oui","ppo":"Non","type_carte":"Nouvelle carte","fond":"Ortho","obsolete":false}},{"type":"Feature","geometry":{"type":"Polygon","coordinates":[[[166.4424,-22.1273],[166.4428,-22.1245],[166.4422,-22.1243],[166.4422,-22.1262],[166.4416,-22.1273],[166.4424,-22.1273]]]},"properties":{"id_ffco":"2016-D98-120","nom":"VAL FLEURY","_dept":"98","numero":"2016-D98-120","commune":"DUMBEA Nouvelle-Calédonie","echelle":"1/3000","surface":"0.02 km²","format":"A4","annee":"2016","cartographes":"Marian COTIRTA","proprietaire":"9802 - ATLAS","niveau":"Initiation, Scolaire","specialite":"CO à pied","latitude":"-22.1259075869","longitude":"166.442314689","date_saisie":"15/11/2018","date_depot":"04/12/2018","valide":"Oui","ppo":"Non","type_carte":"Nouvelle carte","fond":"Ortho","obsolete":false}},{"type":"Feature","geometry":null,"properties":{"id_ffco":"1999-D98-12","nom":"NOUMEA- ANSEVATA","_dept":"98","numero":"1999-D98-12","commune":"Nouméa","echelle":"1/4000","surface":"1.0 km²","annee":"1999","proprietaire":"9801 - CONVERGENCE","niveau":"Interrégional","specialite":"CO à pied","latitude":"-22.2758","longitude":"166.458","valide":"Non","ppo":"Non","obsolete":false}},{"type":"Feature","geometry":{"type":"Polygon","coordinates":[[[166.5085,-22.214],[166.524,-22.2154],[166.5243,-22.2203],[166.5345,-22.2257],[166.5337,-22.2293],[166.53,-22.2315],[166.528,-22.2342],[166.5251,-22.2329],[166.5186,-22.2302],[166.5138,-22.2311],[166.5078,-22.2338],[166.5038,-22.2303],[166.5027,-22.2283],[166.505,-22.225],[166.505,-22.2179],[166.5085,-22.214]]]},"properties":{"id_ffco":"2016-D98-119","nom":"MONT DORE","_dept":"98","numero":"2016-D98-119","commune":"MONT DORE Nouvelle-Calédonie","echelle":"1/7500","surface":"4.79 km²","format":"A3","annee":"2016","cartographes":"Ariel Llambrich","proprietaire":"9802 - ATLAS","niveau":"Départemental","specialite":"CO à pied","latitude":"-22.2243171031","longitude":"166.517218734","date_saisie":"15/11/2018","date_depot":"04/12/2018","valide":"Oui","ppo":"Non","type_carte":"Nouvelle carte","fond":"Ortho","obsolete":false}},{"type":"Feature","geometry":{"type":"Polygon","coordinates":[[[166.4396,-22.2707],[166.4434,-22.2704],[166.4435,-22.2715],[166.4398,-22.2718],[166.4396,-22.2707]]]},"properties":{"id_ffco":"2016-D98-117","nom":"PLACE DES COCOTIERS","_dept":"98","numero":"2016-D98-117","commune":"NOUMEA Nouvelle-Calédonie","echelle":"1/1500","surface":"0.05 km²","format":"A4","annee":"2016","cartographes":"Ariel Llambrich","proprietaire":"9802 - ATLAS","niveau":"Initiation, Scolaire","specialite":"CO à pied","latitude":"-22.2711091333","longitude":"166.441589529","date_saisie":"14/11/2018","date_depot":"04/12/2018","valide":"Oui","ppo":"Non","type_carte":"Nouvelle carte","fond":"Ortho","obsolete":false}},{"type":"Feature","geometry":{"type":"Polygon","coordinates":[[[166.3054,-22.0538],[166.3034,-22.0535],[166.3032,-22.0514],[166.3039,-22.0499],[166.3056,-22.0488],[166.307,-22.0489],[166.3078,-22.0496],[166.3086,-22.0502],[166.3096,-22.0503],[166.3105,-22.0504],[166.3115,-22.0486],[166.3127,-22.0486],[166.3132,-22.0501],[166.3127,-22.0511],[166.3124,-22.0525],[166.3109,-22.0543],[166.3097,-22.0551],[166.3087,-22.0533],[166.3074,-22.0534],[166.3056,-22.0534],[166.3054,-22.0538]]]},"properties":{"id_ffco":"2016-D98-116","nom":"LA TAMOA","_dept":"98","numero":"2016-D98-116","commune":"PAITA Nouvelle-Calédonie","echelle":"1/5000","surface":"0.45 km²","format":"A4","annee":"2016","cartographes":"Ariel Llambrich","proprietaire":"9802 - ATLAS","niveau":"Départemental","specialite":"CO à pied","latitude":"-22.0515467319","longitude":"166.308149765","date_saisie":"14/11/2018","date_depot":"04/12/2018","valide":"Oui","ppo":"Non","type_carte":"Nouvelle carte","fond":"Ortho","obsolete":false}},{"type":"Feature","geometry":{"type":"Polygon","coordinates":[[[166.7388,-22.1506],[166.7329,-22.1488],[166.7311,-22.1505],[166.7301,-22.1528],[166.7338,-22.1549],[166.7349,-22.1558],[166.7346,-22.1579],[166.7356,-22.16],[166.7354,-22.1628],[166.7389,-22.1653],[166.7408,-22.1642],[166.7416,-22.1617],[166.7426,-22.16],[166.7411,-22.1554],[166.7386,-22.1525],[166.7388,-22.1506]]]},"properties":{"id_ffco":"2015-D98-115","nom":"OUENAROU GR NC1","_dept":"98","numero":"2015-D98-115","commune":"MONT DORE Nouvelle-Calédonie","echelle":"1/7500","surface":"1.18 km²","format":"A4","annee":"2015","cartographes":"Ariel Llambrich","proprietaire":"9802 - ATLAS","niveau":"Départemental","specialite":"CO à pied","latitude":"-22.1565977033","longitude":"166.737101098","date_saisie":"14/11/2018","date_depot":"04/12/2018","valide":"Oui","ppo":"Non","type_carte":"Nouvelle carte","fond":"Ortho","obsolete":false}},{"type":"Feature","geometry":{"type":"Polygon","coordinates":[[[166.1137,-21.8893],[166.1151,-21.8857],[166.1177,-21.8844],[166.1216,-21.8868],[166.1296,-21.8881],[166.1309,-21.8892],[166.1198,-21.8917],[166.118,-21.8916],[166.1137,-21.8893]]]},"properties":{"id_ffco":"2015-D98-114","nom":"GOLF DE LA OUENGHI","_dept":"98","numero":"2015-D98-114","commune":"BOULOUPARIS Nouvelle-Calédonie","echelle":"1/6000","surface":"0.74 km²","format":"A4","annee":"2015","cartographes":"Marian COTIRTA","proprietaire":"9802 - ATLAS","niveau":"Départemental","specialite":"CO à pied","latitude":"-21.8885230865","longitude":"166.120656616","date_saisie":"14/11/2018","date_depot":"04/12/2018","valide":"Oui","ppo":"Non","type_carte":"Nouvelle carte","fond":"Ortho","obsolete":false}},{"type":"Feature","geometry":{"type":"Polygon","coordinates":[[[166.0763,-21.8937],[166.0752,-21.8957],[166.0754,-21.9029],[166.0761,-21.905],[166.0789,-21.9064],[166.0794,-21.9083],[166.0784,-21.9109],[166.0808,-21.913],[166.0839,-21.9125],[166.0866,-21.9108],[166.0871,-21.9086],[166.0879,-21.9051],[166.0835,-21.9026],[166.0807,-21.8988],[166.0794,-21.8968],[166.0763,-21.8937]]]},"properties":{"id_ffco":"2015-D98-113","nom":"DEAMA","_dept":"98","numero":"2015-D98-113","commune":"BOULOUPARIS Nouvelle-Calédonie","echelle":"1/7500","surface":"1.46 km²","format":"A4","annee":"2015","cartographes":"Marian COTIRTA","proprietaire":"9802 - ATLAS","niveau":"Départemental","specialite":"CO à pied","latitude":"-21.9045818782","longitude":"166.080897084","date_saisie":"13/11/2018","date_depot":"04/12/2018","valide":"Oui","ppo":"Non","type_carte":"Nouvelle carte","fond":"Ortho","obsolete":false}},{"type":"Feature","geometry":{"type":"Polygon","coordinates":[[[166.8126,-22.2894],[166.8107,-22.2946],[166.8126,-22.2971],[166.8192,-22.2969],[166.8198,-22.2942],[166.8187,-22.2906],[166.8162,-22.2894],[166.8126,-22.2894]]]},"properties":{"id_ffco":"2015-D98-112","nom":"LA CARRIERE","_dept":"98","numero":"2015-D98-112","commune":"MONT DORE Nouvelle-Calédonie","echelle":"1/5000","surface":"0.65 km²","format":"A4","annee":"2015","cartographes":"Marian COTIRTA","proprietaire":"9802 - ATLAS","niveau":"Départemental","specialite":"CO à pied","latitude":"-22.2934418597","longitude":"166.815365365","date_saisie":"13/11/2018","date_depot":"04/12/2018","valide":"Oui","ppo":"Non","type_carte":"Nouvelle carte","fond":"Ortho","obsolete":false}},{"type":"Feature","geometry":{"type":"Polygon","coordinates":[[[166.7304,-22.1501],[166.7323,-22.1484],[166.7389,-22.1491],[166.7381,-22.1525],[166.7403,-22.1543],[166.7402,-22.1552],[166.7353,-22.1558],[166.7348,-22.1543],[166.7328,-22.1552],[166.7319,-22.1534],[166.7313,-22.1524],[166.7297,-22.1528],[166.7295,-22.1515],[166.7304,-22.1501]]]},"properties":{"id_ffco":"2015-D98-111","nom":"STATION FORESTIERE OUENAROU","_dept":"98","numero":"2015-D98-111","commune":"YATE Nouvelle-Calédonie","echelle":"1/5000","surface":"0.59 km²","format":"A4","annee":"2015","cartographes":"Ariel Llambrich","proprietaire":"9802 - ATLAS","niveau":"Départemental","specialite":"CO à pied","latitude":"-22.1519944583","longitude":"166.734981302","date_saisie":"13/11/2018","date_depot":"04/12/2018","valide":"Oui","ppo":"Non","type_carte":"Nouvelle carte","fond":"Ortho","obsolete":false}},{"type":"Feature","geometry":{"type":"Polygon","coordinates":[[[165.3705,-21.6002],[165.3725,-21.6018],[165.3716,-21.6041],[165.3675,-21.6027],[165.3702,-21.6001],[165.3705,-21.6002]]]},"properties":{"id_ffco":"2015-D98-110","nom":"CAP POE","_dept":"98","numero":"2015-D98-110","commune":"BOURAIL Nouvelle-Calédonie","echelle":"1/2000","surface":"0.12 km²","format":"A4","annee":"2015","cartographes":"Ariel Llambrich","proprietaire":"9802 - ATLAS","niveau":"Initiation, Scolaire","specialite":"CO à pied","latitude":"-21.6022082208","longitude":"165.370300677","date_saisie":"13/11/2018","date_depot":"04/12/2018","valide":"Oui","ppo":"Non","type_carte":"Nouvelle carte","fond":"Ortho","obsolete":false}},{"type":"Feature","geometry":null,"properties":{"id_ffco":"1999-D98-11","nom":"BANGOU - NOUVELLE CALEDONIE","_dept":"98","numero":"1999-D98-11","commune":"La Tontouta","echelle":"1/10000","surface":"2.14 km²","annee":"1999","proprietaire":"9801 - CONVERGENCE","niveau":"Interrégional","specialite":"CO à pied","valide":"Non","ppo":"Non","obsolete":false}},{"type":"Feature","geometry":{"type":"Polygon","coordinates":[[[166.9469,-22.2705],[166.9544,-22.2699],[166.9593,-22.2714],[166.9619,-22.2709],[166.9611,-22.2634],[166.9592,-22.2587],[166.9563,-22.2565],[166.9505,-22.2582],[166.9477,-22.2604],[166.9469,-22.2705]]]},"properties":{"id_ffco":"2015-D98-109","nom":"LE TROU","_dept":"98","numero":"2015-D98-109","commune":"MONT DORE Nouvelle-Calédonie","echelle":"1/10000","surface":"1.93 km²","format":"A4","annee":"2015","cartographes":"Marian COTIRTA","proprietaire":"9802 - ATLAS","niveau":"Départemental","specialite":"CO à pied","latitude":"-22.2644863216","longitude":"166.954373536","date_saisie":"13/11/2018","date_depot":"04/12/2018","valide":"Oui","ppo":"Non","type_carte":"Nouvelle carte","fond":"Ortho","obsolete":false}},{"type":"Feature","geometry":{"type":"Polygon","coordinates":[[[166.2565,-22.0629],[166.2577,-22.0599],[166.2561,-22.057],[166.2548,-22.0546],[166.2528,-22.0526],[166.254,-22.049],[166.2555,-22.0453],[166.2549,-22.0451],[166.2503,-22.0474],[166.2495,-22.0504],[166.2464,-22.0513],[166.245,-22.0525],[166.2447,-22.0536],[166.2491,-22.0571],[166.2521,-22.061],[166.2541,-22.0625],[166.2565,-22.0629]]]},"properties":{"id_ffco":"2015-D98-108","nom":"BANGOU RT1","_dept":"98","numero":"2015-D98-108","commune":"PAITA Nouvelle-Calédonie","echelle":"1/8000","surface":"1.16 km²","format":"A4","annee":"2015","cartographes":"Marian COTIRTA","proprietaire":"9802 - ATLAS","niveau":"Départemental","specialite":"CO à pied","latitude":"-22.0546428695","longitude":"166.251862497","date_saisie":"13/11/2018","date_depot":"04/12/2018","valide":"Oui","ppo":"Non","type_carte":"Nouvelle carte","base":"1995-D98-03 NOSOE","fond":"Ortho","obsolete":false}},{"type":"Feature","geometry":{"type":"Polygon","coordinates":[[[166.6449,-22.2837],[166.6444,-22.2844],[166.6454,-22.2851],[166.6464,-22.2863],[166.6476,-22.2858],[166.6449,-22.2837]]]},"properties":{"id_ffco":"2015-D98-107","nom":"PARC DE CARCASSONNE","_dept":"98","numero":"2015-D98-107","commune":"MONT DORE Nouvelle-Calédonie","echelle":"1/1500","surface":"0.03 km²","format":"A4","annee":"2015","cartographes":"Ariel Llambrich","proprietaire":"9802 - ATLAS","niveau":"Initiation, Scolaire","specialite":"CO à pied","latitude":"-22.2850906269","longitude":"166.645923068","date_saisie":"13/11/2018","date_depot":"04/12/2018","valide":"Oui","ppo":"Non","type_carte":"Nouvelle carte","fond":"Ortho","obsolete":false}},{"type":"Feature","geometry":{"type":"Polygon","coordinates":[[[166.5761,-22.2339],[166.5811,-22.2347],[166.5828,-22.2357],[166.5816,-22.2365],[166.5784,-22.2362],[166.5762,-22.2351],[166.5761,-22.2339]]]},"properties":{"id_ffco":"2015-D98-106","nom":"PARC DE LA COULEE","_dept":"98","numero":"2015-D98-106","commune":"MONT DORE Nouvelle-Calédonie","echelle":"1/2500","surface":"0.12 km²","format":"A4","annee":"2015","cartographes":"Ariel Llambrich","proprietaire":"9802 - ATLAS","niveau":"Initiation, Scolaire","specialite":"CO à pied","latitude":"-22.2352689014","longitude":"166.579270024","date_saisie":"13/11/2018","date_depot":"04/12/2018","valide":"Oui","ppo":"Non","type_carte":"Nouvelle carte","fond":"Ortho","obsolete":false}},{"type":"Feature","geometry":{"type":"Polygon","coordinates":[[[166.4449,-22.2875],[166.4519,-22.2893],[166.4543,-22.2868],[166.4581,-22.287],[166.4602,-22.2894],[166.458,-22.3013],[166.4597,-22.3043],[166.4621,-22.3068],[166.4562,-22.3124],[166.4482,-22.312],[166.447,-22.3053],[166.4451,-22.3037],[166.4369,-22.3039],[166.4369,-22.3012],[166.4378,-22.2984],[166.4367,-22.296],[166.438,-22.2927],[166.4385,-22.2895],[166.4419,-22.2879],[166.4449,-22.2875]]]},"properties":{"id_ffco":"2015-D98-105","nom":"NOUMEA SUD","_dept":"98","numero":"2015-D98-105","commune":"NOUMEA Nouvelle-Calédonie","echelle":"1/12500","surface":"5.06 km²","format":"A4","annee":"2015","cartographes":"Ariel Llambrich, Stéphanie Beldjilali","proprietaire":"9802 - ATLAS","niveau":"Départemental","specialite":"CO à pied","latitude":"-22.2986192518","longitude":"166.449657841","date_saisie":"12/11/2018","date_depot":"04/12/2018","valide":"Oui","ppo":"Non","type_carte":"Nouvelle carte","fond":"Ortho","obsolete":false}},{"type":"Feature","geometry":{"type":"Polygon","coordinates":[[[166.82,-22.3082],[166.823,-22.3053],[166.8268,-22.3028],[166.8307,-22.3038],[166.8334,-22.3038],[166.8382,-22.3046],[166.8383,-22.3087],[166.8368,-22.3105],[166.8357,-22.3123],[166.8364,-22.3143],[166.8348,-22.315],[166.8321,-22.3122],[166.827,-22.3103],[166.8206,-22.3096],[166.82,-22.3082]]]},"properties":{"id_ffco":"2015-D98-104","nom":"WHARF DE PRONY","_dept":"98","numero":"2015-D98-104","commune":"MONT DORE Nouvelle-Calédonie","echelle":"1/7500","surface":"1.42 km²","format":"A4","annee":"2015","cartographes":"Ariel Llambrich","proprietaire":"9802 - ATLAS","niveau":"Départemental","specialite":"CO à pied","latitude":"-22.3078410014","longitude":"166.830382071","date_saisie":"12/11/2018","date_depot":"04/12/2018","valide":"Oui","ppo":"Non","type_carte":"Nouvelle carte","fond":"Ortho","obsolete":false}},{"type":"Feature","geometry":{"type":"Polygon","coordinates":[[[166.4664,-22.2726],[166.4681,-22.2733],[166.4685,-22.2738],[166.4684,-22.2741],[166.4661,-22.2741],[166.4662,-22.2728],[166.4664,-22.2726]]]},"properties":{"id_ffco":"2015-D98-103","nom":"ECOLE CHARBONNEAUX","_dept":"98","numero":"2015-D98-103","commune":"NOUMEA Nouvelle-Calédonie","echelle":"1/1000","surface":"0.03 km²","format":"A4","annee":"2015","cartographes":"Ariel Llambrich","proprietaire":"9802 - ATLAS","niveau":"Initiation, Scolaire","specialite":"CO à pied","latitude":"-22.2735129705","longitude":"166.467119399","date_saisie":"12/11/2018","date_depot":"04/12/2018","valide":"Oui","ppo":"Non","type_carte":"Nouvelle carte","fond":"Ortho","obsolete":false}},{"type":"Feature","geometry":{"type":"Polygon","coordinates":[[[166.4509,-22.1429],[166.4498,-22.1451],[166.45,-22.1489],[166.452,-22.152],[166.4511,-22.1528],[166.4518,-22.1539],[166.4548,-22.1525],[166.4571,-22.1521],[166.4596,-22.1526],[166.4583,-22.1443],[166.4566,-22.1426],[166.4541,-22.1426],[166.4523,-22.1441],[166.4509,-22.1429]]]},"properties":{"id_ffco":"2014-D98-102","nom":"GOLF DUMBEA","_dept":"98","numero":"2014-D98-102","commune":"DUMBEA Nouvelle-Calédonie","echelle":"1/6000","surface":"0.91 km²","format":"A4","annee":"2014","cartographes":"Ariel Llambrich","proprietaire":"9802 - ATLAS","niveau":"Départemental","specialite":"CO à pied","latitude":"-22.1479238669","longitude":"166.454556866","date_saisie":"12/11/2018","date_depot":"04/12/2018","valide":"Oui","ppo":"Non","type_carte":"Nouvelle carte","fond":"Ortho","obsolete":false}},{"type":"Feature","geometry":{"type":"Polygon","coordinates":[[[166.6065,-22.2896],[166.6063,-22.2908],[166.608,-22.2906],[166.6098,-22.2908],[166.611,-22.2904],[166.6124,-22.289],[166.6124,-22.2887],[166.6105,-22.2889],[166.6094,-22.2896],[166.6065,-22.2896]]]},"properties":{"id_ffco":"2014-D98-101","nom":"LA CORNICHE","_dept":"98","numero":"2014-D98-101","commune":"MONT DORE Nouvelle Calédonie","echelle":"1/2000","surface":"0.08 km²","format":"A4","annee":"2014","cartographes":"Ariel Llambrich","proprietaire":"9802 - ATLAS","niveau":"Initiation, Scolaire","specialite":"CO à pied","latitude":"-22.2898884812","longitude":"166.60939422","date_saisie":"12/11/2018","date_depot":"04/12/2018","valide":"Oui","ppo":"Non","type_carte":"Nouvelle carte","fond":"Ortho","obsolete":false}},{"type":"Feature","geometry":{"type":"Polygon","coordinates":[[[166.4407,-22.1904],[166.4422,-22.1922],[166.4444,-22.194],[166.4442,-22.1948],[166.4425,-22.1951],[166.4422,-22.1939],[166.4408,-22.1939],[166.4401,-22.1931],[166.4395,-22.1909],[166.4407,-22.1904]]]},"properties":{"id_ffco":"2014-D98-100","nom":"APOGOTI DUMBEA","_dept":"98","numero":"2014-D98-100","commune":"DUMBEA Nouvelle-Calédonie","echelle":"1/2500","surface":"0.12 km²","format":"A4","annee":"2014","cartographes":"Ariel Llambrich","proprietaire":"9802 - ATLAS","niveau":"Initiation, Scolaire","specialite":"CO à pied","latitude":"-22.1928982908","longitude":"166.441738553","date_saisie":"12/11/2018","date_depot":"04/12/2018","valide":"Oui","ppo":"Non","type_carte":"Nouvelle carte","fond":"Ortho","obsolete":false}},{"type":"Feature","geometry":null,"properties":{"id_ffco":"2000-D98-10","nom":"UTIAMBO","_dept":"98","numero":"2000-D98-10","commune":"Boulouparis","echelle":"1/10000","surface":"4.14 km²","annee":"2000","proprietaire":"9801 - CONVERGENCE","niveau":"Interrégional","specialite":"CO à pied","valide":"Non","ppo":"Non","obsolete":false}},{"type":"Feature","geometry":null,"properties":{"id_ffco":"1998-D98-09","nom":"THIO - BALANSA","_dept":"98","numero":"1998-D98-09","commune":"THIO","echelle":"1/10000","surface":"1.5 km²","format":"A4","annee":"1998","cartographes":"Etienne BOUSSER","proprietaire":"9801 - CONVERGENCE","niveau":"Départemental","specialite":"CO à pied","valide":"Non","ppo":"Non","type_carte":"Nouvelle carte","fond":"Ortho","obsolete":false}},{"type":"Feature","geometry":null,"properties":{"id_ffco":"1998-D98-08","nom":"LA CROIX DU SUD","_dept":"98","numero":"1998-D98-08","commune":"NOUMEA","echelle":"1/5000","surface":"1.0 km²","format":"A4","annee":"1998","cartographes":"Ariel Llambrich","proprietaire":"9801 - CONVERGENCE","niveau":"Départemental","specialite":"CO à pied","latitude":"-22.2758","longitude":"166.458","valide":"Non","ppo":"Non","type_carte":"Nouvelle carte","fond":"Ortho","obsolete":false}},{"type":"Feature","geometry":null,"properties":{"id_ffco":"1998-D98-07","nom":"TEREKA","_dept":"98","numero":"1998-D98-07","commune":"NOUMEA","echelle":"1/5000","surface":"1.5 km²","annee":"1998","proprietaire":"9801 - CONVERGENCE","specialite":"CO à pied","latitude":"-22.2758","longitude":"166.458","valide":"Non","ppo":"Non","obsolete":false}},{"type":"Feature","geometry":null,"properties":{"id_ffco":"1996-D98-06","nom":"BANGOU","_dept":"98","numero":"1996-D98-06","commune":"NOUMEA","echelle":"1/15000","surface":"8.0 km²","format":"A4","annee":"1996","cartographes":"Ariel Llambrich","proprietaire":"9801 - CONVERGENCE","niveau":"Interrégional","specialite":"CO à pied","latitude":"-22.2758","longitude":"166.458","valide":"Non","ppo":"Non","type_carte":"Nouvelle carte","fond":"Ortho","obsolete":false}},{"type":"Feature","geometry":null,"properties":{"id_ffco":"2008-D98-052","nom":"Ecole publique - 98815 POUEBO Nouvelle-Calédonie","_dept":"98","numero":"2008-D98-052","commune":"Pouebo","echelle":"1/1000","surface":"0.13 km²","format":"A5","annee":"2008","cartographes":"A Llambrich","proprietaire":"J.S Province nord","niveau":"Initiation, Scolaire","specialite":"CO à pied","date_saisie":"17/11/2009","date_depot":"24/11/2009","valide":"Non","ppo":"Non","obsolete":false}},{"type":"Feature","geometry":null,"properties":{"id_ffco":"2008-D98-051","nom":"Ecole publique - 98821 OUEGOA Nouvelle-Calédonie","_dept":"98","numero":"2008-D98-051","commune":"Ouegoa","echelle":"1/1000","surface":"0.12 km²","format":"A5","annee":"2008","cartographes":"A Llambrich","proprietaire":"J.S Province nord","niveau":"Initiation, Scolaire","specialite":"CO à pied","date_saisie":"17/11/2009","date_depot":"24/11/2009","valide":"Non","ppo":"Non","obsolete":false}},{"type":"Feature","geometry":null,"properties":{"id_ffco":"2008-D98-050","nom":"Ecole publique - 98817 KAALA GOMEN Nouvelle-Calédonie","_dept":"98","numero":"2008-D98-050","commune":"Kaaloa Gomen","echelle":"1/1000","surface":"0.13 km²","format":"A5","annee":"2008","cartographes":"A Llambrich","proprietaire":"J.S Province nord","niveau":"Initiation, Scolaire","specialite":"CO à pied","date_saisie":"17/11/2009","date_depot":"24/11/2009","valide":"Non","ppo":"Non","obsolete":false}},{"type":"Feature","geometry":null,"properties":{"id_ffco":"2008-D98-049","nom":"Ecole publique - 98826 POUM Nouvelle-Calédonie","_dept":"98","numero":"2008-D98-049","commune":"Poum","echelle":"1/1000","surface":"0.07 km²","format":"A5","annee":"2008","cartographes":"A Llambrich","proprietaire":"J.S Province nord","niveau":"Initiation, Scolaire","specialite":"CO à pied","date_saisie":"17/11/2009","date_depot":"24/11/2009","valide":"Non","ppo":"Non","obsolete":false}},{"type":"Feature","geometry":null,"properties":{"id_ffco":"2008-D98-048","nom":"Ecole Candide KOCH","_dept":"98","numero":"2008-D98-048","commune":"Noumea","echelle":"1/1000","surface":"0.12 km²","format":"A5","annee":"2008","cartographes":"A Llambrich","proprietaire":"J.S Province nord","niveau":"Initiation, Scolaire","specialite":"CO à pied","latitude":"-22.2758","longitude":"166.458","date_saisie":"17/11/2009","date_depot":"24/11/2009","valide":"Non","ppo":"Non","obsolete":false}},{"type":"Feature","geometry":null,"properties":{"id_ffco":"2008-D98-047","nom":"Ecole publique - 98850 KOUMAC Nouvelle-Calédonie","_dept":"98","numero":"2008-D98-047","commune":"Koumac","echelle":"1/1000","surface":"0.17 km²","format":"A5","annee":"2008","cartographes":"A Llambrich","proprietaire":"J.S Province nord","niveau":"Initiation, Scolaire","specialite":"CO à pied","date_saisie":"17/11/2009","date_depot":"24/11/2009","valide":"Non","ppo":"Non","obsolete":false}},{"type":"Feature","geometry":null,"properties":{"id_ffco":"2008-D98-046","nom":"Ecole publique de Voh - 98833 Nouvelle-Calédonie","_dept":"98","numero":"2008-D98-046","commune":"Voh","echelle":"1/1000","surface":"0.28 km²","format":"A5","annee":"2008","cartographes":"A Llambrich","proprietaire":"J.S Province nord","niveau":"Initiation, Scolaire","specialite":"CO à pied","latitude":"5.1660547","longitude":"-52.6441492","date_saisie":"17/11/2009","date_depot":"24/11/2009","valide":"Non","ppo":"Non","obsolete":false}},{"type":"Feature","geometry":null,"properties":{"id_ffco":"2008-D98-045","nom":"Ecole Les Flamboyants - 98860 Koné Nouvelle-Calédonie","_dept":"98","numero":"2008-D98-045","commune":"Koné","echelle":"1/1000","surface":"0.14 km²","format":"A5","annee":"2008","cartographes":"A Llambrich","proprietaire":"J.S Province nord","niveau":"Initiation, Scolaire","specialite":"CO à pied","date_saisie":"17/11/2009","date_depot":"24/11/2009","valide":"Non","ppo":"Non","obsolete":false}},{"type":"Feature","geometry":null,"properties":{"id_ffco":"2008-D98-044","nom":"Ecole Antoine Griscelli - 98877 Népoui Nouvelle - Calédonie","_dept":"98","numero":"2008-D98-044","commune":"Népoui","echelle":"1/1000","surface":"0.15 km²","format":"A5","annee":"2008","cartographes":"A Llambrich","proprietaire":"J.S Province nord","niveau":"Initiation, Scolaire","specialite":"CO à pied","date_saisie":"17/11/2009","date_depot":"24/11/2009","valide":"Non","ppo":"Non","obsolete":false}},{"type":"Feature","geometry":null,"properties":{"id_ffco":"2008-D98-043","nom":"Groupe scolaire de Pouembout - 98825 Nouvelle - Calédonie","_dept":"98","numero":"2008-D98-043","commune":"Pouembout","echelle":"1/1000","surface":"0.12 km²","format":"A5","annee":"2008","cartographes":"A Llambrich","niveau":"Initiation, Scolaire","specialite":"CO à pied","date_saisie":"17/11/2009","date_depot":"24/11/2009","valide":"Non","ppo":"Non","obsolete":false}},{"type":"Feature","geometry":null,"properties":{"id_ffco":"2008-D98-042","nom":"Ecole publique de Poindimié","_dept":"98","numero":"2008-D98-042","commune":"Poindimié","echelle":"1/1000","surface":"0.09 km²","format":"A5","annee":"2008","cartographes":"A Llambrich","proprietaire":"J.S Province nord","niveau":"Initiation, Scolaire","specialite":"CO à pied","date_saisie":"17/11/2009","date_depot":"24/11/2009","valide":"Non","ppo":"Non","obsolete":false}},{"type":"Feature","geometry":null,"properties":{"id_ffco":"2008-D98-041","nom":"Ecole Marcel CARLIER - 98827 POYA Nouvelle - Calédonie","_dept":"98","numero":"2008-D98-041","commune":"Poya","echelle":"1/1000","surface":"0.14 km²","format":"A5","annee":"2008","cartographes":"A Llambrich","proprietaire":"J.S Province nord","niveau":"Initiation, Scolaire","specialite":"CO à pied","date_saisie":"17/11/2009","date_depot":"24/11/2009","valide":"Non","ppo":"Non","obsolete":false}},{"type":"Feature","geometry":null,"properties":{"id_ffco":"2008-D98-040","nom":"Parc de Robinson - 98809 Mont Dore Nouvelle - Calédonie","_dept":"98","numero":"2008-D98-040","commune":"Mont Dore","echelle":"1/1500","surface":"0.6 km²","format":"A5","annee":"2008","cartographes":"A Llambrich","proprietaire":"9801 - CONVERGENCE","niveau":"Initiation, Scolaire","specialite":"CO à pied","date_saisie":"17/11/2009","date_depot":"24/11/2009","valide":"Non","ppo":"Non","obsolete":false}},{"type":"Feature","geometry":null,"properties":{"id_ffco":"1995-D98-04","nom":"PARC DE KOUTIO","_dept":"98","numero":"1995-D98-04","commune":"NOUMEA","echelle":"1/2500","surface":"0.2 km²","annee":"1995","cartographes":"Ariel Llambrich","proprietaire":"9801 - CONVERGENCE","specialite":"CO à pied","latitude":"-22.2758","longitude":"166.458","valide":"Non","ppo":"Non","obsolete":false}},{"type":"Feature","geometry":null,"properties":{"id_ffco":"2008-D98-039","nom":"NATETE Est- 98840 TONTOUTA Nouvelle - Calédonie","_dept":"98","numero":"2008-D98-039","commune":"Tontouta","echelle":"1/3000","surface":"1.0 km²","format":"A4","annee":"2008","cartographes":"E Charles","proprietaire":"9801 - CONVERGENCE","niveau":"Régional","specialite":"CO à pied","date_saisie":"17/11/2009","date_depot":"24/11/2009","valide":"Non","ppo":"Non","obsolete":false}},{"type":"Feature","geometry":null,"properties":{"id_ffco":"2008-D98-038","nom":"MAGENTA - 98800 Nouméa Nouvelle - Calédonie","_dept":"98","numero":"2008-D98-038","commune":"Nouméa","echelle":"1/1000","surface":"0.4 km²","format":"A4","annee":"2008","cartographes":"A Llambrich","proprietaire":"9801 - CONVERGENCE","niveau":"Initiation, Scolaire","specialite":"CO à pied","latitude":"-22.2758","longitude":"166.458","date_saisie":"17/11/2009","date_depot":"24/11/2009","valide":"Non","ppo":"Non","obsolete":false}},{"type":"Feature","geometry":null,"properties":{"id_ffco":"2008-D98-037","nom":"Centre d'Accueil Permanent de Poé - 98870 BOURAIL Nouvelle- Calédonie","_dept":"98","numero":"2008-D98-037","commune":"Bourail","echelle":"1/3000","surface":"0.24 km²","format":"A4","annee":"2008","cartographes":"A Llambrich","proprietaire":"J.S Province sud","niveau":"Initiation, Scolaire","specialite":"CO à pied","date_saisie":"17/11/2009","date_depot":"24/11/2009","valide":"Non","ppo":"Non","obsolete":false}},{"type":"Feature","geometry":null,"properties":{"id_ffco":"2008-D98-036","nom":"NATETE - 98840 TONTOUTA","_dept":"98","numero":"2008-D98-036","commune":"Tontouta","echelle":"1/5000","surface":"1.75 km²","format":"A3","annee":"2008","cartographes":"A Llambrich","proprietaire":"9801 - CONVERGENCE","niveau":"Régional","specialite":"CO à pied","date_saisie":"17/11/2009","date_depot":"24/11/2009","valide":"Non","ppo":"Non","obsolete":false}},{"type":"Feature","geometry":null,"properties":{"id_ffco":"2008-D98-035","nom":"LYCEE DU GRAND NOUMEA - 98830 DUMBEA","_dept":"98","numero":"2008-D98-035","commune":"Dumbea","echelle":"1/3000","surface":"0.22 km²","format":"A4","annee":"2008","cartographes":"A Llambrich","proprietaire":"9801 - CONVERGENCE","niveau":"Initiation, Scolaire","specialite":"CO à pied","date_saisie":"17/11/2009","date_depot":"24/11/2009","valide":"Non","ppo":"Non","obsolete":false}},{"type":"Feature","geometry":null,"properties":{"id_ffco":"2007-D98-034","nom":"NEKUNI","_dept":"98","numero":"2007-D98-034","commune":"Nouméa","echelle":"1/10000","surface":"2.4 km²","format":"A4","annee":"2007","cartographes":"D Plockyn","proprietaire":"9801 - CONVERGENCE","specialite":"CO à pied","latitude":"-22.2758","longitude":"166.458","date_saisie":"29/12/2007","date_depot":"22/10/2009","valide":"Non","ppo":"Non","obsolete":false}},{"type":"Feature","geometry":null,"properties":{"id_ffco":"2007-D98-033","nom":"Plaine du Champ de Bataille","_dept":"98","numero":"2007-D98-033","commune":"Nouméa","echelle":"1/10000","surface":"2.41 km²","format":"A4","annee":"2007","cartographes":"A LLambrich, D Plockyn","proprietaire":"9801 - CONVERGENCE","specialite":"CO à pied","latitude":"-22.2758","longitude":"166.458","date_saisie":"29/12/2007","date_depot":"22/10/2009","valide":"Non","ppo":"Non","obsolete":false}},{"type":"Feature","geometry":null,"properties":{"id_ffco":"2007-D98-032","nom":"R.P 3 - Bois Du Sud","_dept":"98","numero":"2007-D98-032","commune":"Nouméa","echelle":"1/7500","surface":"2.06 km²","format":"+","annee":"2007","cartographes":"A LLambrich","proprietaire":"9801 - CONVERGENCE","specialite":"CO à pied","latitude":"-22.2758","longitude":"166.458","date_saisie":"29/12/2007","date_depot":"22/10/2009","valide":"Non","ppo":"Non","obsolete":false}},{"type":"Feature","geometry":null,"properties":{"id_ffco":"2006-D98-030","nom":"Parc De Rivière Salée","_dept":"98","numero":"2006-D98-030","commune":"Nouméa","echelle":"1/2500","surface":"0.2 km²","format":"A4","annee":"2006","cartographes":"A LLambrich","proprietaire":"9801 - CONVERGENCE","specialite":"CO à pied","latitude":"-22.2758","longitude":"166.458","date_saisie":"29/12/2007","date_depot":"22/10/2009","valide":"Non","ppo":"Non","obsolete":false}},{"type":"Feature","geometry":null,"properties":{"id_ffco":"1995-D98-03","nom":"NOSOE","_dept":"98","numero":"1995-D98-03","commune":"NOUMEA","echelle":"1/15000","surface":"4.2 km²","format":"A4","annee":"1995","proprietaire":"9801 - CONVERGENCE","niveau":"Interrégional","specialite":"CO à pied","latitude":"-22.2758","longitude":"166.458","valide":"Non","ppo":"Non","type_carte":"Nouvelle carte","fond":"Ortho","obsolete":false}},{"type":"Feature","geometry":null,"properties":{"id_ffco":"2007-D98-027","nom":"OUEN TORO - Parc Provincial - Nouméa - 98 - Nouvelle Calédonie","_dept":"98","numero":"2007-D98-027","commune":"Nouméa","echelle":"1/5000","surface":"0.84 km²","format":"A4","annee":"2007","cartographes":"D Plockyn","proprietaire":"9801 - CONVERGENCE","niveau":"Initiation, Scolaire","specialite":"CO à pied","latitude":"-22.2758","longitude":"166.458","date_saisie":"21/10/2009","date_depot":"22/10/2009","valide":"Non","ppo":"Non","obsolete":false}},{"type":"Feature","geometry":null,"properties":{"id_ffco":"1994-D98-02","nom":"OUEN TORO","_dept":"98","numero":"1994-D98-02","commune":"NOUMEA","echelle":"1/5000","surface":"0.6 km²","format":"A4","annee":"1994","cartographes":"Ariel Llambrich","proprietaire":"9801 - CONVERGENCE","niveau":"Départemental","specialite":"CO à pied","latitude":"-22.2758","longitude":"166.458","valide":"Non","ppo":"Non","type_carte":"Nouvelle carte","fond":"Ortho","obsolete":false}},{"type":"Feature","geometry":null,"properties":{"id_ffco":"2007-D98-018","nom":"Kuendu Beach - NOUMEA 98800 Nouvelle-Calédonie","_dept":"98","numero":"2007-D98-018","commune":"Nouméa","echelle":"1/10000","surface":"1.7 km²","format":"A4","annee":"2007","cartographes":"D Plockyn","proprietaire":"9801 - CONVERGENCE","niveau":"Initiation, Scolaire","specialite":"CO à pied","latitude":"-22.2758","longitude":"166.458","date_saisie":"21/10/2009","date_depot":"22/10/2009","valide":"Non","ppo":"Non","obsolete":false}}]}