{"type":"FeatureCollection","features":[{"type":"Feature","geometry":null,"properties":{"id_ffco":"1983-D99-58","nom":"SIGMARINGER","_dept":"99","numero":"1983-D99-58","commune":"SIGMARINGER","echelle":"1/15000","surface":"6.4 km²","annee":"1983","niveau":"Interrégional","specialite":"CO à pied","valide":"Non","ppo":"Non","obsolete":true}},{"type":"Feature","geometry":null,"properties":{"id_ffco":"1983-D99-57","nom":"DIE DREI HERRENKOPFE","_dept":"99","numero":"1983-D99-57","commune":"BIRKENFELD","echelle":"1/15000","surface":"5.0 km²","annee":"1983","niveau":"Interrégional","specialite":"CO à pied","valide":"Non","ppo":"Non","obsolete":true}},{"type":"Feature","geometry":null,"properties":{"id_ffco":"1983-D99-55","nom":"AULFINGEN","_dept":"99","numero":"1983-D99-55","commune":"AULFINGEN","echelle":"1/15000","surface":"6.37 km²","annee":"1983","proprietaire":"9908","niveau":"Interrégional","specialite":"CO à pied","valide":"Non","ppo":"Non","obsolete":true}},{"type":"Feature","geometry":null,"properties":{"id_ffco":"1983-D99-54","nom":"SCHELLENBERG","_dept":"99","numero":"1983-D99-54","commune":"WOLTERDINGEN","echelle":"1/15000","surface":"4.25 km²","annee":"1983","proprietaire":"9908","niveau":"Interrégional","specialite":"CO à pied","valide":"Non","ppo":"Non","obsolete":true}},{"type":"Feature","geometry":null,"properties":{"id_ffco":"1983-D99-53","nom":"WIESELSBACH","_dept":"99","numero":"1983-D99-53","commune":"VILLINGEN (RFA)","echelle":"1/15000","surface":"8.5 km²","annee":"1983","proprietaire":"9908","niveau":"Interrégional","specialite":"CO à pied","latitude":"48.0553902","longitude":"8.460072","valide":"Non","ppo":"Non","obsolete":true}},{"type":"Feature","geometry":null,"properties":{"id_ffco":"1983-D99-52","nom":"SCHONWALD","_dept":"99","numero":"1983-D99-52","commune":"TRIBERG","echelle":"1/15000","surface":"9.15 km²","annee":"1983","proprietaire":"9908","niveau":"Interrégional","specialite":"CO à pied","valide":"Non","ppo":"Non","obsolete":true}},{"type":"Feature","geometry":null,"properties":{"id_ffco":"1983-D99-5147","nom":"WEIFWALD","_dept":"99","numero":"1983-D99-5147","commune":"VILLINGEN (RFA)","echelle":"1/15000","surface":"7.75 km²","annee":"1983","proprietaire":"9908","niveau":"Interrégional","specialite":"CO à pied","latitude":"48.0553902","longitude":"8.460072","valide":"Non","ppo":"Non","obsolete":true}},{"type":"Feature","geometry":null,"properties":{"id_ffco":"1990-D99-51","nom":"WARENBERG","_dept":"99","numero":"1990-D99-51","commune":"VILLINGEN (RFA)","echelle":"1/10000","surface":"1.5 km²","annee":"1990","proprietaire":"9908","specialite":"CO à pied","latitude":"48.0553902","longitude":"8.460072","valide":"Non","ppo":"Non","obsolete":true}},{"type":"Feature","geometry":null,"properties":{"id_ffco":"1983-D99-50","nom":"UM DEN SPIELSTEIN","_dept":"99","numero":"1983-D99-50","commune":"KONIGSBACH","echelle":"1/15000","surface":"4.87 km²","annee":"1983","proprietaire":"FF","niveau":"Interrégional","specialite":"CO à pied","latitude":"48.9658613","longitude":"8.6127339","valide":"Non","ppo":"Non","obsolete":true}},{"type":"Feature","geometry":null,"properties":{"id_ffco":"1983-D99-27","nom":"HARDBERG WALD","_dept":"99","numero":"1983-D99-27","commune":"BADEN BADEN","echelle":"1/15000","surface":"7.2 km²","annee":"1983","proprietaire":"FF","niveau":"Interrégional","specialite":"CO à pied","latitude":"40.6350668","longitude":"-80.2281159","valide":"Non","ppo":"Non","obsolete":true}},{"type":"Feature","geometry":null,"properties":{"id_ffco":"1983-D99-26","nom":"KATZENSTHUL","_dept":"99","numero":"1983-D99-26","echelle":"1/15000","surface":"5.7 km²","annee":"1983","proprietaire":"FF","niveau":"Interrégional","specialite":"CO à pied","valide":"Non","ppo":"Non","obsolete":true}},{"type":"Feature","geometry":null,"properties":{"id_ffco":"1983-D99-25","nom":"KOHLERBERG","_dept":"99","numero":"1983-D99-25","echelle":"1/15000","surface":"4.3 km²","annee":"1983","proprietaire":"FF","niveau":"Interrégional","specialite":"CO à pied","valide":"Non","ppo":"Non","obsolete":true}},{"type":"Feature","geometry":null,"properties":{"id_ffco":"1983-D99-24","nom":"HERREN-WALD","_dept":"99","numero":"1983-D99-24","commune":"LANDAU","echelle":"1/15000","surface":"6.3 km²","annee":"1983","proprietaire":"FF","niveau":"Interrégional","specialite":"CO à pied","latitude":"49.193507","longitude":"8.11288","valide":"Non","ppo":"Non","obsolete":true}},{"type":"Feature","geometry":null,"properties":{"id_ffco":"1983-D99-23","nom":"TRIPPSTADT","_dept":"99","numero":"1983-D99-23","commune":"LANDAU","echelle":"1/15000","surface":"6.3 km²","annee":"1983","proprietaire":"FF","niveau":"Interrégional","specialite":"CO à pied","latitude":"49.193507","longitude":"8.11288","valide":"Non","ppo":"Non","obsolete":true}},{"type":"Feature","geometry":null,"properties":{"id_ffco":"1990-D99-22","nom":"JAGDHAUSERWALD","_dept":"99","numero":"1990-D99-22","commune":"BADEN-BADEN","echelle":"1/15000","surface":"3.3 km²","annee":"1990","proprietaire":"FF","specialite":"CO à pied","latitude":"40.6350668","longitude":"-80.2281159","valide":"Non","ppo":"Non","obsolete":true}},{"type":"Feature","geometry":null,"properties":{"id_ffco":"1990-D99-21","nom":"HEIDEGRAB","_dept":"99","numero":"1990-D99-21","commune":"BOMBACH","echelle":"1/15000","surface":"3.3 km²","annee":"1990","proprietaire":"FF","specialite":"CO à pied","valide":"Non","ppo":"Non","obsolete":true}},{"type":"Feature","geometry":null,"properties":{"id_ffco":"1983-D99-20","nom":"PFONDORF-LUSTNAU","_dept":"99","numero":"1983-D99-20","echelle":"1/15000","surface":"7.3 km²","annee":"1983","proprietaire":"9999 - INDIVIDUEL","niveau":"Interrégional","specialite":"CO à pied","valide":"Non","ppo":"Non","obsolete":true}},{"type":"Feature","geometry":null,"properties":{"id_ffco":"1983-D99-19","nom":"EICHWALD","_dept":"99","numero":"1983-D99-19","commune":"MULLHEIM","echelle":"1/15000","surface":"4.9 km²","annee":"1983","proprietaire":"FF","niveau":"Interrégional","specialite":"CO à pied","valide":"Non","ppo":"Non","obsolete":true}},{"type":"Feature","geometry":null,"properties":{"id_ffco":"1983-D99-17","nom":"TRIFELS","_dept":"99","numero":"1983-D99-17","commune":"LANDAU","echelle":"1/15000","surface":"4.3 km²","annee":"1983","proprietaire":"FF","niveau":"Interrégional","specialite":"CO à pied","latitude":"49.193507","longitude":"8.11288","valide":"Non","ppo":"Non","obsolete":true}},{"type":"Feature","geometry":null,"properties":{"id_ffco":"1990-D99-1546","nom":"RAUTSCHKOPF","_dept":"99","numero":"1990-D99-1546","commune":"OFFENBOURG","echelle":"1/15000","surface":"3.2 km²","annee":"1990","proprietaire":"FF","specialite":"CO à pied","valide":"Non","ppo":"Non","obsolete":true}},{"type":"Feature","geometry":null,"properties":{"id_ffco":"1983-D99-15","nom":"RAMMERT","_dept":"99","numero":"1983-D99-15","commune":"ROTTENBURG","echelle":"1/15000","surface":"6.0 km²","annee":"1983","proprietaire":"FF","niveau":"Interrégional","specialite":"CO à pied","latitude":"48.4768873","longitude":"8.9377503","valide":"Non","ppo":"Non","obsolete":true}},{"type":"Feature","geometry":null,"properties":{"id_ffco":"1990-D99-14","nom":"KATHARINABERG","_dept":"99","numero":"1990-D99-14","commune":"VIEUX BRISAC","echelle":"1/15000","surface":"2.4 km²","annee":"1990","proprietaire":"FF","specialite":"CO à pied","valide":"Non","ppo":"Non","obsolete":true}},{"type":"Feature","geometry":null,"properties":{"id_ffco":"1983-D99-13","nom":"SILZ","_dept":"99","numero":"1983-D99-13","commune":"LANDAU","echelle":"1/15000","surface":"4.8 km²","annee":"1983","proprietaire":"9912","niveau":"Interrégional","specialite":"CO à pied","latitude":"49.193507","longitude":"8.11288","valide":"Non","ppo":"Non","obsolete":true}},{"type":"Feature","geometry":null,"properties":{"id_ffco":"1983-D99-11","nom":"WESTHEIM","_dept":"99","numero":"1983-D99-11","commune":"LANDAU","echelle":"1/15000","surface":"4.8 km²","annee":"1983","proprietaire":"9912","niveau":"Interrégional","specialite":"CO à pied","latitude":"49.193507","longitude":"8.11288","valide":"Non","ppo":"Non","obsolete":true}},{"type":"Feature","geometry":null,"properties":{"id_ffco":"1983-D99-10","nom":"HERXHEIM","_dept":"99","numero":"1983-D99-10","commune":"LANDAU","echelle":"1/15000","surface":"4.7 km²","annee":"1983","proprietaire":"9912","niveau":"Interrégional","specialite":"CO à pied","latitude":"49.193507","longitude":"8.11288","valide":"Non","ppo":"Non","obsolete":true}},{"type":"Feature","geometry":null,"properties":{"id_ffco":"1983-D99-07","nom":"FORET DE KANDEL","_dept":"99","numero":"1983-D99-07","commune":"KANDEL","echelle":"1/15000","surface":"5.0 km²","annee":"1983","proprietaire":"FF","niveau":"Interrégional","specialite":"CO à pied","latitude":"49.0818147","longitude":"8.1927362","valide":"Non","ppo":"Non","obsolete":true}},{"type":"Feature","geometry":null,"properties":{"id_ffco":"1983-D99-06","nom":"WESTHEIM","_dept":"99","numero":"1983-D99-06","commune":"LANDAU","echelle":"1/15000","surface":"4.3 km²","annee":"1983","proprietaire":"FF","niveau":"Interrégional","specialite":"CO à pied","latitude":"49.193507","longitude":"8.11288","valide":"Non","ppo":"Non","obsolete":true}},{"type":"Feature","geometry":null,"properties":{"id_ffco":"1976-D99-056","nom":"LEISTBERG 2","_dept":"99","numero":"1976-D99-056","commune":"OBERTHAL","echelle":"1/15000","surface":"6.9 km²","annee":"1976","specialite":"CO à pied","valide":"Non","ppo":"Non","obsolete":true}},{"type":"Feature","geometry":null,"properties":{"id_ffco":"1995-D99-0345","nom":"OLKERSHECK","_dept":"99","numero":"1995-D99-0345","echelle":"1/15000","surface":"0.0 km²","annee":"1995","specialite":"CO à pied","valide":"Non","ppo":"Non","obsolete":true}},{"type":"Feature","geometry":null,"properties":{"id_ffco":"1983-D99-03","nom":"FORET D'OLKERSHECK","_dept":"99","numero":"1983-D99-03","commune":"TREVES","echelle":"1/15000","surface":"4.7 km²","annee":"1983","proprietaire":"FF","niveau":"Interrégional","specialite":"CO à pied","latitude":"49.7537424","longitude":"6.6462511","valide":"Non","ppo":"Non","obsolete":true}},{"type":"Feature","geometry":null,"properties":{"id_ffco":"1990-D99-0244","nom":"OBERSCHOPFHEIM","_dept":"99","numero":"1990-D99-0244","echelle":"1/15000","surface":"2.6 km²","annee":"1990","proprietaire":"FF","specialite":"CO à pied","valide":"Non","ppo":"Non","obsolete":true}},{"type":"Feature","geometry":null,"properties":{"id_ffco":"1983-D99-0243","nom":"DUPPEL - NORD","_dept":"99","numero":"1983-D99-0243","commune":"BERLIN - WANNSEE","echelle":"1/15000","surface":"8.0 km²","annee":"1983","proprietaire":"FF","niveau":"Interrégional","specialite":"CO à pied","latitude":"52.5234051","longitude":"13.4113999","valide":"Non","ppo":"Non","obsolete":true}},{"type":"Feature","geometry":null,"properties":{"id_ffco":"1990-D99-02","nom":"ORDENSWALD","_dept":"99","numero":"1990-D99-02","echelle":"1/7500","surface":"0.9 km²","annee":"1990","proprietaire":"FF","specialite":"CO à pied","valide":"Non","ppo":"Non","obsolete":true}},{"type":"Feature","geometry":null,"properties":{"id_ffco":"1983-D99-01","nom":"PAVILLON DU LAC","_dept":"99","numero":"1983-D99-01","commune":"BERLIN - TEGEL","echelle":"1/15000","surface":"4.0 km²","annee":"1983","proprietaire":"FF","niveau":"Interrégional","specialite":"CO à pied","latitude":"52.5234051","longitude":"13.4113999","valide":"Non","ppo":"Non","obsolete":true}},{"type":"Feature","geometry":null,"properties":{"id_ffco":"1983-D99-0043","nom":"GRUNEWALD","_dept":"99","numero":"1983-D99-0043","commune":"BERLIN","echelle":"1/20000","surface":"12.0 km²","annee":"1983","proprietaire":"FF","niveau":"Interrégional","specialite":"CO à pied","latitude":"52.5234051","longitude":"13.4113999","valide":"Non","ppo":"Non","obsolete":true}},{"type":"Feature","geometry":null,"properties":{"id_ffco":"1983-D99-0042","nom":"HOHFIRST","_dept":"99","numero":"1983-D99-0042","echelle":"1/15000","surface":"3.6 km²","annee":"1983","proprietaire":"FF","niveau":"Interrégional","specialite":"CO à pied","valide":"Non","ppo":"Non","obsolete":true}},{"type":"Feature","geometry":null,"properties":{"id_ffco":"1983-D99-0041","nom":"ZERFER-FORST","_dept":"99","numero":"1983-D99-0041","echelle":"1/25000","surface":"7.5 km²","annee":"1983","proprietaire":"FF","niveau":"Interrégional","specialite":"CO à pied","valide":"Non","ppo":"Non","obsolete":true}},{"type":"Feature","geometry":null,"properties":{"id_ffco":"1983-D99-0040","nom":"LIEL","_dept":"99","numero":"1983-D99-0040","commune":"LIEL","echelle":"1/25000","surface":"7.5 km²","annee":"1983","proprietaire":"FF","niveau":"Interrégional","specialite":"CO à pied","valide":"Non","ppo":"Non","obsolete":true}}]}